[
  {
    "city": "richland springs",
    "state_code": "TX",
    "placeMasterId": "P02500000FsoGpmiCmf6p3joCgbeHIQY5J58VYtq",
    "placeName": "richland springs",
    "state": "TX"
  },
  {
    "city": "houston",
    "state_code": "TX",
    "placeMasterId": "P02500000FsoGmDYGhkgBsigqbJ0pWBK8GcFdEcU",
    "placeName": "houston",
    "state": "TX"
  },
  {
    "city": "houston",
    "state_code": "TX",
    "placeMasterId": "P02500000FsoGmDYGhkgBsigqbJ0pWBK8GcFdEcU",
    "placeName": "houston",
    "state": "TX"
  },
  {
    "city": "houston",
    "state_code": "TX",
    "placeMasterId": "P02500000FsoGmDYGhkgBsigqbJ0pWBK8GcFdEcU",
    "placeName": "houston",
    "state": "TX"
  },
  {
    "city": "houston",
    "state_code": "TX",
    "placeMasterId": "P02500000FsoGmDYGhkgBsigqbJ0pWBK8GcFdEcU",
    "placeName": "houston",
    "state": "TX"
  },
  {
    "city": "houston",
    "state_code": "TX",
    "placeMasterId": "P02500000FsoGmDYGhkgBsigqbJ0pWBK8GcFdEcU",
    "placeName": "houston",
    "state": "TX"
  },
  {
    "city": "montgomery",
    "state_code": "TX",
    "placeMasterId": "P02500000FsoGoMFQkhKyBjMSeUC6BWgBgMiVjHQ",
    "placeName": "montgomery",
    "state": "TX"
  },
  {
    "city": "riverside",
    "state_code": "TX",
    "placeMasterId": "P02500000FsoGpvYgO3gbkL3NUPzhCuir9G7UT0i",
    "placeName": "riverside",
    "state": "TX"
  },
  {
    "city": "conroe",
    "state_code": "TX",
    "placeMasterId": "P02500000FsoGk4r6eo1PZi1EY7pYqpW1YjRM0qs",
    "placeName": "conroe",
    "state": "TX"
  },
  {
    "city": "richmond",
    "state_code": "TX",
    "placeMasterId": "P02500000FsoGpvYgO3gbkL3NUPzhCupLeJr85kQ",
    "placeName": "richmond",
    "state": "TX"
  },
  {
    "city": "louise",
    "state_code": "TX",
    "placeMasterId": "P02500000FsoGne12jiS2kj8adQT0d4svwDwneI2",
    "placeName": "louise",
    "state": "TX"
  },
  {
    "city": "matagorda",
    "state_code": "TX",
    "placeMasterId": "P02500000FsoGnvhzwVbc7vcwF39qS3mw9EDc9hq",
    "placeName": "matagorda",
    "state": "TX"
  },
  {
    "city": "palacios",
    "state_code": "TX",
    "placeMasterId": "P02500000FsoGovdLAHe6w8L9rjZlpUJ0BcNBdEN",
    "placeName": "palacios",
    "state": "TX"
  },
  {
    "city": "beaumont",
    "state_code": "TX",
    "placeMasterId": "P02500000FsoGinEoEEpLOIofJoineQDrbqYiyGU",
    "placeName": "beaumont",
    "state": "TX"
  },
  {
    "city": "hallettsville",
    "state_code": "TX",
    "placeMasterId": "P02500000FsoGln0ptYwpouxKBryZmiFdTjjqmEs",
    "placeName": "hallettsville",
    "state": "TX"
  },
  {
    "city": "shiner",
    "state_code": "TX",
    "placeMasterId": "P02500000FsoGqdn4P2ZXBLHFVTimlMbqUyuYHvH",
    "placeName": "shiner",
    "state": "TX"
  },
  {
    "city": "converse",
    "state_code": "TX",
    "placeMasterId": "P02500000FsoGk4r6eo1PZi1EY7pYqpjbeYKlsBJ",
    "placeName": "converse",
    "state": "TX"
  },
  {
    "city": "new braunfels",
    "state_code": "TX",
    "placeMasterId": "P02500000FsoGoV5uM5uksKbdSIXW616QzJ2t1Z3",
    "placeName": "new braunfels",
    "state": "TX"
  },
  {
    "city": "universal city",
    "state_code": "TX",
    "placeMasterId": "P02500000FsoGrdiPcoc1zXzT8A8i8nBGzYOWncb",
    "placeName": "universal city",
    "state": "TX"
  },
  {
    "city": "san antonio",
    "state_code": "TX",
    "placeMasterId": "P02500000FsoGqM67CFPxo8mttr1wwNqfYQdpCPu",
    "placeName": "san antonio",
    "state": "TX"
  },
  {
    "city": "aransas pass",
    "state_code": "TX",
    "placeMasterId": "P02500000FsoGiVXr1Rfm16KJiC1xpRZf7YQnO71",
    "placeName": "aransas pass",
    "state": "TX"
  },
  {
    "city": "fulton",
    "state_code": "TX",
    "placeMasterId": "P02500000FsoGlVJsglnGRiSyaFHjxjGTgJTq9Ex",
    "placeName": "fulton",
    "state": "TX"
  },
  {
    "city": "sandia",
    "state_code": "TX",
    "placeMasterId": "P02500000FsoGqDFdaqqB7XXj62gX1tgZsF3GgGw",
    "placeName": "sandia",
    "state": "TX"
  },
  {
    "city": "rio grande city",
    "state_code": "TX",
    "placeMasterId": "P02500000FsoGpmiCmf6p3joCgbeHIQbo9MWS6r0",
    "placeName": "rio grande city",
    "state": "TX"
  },
  {
    "city": "dripping springs",
    "state_code": "TX",
    "placeMasterId": "P02500000FsoGkeF14OKYK6zvlNDEUn9ynrYpGf8",
    "placeName": "dripping springs",
    "state": "TX"
  },
  {
    "city": "kingsbury",
    "state_code": "TX",
    "placeMasterId": "P02500000FsoGmmwB7KzKd7fXoYOVA8e1kir4Lcn",
    "placeName": "kingsbury",
    "state": "TX"
  },
  {
    "city": "austin",
    "state_code": "TX",
    "placeMasterId": "P02500000FsoGieOKcqFYhhZUW0NNjvrbzzBh3wR",
    "placeName": "austin",
    "state": "TX"
  },
  {
    "city": "austin",
    "state_code": "TX",
    "placeMasterId": "P02500000FsoGieOKcqFYhhZUW0NNjvrbzzBh3wR",
    "placeName": "austin",
    "state": "TX"
  },
  {
    "city": "austin",
    "state_code": "TX",
    "placeMasterId": "P02500000FsoGieOKcqFYhhZUW0NNjvrbzzBh3wR",
    "placeName": "austin",
    "state": "TX"
  },
  {
    "city": "brackettville",
    "state_code": "TX",
    "placeMasterId": "P02500000FsoGj4vlR1yulVJ0vRPdTP6jZSwMgfe",
    "placeName": "brackettville",
    "state": "TX"
  },
  {
    "city": "catarina",
    "state_code": "TX",
    "placeMasterId": "P02500000FsoGjeJfqcI3VuHi8gnJ7MdzfijgqTu",
    "placeName": "catarina",
    "state": "TX"
  },
  {
    "city": "schulenburg",
    "state_code": "TX",
    "placeMasterId": "P02500000FsoGqM67CFPxo8mttr1wwO6h52u2bdm",
    "placeName": "schulenburg",
    "state": "TX"
  },
  {
    "city": "canadian",
    "state_code": "TX",
    "placeMasterId": "P02500000FsoGjVTCFDiGpJ2XKsRtCs7yk5pWxZI",
    "placeName": "canadian",
    "state": "TX"
  },
  {
    "city": "amarillo",
    "state_code": "TX",
    "placeMasterId": "P02500000FsoGiMhNQ35zKV58uNgXuxIaAeFmU4D",
    "placeName": "amarillo",
    "state": "TX"
  },
  {
    "city": "amarillo",
    "state_code": "TX",
    "placeMasterId": "P02500000FsoGiMhNQ35zKV58uNgXuxIaAeFmU4D",
    "placeName": "amarillo",
    "state": "TX"
  },
  {
    "city": "clyde",
    "state_code": "TX",
    "placeMasterId": "P02500000FsoGjw0d3PRct6m3kJU8wL8NhfzmMOG",
    "placeName": "clyde",
    "state": "TX"
  },
  {
    "city": "denver",
    "state_code": "CO",
    "placeMasterId": "P02500000FsoEmwFjZFziDhEIRiXkIwGQWtD2cc9",
    "placeName": "denver",
    "state": "CO"
  },
  {
    "city": "denver",
    "state_code": "CO",
    "placeMasterId": "P02500000FsoEmwFjZFziDhEIRiXkIwGQWtD2cc9",
    "placeName": "denver",
    "state": "CO"
  },
  {
    "city": "denver",
    "state_code": "CO",
    "placeMasterId": "P02500000FsoEmwFjZFziDhEIRiXkIwGQWtD2cc9",
    "placeName": "denver",
    "state": "CO"
  },
  {
    "city": "denver",
    "state_code": "CO",
    "placeMasterId": "P02500000FsoEmwFjZFziDhEIRiXkIwGQWtD2cc9",
    "placeName": "denver",
    "state": "CO"
  },
  {
    "city": "hot sulphur springs",
    "state_code": "CO",
    "placeMasterId": "P02500000FsoEnVddyqIqy6CzexvPwtkprkKogrq",
    "placeName": "hot sulphur springs",
    "state": "CO"
  },
  {
    "city": "fort collins",
    "state_code": "CO",
    "placeMasterId": "P02500000FsoEnDwgm39Hatie3LEa7uykf00K7tg",
    "placeName": "fort collins",
    "state": "CO"
  },
  {
    "city": "ault",
    "state_code": "CO",
    "placeMasterId": "P02500000FsoEmeYmMSq8qUjwq5quTxS8lZmMiyD",
    "placeName": "ault",
    "state": "CO"
  },
  {
    "city": "brush",
    "state_code": "CO",
    "placeMasterId": "P02500000FsoEmeYmMSq8qUjwq5quTxXw53wT9iD",
    "placeName": "brush",
    "state": "CO"
  },
  {
    "city": "arboles",
    "state_code": "CO",
    "placeMasterId": "P02500000FsoEmViIl4GM9tUm2HVUZT7WzAxxcY8",
    "placeName": "arboles",
    "state": "CO"
  },
  {
    "city": "cotopaxi",
    "state_code": "CO",
    "placeMasterId": "P02500000FsoEmwFjZFziDhEIRiXkIwGhkVJo3qD",
    "placeName": "cotopaxi",
    "state": "CO"
  },
  {
    "city": "dove creek",
    "state_code": "CO",
    "placeMasterId": "P02500000FsoEn56DAeZUuITTFWtADQbK0ZIGE6U",
    "placeName": "dove creek",
    "state": "CO"
  },
  {
    "city": "aspen",
    "state_code": "CO",
    "placeMasterId": "P02500000FsoEmViIl4GM9tUm2HVUZTAqkfu9oNA",
    "placeName": "aspen",
    "state": "CO"
  },
  {
    "city": "rifle",
    "state_code": "CO",
    "placeMasterId": "P02500000FsoEoMiVbDlZ5hg2TpzvPpwgU80hOBS",
    "placeName": "rifle",
    "state": "CO"
  },
  {
    "city": "cheyenne",
    "state_code": "WY",
    "placeMasterId": "P02500000FsoH8lHi0NsGRdMNXbarTZtuWJMmZrv",
    "placeName": "cheyenne",
    "state": "WY"
  },
  {
    "city": "laramie",
    "state_code": "WY",
    "placeMasterId": "P02500000FsoH9KfcPyBPC2L4kqyX7XLdIGzsOAL",
    "placeName": "laramie",
    "state": "WY"
  },
  {
    "city": "wheatland",
    "state_code": "WY",
    "placeMasterId": "P02500000FsoH9u3WpYUXwRJly6MClUkn34B88tH",
    "placeName": "wheatland",
    "state": "WY"
  },
  {
    "city": "sinclair",
    "state_code": "WY",
    "placeMasterId": "P02500000FsoH9cMZclKyZEpQMTfMwW7Zi7n8pjZ",
    "placeName": "sinclair",
    "state": "WY"
  },
  {
    "city": "ten sleep",
    "state_code": "WY",
    "placeMasterId": "P02500000FsoH9lD3E9ulFq4bAI0mr0VRWN9pTfQ",
    "placeName": "ten sleep",
    "state": "WY"
  },
  {
    "city": "hudson",
    "state_code": "WY",
    "placeMasterId": "P02500000FsoH9Bp8oZbcVR5tx2d7D35Fwf5yRhx",
    "placeName": "hudson",
    "state": "WY"
  },
  {
    "city": "mills",
    "state_code": "WY",
    "placeMasterId": "P02500000FsoH9KfcPyBPC2L4kqyX7XO0uMgh51A",
    "placeName": "mills",
    "state": "WY"
  },
  {
    "city": "evanston",
    "state_code": "WY",
    "placeMasterId": "P02500000FsoH92yfDB1popqj9EHhIYWAxStB8wC",
    "placeName": "evanston",
    "state": "WY"
  },
  {
    "city": "clayton",
    "state_code": "ID",
    "placeMasterId": "P02500000FsoF047f3j5xQxkKMQKC80N7Z9FCLRJ",
    "placeName": "clayton",
    "state": "ID"
  },
  {
    "city": "soda springs",
    "state_code": "ID",
    "placeMasterId": "P02500000FsoF1430HV8SFASXz6k7VQy7cSXi6In",
    "placeName": "soda springs",
    "state": "ID"
  },
  {
    "city": "gooding",
    "state_code": "ID",
    "placeMasterId": "P02500000FsoF0LocGWFWoAEfy311wz7CXqb7SVm",
    "placeName": "gooding",
    "state": "ID"
  },
  {
    "city": "island park",
    "state_code": "ID",
    "placeMasterId": "P02500000FsoF0LocGWFWoAEfy311wz9hAxVhC3z",
    "placeName": "island park",
    "state": "ID"
  },
  {
    "city": "grand view",
    "state_code": "ID",
    "placeMasterId": "P02500000FsoF0LocGWFWoAEfy311wz8GHY40OwB",
    "placeName": "grand view",
    "state": "ID"
  },
  {
    "city": "kuna",
    "state_code": "ID",
    "placeMasterId": "P02500000FsoF0Uf5rupJUlTqlrMRrTVUlw43Elu",
    "placeName": "kuna",
    "state": "ID"
  },
  {
    "city": "parma",
    "state_code": "ID",
    "placeMasterId": "P02500000FsoF0dVZTJP6BMj1Zfhrlxsjb8FY9tp",
    "placeName": "parma",
    "state": "ID"
  },
  {
    "city": "boise",
    "state_code": "ID",
    "placeMasterId": "P02500000FsoEzvHBSKWAkMV9YbymDW1T6oUkWas",
    "placeName": "boise",
    "state": "ID"
  },
  {
    "city": "hope",
    "state_code": "ID",
    "placeMasterId": "P02500000FsoF0Uf5rupJUlTqlrMRrTTAeWm8559",
    "placeName": "hope",
    "state": "ID"
  },
  {
    "city": "bluebell",
    "state_code": "UT",
    "placeMasterId": "P02500000FsoGsLwndnUxQYDL9DrnhFFKp6XDbjs",
    "placeName": "bluebell",
    "state": "UT"
  },
  {
    "city": "centerville",
    "state_code": "UT",
    "placeMasterId": "P02500000FsoGsUnHFC4k79SVx2DDbjPd9BPb20S",
    "placeName": "centerville",
    "state": "UT"
  },
  {
    "city": "lehi",
    "state_code": "UT",
    "placeMasterId": "P02500000FsoGtD1fGAxfY9gNy5wJABJNeDy37lw",
    "placeName": "lehi",
    "state": "UT"
  },
  {
    "city": "orem",
    "state_code": "UT",
    "placeMasterId": "P02500000FsoGtUicSy7EvMAjZid8zA55vj6eyu1",
    "placeName": "orem",
    "state": "UT"
  },
  {
    "city": "salt lake city",
    "state_code": "UT",
    "placeMasterId": "P02500000FsoGtmPZflGoIYf5BLJyo8m8TJqdpCK",
    "placeName": "salt lake city",
    "state": "UT"
  },
  {
    "city": "hyrum",
    "state_code": "UT",
    "placeMasterId": "P02500000FsoGt4BBemNsrYRDAHatFgtK3yHA6g1",
    "placeName": "hyrum",
    "state": "UT"
  },
  {
    "city": "bluff",
    "state_code": "UT",
    "placeMasterId": "P02500000FsoGsLwndnUxQYDL9DrnhFERdsvHQ73",
    "placeName": "bluff",
    "state": "UT"
  },
  {
    "city": "green river",
    "state_code": "UT",
    "placeMasterId": "P02500000FsoGsvKi3No6AxC2MTFTLCecujUSDqE",
    "placeName": "green river",
    "state": "UT"
  },
  {
    "city": "moroni",
    "state_code": "UT",
    "placeMasterId": "P02500000FsoGtLs8rZXSEkvYluHj4fsAMEihwQV",
    "placeName": "moroni",
    "state": "UT"
  },
  {
    "city": "antimony",
    "state_code": "UT",
    "placeMasterId": "P02500000FsoGsLwndnUxQYDL9DrnhFAREFv8Fia",
    "placeName": "antimony",
    "state": "UT"
  },
  {
    "city": "cedar city",
    "state_code": "UT",
    "placeMasterId": "P02500000FsoGsUnHFC4k79SVx2DDbjSa6XPNXMk",
    "placeName": "cedar city",
    "state": "UT"
  },
  {
    "city": "central",
    "state_code": "UT",
    "placeMasterId": "P02500000FsoGsUnHFC4k79SVx2DDbjgzSgkQ5NM",
    "placeName": "central",
    "state": "UT"
  },
  {
    "city": "glendale",
    "state_code": "UT",
    "placeMasterId": "P02500000FsoGsvKi3No6AxC2MTFTLCaxShyWYiw",
    "placeName": "glendale",
    "state": "UT"
  },
  {
    "city": "scottsdale",
    "state_code": "AZ",
    "placeMasterId": "P02500000FsoEZoNo4mtT0QiGX0lITs2v218sukG",
    "placeName": "scottsdale",
    "state": "AZ"
  },
  {
    "city": "cibola",
    "state_code": "AZ",
    "placeMasterId": "P02500000FsoEYNv22p7c8QGWUtJ7MyJT0fX4o4X",
    "placeName": "cibola",
    "state": "AZ"
  },
  {
    "city": "dateland",
    "state_code": "AZ",
    "placeMasterId": "P02500000FsoEYWlVeDhOp1VhIheXHSgPZshVtDi",
    "placeName": "dateland",
    "state": "AZ"
  },
  {
    "city": "wellton",
    "state_code": "AZ",
    "placeMasterId": "P02500000FsoEaNliUNCbkpgxkG8y7pVvTjEnlJ9",
    "placeName": "wellton",
    "state": "AZ"
  },
  {
    "city": "yuma",
    "state_code": "AZ",
    "placeMasterId": "P02500000FsoEaNliUNCbkpgxkG8y7pZnvCTjXZi",
    "placeName": "yuma",
    "state": "AZ"
  },
  {
    "city": "bylas",
    "state_code": "AZ",
    "placeMasterId": "P02500000FsoEYF4YRQXpRp1Lh4xhSTzcKyEEJGA",
    "placeName": "bylas",
    "state": "AZ"
  },
  {
    "city": "peridot",
    "state_code": "AZ",
    "placeMasterId": "P02500000FsoEZWgqrzjtdEDuvO4SetHq2KlQHNW",
    "placeName": "peridot",
    "state": "AZ"
  },
  {
    "city": "marana",
    "state_code": "AZ",
    "placeMasterId": "P02500000FsoEZEztfCaKG1jZJlNcpua6gvbxMoT",
    "placeName": "marana",
    "state": "AZ"
  },
  {
    "city": "tucson",
    "state_code": "AZ",
    "placeMasterId": "P02500000FsoEa64lHa32NdCc8dS8IqpdZHyNtyf",
    "placeName": "tucson",
    "state": "AZ"
  },
  {
    "city": "parks",
    "state_code": "AZ",
    "placeMasterId": "P02500000FsoEZNqNGbA6wcyk7Zj2kOvaItAQKv1",
    "placeName": "parks",
    "state": "AZ"
  },
  {
    "city": "prescott",
    "state_code": "AZ",
    "placeMasterId": "P02500000FsoEZWgqrzjtdEDuvO4SetLLT5c7740",
    "placeName": "prescott",
    "state": "AZ"
  },
  {
    "city": "la jara",
    "state_code": "NM",
    "placeMasterId": "P02500000FsoFzHEUomhqCfk51mWU09qOiC571D3",
    "placeName": "la jara",
    "state": "NM"
  },
  {
    "city": "san ysidro",
    "state_code": "NM",
    "placeMasterId": "P02500000FsoG0Q0JdxK7hThTSHHpI4gWKxpwmYV",
    "placeName": "san ysidro",
    "state": "NM"
  },
  {
    "city": "tijeras",
    "state_code": "NM",
    "placeMasterId": "P02500000FsoG0YqnFLtuO4weG5dFCZ5JRJkUlrM",
    "placeName": "tijeras",
    "state": "NM"
  },
  {
    "city": "santa fe",
    "state_code": "NM",
    "placeMasterId": "P02500000FsoG0H9q2YkL0sSIeSwPNaViwlgh893",
    "placeName": "santa fe",
    "state": "NM"
  },
  {
    "city": "alcalde",
    "state_code": "NM",
    "placeMasterId": "P02500000FsoFyHJ9b0fLOT1rP66Ycj8TrEegblq",
    "placeName": "alcalde",
    "state": "NM"
  },
  {
    "city": "lamy",
    "state_code": "NM",
    "placeMasterId": "P02500000FsoFzHEUomhqCfk51mWU09pHRW90UyB",
    "placeName": "lamy",
    "state": "NM"
  },
  {
    "city": "pecos",
    "state_code": "NM",
    "placeMasterId": "P02500000FsoFzqcPEN0yx4imF1u9e7MQiBlZj0S",
    "placeName": "pecos",
    "state": "NM"
  },
  {
    "city": "fort sumner",
    "state_code": "NM",
    "placeMasterId": "P02500000FsoFyzXXbzYGpTFjQ9peBB2q9UYU4sj",
    "placeName": "fort sumner",
    "state": "NM"
  },
  {
    "city": "ruidoso",
    "state_code": "NM",
    "placeMasterId": "P02500000FsoG08JMRAAYKHD7qeazT661Paxyo5N",
    "placeName": "ruidoso",
    "state": "NM"
  },
  {
    "city": "las vegas",
    "state_code": "NV",
    "placeMasterId": "P02500000FsoFuQSGJJ58qFQ9iAmH1VC0RKB5lYR",
    "placeName": "las vegas",
    "state": "NV"
  },
  {
    "city": "las vegas",
    "state_code": "NV",
    "placeMasterId": "P02500000FsoFuQSGJJ58qFQ9iAmH1VC0RKB5lYR",
    "placeName": "las vegas",
    "state": "NV"
  },
  {
    "city": "las vegas",
    "state_code": "NV",
    "placeMasterId": "P02500000FsoFuQSGJJ58qFQ9iAmH1VC0RKB5lYR",
    "placeName": "las vegas",
    "state": "NV"
  },
  {
    "city": "eureka",
    "state_code": "NV",
    "placeMasterId": "P02500000FsoFuHbmhuVM9eAyuMQr70njkxA3tjr",
    "placeName": "eureka",
    "state": "NV"
  },
  {
    "city": "mcgill",
    "state_code": "NV",
    "placeMasterId": "P02500000FsoFuZIjuhevWqfKVz7gvzbdMbxoJwz",
    "placeName": "mcgill",
    "state": "NV"
  },
  {
    "city": "lamoille",
    "state_code": "NV",
    "placeMasterId": "P02500000FsoFuQSGJJ58qFQ9iAmH1VEIfDgBD8m",
    "placeName": "lamoille",
    "state": "NV"
  },
  {
    "city": "wells",
    "state_code": "NV",
    "placeMasterId": "P02500000FsoFuzqAitOHaeOqvQ9wfSYMxRYA3hB",
    "placeName": "wells",
    "state": "NV"
  },
  {
    "city": "los angeles",
    "state_code": "CA",
    "placeMasterId": "P02500000FsoEiEJyfAwnXs9Xvv8xEm0Sp2kcekK",
    "placeName": "los angeles",
    "state": "CA"
  },
  {
    "city": "los angeles",
    "state_code": "CA",
    "placeMasterId": "P02500000FsoEiEJyfAwnXs9Xvv8xEm0Sp2kcekK",
    "placeName": "los angeles",
    "state": "CA"
  },
  {
    "city": "los angeles",
    "state_code": "CA",
    "placeMasterId": "P02500000FsoEiEJyfAwnXs9Xvv8xEm0Sp2kcekK",
    "placeName": "los angeles",
    "state": "CA"
  },
  {
    "city": "los angeles",
    "state_code": "CA",
    "placeMasterId": "P02500000FsoEiEJyfAwnXs9Xvv8xEm0Sp2kcekK",
    "placeName": "los angeles",
    "state": "CA"
  },
  {
    "city": "downey",
    "state_code": "CA",
    "placeMasterId": "P02500000FsoEfnvrPR8RrezaH7GqkReJ1QUtbRf",
    "placeName": "downey",
    "state": "CA"
  },
  {
    "city": "downey",
    "state_code": "CA",
    "placeMasterId": "P02500000FsoEfnvrPR8RrezaH7GqkReJ1QUtbRf",
    "placeName": "downey",
    "state": "CA"
  },
  {
    "city": "torrance",
    "state_code": "CA",
    "placeMasterId": "P02500000FsoElVmxXIDrLgmYPb5ZC2XQh4EoyoQ",
    "placeName": "torrance",
    "state": "CA"
  },
  {
    "city": "lakewood",
    "state_code": "CA",
    "placeMasterId": "P02500000FsoEhnmXqzDRU4Q1WU6hVIqtgOdJfcf",
    "placeName": "lakewood",
    "state": "CA"
  },
  {
    "city": "glendale",
    "state_code": "CA",
    "placeMasterId": "P02500000FsoEgf0j1ob9zGSd5zLMDNrwH2YihSi",
    "placeName": "glendale",
    "state": "CA"
  },
  {
    "city": "pomona",
    "state_code": "CA",
    "placeMasterId": "P02500000FsoEjwThtvsDn55dZfHyAeOtTFhRIMY",
    "placeName": "pomona",
    "state": "CA"
  },
  {
    "city": "national city",
    "state_code": "CA",
    "placeMasterId": "P02500000FsoEj5OqHYPVfTcaknDShi9yN68TfH3",
    "placeName": "national city",
    "state": "CA"
  },
  {
    "city": "oceanside",
    "state_code": "CA",
    "placeMasterId": "P02500000FsoEjEFJswzIM4rlYbYscCbpyMDj1AM",
    "placeName": "oceanside",
    "state": "CA"
  },
  {
    "city": "poway",
    "state_code": "CA",
    "placeMasterId": "P02500000FsoEjwThtvsDn55dZfHyAeRqqHkEBlp",
    "placeName": "poway",
    "state": "CA"
  },
  {
    "city": "san diego",
    "state_code": "CA",
    "placeMasterId": "P02500000FsoEkVrcJWBMXU4KmufdobvSE82FU0j",
    "placeName": "san diego",
    "state": "CA"
  },
  {
    "city": "san diego",
    "state_code": "CA",
    "placeMasterId": "P02500000FsoEkVrcJWBMXU4KmufdobvSE82FU0j",
    "placeName": "san diego",
    "state": "CA"
  },
  {
    "city": "westmorland",
    "state_code": "CA",
    "placeMasterId": "P02500000FsoEm5ArwsX065lFcqTEq01snrZmE1G",
    "placeName": "westmorland",
    "state": "CA"
  },
  {
    "city": "halfway",
    "state_code": "OR",
    "placeMasterId": "P02500000FsoGP6QuzXAyZP2cRl37uoviaRE7mb6",
    "placeName": "halfway",
    "state": "OR"
  },
  {
    "city": "north bend",
    "state_code": "WA",
    "placeMasterId": "P02500000FsoH0UC11OOianAGwVYcdAI5Lzv5YVA",
    "placeName": "north bend",
    "state": "WA"
  },
  {
    "city": "woodinville",
    "state_code": "WA",
    "placeMasterId": "P02500000FsoH1uen3MAZSnc0yd0nk41HMUgq5ec",
    "placeName": "woodinville",
    "state": "WA"
  },
  {
    "city": "buckeystown",
    "state_code": "MD",
    "placeMasterId": "P02500000FsoFTbKUumZVfJPOfVphjPSVoOKJYG7",
    "placeName": "buckeystown",
    "state": "MD"
  },
  {
    "city": "elkton",
    "state_code": "MD",
    "placeMasterId": "P02500000FsoFUAiPKMsePiO5slDNNMpGeDERFfZ",
    "placeName": "elkton",
    "state": "MD"
  },
  {
    "city": "quantico",
    "state_code": "VA",
    "placeMasterId": "P02500000FsoGxCj29H7emyXGSpc0ftiK2GukWR6",
    "placeName": "quantico",
    "state": "VA"
  },
  {
    "city": "vienna",
    "state_code": "VA",
    "placeMasterId": "P02500000FsoGxuxQAG0aDyl8TtL6ELh7dHoOve2",
    "placeName": "vienna",
    "state": "VA"
  },
  {
    "city": "timberville",
    "state_code": "VA",
    "placeMasterId": "P02500000FsoGxm6wYrQnXNVxg4zgJrJ8yUU0Kl4",
    "placeName": "timberville",
    "state": "VA"
  },
  {
    "city": "gloucester point",
    "state_code": "VA",
    "placeMasterId": "P02500000FsoGvmGG7JLnuy5WQi9pZ0BaQTqTqnB",
    "placeName": "gloucester point",
    "state": "VA"
  },
  {
    "city": "mathews",
    "state_code": "VA",
    "placeMasterId": "P02500000FsoGwdL7jgoW2ZYZFaEL1wEF0xQXMrO",
    "placeName": "mathews",
    "state": "VA"
  },
  {
    "city": "williamsburg",
    "state_code": "VA",
    "placeMasterId": "P02500000FsoGy3ntleaMua0JHhgW8pwolUqSiXQ",
    "placeName": "williamsburg",
    "state": "VA"
  },
  {
    "city": "richmond",
    "state_code": "VA",
    "placeMasterId": "P02500000FsoGxLZVkfhRTZmRGdxQaO3uqNoDmKN",
    "placeName": "richmond",
    "state": "VA"
  },
  {
    "city": "richmond",
    "state_code": "VA",
    "placeMasterId": "P02500000FsoGxLZVkfhRTZmRGdxQaO3uqNoDmKN",
    "placeName": "richmond",
    "state": "VA"
  },
  {
    "city": "chesapeake",
    "state_code": "VA",
    "placeMasterId": "P02500000FsoGvCsLhj2fAZ6pDSm9v2VvIJTjAUl",
    "placeName": "chesapeake",
    "state": "VA"
  },
  {
    "city": "mappsville",
    "state_code": "VA",
    "placeMasterId": "P02500000FsoGwUUe8IEjLyJORlsv7Rw5Lwtdkis",
    "placeName": "mappsville",
    "state": "VA"
  },
  {
    "city": "parksley",
    "state_code": "VA",
    "placeMasterId": "P02500000FsoGx3sYXsXs6NI5f1GalPSrqhtKUlQ",
    "placeName": "parksley",
    "state": "VA"
  },
  {
    "city": "windsor",
    "state_code": "VA",
    "placeMasterId": "P02500000FsoGy3ntleaMua0JHhgW8pzTw2hxjAi",
    "placeName": "windsor",
    "state": "VA"
  },
  {
    "city": "dendron",
    "state_code": "VA",
    "placeMasterId": "P02500000FsoGvUZIuWCEXlbAp5Szk1DJvAKenJz",
    "placeName": "dendron",
    "state": "VA"
  },
  {
    "city": "elliston",
    "state_code": "VA",
    "placeMasterId": "P02500000FsoGvdPmVum1EMqLctoPeVbIEgUCIB3",
    "placeName": "elliston",
    "state": "VA"
  },
  {
    "city": "ferrum",
    "state_code": "VA",
    "placeMasterId": "P02500000FsoGvdPmVum1EMqLctoPeViyrQzpnRo",
    "placeName": "ferrum",
    "state": "VA"
  },
  {
    "city": "glade spring",
    "state_code": "VA",
    "placeMasterId": "P02500000FsoGvv6jihvabZKhEWVFTUJn8xpA2Gg",
    "placeName": "glade spring",
    "state": "VA"
  },
  {
    "city": "danville",
    "state_code": "VA",
    "placeMasterId": "P02500000FsoGvLipJ7cRrAM01H7ZpX6Sl98AjYz",
    "placeName": "danville",
    "state": "VA"
  },
  {
    "city": "martinsburg",
    "state_code": "WV",
    "placeMasterId": "P02500000FsoH3CH5TvMdeCoaCw7YwTPfVAGOoKL",
    "placeName": "martinsburg",
    "state": "WV"
  },
  {
    "city": "ranson",
    "state_code": "WV",
    "placeMasterId": "P02500000FsoH3coWI75zi0Y6cN9ofwWEL826X99",
    "placeName": "ranson",
    "state": "WV"
  },
  {
    "city": "hurricane",
    "state_code": "WV",
    "placeMasterId": "P02500000FsoH33QbsWmqxbZPP7m91yyjMzVc8oq",
    "placeName": "hurricane",
    "state": "WV"
  },
  {
    "city": "lesage",
    "state_code": "WV",
    "placeMasterId": "P02500000FsoH33QbsWmqxbZPP7m91z5RmTirzvg",
    "placeName": "lesage",
    "state": "WV"
  },
  {
    "city": "kermit",
    "state_code": "WV",
    "placeMasterId": "P02500000FsoH33QbsWmqxbZPP7m91z0MDNJJCLv",
    "placeName": "kermit",
    "state": "WV"
  },
  {
    "city": "rhodell",
    "state_code": "WV",
    "placeMasterId": "P02500000FsoH3leztVfmObnHQBVEaQmAn3dYXpi",
    "placeName": "rhodell",
    "state": "WV"
  },
  {
    "city": "pickens",
    "state_code": "WV",
    "placeMasterId": "P02500000FsoH3Ty2giWD1PIvoYoOlSDqb01alxD",
    "placeName": "pickens",
    "state": "WV"
  },
  {
    "city": "belington",
    "state_code": "WV",
    "placeMasterId": "P02500000FsoH23VGekkM9OrBmRMDeYPXkI3YQlH",
    "placeName": "belington",
    "state": "WV"
  },
  {
    "city": "valley head",
    "state_code": "WV",
    "placeMasterId": "P02500000FsoH43Lx6IpLloHd1oC4PPZKdk87H1K",
    "placeName": "valley head",
    "state": "WV"
  },
  {
    "city": "bergoo",
    "state_code": "WV",
    "placeMasterId": "P02500000FsoH23VGekkM9OrBmRMDeYUG25tip1Z",
    "placeName": "bergoo",
    "state": "WV"
  },
  {
    "city": "birch river",
    "state_code": "WV",
    "placeMasterId": "P02500000FsoH23VGekkM9OrBmRMDeYYjdOnv9zj",
    "placeName": "birch river",
    "state": "WV"
  },
  {
    "city": "capon bridge",
    "state_code": "WV",
    "placeMasterId": "P02500000FsoH2CLkG9K8q06MaFhdZ2pubs1VF50",
    "placeName": "capon bridge",
    "state": "WV"
  },
  {
    "city": "terra alta",
    "state_code": "WV",
    "placeMasterId": "P02500000FsoH3uVTUuFZ5D2SDzqeUvFXtzD38IB",
    "placeName": "terra alta",
    "state": "WV"
  },
  {
    "city": "mount gilead",
    "state_code": "NC",
    "placeMasterId": "P02500000FsoG8PP3Q9e6B7PERkdEJVaC0ZVRWT5",
    "placeName": "mount gilead",
    "state": "NC"
  },
  {
    "city": "robbins",
    "state_code": "NC",
    "placeMasterId": "P02500000FsoG8ymxpjxEvWNvf00txT98ekOmAVM",
    "placeName": "robbins",
    "state": "NC"
  },
  {
    "city": "angier",
    "state_code": "NC",
    "placeMasterId": "P02500000FsoG5qASZ1FxoJ05z8PhugsSwaGW9HS",
    "placeName": "angier",
    "state": "NC"
  },
  {
    "city": "henderson",
    "state_code": "NC",
    "placeMasterId": "P02500000FsoG7YKBnmBO3VwBcsYiqZGLB24c3Aq",
    "placeName": "henderson",
    "state": "NC"
  },
  {
    "city": "raleigh",
    "state_code": "NC",
    "placeMasterId": "P02500000FsoG8ymxpjxEvWNvf00txSyEKZeGT37",
    "placeName": "raleigh",
    "state": "NC"
  },
  {
    "city": "aulander",
    "state_code": "NC",
    "placeMasterId": "P02500000FsoG5z0wAPpkUuFGmwl7pBMgqgQj9OZ",
    "placeName": "aulander",
    "state": "NC"
  },
  {
    "city": "gaston",
    "state_code": "NC",
    "placeMasterId": "P02500000FsoG7GdEaz1ogJRq1Frt1aerDZEb3Wv",
    "placeName": "gaston",
    "state": "NC"
  },
  {
    "city": "saratoga",
    "state_code": "NC",
    "placeMasterId": "P02500000FsoG9GTv2X6oIisHGchjmRqAcKAIE8w",
    "placeName": "saratoga",
    "state": "NC"
  },
  {
    "city": "woodland",
    "state_code": "NC",
    "placeMasterId": "P02500000FsoGA7YmeuZWQKLK5UmFFNu4fAek2Ww",
    "placeName": "woodland",
    "state": "NC"
  },
  {
    "city": "nags head",
    "state_code": "NC",
    "placeMasterId": "P02500000FsoG8PP3Q9e6B7PERkdEJVcwZHZ6hEs",
    "placeName": "nags head",
    "state": "NC"
  },
  {
    "city": "mount olive",
    "state_code": "NC",
    "placeMasterId": "P02500000FsoG8YFX1YDsriePFYyeDzuXi16bUik",
    "placeName": "mount olive",
    "state": "NC"
  },
  {
    "city": "drexel",
    "state_code": "NC",
    "placeMasterId": "P02500000FsoG6q5nmnIScViJbopdI7W9p74uWfI",
    "placeName": "drexel",
    "state": "NC"
  },
  {
    "city": "rutherford college",
    "state_code": "NC",
    "placeMasterId": "P02500000FsoG9GTv2X6oIisHGchjmRgGgvz3GjY",
    "placeName": "rutherford college",
    "state": "NC"
  },
  {
    "city": "sparta",
    "state_code": "NC",
    "placeMasterId": "P02500000FsoG9PKOdvgazK7S4R39gwAzXaUtqbv",
    "placeName": "sparta",
    "state": "NC"
  },
  {
    "city": "glenville",
    "state_code": "NC",
    "placeMasterId": "P02500000FsoG7GdEaz1ogJRq1Frt1ahMW3xPa7q",
    "placeName": "glenville",
    "state": "NC"
  },
  {
    "city": "asheville",
    "state_code": "NC",
    "placeMasterId": "P02500000FsoG5z0wAPpkUuFGmwl7pBJp7vcNZCo",
    "placeName": "asheville",
    "state": "NC"
  },
  {
    "city": "eastover",
    "state_code": "SC",
    "placeMasterId": "P02500000FsoGbeuw4Py52GZx9DRu5vhV3GvDbTj",
    "placeName": "eastover",
    "state": "SC"
  },
  {
    "city": "jenkinsville",
    "state_code": "SC",
    "placeMasterId": "P02500000FsoGc5SMsbhR64JTYeU9pOn5mue7k6u",
    "placeName": "jenkinsville",
    "state": "SC"
  },
  {
    "city": "columbia",
    "state_code": "SC",
    "placeMasterId": "P02500000FsoGbW4ST1OILfKmLP6UBRJpkapmyqZ",
    "placeName": "columbia",
    "state": "SC"
  },
  {
    "city": "columbia",
    "state_code": "SC",
    "placeMasterId": "P02500000FsoGbW4ST1OILfKmLP6UBRJpkapmyqZ",
    "placeName": "columbia",
    "state": "SC"
  },
  {
    "city": "clinton",
    "state_code": "SC",
    "placeMasterId": "P02500000FsoGbW4ST1OILfKmLP6UBRHANxcSLaC",
    "placeName": "clinton",
    "state": "SC"
  },
  {
    "city": "aynor",
    "state_code": "SC",
    "placeMasterId": "P02500000FsoGbENVGEEiySqQjmPeMSXmsigeU7t",
    "placeName": "aynor",
    "state": "SC"
  },
  {
    "city": "pawleys island",
    "state_code": "SC",
    "placeMasterId": "P02500000FsoGcngktaaMX4XLZiDFNqavpVik26d",
    "placeName": "pawleys island",
    "state": "SC"
  },
  {
    "city": "easley",
    "state_code": "SC",
    "placeMasterId": "P02500000FsoGbeuw4Py52GZx9DRu5vgAUdgxpSO",
    "placeName": "easley",
    "state": "SC"
  },
  {
    "city": "blacksburg",
    "state_code": "SC",
    "placeMasterId": "P02500000FsoGbENVGEEiySqQjmPeMScOqC8p1tI",
    "placeName": "blacksburg",
    "state": "SC"
  },
  {
    "city": "lancaster",
    "state_code": "SC",
    "placeMasterId": "P02500000FsoGc5SMsbhR64JTYeU9pOxq761HrIu",
    "placeName": "lancaster",
    "state": "SC"
  },
  {
    "city": "ulmer",
    "state_code": "SC",
    "placeMasterId": "P02500000FsoGdEEBhmJiasGrz9FV7Jsvi4adS7I",
    "placeName": "ulmer",
    "state": "SC"
  },
  {
    "city": "port royal",
    "state_code": "SC",
    "placeMasterId": "P02500000FsoGcngktaaMX4XLZiDFNqgl800P1MW",
    "placeName": "port royal",
    "state": "SC"
  },
  {
    "city": "decatur",
    "state_code": "GA",
    "placeMasterId": "P02500000FsoEwM7FNQ5XZLNnTJLKRGjUEchrJsh",
    "placeName": "decatur",
    "state": "GA"
  },
  {
    "city": "cumming",
    "state_code": "GA",
    "placeMasterId": "P02500000FsoEwDGlm1Vksk8cfUzuWmLmO7oOlBU",
    "placeName": "cumming",
    "state": "GA"
  },
  {
    "city": "snellville",
    "state_code": "GA",
    "placeMasterId": "P02500000FsoEyLxvoyAXBkoEigBBC7yofzMbd2r",
    "placeName": "snellville",
    "state": "GA"
  },
  {
    "city": "carrollton",
    "state_code": "GA",
    "placeMasterId": "P02500000FsoEvmjKxpmOowP6G3xenJH5N5eI92J",
    "placeName": "carrollton",
    "state": "GA"
  },
  {
    "city": "lithia springs",
    "state_code": "GA",
    "placeMasterId": "P02500000FsoExM2abC82NY615zlFohK254yAdot",
    "placeName": "lithia springs",
    "state": "GA"
  },
  {
    "city": "kennesaw",
    "state_code": "GA",
    "placeMasterId": "P02500000FsoEx4LdOOyT0LbfUN4Pzic9VZcv12O",
    "placeName": "kennesaw",
    "state": "GA"
  },
  {
    "city": "palmetto",
    "state_code": "GA",
    "placeMasterId": "P02500000FsoExma1PNrORLpXVQnVYATXGMMLzra",
    "placeName": "palmetto",
    "state": "GA"
  },
  {
    "city": "union city",
    "state_code": "GA",
    "placeMasterId": "P02500000FsoEymVMd9ttFYXl87DQvb2LUtAOH8Z",
    "placeName": "union city",
    "state": "GA"
  },
  {
    "city": "metter",
    "state_code": "GA",
    "placeMasterId": "P02500000FsoExUt4Cahp49LBto6fjBkU5sz043y",
    "placeName": "metter",
    "state": "GA"
  },
  {
    "city": "cherry log",
    "state_code": "GA",
    "placeMasterId": "P02500000FsoEvvZoZEMBVXeH3sJ4hncJwJpi2B8",
    "placeName": "cherry log",
    "state": "GA"
  },
  {
    "city": "athens",
    "state_code": "GA",
    "placeMasterId": "P02500000FsoEvV2Nl2cpRjukeRGoyKWN5rm3A7X",
    "placeName": "athens",
    "state": "GA"
  },
  {
    "city": "hull",
    "state_code": "GA",
    "placeMasterId": "P02500000FsoEwvV9n0OgJkMUgYj05EFPOz4LdGg",
    "placeName": "hull",
    "state": "GA"
  },
  {
    "city": "union point",
    "state_code": "GA",
    "placeMasterId": "P02500000FsoEydet1lK6YxIaKIs116iKGW7FJpM",
    "placeName": "union point",
    "state": "GA"
  },
  {
    "city": "appling",
    "state_code": "GA",
    "placeMasterId": "P02500000FsoEvV2Nl2cpRjukeRGoyKVcOHU1ebk",
    "placeName": "appling",
    "state": "GA"
  },
  {
    "city": "waynesboro",
    "state_code": "GA",
    "placeMasterId": "P02500000FsoEyvLqEYTfw9mvvvYqq5OsweloFMQ",
    "placeName": "waynesboro",
    "state": "GA"
  },
  {
    "city": "augusta",
    "state_code": "GA",
    "placeMasterId": "P02500000FsoEvV2Nl2cpRjukeRGoyKWGC8vWncN",
    "placeName": "augusta",
    "state": "GA"
  },
  {
    "city": "santa ana",
    "state_code": "CA",
    "placeMasterId": "P02500000FsoEknYZWJKvugYgOXMTdafl2UpxjW2",
    "placeName": "santa ana",
    "state": "CA"
  },
  {
    "city": "tustin",
    "state_code": "CA",
    "placeMasterId": "P02500000FsoElnTuk5NQitGu1DmP11G5gT1sDHd",
    "placeName": "tustin",
    "state": "CA"
  },
  {
    "city": "corcoran",
    "state_code": "CA",
    "placeMasterId": "P02500000FsoEfNOQbFP5nrG3rgEb0yZGfX4RPjZ",
    "placeName": "corcoran",
    "state": "CA"
  },
  {
    "city": "ivanhoe",
    "state_code": "CA",
    "placeMasterId": "P02500000FsoEhNF72nU5QGgV734Rlpi2Hi4C3PO",
    "placeName": "ivanhoe",
    "state": "CA"
  },
  {
    "city": "ahwahnee",
    "state_code": "CA",
    "placeMasterId": "P02500000FsoEdfEhMUTfYeJyDw5a565NYfNuSUY",
    "placeName": "ahwahnee",
    "state": "CA"
  },
  {
    "city": "chualar",
    "state_code": "CA",
    "placeMasterId": "P02500000FsoEf5hTOSFWQeliG3XlBzoe29Cxfg4",
    "placeName": "chualar",
    "state": "CA"
  },
  {
    "city": "belmont",
    "state_code": "CA",
    "placeMasterId": "P02500000FsoEeEcbm4moJ3IfRBTFj3YRj8guW9T",
    "placeName": "belmont",
    "state": "CA"
  },
  {
    "city": "daly city",
    "state_code": "CA",
    "placeMasterId": "P02500000FsoEff5No2YfB3kPTIvQpxFRV9NH26o",
    "placeName": "daly city",
    "state": "CA"
  },
  {
    "city": "half moon bay",
    "state_code": "CA",
    "placeMasterId": "P02500000FsoEgwhgEbkjMSwyhc2C2Maa4tOml9K",
    "placeName": "half moon bay",
    "state": "CA"
  },
  {
    "city": "san francisco",
    "state_code": "CA",
    "placeMasterId": "P02500000FsoEkVrcJWBMXU4KmufdobtfKVREvsP",
    "placeName": "san francisco",
    "state": "CA"
  },
  {
    "city": "alameda",
    "state_code": "CA",
    "placeMasterId": "P02500000FsoEdfEhMUTfYeJyDw5a5638FT0ZpI6",
    "placeName": "alameda",
    "state": "CA"
  },
  {
    "city": "byron",
    "state_code": "CA",
    "placeMasterId": "P02500000FsoEeWJYyrwNgFn12oA5Y2M9Yx9ADNh",
    "placeName": "byron",
    "state": "CA"
  },
  {
    "city": "hercules",
    "state_code": "CA",
    "placeMasterId": "P02500000FsoEh5Y9q0KW34C9VQNbwqxbehR5LIo",
    "placeName": "hercules",
    "state": "CA"
  },
  {
    "city": "dublin",
    "state_code": "CA",
    "placeMasterId": "P02500000FsoEfwmL0piEYGEl4vcGew0Mno6is10",
    "placeName": "dublin",
    "state": "CA"
  },
  {
    "city": "rutherford",
    "state_code": "CA",
    "placeMasterId": "P02500000FsoEkN18i7bZqsp9z6KDu7ZFoqbzhub",
    "placeName": "rutherford",
    "state": "CA"
  },
  {
    "city": "emeryville",
    "state_code": "CA",
    "placeMasterId": "P02500000FsoEgETIDcrnvSj6gYJ6TunDnyCXRBM",
    "placeName": "emeryville",
    "state": "CA"
  },
  {
    "city": "oakland",
    "state_code": "CA",
    "placeMasterId": "P02500000FsoEjN5nULZ52g6wMPuIWgwHJpxtC9b",
    "placeName": "oakland",
    "state": "CA"
  },
  {
    "city": "richmond",
    "state_code": "CA",
    "placeMasterId": "P02500000FsoEk5KBVKS0TgKoNTdO58qCxkwixOm",
    "placeName": "richmond",
    "state": "CA"
  },
  {
    "city": "richmond",
    "state_code": "CA",
    "placeMasterId": "P02500000FsoEk5KBVKS0TgKoNTdO58qCxkwixOm",
    "placeName": "richmond",
    "state": "CA"
  },
  {
    "city": "los gatos",
    "state_code": "CA",
    "placeMasterId": "P02500000FsoEiEJyfAwnXs9Xvv8xEm0ISke9ssX",
    "placeName": "los gatos",
    "state": "CA"
  },
  {
    "city": "san jose",
    "state_code": "CA",
    "placeMasterId": "P02500000FsoEkei5uul9E5JVaj13j6FZZ7utLyF",
    "placeName": "san jose",
    "state": "CA"
  },
  {
    "city": "stockton",
    "state_code": "CA",
    "placeMasterId": "P02500000FsoElE60KV4HyUICnyOjN3mM5drQo04",
    "placeName": "stockton",
    "state": "CA"
  },
  {
    "city": "stockton",
    "state_code": "CA",
    "placeMasterId": "P02500000FsoElE60KV4HyUICnyOjN3mM5drQo04",
    "placeName": "stockton",
    "state": "CA"
  },
  {
    "city": "stockton",
    "state_code": "CA",
    "placeMasterId": "P02500000FsoElE60KV4HyUICnyOjN3mM5drQo04",
    "placeName": "stockton",
    "state": "CA"
  },
  {
    "city": "stockton",
    "state_code": "CA",
    "placeMasterId": "P02500000FsoElE60KV4HyUICnyOjN3mM5drQo04",
    "placeName": "stockton",
    "state": "CA"
  },
  {
    "city": "lodi",
    "state_code": "CA",
    "placeMasterId": "P02500000FsoEi5TV3mN0rGuN86nXKHcFEmwGkS2",
    "placeName": "lodi",
    "state": "CA"
  },
  {
    "city": "mountain ranch",
    "state_code": "CA",
    "placeMasterId": "P02500000FsoEj5OqHYPVfTcaknDShiBFoNpiCSP",
    "placeName": "mountain ranch",
    "state": "CA"
  },
  {
    "city": "stevinson",
    "state_code": "CA",
    "placeMasterId": "P02500000FsoElMwTvte4f5XNbmk9HY8ctzvrRH9",
    "placeName": "stevinson",
    "state": "CA"
  },
  {
    "city": "turlock",
    "state_code": "CA",
    "placeMasterId": "P02500000FsoElnTuk5NQitGu1DmP11ETShT9GzB",
    "placeName": "turlock",
    "state": "CA"
  },
  {
    "city": "boonville",
    "state_code": "CA",
    "placeMasterId": "P02500000FsoEeNT5NTMazeXqEzofdXurQRbXTgs",
    "placeName": "boonville",
    "state": "CA"
  },
  {
    "city": "fulton",
    "state_code": "CA",
    "placeMasterId": "P02500000FsoEgf0j1ob9zGSd5zLMDNsZEd5S9GP",
    "placeName": "fulton",
    "state": "CA"
  },
  {
    "city": "graton",
    "state_code": "CA",
    "placeMasterId": "P02500000FsoEgf0j1ob9zGSd5zLMDNuk31xuuCY",
    "placeName": "graton",
    "state": "CA"
  },
  {
    "city": "redcrest",
    "state_code": "CA",
    "placeMasterId": "P02500000FsoEk5KBVKS0TgKoNTdO58ojLExl6mn",
    "placeName": "redcrest",
    "state": "CA"
  },
  {
    "city": "elk grove",
    "state_code": "CA",
    "placeMasterId": "P02500000FsoEg5cocEI1ErTvsjxgZQMYI7ka412",
    "placeName": "elk grove",
    "state": "CA"
  },
  {
    "city": "sacramento",
    "state_code": "CA",
    "placeMasterId": "P02500000FsoEkVrcJWBMXU4KmufdobsP4JCiDgI",
    "placeName": "sacramento",
    "state": "CA"
  },
  {
    "city": "sacramento",
    "state_code": "CA",
    "placeMasterId": "P02500000FsoEkVrcJWBMXU4KmufdobsP4JCiDgI",
    "placeName": "sacramento",
    "state": "CA"
  },
  {
    "city": "grimes",
    "state_code": "CA",
    "placeMasterId": "P02500000FsoEgwhgEbkjMSwyhc2C2McxrGdsoFx",
    "placeName": "grimes",
    "state": "CA"
  },
  {
    "city": "north san juan",
    "state_code": "CA",
    "placeMasterId": "P02500000FsoEjEFJswzIM4rlYbYscCZYcaAWhrx",
    "placeName": "north san juan",
    "state": "CA"
  },
  {
    "city": "palermo",
    "state_code": "CA",
    "placeMasterId": "P02500000FsoEjVwH5k8rjHM7AEFiRBHQCY2YUo3",
    "placeName": "palermo",
    "state": "CA"
  },
  {
    "city": "taylorsville",
    "state_code": "CA",
    "placeMasterId": "P02500000FsoElVmxXIDrLgmYPb5ZC2UKypBn5oq",
    "placeName": "taylorsville",
    "state": "CA"
  },
  {
    "city": "palo cedro",
    "state_code": "CA",
    "placeMasterId": "P02500000FsoEjemkh8iePsbHy2b8Lfet7K5gYMp",
    "placeName": "palo cedro",
    "state": "CA"
  },
  {
    "city": "shingletown",
    "state_code": "CA",
    "placeMasterId": "P02500000FsoEkwP37huibHnrCLhtY52bFah7C4N",
    "placeName": "shingletown",
    "state": "CA"
  },
  {
    "city": "cedarville",
    "state_code": "CA",
    "placeMasterId": "P02500000FsoEewqzn3fjk3WXSFCLHVRqbXvJ7dS",
    "placeName": "cedarville",
    "state": "CA"
  },
  {
    "city": "floriston",
    "state_code": "CA",
    "placeMasterId": "P02500000FsoEgNJlp1Rac3yHUMeWOP7PO7TFTDg",
    "placeName": "floriston",
    "state": "CA"
  },
  {
    "city": "kapaa",
    "state_code": "HI",
    "placeMasterId": "P02500000FsoEzD2nRLdFJMHHXYFgf4BxMP07PbC",
    "placeName": "kapaa",
    "state": "HI"
  },
  {
    "city": "kihei",
    "state_code": "HI",
    "placeMasterId": "P02500000FsoEzLtH2kD1zxWSLMb6ZYWQb5mEDPB",
    "placeName": "kihei",
    "state": "HI"
  },
  {
    "city": "waianae",
    "state_code": "HI",
    "placeMasterId": "P02500000FsoEzdaEFXMbNA0nwzHwOXLStkC73mL",
    "placeName": "waianae",
    "state": "HI"
  },
  {
    "city": "waipahu",
    "state_code": "HI",
    "placeMasterId": "P02500000FsoEzmQhqvwO3lFykndMJ1gS7OOxYTd",
    "placeName": "waipahu",
    "state": "HI"
  },
  {
    "city": "hubbard",
    "state_code": "OR",
    "placeMasterId": "P02500000FsoGP6QuzXAyZP2cRl37uouaR7J2wvc",
    "placeName": "hubbard",
    "state": "OR"
  },
  {
    "city": "molalla",
    "state_code": "OR",
    "placeMasterId": "P02500000FsoGPWyLniuKdCm8rC5NeI1LfbqlWa5",
    "placeName": "molalla",
    "state": "OR"
  },
  {
    "city": "portland",
    "state_code": "OR",
    "placeMasterId": "P02500000FsoGPfopP7U7Jo1Jf0QnYmTaqhg2Hwh",
    "placeName": "portland",
    "state": "OR"
  },
  {
    "city": "portland",
    "state_code": "OR",
    "placeMasterId": "P02500000FsoGPfopP7U7Jo1Jf0QnYmTaqhg2Hwh",
    "placeName": "portland",
    "state": "OR"
  },
  {
    "city": "brownsville",
    "state_code": "OR",
    "placeMasterId": "P02500000FsoGOOCWyYI38OokQhK2MN8xTnws5GJ",
    "placeName": "brownsville",
    "state": "OR"
  },
  {
    "city": "lebanon",
    "state_code": "OR",
    "placeMasterId": "P02500000FsoGPFHOavklG0HnFZOXpJWyMVpMDrh",
    "placeName": "lebanon",
    "state": "OR"
  },
  {
    "city": "mount angel",
    "state_code": "OR",
    "placeMasterId": "P02500000FsoGPWyLniuKdCm8rC5NeI8p3eTwjLr",
    "placeName": "mount angel",
    "state": "OR"
  },
  {
    "city": "mehama",
    "state_code": "OR",
    "placeMasterId": "P02500000FsoGPO7sCKKXwbWy3Njxjne5oItgo5F",
    "placeName": "mehama",
    "state": "OR"
  },
  {
    "city": "junction city",
    "state_code": "OR",
    "placeMasterId": "P02500000FsoGP6QuzXAyZP2cRl37up547BvSI01",
    "placeName": "junction city",
    "state": "OR"
  },
  {
    "city": "lakeside",
    "state_code": "OR",
    "placeMasterId": "P02500000FsoGPFHOavklG0HnFZOXpJSgOKJ7QOA",
    "placeName": "lakeside",
    "state": "OR"
  },
  {
    "city": "port orford",
    "state_code": "OR",
    "placeMasterId": "P02500000FsoGPfopP7U7Jo1Jf0QnYmd2UI3T2yH",
    "placeName": "port orford",
    "state": "OR"
  },
  {
    "city": "chiloquin",
    "state_code": "OR",
    "placeMasterId": "P02500000FsoGOX30Zwrpp03vEVfSGrYNKUXMIfU",
    "placeName": "chiloquin",
    "state": "OR"
  },
  {
    "city": "new pine creek",
    "state_code": "OR",
    "placeMasterId": "P02500000FsoGPfopP7U7Jo1Jf0QnYmRPSYLo5UR",
    "placeName": "new pine creek",
    "state": "OR"
  },
  {
    "city": "seattle",
    "state_code": "WA",
    "placeMasterId": "P02500000FsoH13ZvQyhrLC8y9kwIH7vOQ9mB44J",
    "placeName": "seattle",
    "state": "WA"
  },
  {
    "city": "snohomish",
    "state_code": "WA",
    "placeMasterId": "P02500000FsoH1CQP2NHe1nO8xZHiBcB8Z313eX7",
    "placeName": "snohomish",
    "state": "WA"
  },
  {
    "city": "forks",
    "state_code": "WA",
    "placeMasterId": "P02500000FsoGzCZiapCePNxhiCRrQl2sm1zqQAM",
    "placeName": "forks",
    "state": "WA"
  },
  {
    "city": "puyallup",
    "state_code": "WA",
    "placeMasterId": "P02500000FsoH0ujRpa84eatnLwasMdN1YTtCRxU",
    "placeName": "puyallup",
    "state": "WA"
  },
  {
    "city": "mooreton",
    "state_code": "ND",
    "placeMasterId": "P02500000FsoGBgs2IGv9yw2EvQZqGmCS1wdDiri",
    "placeName": "mooreton",
    "state": "ND"
  },
  {
    "city": "wahpeton",
    "state_code": "ND",
    "placeMasterId": "P02500000FsoGCP6QJFo5PwG6wUIvpE3bLmZMVWU",
    "placeName": "wahpeton",
    "state": "ND"
  },
  {
    "city": "forest river",
    "state_code": "ND",
    "placeMasterId": "P02500000FsoGApnAftSRrKZC6YVKnps0bfpFEVe",
    "placeName": "forest river",
    "state": "ND"
  },
  {
    "city": "northwood",
    "state_code": "ND",
    "placeMasterId": "P02500000FsoGBpiVtfUwfXHPjEvGBGXZFfdivIN",
    "placeName": "northwood",
    "state": "ND"
  },
  {
    "city": "park river",
    "state_code": "ND",
    "placeMasterId": "P02500000FsoGBpiVtfUwfXHPjEvGBGVsMrxIZYm",
    "placeName": "park river",
    "state": "ND"
  },
  {
    "city": "pisek",
    "state_code": "ND",
    "placeMasterId": "P02500000FsoGByYzV44jM8WaX3Gg5ks7MOFMvsx",
    "placeName": "pisek",
    "state": "ND"
  },
  {
    "city": "sharon",
    "state_code": "ND",
    "placeMasterId": "P02500000FsoGC7PT6SeW2jllKrc60FNLx5Sl8hT",
    "placeName": "sharon",
    "state": "ND"
  },
  {
    "city": "devils lake",
    "state_code": "ND",
    "placeMasterId": "P02500000FsoGAY6DT6IsU84qUvoUyrEd5KwAhB4",
    "placeName": "devils lake",
    "state": "ND"
  },
  {
    "city": "mylo",
    "state_code": "ND",
    "placeMasterId": "P02500000FsoGBpiVtfUwfXHPjEvGBGOqQq6lsjC",
    "placeName": "mylo",
    "state": "ND"
  },
  {
    "city": "fessenden",
    "state_code": "ND",
    "placeMasterId": "P02500000FsoGApnAftSRrKZC6YVKnq0XwwGQn2Z",
    "placeName": "fessenden",
    "state": "ND"
  },
  {
    "city": "streeter",
    "state_code": "ND",
    "placeMasterId": "P02500000FsoGCGFwhrEIjL0w8fxVujYQkAUlWv3",
    "placeName": "streeter",
    "state": "ND"
  },
  {
    "city": "sutton",
    "state_code": "ND",
    "placeMasterId": "P02500000FsoGCGFwhrEIjL0w8fxVujcca2hDtRE",
    "placeName": "sutton",
    "state": "ND"
  },
  {
    "city": "bismarck",
    "state_code": "ND",
    "placeMasterId": "P02500000FsoGAPFjrhj5nWpfh7T54MfqDrJrMoa",
    "placeName": "bismarck",
    "state": "ND"
  },
  {
    "city": "braddock",
    "state_code": "ND",
    "placeMasterId": "P02500000FsoGAPFjrhj5nWpfh7T54MeiXjXYzTZ",
    "placeName": "braddock",
    "state": "ND"
  },
  {
    "city": "bowman",
    "state_code": "ND",
    "placeMasterId": "P02500000FsoGAPFjrhj5nWpfh7T54Mm0xcuWJuG",
    "placeName": "bowman",
    "state": "ND"
  },
  {
    "city": "mott",
    "state_code": "ND",
    "placeMasterId": "P02500000FsoGBgs2IGv9yw2EvQZqGmFlf4JvzXe",
    "placeName": "mott",
    "state": "ND"
  },
  {
    "city": "minot",
    "state_code": "ND",
    "placeMasterId": "P02500000FsoGBgs2IGv9yw2EvQZqGmEfZY09zCb",
    "placeName": "minot",
    "state": "ND"
  },
  {
    "city": "minot",
    "state_code": "ND",
    "placeMasterId": "P02500000FsoGBgs2IGv9yw2EvQZqGmEfZY09zCb",
    "placeName": "minot",
    "state": "ND"
  },
  {
    "city": "antler",
    "state_code": "ND",
    "placeMasterId": "P02500000FsoGA7YmeuZWQKLK5UmFFO95vPPfnV2",
    "placeName": "antler",
    "state": "ND"
  },
  {
    "city": "des lacs",
    "state_code": "ND",
    "placeMasterId": "P02500000FsoGAY6DT6IsU84qUvoUyrFBkV5tRIB",
    "placeName": "des lacs",
    "state": "ND"
  },
  {
    "city": "mcchord afb",
    "state_code": "WA",
    "placeMasterId": "P02500000FsoH03eaDCfMWzQkX4WMthFbhLKF6C6",
    "placeName": "mcchord afb",
    "state": "WA"
  },
  {
    "city": "allyn",
    "state_code": "WA",
    "placeMasterId": "P02500000FsoGyCeNN3A9bBFU5W1w3KOqRZMvqoL",
    "placeName": "allyn",
    "state": "WA"
  },
  {
    "city": "centralia",
    "state_code": "WA",
    "placeMasterId": "P02500000FsoGydBoBEtVeyz0Ux4BmnVKB3OduLg",
    "placeName": "centralia",
    "state": "WA"
  },
  {
    "city": "ilwaco",
    "state_code": "WA",
    "placeMasterId": "P02500000FsoGzd79P0w0TBhE7dU7AE8QmRggeBQ",
    "placeName": "ilwaco",
    "state": "WA"
  },
  {
    "city": "kalama",
    "state_code": "WA",
    "placeMasterId": "P02500000FsoGzd79P0w0TBhE7dU7AECyfzv8G6L",
    "placeName": "kalama",
    "state": "WA"
  },
  {
    "city": "ridgefield",
    "state_code": "WA",
    "placeMasterId": "P02500000FsoH0ujRpa84eatnLwasMdUkzXZ4VAU",
    "placeName": "ridgefield",
    "state": "WA"
  },
  {
    "city": "vancouver",
    "state_code": "WA",
    "placeMasterId": "P02500000FsoH1cxpqZ105b7fN0Jxv5AzaVoQseW",
    "placeName": "vancouver",
    "state": "WA"
  },
  {
    "city": "grandview",
    "state_code": "WA",
    "placeMasterId": "P02500000FsoGzLQCCDmR5zCsW0nHLFQNJxJVyjt",
    "placeName": "grandview",
    "state": "WA"
  },
  {
    "city": "wapato",
    "state_code": "WA",
    "placeMasterId": "P02500000FsoH1loJRxammCMqAofNpZdWPRtyMSd",
    "placeName": "wapato",
    "state": "WA"
  },
  {
    "city": "albion",
    "state_code": "WA",
    "placeMasterId": "P02500000FsoGyCeNN3A9bBFU5W1w3KMV1DXBJW3",
    "placeName": "albion",
    "state": "WA"
  },
  {
    "city": "ione",
    "state_code": "WA",
    "placeMasterId": "P02500000FsoGzd79P0w0TBhE7dU7ADzW1c7jInc",
    "placeName": "ione",
    "state": "WA"
  },
  {
    "city": "anchorage",
    "state_code": "AK",
    "placeMasterId": "P02500000FsoEVxWun5JGSD6Yq5R0se5X03Bxqi1",
    "placeName": "anchorage",
    "state": "AK"
  },
  {
    "city": "kasilof",
    "state_code": "AK",
    "placeMasterId": "P02500000FsoEWobmPSlyZoZbexVWLaEmrjaXAQY",
    "placeName": "kasilof",
    "state": "AK"
  },
  {
    "city": "tatitlek",
    "state_code": "AK",
    "placeMasterId": "P02500000FsoEXoX7dEoTO1HpHdvRj0rTjTzzbi2",
    "placeName": "tatitlek",
    "state": "AK"
  },
  {
    "city": "allakaket",
    "state_code": "AK",
    "placeMasterId": "P02500000FsoEVxWun5JGSD6Yq5R0se2JH5DwTxo",
    "placeName": "allakaket",
    "state": "AK"
  },
  {
    "city": "circle",
    "state_code": "AK",
    "placeMasterId": "P02500000FsoEWFDrzsSppPauRi7qhcn0jLiDxos",
    "placeName": "circle",
    "state": "AK"
  },
  {
    "city": "galena",
    "state_code": "AK",
    "placeMasterId": "P02500000FsoEWWupCfcPCc5G3KogWbV4NMQkjbZ",
    "placeName": "galena",
    "state": "AK"
  },
  {
    "city": "kobuk",
    "state_code": "AK",
    "placeMasterId": "P02500000FsoEWxSG0rLlGPomSlqwG4cvdLgYduc",
    "placeName": "kobuk",
    "state": "AK"
  },
  {
    "city": "noatak",
    "state_code": "AK",
    "placeMasterId": "P02500000FsoEXF9DDeVKdcJ84OXm53MoeXge3m7",
    "placeName": "noatak",
    "state": "AK"
  },
  {
    "city": "rampart",
    "state_code": "AK",
    "placeMasterId": "P02500000FsoEXWqAQReu0onTg1Ebu26AUslI7no",
    "placeName": "rampart",
    "state": "AK"
  },
  {
    "city": "woodbridge",
    "state_code": "NJ",
    "placeMasterId": "P02500000FsoFy8Sfzc5YhrmgbHl8iEsQTipX3tZ",
    "placeName": "woodbridge",
    "state": "NJ"
  },
  {
    "city": "bergenfield",
    "state_code": "NJ",
    "placeMasterId": "P02500000FsoFvHX7vgXqxqtCX2qmURUI0kSe43S",
    "placeName": "bergenfield",
    "state": "NJ"
  },
  {
    "city": "englewood",
    "state_code": "NJ",
    "placeMasterId": "P02500000FsoFvqv2LGqziFrtkIES8OtfMdjnBOG",
    "placeName": "englewood",
    "state": "NJ"
  },
  {
    "city": "marlboro",
    "state_code": "NJ",
    "placeMasterId": "P02500000FsoID6rjTiGPwyAP8CEC9MXIWrhUMDB",
    "placeName": "marlboro",
    "state": "NJ"
  },
  {
    "city": "blairstown",
    "state_code": "NJ",
    "placeMasterId": "P02500000FsoICOdLSjNUVxwX78V6auhXiPrjmkY",
    "placeName": "blairstown",
    "state": "NJ"
  },
  {
    "city": "hopatcong",
    "state_code": "NJ",
    "placeMasterId": "P02500000FsoFwHST9SaLm3bQ9jGhrryHuOEDYt8",
    "placeName": "hopatcong",
    "state": "NJ"
  },
  {
    "city": "oxford",
    "state_code": "NJ",
    "placeMasterId": "P02500000FsoIDFiD56qCdZPZw0Zc3qruxgZrKLO",
    "placeName": "oxford",
    "state": "NJ"
  },
  {
    "city": "mendham",
    "state_code": "NJ",
    "placeMasterId": "P02500000FsoID6rjTiGPwyAP8CEC9MZRQBREY6N",
    "placeName": "mendham",
    "state": "NJ"
  },
  {
    "city": "princeton",
    "state_code": "NJ",
    "placeMasterId": "P02500000FsoFxQEHydCdGrYoaE239mqojrhbtXm",
    "placeName": "princeton",
    "state": "NJ"
  },
  {
    "city": "new windsor",
    "state_code": "MD",
    "placeMasterId": "P02500000FsoFVJUE9XUvuWLUJFyifHk3f8BHUy4",
    "placeName": "new windsor",
    "state": "MD"
  },
  {
    "city": "arlington",
    "state_code": "VA",
    "placeMasterId": "P02500000FsoGudURI8jWQA880DOUH59WbK2sySL",
    "placeName": "arlington",
    "state": "VA"
  },
  {
    "city": "montross",
    "state_code": "VA",
    "placeMasterId": "P02500000FsoGwmBbL5OIjAnk3OZkwQifYLgjUfM",
    "placeName": "montross",
    "state": "VA"
  },
  {
    "city": "toms brook",
    "state_code": "VA",
    "placeMasterId": "P02500000FsoGxm6wYrQnXNVxg4zgJrMgtFPt2pl",
    "placeName": "toms brook",
    "state": "VA"
  },
  {
    "city": "max",
    "state_code": "ND",
    "placeMasterId": "P02500000FsoGBgs2IGv9yw2EvQZqGm2utw3lMZv",
    "placeName": "max",
    "state": "ND"
  },
  {
    "city": "new town",
    "state_code": "ND",
    "placeMasterId": "P02500000FsoGBpiVtfUwfXHPjEvGBGUPEDMkvAh",
    "placeName": "new town",
    "state": "ND"
  },
  {
    "city": "alexander",
    "state_code": "ND",
    "placeMasterId": "P02500000FsoGA7YmeuZWQKLK5UmFFO9TgNdwxz7",
    "placeName": "alexander",
    "state": "ND"
  },
  {
    "city": "cooke city",
    "state_code": "MT",
    "placeMasterId": "P02500000FsoFp0I7OF9IjQ7XBJeOOt13zWbbzWy",
    "placeName": "cooke city",
    "state": "MT"
  },
  {
    "city": "lame deer",
    "state_code": "MT",
    "placeMasterId": "P02500000FsoFpiWVPE2EAQLPCNNTxKwQOi6YR1V",
    "placeName": "lame deer",
    "state": "MT"
  },
  {
    "city": "antelope",
    "state_code": "MT",
    "placeMasterId": "P02500000FsoFoibABRzjMDdBZgxYZuJep7N010R",
    "placeName": "antelope",
    "state": "MT"
  },
  {
    "city": "froid",
    "state_code": "MT",
    "placeMasterId": "P02500000FsoFpHz4b2Is6cbsmwLEDruhbZ33qol",
    "placeName": "froid",
    "state": "MT"
  },
  {
    "city": "colstrip",
    "state_code": "MT",
    "placeMasterId": "P02500000FsoFp0I7OF9IjQ7XBJeOOt0MEPvvhyg",
    "placeName": "colstrip",
    "state": "MT"
  },
  {
    "city": "chinook",
    "state_code": "MT",
    "placeMasterId": "P02500000FsoFp0I7OF9IjQ7XBJeOOt6irqfST4P",
    "placeName": "chinook",
    "state": "MT"
  },
  {
    "city": "basin",
    "state_code": "MT",
    "placeMasterId": "P02500000FsoFoibABRzjMDdBZgxYZuJGoVi91wN",
    "placeName": "basin",
    "state": "MT"
  },
  {
    "city": "east helena",
    "state_code": "MT",
    "placeMasterId": "P02500000FsoFp98azdj5Q1Mhz7zoJNPi0aNRpU4",
    "placeName": "east helena",
    "state": "MT"
  },
  {
    "city": "deer lodge",
    "state_code": "MT",
    "placeMasterId": "P02500000FsoFp0I7OF9IjQ7XBJeOOt9lII3YfGL",
    "placeName": "deer lodge",
    "state": "MT"
  },
  {
    "city": "hamilton",
    "state_code": "MT",
    "placeMasterId": "P02500000FsoFpQpYCQsenDr3akge8M8HAyn6Lij",
    "placeName": "hamilton",
    "state": "MT"
  },
  {
    "city": "heron",
    "state_code": "MT",
    "placeMasterId": "P02500000FsoFpZg1npSRTp6EOZ242qXEs8mk1O7",
    "placeName": "heron",
    "state": "MT"
  },
  {
    "city": "elk grove village",
    "state_code": "IL",
    "placeMasterId": "P02500000FsoF3CkAKRnEYB8A2HvOAmZZ3biRl4A",
    "placeName": "elk grove village",
    "state": "IL"
  },
  {
    "city": "island lake",
    "state_code": "IL",
    "placeMasterId": "P02500000FsoF4UMSl0zIjaKjGb29NBvxm6oNHdR",
    "placeName": "island lake",
    "state": "IL"
  },
  {
    "city": "round lake",
    "state_code": "IL",
    "placeMasterId": "P02500000FsoF7LI0owX0TbEDKpwVazKL47FHaaV",
    "placeName": "round lake",
    "state": "IL"
  },
  {
    "city": "genoa",
    "state_code": "IL",
    "placeMasterId": "P02500000FsoF3m84k26NIa6rFXJ3ok0vG5V87Ar",
    "placeName": "genoa",
    "state": "IL"
  },
  {
    "city": "kaneville",
    "state_code": "IL",
    "placeMasterId": "P02500000FsoF4m3Pxo8s6mp4sDizCAewRprflTd",
    "placeName": "kaneville",
    "state": "IL"
  },
  {
    "city": "hoffman estates",
    "state_code": "IL",
    "placeMasterId": "P02500000FsoF4UMSl0zIjaKjGb29NBsIbP1hlPA",
    "placeName": "hoffman estates",
    "state": "IL"
  },
  {
    "city": "calumet city",
    "state_code": "IL",
    "placeMasterId": "P02500000FsoF23yLVHAx3NAlbnA2sraO1AmCxrq",
    "placeName": "calumet city",
    "state": "IL"
  },
  {
    "city": "elwood",
    "state_code": "IL",
    "placeMasterId": "P02500000FsoF3LadvqN1EmNKq6Go5GuxNEA1q4H",
    "placeName": "elwood",
    "state": "IL"
  },
  {
    "city": "north aurora",
    "state_code": "IL",
    "placeMasterId": "P02500000FsoF6LMfbAUVfOVzi9WaDYi2p7hoSVd",
    "placeName": "north aurora",
    "state": "IL"
  },
  {
    "city": "sandwich",
    "state_code": "IL",
    "placeMasterId": "P02500000FsoF7U8UQL6nACTO8eHvVTk6S5LN0wv",
    "placeName": "sandwich",
    "state": "IL"
  },
  {
    "city": "chicago",
    "state_code": "IL",
    "placeMasterId": "P02500000FsoF2LfIi4KWQZf7DPqshqNB04VNil1",
    "placeName": "chicago",
    "state": "IL"
  },
  {
    "city": "lincolnwood",
    "state_code": "IL",
    "placeMasterId": "P02500000FsoF53kNAbIRTzJQTqPp19Qh8EikB93",
    "placeName": "lincolnwood",
    "state": "IL"
  },
  {
    "city": "kankakee",
    "state_code": "IL",
    "placeMasterId": "P02500000FsoF4dCwMPZ5QBZu4PNZHgHhGRISgKF",
    "placeName": "kankakee",
    "state": "IL"
  },
  {
    "city": "loda",
    "state_code": "IL",
    "placeMasterId": "P02500000FsoF5CaqlzsEAaYbHelEvdqRQJ7aVLY",
    "placeName": "loda",
    "state": "IL"
  },
  {
    "city": "belvidere",
    "state_code": "IL",
    "placeMasterId": "P02500000FsoF1dQuh5RazZRFCM7n9OTzqT0Qjdo",
    "placeName": "belvidere",
    "state": "IL"
  },
  {
    "city": "davis junction",
    "state_code": "IL",
    "placeMasterId": "P02500000FsoF2v3D7edfAydoQfEYLnmxuo31lyX",
    "placeName": "davis junction",
    "state": "IL"
  },
  {
    "city": "franklin grove",
    "state_code": "IL",
    "placeMasterId": "P02500000FsoF3dHb8dWabyrgRixduFhSYiV27C7",
    "placeName": "franklin grove",
    "state": "IL"
  },
  {
    "city": "galena",
    "state_code": "IL",
    "placeMasterId": "P02500000FsoF3m84k26NIa6rFXJ3ok0hVlFmRIM",
    "placeName": "galena",
    "state": "IL"
  },
  {
    "city": "shannon",
    "state_code": "IL",
    "placeMasterId": "P02500000FsoF7cyy1jgZqniYwSdLPy4s176o8Eh",
    "placeName": "shannon",
    "state": "IL"
  },
  {
    "city": "rockford",
    "state_code": "IL",
    "placeMasterId": "P02500000FsoF7CRXDXxDmzz2X1b5gUyHBcM1DKd",
    "placeName": "rockford",
    "state": "IL"
  },
  {
    "city": "rockford",
    "state_code": "IL",
    "placeMasterId": "P02500000FsoF7CRXDXxDmzz2X1b5gUyHBcM1DKd",
    "placeName": "rockford",
    "state": "IL"
  },
  {
    "city": "coal valley",
    "state_code": "IL",
    "placeMasterId": "P02500000FsoF2UVmJSuJ7AuI1ECIcKhkbbnCwDe",
    "placeName": "coal valley",
    "state": "IL"
  },
  {
    "city": "east moline",
    "state_code": "IL",
    "placeMasterId": "P02500000FsoF33tgj3DRrZszETZyGICMh5An7GU",
    "placeName": "east moline",
    "state": "IL"
  },
  {
    "city": "manlius",
    "state_code": "IL",
    "placeMasterId": "P02500000FsoF5UHnyn1nXn2wtHS4kcX1u6nPkMU",
    "placeName": "manlius",
    "state": "IL"
  },
  {
    "city": "rutland",
    "state_code": "IL",
    "placeMasterId": "P02500000FsoF7U8UQL6nACTO8eHvVTfhq52cVx2",
    "placeName": "rutland",
    "state": "IL"
  },
  {
    "city": "cuba",
    "state_code": "IL",
    "placeMasterId": "P02500000FsoF2mCjWG3sUNOdcqt8RJSr3dGdZVI",
    "placeName": "cuba",
    "state": "IL"
  },
  {
    "city": "kirkwood",
    "state_code": "IL",
    "placeMasterId": "P02500000FsoF4m3Pxo8s6mp4sDizCAfFkw84KQw",
    "placeName": "kirkwood",
    "state": "IL"
  },
  {
    "city": "monmouth",
    "state_code": "IL",
    "placeMasterId": "P02500000FsoF5lylBaBMuzXIUu8uZbGrNhzl8Uk",
    "placeName": "monmouth",
    "state": "IL"
  },
  {
    "city": "vermont",
    "state_code": "IL",
    "placeMasterId": "P02500000FsoF8LDM2iZVHnwQxWMQyPw8D5wWyow",
    "placeName": "vermont",
    "state": "IL"
  },
  {
    "city": "morton",
    "state_code": "IL",
    "placeMasterId": "P02500000FsoF5upEmyl9bamTIiUKU5bchv5VvLh",
    "placeName": "morton",
    "state": "IL"
  },
  {
    "city": "atlanta",
    "state_code": "IL",
    "placeMasterId": "P02500000FsoF1UaR5groIyC4OXmNEu68gjOGVBU",
    "placeName": "atlanta",
    "state": "IL"
  },
  {
    "city": "tuscola",
    "state_code": "IL",
    "placeMasterId": "P02500000FsoF8LDM2iZVHnwQxWMQyPw2UnyXSfi",
    "placeName": "tuscola",
    "state": "IL"
  },
  {
    "city": "hardin",
    "state_code": "IL",
    "placeMasterId": "P02500000FsoF4CfVYDpjMNqNeyLJYD9nkclvHpN",
    "placeName": "hardin",
    "state": "IL"
  },
  {
    "city": "roodhouse",
    "state_code": "IL",
    "placeMasterId": "P02500000FsoF7CRXDXxDmzz2X1b5gV0ryhZXYYg",
    "placeName": "roodhouse",
    "state": "IL"
  },
  {
    "city": "aviston",
    "state_code": "IL",
    "placeMasterId": "P02500000FsoF1UaR5groIyC4OXmNEu4bVSHJqlb",
    "placeName": "aviston",
    "state": "IL"
  },
  {
    "city": "prairie du rocher",
    "state_code": "IL",
    "placeMasterId": "P02500000FsoF6uka0knePnUgvOuFrWDavLKgQrD",
    "placeName": "prairie du rocher",
    "state": "IL"
  },
  {
    "city": "huntsville",
    "state_code": "IL",
    "placeMasterId": "P02500000FsoHKkNofgMEA5v11oby0ixLABxi19Y",
    "placeName": "huntsville",
    "state": "IL"
  },
  {
    "city": "milton",
    "state_code": "IL",
    "placeMasterId": "P02500000FsoF5lylBaBMuzXIUu8uZbEZ7gxKuoM",
    "placeName": "milton",
    "state": "IL"
  },
  {
    "city": "perry",
    "state_code": "IL",
    "placeMasterId": "P02500000FsoF6lu6PMDrjCFW7aYpx1qtrcgQLt6",
    "placeName": "perry",
    "state": "IL"
  },
  {
    "city": "annapolis",
    "state_code": "IL",
    "placeMasterId": "P02500000FsoF1LjxUII1cMwtajQxKPkwObOiCt0",
    "placeName": "annapolis",
    "state": "IL"
  },
  {
    "city": "shumway",
    "state_code": "IL",
    "placeMasterId": "P02500000FsoF7lpRd8GMXOxjkGylKSQczMxpI2w",
    "placeName": "shumway",
    "state": "IL"
  },
  {
    "city": "macon",
    "state_code": "IL",
    "placeMasterId": "P02500000FsoF5UHnyn1nXn2wtHS4kcUctcuTbhv",
    "placeName": "macon",
    "state": "IL"
  },
  {
    "city": "rochester",
    "state_code": "IL",
    "placeMasterId": "P02500000FsoF73b3c9NR6OjrjDFfm0daCtGhu8M",
    "placeName": "rochester",
    "state": "IL"
  },
  {
    "city": "stonington",
    "state_code": "IL",
    "placeMasterId": "P02500000FsoF7ufvEWq9E0CuY5KBEwpa9cA2X7U",
    "placeName": "stonington",
    "state": "IL"
  },
  {
    "city": "cisne",
    "state_code": "IL",
    "placeMasterId": "P02500000FsoF2UVmJSuJ7AuI1ECIcKh59mtUWjp",
    "placeName": "cisne",
    "state": "IL"
  },
  {
    "city": "keensburg",
    "state_code": "IL",
    "placeMasterId": "P02500000FsoF4m3Pxo8s6mp4sDizCAcTwjKwsox",
    "placeName": "keensburg",
    "state": "IL"
  },
  {
    "city": "richview",
    "state_code": "IL",
    "placeMasterId": "P02500000FsoF73b3c9NR6OjrjDFfm0bEiqzTKvh",
    "placeName": "richview",
    "state": "IL"
  },
  {
    "city": "stonefort",
    "state_code": "IL",
    "placeMasterId": "P02500000FsoF7ufvEWq9E0CuY5KBEwq0hLAQHAw",
    "placeName": "stonefort",
    "state": "IL"
  },
  {
    "city": "monroe city",
    "state_code": "MO",
    "placeMasterId": "P02500000FsoFmR3WX6lAMbiOihQs04G1SqZnPLi",
    "placeName": "monroe city",
    "state": "MO"
  },
  {
    "city": "novelty",
    "state_code": "MO",
    "placeMasterId": "P02500000FsoFmikTjtujjoCkKK7hp2zvHkYdcjx",
    "placeName": "novelty",
    "state": "MO"
  },
  {
    "city": "green city",
    "state_code": "MO",
    "placeMasterId": "P02500000FsoFkrkGtkPWo01TsldGygKhvCY85zr",
    "placeName": "green city",
    "state": "MO"
  },
  {
    "city": "farmington",
    "state_code": "MO",
    "placeMasterId": "P02500000FsoFkRCq5YgAkCHxTKb1FD66DZfydVr",
    "placeName": "farmington",
    "state": "MO"
  },
  {
    "city": "fredericktown",
    "state_code": "MO",
    "placeMasterId": "P02500000FsoFka3JgxFxQnX8H8wR9hd6yTte1Xa",
    "placeName": "fredericktown",
    "state": "MO"
  },
  {
    "city": "potosi",
    "state_code": "MO",
    "placeMasterId": "P02500000FsoFn9HuY5e5nbwGjl9xYWCkkvO01xP",
    "placeName": "potosi",
    "state": "MO"
  },
  {
    "city": "zalma",
    "state_code": "MO",
    "placeMasterId": "P02500000FsoFoZkga3PwfcO0lsc8fPvQKKH2icA",
    "placeName": "zalma",
    "state": "MO"
  },
  {
    "city": "campbell",
    "state_code": "MO",
    "placeMasterId": "P02500000FsoFjRHUrmdfvzZjqeB5rmbaNDL6vBh",
    "placeName": "campbell",
    "state": "MO"
  },
  {
    "city": "grandin",
    "state_code": "MO",
    "placeMasterId": "P02500000FsoFkrkGtkPWo01TsldGygG4gIF8muB",
    "placeName": "grandin",
    "state": "MO"
  },
  {
    "city": "mill spring",
    "state_code": "MO",
    "placeMasterId": "P02500000FsoFmID2viBNg0TDut5S5Zy5sKuFZvd",
    "placeName": "mill spring",
    "state": "MO"
  },
  {
    "city": "piedmont",
    "state_code": "MO",
    "placeMasterId": "P02500000FsoFmraxLIUWQPRv88T7jXaNnUjEmnB",
    "placeName": "piedmont",
    "state": "MO"
  },
  {
    "city": "concordia",
    "state_code": "MO",
    "placeMasterId": "P02500000FsoFjrovfyN1znJGG5DLbFdXCqfMAB2",
    "placeName": "concordia",
    "state": "MO"
  },
  {
    "city": "excelsior springs",
    "state_code": "MO",
    "placeMasterId": "P02500000FsoFkIMMUA6O3b2mfWFbKinRBPSvsw1",
    "placeName": "excelsior springs",
    "state": "MO"
  },
  {
    "city": "richmond",
    "state_code": "MO",
    "placeMasterId": "P02500000FsoFnI8O9UDsUDBRXZVNT0cjAxbOwxr",
    "placeName": "richmond",
    "state": "MO"
  },
  {
    "city": "kansas city",
    "state_code": "MO",
    "placeMasterId": "P02500000FsoFlR8BJKifYP0B610wcdmJLAheztV",
    "placeName": "kansas city",
    "state": "MO"
  },
  {
    "city": "kansas city",
    "state_code": "MO",
    "placeMasterId": "P02500000FsoFlR8BJKifYP0B610wcdmJLAheztV",
    "placeName": "kansas city",
    "state": "MO"
  },
  {
    "city": "golden city",
    "state_code": "MO",
    "placeMasterId": "P02500000FsoFkitnILpk7OmJ4xHr4Bv2Of07iJr",
    "placeName": "golden city",
    "state": "MO"
  },
  {
    "city": "owensville",
    "state_code": "MO",
    "placeMasterId": "P02500000FsoFmraxLIUWQPRv88T7jXQRIeJSLjc",
    "placeName": "owensville",
    "state": "MO"
  },
  {
    "city": "jefferson city",
    "state_code": "MO",
    "placeMasterId": "P02500000FsoFlR8BJKifYP0B610wcdmrVEf5fJJ",
    "placeName": "jefferson city",
    "state": "MO"
  },
  {
    "city": "columbia",
    "state_code": "MO",
    "placeMasterId": "P02500000FsoFjrovfyN1znJGG5DLbFdjkPEVpI9",
    "placeName": "columbia",
    "state": "MO"
  },
  {
    "city": "syracuse",
    "state_code": "MO",
    "placeMasterId": "P02500000FsoFnrWIZ4X1EcA8kot36y62uiPpr27",
    "placeName": "syracuse",
    "state": "MO"
  },
  {
    "city": "dixon",
    "state_code": "MO",
    "placeMasterId": "P02500000FsoFk0fPHMwogOYR3tYlVk6IkN9zsVO",
    "placeName": "dixon",
    "state": "MO"
  },
  {
    "city": "kimberling city",
    "state_code": "MO",
    "placeMasterId": "P02500000FsoFlZyeujISF0FLtpMMX82MSI57PoF",
    "placeName": "kimberling city",
    "state": "MO"
  },
  {
    "city": "pleasant hope",
    "state_code": "MO",
    "placeMasterId": "P02500000FsoFn0RQwh4J70h5vwoXe1pcKawJfHh",
    "placeName": "pleasant hope",
    "state": "MO"
  },
  {
    "city": "seymour",
    "state_code": "MO",
    "placeMasterId": "P02500000FsoFnZpLMHNRrPfn9CCDHzOXRtAUITK",
    "placeName": "seymour",
    "state": "MO"
  },
  {
    "city": "theodosia",
    "state_code": "MO",
    "placeMasterId": "P02500000FsoFnrWIZ4X1EcA8kot36yAamhzmG5l",
    "placeName": "theodosia",
    "state": "MO"
  },
  {
    "city": "wheatland",
    "state_code": "MO",
    "placeMasterId": "P02500000FsoFoQuCyeq9z18py4GikvW4FLyMm84",
    "placeName": "wheatland",
    "state": "MO"
  },
  {
    "city": "lawrence",
    "state_code": "KS",
    "placeMasterId": "P02500000FsoFKthN7bMbkfTleylD9WfQGaj0ALz",
    "placeName": "lawrence",
    "state": "KS"
  },
  {
    "city": "kansas city",
    "state_code": "KS",
    "placeMasterId": "P02500000FsoFKthN7bMbkfTleylD9WcwenSSDwE",
    "placeName": "kansas city",
    "state": "KS"
  },
  {
    "city": "topeka",
    "state_code": "KS",
    "placeMasterId": "P02500000FsoFMbr6MMI1zsPrIiuE5P2hY2Q28N9",
    "placeName": "topeka",
    "state": "KS"
  },
  {
    "city": "iola",
    "state_code": "KS",
    "placeMasterId": "P02500000FsoFKthN7bMbkfTleylD9WbxtBPtB4u",
    "placeName": "iola",
    "state": "KS"
  },
  {
    "city": "piqua",
    "state_code": "KS",
    "placeMasterId": "P02500000FsoFM2TBwlytFTRA5TWYRRaDXZ9UEcJ",
    "placeName": "piqua",
    "state": "KS"
  },
  {
    "city": "matfield green",
    "state_code": "KS",
    "placeMasterId": "P02500000FsoFLT5HXBfkV4SSsE8snU4RoIBA2C0",
    "placeName": "matfield green",
    "state": "KS"
  },
  {
    "city": "augusta",
    "state_code": "KS",
    "placeMasterId": "P02500000FsoFJBXdsqRBVSXg1EcCDeD9auD3qnj",
    "placeName": "augusta",
    "state": "KS"
  },
  {
    "city": "dexter",
    "state_code": "KS",
    "placeMasterId": "P02500000FsoFJtm1tpK6wSlY2ILHm63Pi0rSr8o",
    "placeName": "dexter",
    "state": "KS"
  },
  {
    "city": "eureka",
    "state_code": "KS",
    "placeMasterId": "P02500000FsoFKBSz6cTgJfFtdv27b4kT3jOo5nE",
    "placeName": "eureka",
    "state": "KS"
  },
  {
    "city": "moundridge",
    "state_code": "KS",
    "placeMasterId": "P02500000FsoFLbvl8aFXBfhdg2UIhyROoCjIDLl",
    "placeName": "moundridge",
    "state": "KS"
  },
  {
    "city": "wichita",
    "state_code": "KS",
    "placeMasterId": "P02500000FsoFMtY3Z9RbN4uCuLb3uNnBOyNlFLT",
    "placeName": "wichita",
    "state": "KS"
  },
  {
    "city": "wichita",
    "state_code": "KS",
    "placeMasterId": "P02500000FsoFMtY3Z9RbN4uCuLb3uNnBOyNlFLT",
    "placeName": "wichita",
    "state": "KS"
  },
  {
    "city": "canton",
    "state_code": "KS",
    "placeMasterId": "P02500000FsoFJc54h2AXZGHCQfeRx7JC0CKt5sc",
    "placeName": "canton",
    "state": "KS"
  },
  {
    "city": "minneapolis",
    "state_code": "KS",
    "placeMasterId": "P02500000FsoFLT5HXBfkV4SSsE8snU7e59qJxIo",
    "placeName": "minneapolis",
    "state": "KS"
  },
  {
    "city": "ellinwood",
    "state_code": "KS",
    "placeMasterId": "P02500000FsoFK2cVVDttd40iq6ghgaOh39Mekmp",
    "placeName": "ellinwood",
    "state": "KS"
  },
  {
    "city": "garfield",
    "state_code": "KS",
    "placeMasterId": "P02500000FsoFKKJSi13T0GV4RjNXVZ93Db9epfK",
    "placeName": "garfield",
    "state": "KS"
  },
  {
    "city": "haven",
    "state_code": "KS",
    "placeMasterId": "P02500000FsoFKc0PuoD2NSzQ3M4NKXs3w4IKeCd",
    "placeName": "haven",
    "state": "KS"
  },
  {
    "city": "agra",
    "state_code": "KS",
    "placeMasterId": "P02500000FsoFJ2hAHRrOorIVDQGmJ9nd6uYw9vs",
    "placeName": "agra",
    "state": "KS"
  },
  {
    "city": "almena",
    "state_code": "KS",
    "placeMasterId": "P02500000FsoFJ2hAHRrOorIVDQGmJ9q6yfr6IG0",
    "placeName": "almena",
    "state": "KS"
  },
  {
    "city": "blair",
    "state_code": "NE",
    "placeMasterId": "P02500000FsoFr8zHRBo52Qn9EUpf4EWxzTwDsXe",
    "placeName": "blair",
    "state": "NE"
  },
  {
    "city": "craig",
    "state_code": "NE",
    "placeMasterId": "P02500000FsoFrZWiFNXR6EWfdvrunhckyOpRHv9",
    "placeName": "craig",
    "state": "NE"
  },
  {
    "city": "scribner",
    "state_code": "NE",
    "placeMasterId": "P02500000FsoFtZNOgvcQidx6tIhlYYtsIeHua6Q",
    "placeName": "scribner",
    "state": "NE"
  },
  {
    "city": "endicott",
    "state_code": "NE",
    "placeMasterId": "P02500000FsoFrrDfSAh0TR11FYYkcgNWgLlO7cZ",
    "placeName": "endicott",
    "state": "NE"
  },
  {
    "city": "odell",
    "state_code": "NE",
    "placeMasterId": "P02500000FsoFszzUHLJHyEyPg3K5ubRlQUCWObj",
    "placeName": "odell",
    "state": "NE"
  },
  {
    "city": "seward",
    "state_code": "NE",
    "placeMasterId": "P02500000FsoFtQWv5X2e22hw5UMLe4a9fX1vISp",
    "placeName": "seward",
    "state": "NE"
  },
  {
    "city": "lincoln",
    "state_code": "NE",
    "placeMasterId": "P02500000FsoFsZS3T9ZvuREtGcHqB8DyQVvTvuI",
    "placeName": "lincoln",
    "state": "NE"
  },
  {
    "city": "concord",
    "state_code": "NE",
    "placeMasterId": "P02500000FsoFrQgEdyxePdHUq7WUtDPrjipCUSt",
    "placeName": "concord",
    "state": "NE"
  },
  {
    "city": "hartington",
    "state_code": "NE",
    "placeMasterId": "P02500000FsoFs8ucexqZqdVMrBFaRfJKIBsFqs3",
    "placeName": "hartington",
    "state": "NE"
  },
  {
    "city": "bartley",
    "state_code": "NE",
    "placeMasterId": "P02500000FsoFr08npnEILpXyQgUF9k9F1X5vNdL",
    "placeName": "bartley",
    "state": "NE"
  },
  {
    "city": "gurley",
    "state_code": "NE",
    "placeMasterId": "P02500000FsoFs0493ZGnA2GC3MuAXAxjmZAuutw",
    "placeName": "gurley",
    "state": "NE"
  },
  {
    "city": "crookston",
    "state_code": "NE",
    "placeMasterId": "P02500000FsoFrZWiFNXR6EWfdvrunhiyg6VFIlt",
    "placeName": "crookston",
    "state": "NE"
  },
  {
    "city": "kilgore",
    "state_code": "NE",
    "placeMasterId": "P02500000FsoFsZS3T9ZvuREtGcHqB8FBSCrBLKs",
    "placeName": "kilgore",
    "state": "NE"
  },
  {
    "city": "bridgeport",
    "state_code": "NE",
    "placeMasterId": "P02500000FsoFr8zHRBo52Qn9EUpf4EjiYAAjKUT",
    "placeName": "bridgeport",
    "state": "NE"
  },
  {
    "city": "lyman",
    "state_code": "NE",
    "placeMasterId": "P02500000FsoFsZS3T9ZvuREtGcHqB8NcLsnUVmC",
    "placeName": "lyman",
    "state": "NE"
  },
  {
    "city": "rushville",
    "state_code": "NE",
    "placeMasterId": "P02500000FsoFtHgRU8SrLRSlHg0vjaHyuDyPCL4",
    "placeName": "rushville",
    "state": "NE"
  },
  {
    "city": "metairie",
    "state_code": "LA",
    "placeMasterId": "P02500000FsoFRtAlg1e5Q6TJ1lggnWuwlbJVoWn",
    "placeName": "metairie",
    "state": "LA"
  },
  {
    "city": "empire",
    "state_code": "LA",
    "placeMasterId": "P02500000FsoFQtFQSFbabtl5P5GlQ6OM8bDT3HN",
    "placeName": "empire",
    "state": "LA"
  },
  {
    "city": "hammond",
    "state_code": "LA",
    "placeMasterId": "P02500000FsoFRJmrGRKwfhUboWJ19ZJb6rvKxg7",
    "placeName": "hammond",
    "state": "LA"
  },
  {
    "city": "mandeville",
    "state_code": "LA",
    "placeMasterId": "P02500000FsoFRtAlg1e5Q6TJ1lggnWrIGj0diGo",
    "placeName": "mandeville",
    "state": "LA"
  },
  {
    "city": "lafayette",
    "state_code": "LA",
    "placeMasterId": "P02500000FsoFRbToTEUW2tyxQ8zqyYEuk4f11St",
    "placeName": "lafayette",
    "state": "LA"
  },
  {
    "city": "basile",
    "state_code": "LA",
    "placeMasterId": "P02500000FsoFQJrW2fIRrUmOBpt5m8lA1xn5pEt",
    "placeName": "basile",
    "state": "LA"
  },
  {
    "city": "cade",
    "state_code": "LA",
    "placeMasterId": "P02500000FsoFQShze3sEY61YzeEVgdEXMj6xVXx",
    "placeName": "cade",
    "state": "LA"
  },
  {
    "city": "gueydan",
    "state_code": "LA",
    "placeMasterId": "P02500000FsoFRJmrGRKwfhUboWJ19ZRWaQZdlSi",
    "placeName": "gueydan",
    "state": "LA"
  },
  {
    "city": "erwinville",
    "state_code": "LA",
    "placeMasterId": "P02500000FsoFQtFQSFbabtl5P5GlQ6QSjFwPLKf",
    "placeName": "erwinville",
    "state": "LA"
  },
  {
    "city": "french settlement",
    "state_code": "LA",
    "placeMasterId": "P02500000FsoFR25u3eBNIV0GCtcBKamdsEz6mHw",
    "placeName": "french settlement",
    "state": "LA"
  },
  {
    "city": "livingston",
    "state_code": "LA",
    "placeMasterId": "P02500000FsoFRbToTEUW2tyxQ8zqyYDx4oklg6R",
    "placeName": "livingston",
    "state": "LA"
  },
  {
    "city": "slaughter",
    "state_code": "LA",
    "placeMasterId": "P02500000FsoFSbP9h0X0r6hB2pPmLyt3oqxqvQT",
    "placeName": "slaughter",
    "state": "LA"
  },
  {
    "city": "baton rouge",
    "state_code": "LA",
    "placeMasterId": "P02500000FsoFQJrW2fIRrUmOBpt5m8hbG1ZgRcE",
    "placeName": "baton rouge",
    "state": "LA"
  },
  {
    "city": "coushatta",
    "state_code": "LA",
    "placeMasterId": "P02500000FsoFQkOwqr1nvIVubGvLVbyMQQ1SKbd",
    "placeName": "coushatta",
    "state": "LA"
  },
  {
    "city": "logansport",
    "state_code": "LA",
    "placeMasterId": "P02500000FsoFRbToTEUW2tyxQ8zqyYG3bnjGE1Y",
    "placeName": "logansport",
    "state": "LA"
  },
  {
    "city": "clarence",
    "state_code": "LA",
    "placeMasterId": "P02500000FsoFQkOwqr1nvIVubGvLVbqR1zs9mHo",
    "placeName": "clarence",
    "state": "LA"
  },
  {
    "city": "winnfield",
    "state_code": "LA",
    "placeMasterId": "P02500000FsoFT1waVCGMuuQhSGS25RlV8x6dHcS",
    "placeName": "winnfield",
    "state": "LA"
  },
  {
    "city": "zwolle",
    "state_code": "LA",
    "placeMasterId": "P02500000FsoFSt66tngaEJBWeS6cAxclfdqL24g",
    "placeName": "zwolle",
    "state": "LA"
  },
  {
    "city": "huttig",
    "state_code": "AR",
    "placeMasterId": "P02500000FsoEbx4y7jYFJRNsaBwZ9Dd5et3gJ1C",
    "placeName": "huttig",
    "state": "AR"
  },
  {
    "city": "ogden",
    "state_code": "AR",
    "placeMasterId": "P02500000FsoEcfJM8iRAkRbkbFfehfTWbsExA1M",
    "placeName": "ogden",
    "state": "AR"
  },
  {
    "city": "taylor",
    "state_code": "AR",
    "placeMasterId": "P02500000FsoEd5qmwuAWoFLH0ghuR8d0OMszAsM",
    "placeName": "taylor",
    "state": "AR"
  },
  {
    "city": "brinkley",
    "state_code": "AR",
    "placeMasterId": "P02500000FsoEaoJ9IYvxodQU9hBDrIhFqxNCRB8",
    "placeName": "brinkley",
    "state": "AR"
  },
  {
    "city": "roland",
    "state_code": "AR",
    "placeMasterId": "P02500000FsoEco9pk70xR2qvP414c9svjeZmsjg",
    "placeName": "roland",
    "state": "AR"
  },
  {
    "city": "sheridan",
    "state_code": "AR",
    "placeMasterId": "P02500000FsoEcx0JLVak7e66CsMUWeGbofdEzJD",
    "placeName": "sheridan",
    "state": "AR"
  },
  {
    "city": "burdette",
    "state_code": "AR",
    "placeMasterId": "P02500000FsoEaoJ9IYvxodQU9hBDrIfv4ajMX6c",
    "placeName": "burdette",
    "state": "AR"
  },
  {
    "city": "elaine",
    "state_code": "AR",
    "placeMasterId": "P02500000FsoEbNh3i9F6Z2PBMwYtVG7v8DOPkkt",
    "placeName": "elaine",
    "state": "AR"
  },
  {
    "city": "big flat",
    "state_code": "AR",
    "placeMasterId": "P02500000FsoEafSfhAMB82BJLspnwoLEYPQQXqc",
    "placeName": "big flat",
    "state": "AR"
  },
  {
    "city": "bull shoals",
    "state_code": "AR",
    "placeMasterId": "P02500000FsoEaoJ9IYvxodQU9hBDrIgrdrg6i1q",
    "placeName": "bull shoals",
    "state": "AR"
  },
  {
    "city": "summit",
    "state_code": "AR",
    "placeMasterId": "P02500000FsoEdEhGYIkJUqaRoV3KLcxrKCbD1kv",
    "placeName": "summit",
    "state": "AR"
  },
  {
    "city": "hinton",
    "state_code": "OK",
    "placeMasterId": "P02500000FsoGLg7SW1K84zARAGl6340lNsiHaSH",
    "placeName": "hinton",
    "state": "OK"
  },
  {
    "city": "oklahoma city",
    "state_code": "OK",
    "placeMasterId": "P02500000FsoGMg2njnMctBsemxB1QUgVkw3g3BI",
    "placeName": "oklahoma city",
    "state": "OK"
  },
  {
    "city": "blair",
    "state_code": "OK",
    "placeMasterId": "P02500000FsoGK6oCseyUWNTWKKxV1g8VM5zxN7I",
    "placeName": "blair",
    "state": "OK"
  },
  {
    "city": "elgin",
    "state_code": "OK",
    "placeMasterId": "P02500000FsoGL6jY6R0zKaBjx1NQP6a1XcOAA0A",
    "placeName": "elgin",
    "state": "OK"
  },
  {
    "city": "elmer",
    "state_code": "OK",
    "placeMasterId": "P02500000FsoGL6jY6R0zKaBjx1NQP6YJQeMdXy5",
    "placeName": "elmer",
    "state": "OK"
  },
  {
    "city": "geronimo",
    "state_code": "OK",
    "placeMasterId": "P02500000FsoGLOQVJEAYhmg5Ye4GE5OUHllyND3",
    "placeName": "geronimo",
    "state": "OK"
  },
  {
    "city": "granite",
    "state_code": "OK",
    "placeMasterId": "P02500000FsoGLOQVJEAYhmg5Ye4GE5R09VoBstF",
    "placeName": "granite",
    "state": "OK"
  },
  {
    "city": "hastings",
    "state_code": "OK",
    "placeMasterId": "P02500000FsoGLXGyuckLONvGMSPg8ZmSvHJguHG",
    "placeName": "hastings",
    "state": "OK"
  },
  {
    "city": "cleo springs",
    "state_code": "OK",
    "placeMasterId": "P02500000FsoGKgC7IFHdGmSDXaLAfdXUwCP0IL4",
    "placeName": "cleo springs",
    "state": "OK"
  },
  {
    "city": "hominy",
    "state_code": "OK",
    "placeMasterId": "P02500000FsoGLg7SW1K84zARAGl6341M8YHJGWq",
    "placeName": "hominy",
    "state": "OK"
  },
  {
    "city": "oilton",
    "state_code": "OK",
    "placeMasterId": "P02500000FsoGMg2njnMctBsemxB1QUipf40RvVY",
    "placeName": "oilton",
    "state": "OK"
  },
  {
    "city": "skiatook",
    "state_code": "OK",
    "placeMasterId": "P02500000FsoGNOHBkmFYKC6Wo0u6ywWB3GRf783",
    "placeName": "skiatook",
    "state": "OK"
  },
  {
    "city": "sperry",
    "state_code": "OK",
    "placeMasterId": "P02500000FsoGNOHBkmFYKC6Wo0u6ywYiVT5Atfe",
    "placeName": "sperry",
    "state": "OK"
  },
  {
    "city": "big cabin",
    "state_code": "OK",
    "placeMasterId": "P02500000FsoGK6oCseyUWNTWKKxV1g4iN90C02p",
    "placeName": "big cabin",
    "state": "OK"
  },
  {
    "city": "strang",
    "state_code": "OK",
    "placeMasterId": "P02500000FsoGNX7fMApL0nLhbpFWtQtbbFmMoTA",
    "placeName": "strang",
    "state": "OK"
  },
  {
    "city": "stigler",
    "state_code": "OK",
    "placeMasterId": "P02500000FsoGNX7fMApL0nLhbpFWtQvJbHze45Q",
    "placeName": "stigler",
    "state": "OK"
  },
  {
    "city": "wagoner",
    "state_code": "OK",
    "placeMasterId": "P02500000FsoGNoocYxyuNzq3DRwMiPj2Tv9EdYK",
    "placeName": "wagoner",
    "state": "OK"
  },
  {
    "city": "haileyville",
    "state_code": "OK",
    "placeMasterId": "P02500000FsoGLOQVJEAYhmg5Ye4GE5ScPQ86sFg",
    "placeName": "haileyville",
    "state": "OK"
  },
  {
    "city": "lehigh",
    "state_code": "OK",
    "placeMasterId": "P02500000FsoGM6etKD3U8mtxZhnLmX6cur9qzLl",
    "placeName": "lehigh",
    "state": "OK"
  },
  {
    "city": "tupelo",
    "state_code": "OK",
    "placeMasterId": "P02500000FsoGNfy8xZP7hOasPdawnvMoEHWzww9",
    "placeName": "tupelo",
    "state": "OK"
  },
  {
    "city": "newkirk",
    "state_code": "OK",
    "placeMasterId": "P02500000FsoGMXCK8OmqCadTz8pbW0S3hQKz7xN",
    "placeName": "newkirk",
    "state": "OK"
  },
  {
    "city": "hugo",
    "state_code": "OK",
    "placeMasterId": "P02500000FsoGLg7SW1K84zARAGl6345Pstv0sTO",
    "placeName": "hugo",
    "state": "OK"
  },
  {
    "city": "millerton",
    "state_code": "OK",
    "placeMasterId": "P02500000FsoGMOLqX0D3VzOJBKUBbVxILr3t4Hx",
    "placeName": "millerton",
    "state": "OK"
  },
  {
    "city": "byars",
    "state_code": "OK",
    "placeMasterId": "P02500000FsoGKOVA5S83tZxrvxeKqekOvYnVtQ2",
    "placeName": "byars",
    "state": "OK"
  },
  {
    "city": "castle",
    "state_code": "OK",
    "placeMasterId": "P02500000FsoGKXLdgqhqaBD2jlzkl92QQszOfWQ",
    "placeName": "castle",
    "state": "OK"
  },
  {
    "city": "wanette",
    "state_code": "OK",
    "placeMasterId": "P02500000FsoGNoocYxyuNzq3DRwMiPmLNcp9fIt",
    "placeName": "wanette",
    "state": "OK"
  },
  {
    "city": "vian",
    "state_code": "OK",
    "placeMasterId": "P02500000FsoGNoocYxyuNzq3DRwMiPm1UKIcKhN",
    "placeName": "vian",
    "state": "OK"
  },
  {
    "city": "carrollton",
    "state_code": "TX",
    "placeMasterId": "P02500000FsoGjeJfqcI3VuHi8gnJ7MXGWnfbcgm",
    "placeName": "carrollton",
    "state": "TX"
  },
  {
    "city": "denison",
    "state_code": "TX",
    "placeMasterId": "P02500000FsoGkVOXSzkldVkkxYroaIh5eGqIBAI",
    "placeName": "denison",
    "state": "TX"
  },
  {
    "city": "garland",
    "state_code": "TX",
    "placeMasterId": "P02500000FsoGlMTP5NDTl7DnmQwK3F4Um6WEIeJ",
    "placeName": "garland",
    "state": "TX"
  },
  {
    "city": "eustace",
    "state_code": "TX",
    "placeMasterId": "P02500000FsoGkvvyHBU7hJUHMzu4JlvMH52i0nl",
    "placeName": "eustace",
    "state": "TX"
  },
  {
    "city": "nevada",
    "state_code": "TX",
    "placeMasterId": "P02500000FsoGoV5uM5uksKbdSIXW619O3i4KhxB",
    "placeName": "nevada",
    "state": "TX"
  },
  {
    "city": "dallas",
    "state_code": "TX",
    "placeMasterId": "P02500000FsoGkMY3rbAywuVa9kWOfoNE7vnQ9N4",
    "placeName": "dallas",
    "state": "TX"
  },
  {
    "city": "dallas",
    "state_code": "TX",
    "placeMasterId": "P02500000FsoGkMY3rbAywuVa9kWOfoNE7vnQ9N4",
    "placeName": "dallas",
    "state": "TX"
  },
  {
    "city": "van alstyne",
    "state_code": "TX",
    "placeMasterId": "P02500000FsoGrUrw1Q2FIwkIKLnIEIzvSiGlPPU",
    "placeName": "van alstyne",
    "state": "TX"
  },
  {
    "city": "carthage",
    "state_code": "TX",
    "placeMasterId": "P02500000FsoGjeJfqcI3VuHi8gnJ7MT3E4ZLvPk",
    "placeName": "carthage",
    "state": "TX"
  },
  {
    "city": "white oak",
    "state_code": "TX",
    "placeMasterId": "P02500000FsoGs4FqR0LO3LizXbAxsGJ9hLODTVO",
    "placeName": "white oak",
    "state": "TX"
  },
  {
    "city": "groveton",
    "state_code": "TX",
    "placeMasterId": "P02500000FsoGln0ptYwpouxKBryZmiB6IawYN4J",
    "placeName": "groveton",
    "state": "TX"
  },
  {
    "city": "wells",
    "state_code": "TX",
    "placeMasterId": "P02500000FsoGrmYtEDBog9EdvyU83Ho2jDrnQxU",
    "placeName": "wells",
    "state": "TX"
  },
  {
    "city": "woodville",
    "state_code": "TX",
    "placeMasterId": "P02500000FsoGsD6K2OvAjwyALPWNmkijZjDYwfd",
    "placeName": "woodville",
    "state": "TX"
  },
  {
    "city": "azle",
    "state_code": "TX",
    "placeMasterId": "P02500000FsoGiVXr1Rfm16KJiC1xpRcYjVnIrMW",
    "placeName": "azle",
    "state": "TX"
  },
  {
    "city": "paradise",
    "state_code": "TX",
    "placeMasterId": "P02500000FsoGp4TolgDtcjaKfXvBjyb7wn6raYF",
    "placeName": "paradise",
    "state": "TX"
  },
  {
    "city": "north richland hills",
    "state_code": "TX",
    "placeMasterId": "P02500000FsoGommrYt4KFX5z3vELuzl8yPA33rc",
    "placeName": "north richland hills",
    "state": "TX"
  },
  {
    "city": "wichita falls",
    "state_code": "TX",
    "placeMasterId": "P02500000FsoGs4FqR0LO3LizXbAxsGR17JZqdwE",
    "placeName": "wichita falls",
    "state": "TX"
  },
  {
    "city": "kempner",
    "state_code": "TX",
    "placeMasterId": "P02500000FsoGme5hVwPXwWQN0k35FeFTET1tFzU",
    "placeName": "kempner",
    "state": "TX"
  },
  {
    "city": "morgan",
    "state_code": "TX",
    "placeMasterId": "P02500000FsoGoMFQkhKyBjMSeUC6BWfH3VbGvsP",
    "placeName": "morgan",
    "state": "TX"
  },
  {
    "city": "richland",
    "state_code": "TX",
    "placeMasterId": "P02500000FsoGpmiCmf6p3joCgbeHIQb30VjV8rM",
    "placeName": "richland",
    "state": "TX"
  },
  {
    "city": "walnut springs",
    "state_code": "TX",
    "placeMasterId": "P02500000FsoGrmYtEDBog9EdvyU83Hhd96IEWqt",
    "placeName": "walnut springs",
    "state": "TX"
  },
  {
    "city": "houston",
    "state_code": "TX",
    "placeMasterId": "P02500000FsoGmDYGhkgBsigqbJ0pWBK8GcFdEcU",
    "placeName": "houston",
    "state": "TX"
  },
  {
    "city": "spring",
    "state_code": "TX",
    "placeMasterId": "P02500000FsoGqvU1bpj6YXlb76PcaLLSx3ByJ8h",
    "placeName": "spring",
    "state": "TX"
  },
  {
    "city": "galveston",
    "state_code": "TX",
    "placeMasterId": "P02500000FsoGlMTP5NDTl7DnmQwK3F0hv8nmEqV",
    "placeName": "galveston",
    "state": "TX"
  },
  {
    "city": "lake jackson",
    "state_code": "TX",
    "placeMasterId": "P02500000FsoGn4d8K88u0K9tQB5Kz7NplWEj0Ih",
    "placeName": "lake jackson",
    "state": "TX"
  },
  {
    "city": "liverpool",
    "state_code": "TX",
    "placeMasterId": "P02500000FsoGnVAZ8JsG47tPpc7aiaQVYvmxFWg",
    "placeName": "liverpool",
    "state": "TX"
  },
  {
    "city": "pearland",
    "state_code": "TX",
    "placeMasterId": "P02500000FsoGp4TolgDtcjaKfXvBjyc8oC5JQMU",
    "placeName": "pearland",
    "state": "TX"
  },
  {
    "city": "college station",
    "state_code": "TX",
    "placeMasterId": "P02500000FsoGjw0d3PRct6m3kJU8wLCO4ngr8OO",
    "placeName": "college station",
    "state": "TX"
  },
  {
    "city": "ingram",
    "state_code": "TX",
    "placeMasterId": "P02500000FsoGmVFDuXplFvBCCvhfL9p9cwM6kmA",
    "placeName": "ingram",
    "state": "TX"
  },
  {
    "city": "natalia",
    "state_code": "TX",
    "placeMasterId": "P02500000FsoGoV5uM5uksKbdSIXW614k44QLikJ",
    "placeName": "natalia",
    "state": "TX"
  },
  {
    "city": "san antonio",
    "state_code": "TX",
    "placeMasterId": "P02500000FsoGqM67CFPxo8mttr1wwNqfYQdpCPu",
    "placeName": "san antonio",
    "state": "TX"
  },
  {
    "city": "taft",
    "state_code": "TX",
    "placeMasterId": "P02500000FsoGr4KVDEItF90luul2Upq4LK9IvHu",
    "placeName": "taft",
    "state": "TX"
  },
  {
    "city": "corpus christi",
    "state_code": "TX",
    "placeMasterId": "P02500000FsoGkDhaGCbCGJGPLwAylJumHp42lmi",
    "placeName": "corpus christi",
    "state": "TX"
  },
  {
    "city": "olmito",
    "state_code": "TX",
    "placeMasterId": "P02500000FsoGommrYt4KFX5z3vELuzzkoV1ONAR",
    "placeName": "olmito",
    "state": "TX"
  },
  {
    "city": "luling",
    "state_code": "TX",
    "placeMasterId": "P02500000FsoGnmrWL71pRKNlREoQXZFNaVRDRLU",
    "placeName": "luling",
    "state": "TX"
  },
  {
    "city": "carmine",
    "state_code": "TX",
    "placeMasterId": "P02500000FsoGjeJfqcI3VuHi8gnJ7MPMVQguK29",
    "placeName": "carmine",
    "state": "TX"
  },
  {
    "city": "round top",
    "state_code": "TX",
    "placeMasterId": "P02500000FsoGq4P9zSGOQwIYIEL77PFrCrfCrIz",
    "placeName": "round top",
    "state": "TX"
  },
  {
    "city": "nazareth",
    "state_code": "TX",
    "placeMasterId": "P02500000FsoGoV5uM5uksKbdSIXW615ZMChjeHR",
    "placeName": "nazareth",
    "state": "TX"
  },
  {
    "city": "texline",
    "state_code": "TX",
    "placeMasterId": "P02500000FsoGrDAyocsfvkFwij6SPK8r8mlaDur",
    "placeName": "texline",
    "state": "TX"
  },
  {
    "city": "amarillo",
    "state_code": "TX",
    "placeMasterId": "P02500000FsoGiMhNQ35zKV58uNgXuxIaAeFmU4D",
    "placeName": "amarillo",
    "state": "TX"
  },
  {
    "city": "quanah",
    "state_code": "TX",
    "placeMasterId": "P02500000FsoGpdrjBGX2N8Z1snIrNw1ATQbTHek",
    "placeName": "quanah",
    "state": "TX"
  },
  {
    "city": "seminole",
    "state_code": "TX",
    "placeMasterId": "P02500000FsoGqUwandzkUk24hfNMqsRlN2Y5SKi",
    "placeName": "seminole",
    "state": "TX"
  },
  {
    "city": "smyer",
    "state_code": "TX",
    "placeMasterId": "P02500000FsoGqmdY0R9JrwWQJI4CfrAYK4AiIYT",
    "placeName": "smyer",
    "state": "TX"
  },
  {
    "city": "lubbock",
    "state_code": "TX",
    "placeMasterId": "P02500000FsoGne12jiS2kj8adQT0d50AbRrldL6",
    "placeName": "lubbock",
    "state": "TX"
  },
  {
    "city": "benjamin",
    "state_code": "TX",
    "placeMasterId": "P02500000FsoGiw5HpdP84u3q7d4DYuaxn94hLbz",
    "placeName": "benjamin",
    "state": "TX"
  },
  {
    "city": "loraine",
    "state_code": "TX",
    "placeMasterId": "P02500000FsoGnVAZ8JsG47tPpc7aiaaTny6gxVl",
    "placeName": "loraine",
    "state": "TX"
  },
  {
    "city": "gardendale",
    "state_code": "TX",
    "placeMasterId": "P02500000FsoGlVJsglnGRiSyaFHjxjKYM1s93YW",
    "placeName": "gardendale",
    "state": "TX"
  },
  {
    "city": "valentine",
    "state_code": "TX",
    "placeMasterId": "P02500000FsoGrUrw1Q2FIwkIKLnIEIzDLQgAgav",
    "placeName": "valentine",
    "state": "TX"
  },
  {
    "city": "el paso",
    "state_code": "TX",
    "placeMasterId": "P02500000FsoGkn5UfmuL0iF6ZBYePHb6XkiWYkD",
    "placeName": "el paso",
    "state": "TX"
  },
  {
    "city": "golden",
    "state_code": "CO",
    "placeMasterId": "P02500000FsoEnVddyqIqy6CzexvPwtfjuUD30Yo",
    "placeName": "golden",
    "state": "CO"
  },
  {
    "city": "greeley",
    "state_code": "CO",
    "placeMasterId": "P02500000FsoEnVddyqIqy6CzexvPwtiRo4KLbHy",
    "placeName": "greeley",
    "state": "CO"
  },
  {
    "city": "hillrose",
    "state_code": "CO",
    "placeMasterId": "P02500000FsoEneU7aEsdehSASmGprO3uTN6Gitb",
    "placeName": "hillrose",
    "state": "CO"
  },
  {
    "city": "kit carson",
    "state_code": "CO",
    "placeMasterId": "P02500000FsoEnnKbBdSQLIhLGacFlsQvqfNpgBv",
    "placeName": "kit carson",
    "state": "CO"
  },
  {
    "city": "simla",
    "state_code": "CO",
    "placeMasterId": "P02500000FsoEoVYzCcLLmIvDHeLLKKLx4aBgW3J",
    "placeName": "simla",
    "state": "CO"
  },
  {
    "city": "vona",
    "state_code": "CO",
    "placeMasterId": "P02500000FsoEow6Q0o4hq6ejh5Nb3nOXsibNHQp",
    "placeName": "vona",
    "state": "CO"
  },
  {
    "city": "colorado springs",
    "state_code": "CO",
    "placeMasterId": "P02500000FsoEmwFjZFziDhEIRiXkIwGl9Aki2Up",
    "placeName": "colorado springs",
    "state": "CO"
  },
  {
    "city": "colorado springs",
    "state_code": "CO",
    "placeMasterId": "P02500000FsoEmwFjZFziDhEIRiXkIwGl9Aki2Up",
    "placeName": "colorado springs",
    "state": "CO"
  },
  {
    "city": "colorado springs",
    "state_code": "CO",
    "placeMasterId": "P02500000FsoEmwFjZFziDhEIRiXkIwGl9Aki2Up",
    "placeName": "colorado springs",
    "state": "CO"
  },
  {
    "city": "manzanola",
    "state_code": "CO",
    "placeMasterId": "P02500000FsoEnwB4n22D1twW4OxfgMo98HQJ2OR",
    "placeName": "manzanola",
    "state": "CO"
  },
  {
    "city": "wiley",
    "state_code": "CO",
    "placeMasterId": "P02500000FsoEp4wtcCeUWhtuUtj0yHmCRhOVYDh",
    "placeName": "wiley",
    "state": "CO"
  },
  {
    "city": "blanca",
    "state_code": "CO",
    "placeMasterId": "P02500000FsoEmeYmMSq8qUjwq5quTxUVtGMKpBj",
    "placeName": "blanca",
    "state": "CO"
  },
  {
    "city": "grand junction",
    "state_code": "CO",
    "placeMasterId": "P02500000FsoEnMnANRj4HUxor9a02PMjaevUqpr",
    "placeName": "grand junction",
    "state": "CO"
  },
  {
    "city": "van tassell",
    "state_code": "WY",
    "placeMasterId": "P02500000FsoH9lD3E9ulFq4bAI0mr0M0OdjmZKb",
    "placeName": "van tassell",
    "state": "WY"
  },
  {
    "city": "medicine bow",
    "state_code": "WY",
    "placeMasterId": "P02500000FsoH9TW61MlBsdaFYfJx21bQLwzKg06",
    "placeName": "medicine bow",
    "state": "WY"
  },
  {
    "city": "teton village",
    "state_code": "WY",
    "placeMasterId": "P02500000FsoH9lD3E9ulFq4bAI0mr0PXQelU11j",
    "placeName": "teton village",
    "state": "WY"
  },
  {
    "city": "cokeville",
    "state_code": "WY",
    "placeMasterId": "P02500000FsoH8u8BbmS38EbYLPwHO4CqFFRVJh4",
    "placeName": "cokeville",
    "state": "WY"
  },
  {
    "city": "paris",
    "state_code": "ID",
    "placeMasterId": "P02500000FsoF0mM34hysrxyCNU3HgSDCA2flisF",
    "placeName": "paris",
    "state": "ID"
  },
  {
    "city": "idaho falls",
    "state_code": "ID",
    "placeMasterId": "P02500000FsoF0LocGWFWoAEfy311wz9dIeyRUSt",
    "placeName": "idaho falls",
    "state": "ID"
  },
  {
    "city": "melba",
    "state_code": "ID",
    "placeMasterId": "P02500000FsoF0Uf5rupJUlTqlrMRrTXxelX53KM",
    "placeName": "melba",
    "state": "ID"
  },
  {
    "city": "middleton",
    "state_code": "ID",
    "placeMasterId": "P02500000FsoF0Uf5rupJUlTqlrMRrTXTSxpDRtd",
    "placeName": "middleton",
    "state": "ID"
  },
  {
    "city": "boise",
    "state_code": "ID",
    "placeMasterId": "P02500000FsoEzvHBSKWAkMV9YbymDW1T6oUkWas",
    "placeName": "boise",
    "state": "ID"
  },
  {
    "city": "clark fork",
    "state_code": "ID",
    "placeMasterId": "P02500000FsoF047f3j5xQxkKMQKC80ODWNeDnDt",
    "placeName": "clark fork",
    "state": "ID"
  },
  {
    "city": "post falls",
    "state_code": "ID",
    "placeMasterId": "P02500000FsoF0vCWg6YfYZDNBIOhawapGqle5RK",
    "placeName": "post falls",
    "state": "ID"
  },
  {
    "city": "worley",
    "state_code": "ID",
    "placeMasterId": "P02500000FsoF1430HV8SFASXz6k7VR2BZJShZmH",
    "placeName": "worley",
    "state": "ID"
  },
  {
    "city": "peoa",
    "state_code": "UT",
    "placeMasterId": "P02500000FsoGtUicSy7EvMAjZid8zAGiUqeceoX",
    "placeName": "peoa",
    "state": "UT"
  },
  {
    "city": "mendon",
    "state_code": "UT",
    "placeMasterId": "P02500000FsoGtD1fGAxfY9gNy5wJABSoUiIPoQ6",
    "placeName": "mendon",
    "state": "UT"
  },
  {
    "city": "logan",
    "state_code": "UT",
    "placeMasterId": "P02500000FsoGtD1fGAxfY9gNy5wJABQXuZrAmCn",
    "placeName": "logan",
    "state": "UT"
  },
  {
    "city": "aurora",
    "state_code": "UT",
    "placeMasterId": "P02500000FsoGsLwndnUxQYDL9DrnhFDITiiFCVP",
    "placeName": "aurora",
    "state": "UT"
  },
  {
    "city": "la verkin",
    "state_code": "UT",
    "placeMasterId": "P02500000FsoGt4BBemNsrYRDAHatFh7mtZJs32d",
    "placeName": "la verkin",
    "state": "UT"
  },
  {
    "city": "new harmony",
    "state_code": "UT",
    "placeMasterId": "P02500000FsoGtLs8rZXSEkvYluHj4fqzXcr5kzg",
    "placeName": "new harmony",
    "state": "UT"
  },
  {
    "city": "phoenix",
    "state_code": "AZ",
    "placeMasterId": "P02500000FsoEZWgqrzjtdEDuvO4SetJca76kZR3",
    "placeName": "phoenix",
    "state": "AZ"
  },
  {
    "city": "coolidge",
    "state_code": "AZ",
    "placeMasterId": "P02500000FsoEYNv22p7c8QGWUtJ7MyM4jl7D0ER",
    "placeName": "coolidge",
    "state": "AZ"
  },
  {
    "city": "paradise valley",
    "state_code": "AZ",
    "placeMasterId": "P02500000FsoEZNqNGbA6wcyk7Zj2kOxMZwjpcFz",
    "placeName": "paradise valley",
    "state": "AZ"
  },
  {
    "city": "gilbert",
    "state_code": "AZ",
    "placeMasterId": "P02500000FsoEYoSSr0qyCE02uKLN6RRSCzrOsv4",
    "placeName": "gilbert",
    "state": "AZ"
  },
  {
    "city": "arlington",
    "state_code": "AZ",
    "placeMasterId": "P02500000FsoEXxNbEdOG4cX05SGrdVGH4FMDUTE",
    "placeName": "arlington",
    "state": "AZ"
  },
  {
    "city": "buckeye",
    "state_code": "AZ",
    "placeMasterId": "P02500000FsoEY6E4q1y2lDmAtGcHXzd6oJTSQwm",
    "placeName": "buckeye",
    "state": "AZ"
  },
  {
    "city": "globe",
    "state_code": "AZ",
    "placeMasterId": "P02500000FsoEYoSSr0qyCE02uKLN6RRVrrOVSFZ",
    "placeName": "globe",
    "state": "AZ"
  },
  {
    "city": "pine",
    "state_code": "AZ",
    "placeMasterId": "P02500000FsoEZWgqrzjtdEDuvO4SetI9HBFmPDZ",
    "placeName": "pine",
    "state": "AZ"
  },
  {
    "city": "elgin",
    "state_code": "AZ",
    "placeMasterId": "P02500000FsoEYfbzFcHBVcks6VzxBx3OZrqf5n1",
    "placeName": "elgin",
    "state": "AZ"
  },
  {
    "city": "tucson",
    "state_code": "AZ",
    "placeMasterId": "P02500000FsoEa64lHa32NdCc8dS8IqpdZHyNtyf",
    "placeName": "tucson",
    "state": "AZ"
  },
  {
    "city": "tucson",
    "state_code": "AZ",
    "placeMasterId": "P02500000FsoEa64lHa32NdCc8dS8IqpdZHyNtyf",
    "placeName": "tucson",
    "state": "AZ"
  },
  {
    "city": "clay springs",
    "state_code": "AZ",
    "placeMasterId": "P02500000FsoEYNv22p7c8QGWUtJ7MyL7vugrQ8y",
    "placeName": "clay springs",
    "state": "AZ"
  },
  {
    "city": "nutrioso",
    "state_code": "AZ",
    "placeMasterId": "P02500000FsoEZNqNGbA6wcyk7Zj2kOxqA1UtQrU",
    "placeName": "nutrioso",
    "state": "AZ"
  },
  {
    "city": "prescott",
    "state_code": "AZ",
    "placeMasterId": "P02500000FsoEZWgqrzjtdEDuvO4SetLLT5c7740",
    "placeName": "prescott",
    "state": "AZ"
  },
  {
    "city": "hackberry",
    "state_code": "AZ",
    "placeMasterId": "P02500000FsoEYoSSr0qyCE02uKLN6RVJ2UrnOeo",
    "placeName": "hackberry",
    "state": "AZ"
  },
  {
    "city": "los lunas",
    "state_code": "NM",
    "placeMasterId": "P02500000FsoFzYvS1ZrPZsEQdPDJp8RgmKkSXHV",
    "placeName": "los lunas",
    "state": "NM"
  },
  {
    "city": "albuquerque",
    "state_code": "NM",
    "placeMasterId": "P02500000FsoFyHJ9b0fLOT1rP66Ycj5SoodoNbU",
    "placeName": "albuquerque",
    "state": "NM"
  },
  {
    "city": "waterflow",
    "state_code": "NM",
    "placeMasterId": "P02500000FsoG0hhGqkTh4gBp3tyf73RoM6zdcdy",
    "placeName": "waterflow",
    "state": "NM"
  },
  {
    "city": "san cristobal",
    "state_code": "NM",
    "placeMasterId": "P02500000FsoG08JMRAAYKHD7qeazT6A7Yj1c8Pm",
    "placeName": "san cristobal",
    "state": "NM"
  },
  {
    "city": "reserve",
    "state_code": "NM",
    "placeMasterId": "P02500000FsoG08JMRAAYKHD7qeazT61E80TPNtN",
    "placeName": "reserve",
    "state": "NM"
  },
  {
    "city": "chamberino",
    "state_code": "NM",
    "placeMasterId": "P02500000FsoFyZ06nnoulfWD0inORhrNVpHChhT",
    "placeName": "chamberino",
    "state": "NM"
  },
  {
    "city": "bent",
    "state_code": "NM",
    "placeMasterId": "P02500000FsoFyHJ9b0fLOT1rP66YcjI9onwWk0n",
    "placeName": "bent",
    "state": "NM"
  },
  {
    "city": "vaughn",
    "state_code": "NM",
    "placeMasterId": "P02500000FsoG0hhGqkTh4gBp3tyf73RzAIRZR34",
    "placeName": "vaughn",
    "state": "NM"
  },
  {
    "city": "clayton",
    "state_code": "NM",
    "placeMasterId": "P02500000FsoFyZ06nnoulfWD0inORhwXfelkkQG",
    "placeName": "clayton",
    "state": "NM"
  },
  {
    "city": "logan",
    "state_code": "NM",
    "placeMasterId": "P02500000FsoFzYvS1ZrPZsEQdPDJp8QvH7gahsa",
    "placeName": "logan",
    "state": "NM"
  },
  {
    "city": "las vegas",
    "state_code": "NV",
    "placeMasterId": "P02500000FsoFuQSGJJ58qFQ9iAmH1VC0RKB5lYR",
    "placeName": "las vegas",
    "state": "NV"
  },
  {
    "city": "las vegas",
    "state_code": "NV",
    "placeMasterId": "P02500000FsoFuQSGJJ58qFQ9iAmH1VC0RKB5lYR",
    "placeName": "las vegas",
    "state": "NV"
  },
  {
    "city": "dayton",
    "state_code": "NV",
    "placeMasterId": "P02500000FsoFuHbmhuVM9eAyuMQr70hlWJCQTOZ",
    "placeName": "dayton",
    "state": "NV"
  },
  {
    "city": "virginia city",
    "state_code": "NV",
    "placeMasterId": "P02500000FsoFuqzh7UoUu39g7boWkyBg7dU7J4a",
    "placeName": "virginia city",
    "state": "NV"
  },
  {
    "city": "reno",
    "state_code": "NV",
    "placeMasterId": "P02500000FsoFuZIjuhevWqfKVz7gvzemDKMzraO",
    "placeName": "reno",
    "state": "NV"
  },
  {
    "city": "reno",
    "state_code": "NV",
    "placeMasterId": "P02500000FsoFuZIjuhevWqfKVz7gvzemDKMzraO",
    "placeName": "reno",
    "state": "NV"
  },
  {
    "city": "southwick",
    "state_code": "MA",
    "placeMasterId": "P02500000FsoHeILEIzQoIORt63wDpq3IAxrxrk4",
    "placeName": "southwick",
    "state": "MA"
  },
  {
    "city": "housatonic",
    "state_code": "MA",
    "placeMasterId": "P02500000FsoFWSG2yi7DPKIsjkk3xCqHnLaAW3i",
    "placeName": "housatonic",
    "state": "MA"
  },
  {
    "city": "north adams",
    "state_code": "MA",
    "placeMasterId": "P02500000FsoFWb6Wa6h05vY3XZ5TrhHjYBjM0Mp",
    "placeName": "north adams",
    "state": "MA"
  },
  {
    "city": "petersham",
    "state_code": "MA",
    "placeMasterId": "P02500000FsoHeILEIzQoIORt63wDpprPnUE1UnE",
    "placeName": "petersham",
    "state": "MA"
  },
  {
    "city": "worcester",
    "state_code": "MA",
    "placeMasterId": "P02500000FsoFX1dxOIQM9jHZx07jbAFLDi9kkRa",
    "placeName": "worcester",
    "state": "MA"
  },
  {
    "city": "framingham",
    "state_code": "MA",
    "placeMasterId": "P02500000FsoHBBfpG7gc7qWLCPSxxu3djVuiJ4h",
    "placeName": "framingham",
    "state": "MA"
  },
  {
    "city": "tewksbury",
    "state_code": "MA",
    "placeMasterId": "P02500000FsoHeRBhuO0ayzh3tsHdkKGmuVZwAE1",
    "placeName": "tewksbury",
    "state": "MA"
  },
  {
    "city": "boston",
    "state_code": "MA",
    "placeMasterId": "P02500000FsoFWJPZNJXQij3hvwOe2iNmqEqJmO9",
    "placeName": "boston",
    "state": "MA"
  },
  {
    "city": "east bridgewater",
    "state_code": "MA",
    "placeMasterId": "P02500000FsoHdixJtP7fXzTBsoYYBsM6Q5Ex8Ci",
    "placeName": "east bridgewater",
    "state": "MA"
  },
  {
    "city": "holbrook",
    "state_code": "MA",
    "placeMasterId": "P02500000FsoHBBfpG7gc7qWLCPSxxuFvdAqv74H",
    "placeName": "holbrook",
    "state": "MA"
  },
  {
    "city": "harwich",
    "state_code": "MA",
    "placeMasterId": "P02500000FsoHdixJtP7fXzTBsoYYBsWU551ZkPa",
    "placeName": "harwich",
    "state": "MA"
  },
  {
    "city": "charlestown",
    "state_code": "RI",
    "placeMasterId": "P02500000FsoIYwMmlMZZ4sc43R58YJKaqAk5Y9y",
    "placeName": "charlestown",
    "state": "RI"
  },
  {
    "city": "chepachet",
    "state_code": "RI",
    "placeMasterId": "P02500000FsoGawgY3R59bGM589ioXTuqK8Suyp0",
    "placeName": "chepachet",
    "state": "RI"
  },
  {
    "city": "cumberland",
    "state_code": "RI",
    "placeMasterId": "P02500000FsoIYwMmlMZZ4sc43R58YJKt4B4Pq65",
    "placeName": "cumberland",
    "state": "RI"
  },
  {
    "city": "north providence",
    "state_code": "RI",
    "placeMasterId": "P02500000FsoHDtktieeXBGAeSq1uHDDvlDANKO5",
    "placeName": "north providence",
    "state": "RI"
  },
  {
    "city": "fremont",
    "state_code": "NH",
    "placeMasterId": "P02500000FsoIBXYTqLumOMTUIGQb7ySNxBdLL7Y",
    "placeName": "fremont",
    "state": "NH"
  },
  {
    "city": "holderness",
    "state_code": "NH",
    "placeMasterId": "P02500000FsoIBgOxRkUZ4xif64m12SlmbbT3zPP",
    "placeName": "holderness",
    "state": "NH"
  },
  {
    "city": "loudon",
    "state_code": "NH",
    "placeMasterId": "P02500000FsoIBpFR394LlYxptt7Qwx6PiEukDfg",
    "placeName": "loudon",
    "state": "NH"
  },
  {
    "city": "sullivan",
    "state_code": "NH",
    "placeMasterId": "P02500000FsoICFmrrKnhpMhMJK9ggQIcxf3Eurk",
    "placeName": "sullivan",
    "state": "NH"
  },
  {
    "city": "bath",
    "state_code": "NH",
    "placeMasterId": "P02500000FsoIBOi0ExKzhlEJUS5BDTzEDe32MSM",
    "placeName": "bath",
    "state": "NH"
  },
  {
    "city": "hanover",
    "state_code": "NH",
    "placeMasterId": "P02500000FsoHBTMmSuqBV30go29nmt0UDUvRjdh",
    "placeName": "hanover",
    "state": "NH"
  },
  {
    "city": "new gloucester",
    "state_code": "ME",
    "placeMasterId": "P02500000FsoHfreTwLmRr08nvzjorE3bZ9G3AKX",
    "placeName": "new gloucester",
    "state": "ME"
  },
  {
    "city": "poland",
    "state_code": "ME",
    "placeMasterId": "P02500000FsoHg9LR98w1ECd9XcQegCmpKY4uUje",
    "placeName": "poland",
    "state": "ME"
  },
  {
    "city": "weld",
    "state_code": "ME",
    "placeMasterId": "P02500000FsoHgZsrxKfNI0Mfx3SuPfx3d3B2DwR",
    "placeName": "weld",
    "state": "ME"
  },
  {
    "city": "carmel",
    "state_code": "ME",
    "placeMasterId": "P02500000FsoHf0ZcJyJjjOfl77fJOHjT0VVmLCr",
    "placeName": "carmel",
    "state": "ME"
  },
  {
    "city": "danforth",
    "state_code": "ME",
    "placeMasterId": "P02500000FsoHf9Q5vMtWPzuvuw0jIm61Jmiycff",
    "placeName": "danforth",
    "state": "ME"
  },
  {
    "city": "orono",
    "state_code": "ME",
    "placeMasterId": "P02500000FsoHATRRF8nggqITBLjsPSRe9p7HzKr",
    "placeName": "orono",
    "state": "ME"
  },
  {
    "city": "franklin",
    "state_code": "ME",
    "placeMasterId": "P02500000FsoHfIGZWlTJ6bA6ikM9DGVcUl6NLRd",
    "placeName": "franklin",
    "state": "ME"
  },
  {
    "city": "new sweden",
    "state_code": "ME",
    "placeMasterId": "P02500000FsoHg0UxXkMEXbNyjo5EliKzXFD3o30",
    "placeName": "new sweden",
    "state": "ME"
  },
  {
    "city": "hope",
    "state_code": "ME",
    "placeMasterId": "P02500000FsoHfR738A35nCPHWYhZ7kzr7iGbQVE",
    "placeName": "hope",
    "state": "ME"
  },
  {
    "city": "new sharon",
    "state_code": "ME",
    "placeMasterId": "P02500000FsoHg0UxXkMEXbNyjo5EliMR3a6m3fQ",
    "placeName": "new sharon",
    "state": "ME"
  },
  {
    "city": "unity",
    "state_code": "ME",
    "placeMasterId": "P02500000FsoHAl8ORvxG42momyQiER436JUe1MM",
    "placeName": "unity",
    "state": "ME"
  },
  {
    "city": "barnard",
    "state_code": "VT",
    "placeMasterId": "P02500000FsoIeMWvgQVPBhugaID1AvQdhkzmULl",
    "placeName": "barnard",
    "state": "VT"
  },
  {
    "city": "pownal",
    "state_code": "VT",
    "placeMasterId": "P02500000FsoIevuq60oXw6tNnXagosv20abl80X",
    "placeName": "pownal",
    "state": "VT"
  },
  {
    "city": "north hero",
    "state_code": "VT",
    "placeMasterId": "P02500000FsoIevuq60oXw6tNnXagostyUAVGe5k",
    "placeName": "north hero",
    "state": "VT"
  },
  {
    "city": "moretown",
    "state_code": "VT",
    "placeMasterId": "P02500000FsoIevuq60oXw6tNnXagosr50iGRGwL",
    "placeName": "moretown",
    "state": "VT"
  },
  {
    "city": "stockbridge",
    "state_code": "VT",
    "placeMasterId": "P02500000FsoIfMSGuCXtzucuCycwYLz5yhS7SaQ",
    "placeName": "stockbridge",
    "state": "VT"
  },
  {
    "city": "east haven",
    "state_code": "VT",
    "placeMasterId": "P02500000FsoIeVNPHp5BsJ9rO6YR5PmrcVw1W9P",
    "placeName": "east haven",
    "state": "VT"
  },
  {
    "city": "irasburg",
    "state_code": "VT",
    "placeMasterId": "P02500000FsoIen4MUcElFVeCzjFGuOVaGOPG7dt",
    "placeName": "irasburg",
    "state": "VT"
  },
  {
    "city": "sheffield",
    "state_code": "VT",
    "placeMasterId": "P02500000FsoIf4lJhPOKci8YbLw6jNHmXO0ymrB",
    "placeName": "sheffield",
    "state": "VT"
  },
  {
    "city": "collinsville",
    "state_code": "CT",
    "placeMasterId": "P02500000FsoEp4wtcCeUWhtuUtj0yHogleT2XEM",
    "placeName": "collinsville",
    "state": "CT"
  },
  {
    "city": "bolton",
    "state_code": "CT",
    "placeMasterId": "P02500000FsoHGK90yOSsrTKc7du0lXXFAbiZGMy",
    "placeName": "bolton",
    "state": "CT"
  },
  {
    "city": "north granby",
    "state_code": "CT",
    "placeMasterId": "P02500000FsoEpDnNDbEHDJ95Ii4QsmAqbZb765o",
    "placeName": "north granby",
    "state": "CT"
  },
  {
    "city": "hartford",
    "state_code": "CT",
    "placeMasterId": "P02500000FsoEp4wtcCeUWhtuUtj0yHnuNbUVDLP",
    "placeName": "hartford",
    "state": "CT"
  },
  {
    "city": "willimantic",
    "state_code": "CT",
    "placeMasterId": "P02500000FsoEpeKo1mxdH6sbi96gcFFKiwGfICC",
    "placeName": "willimantic",
    "state": "CT"
  },
  {
    "city": "old lyme",
    "state_code": "CT",
    "placeMasterId": "P02500000FsoHGbpyBBcSEfoxjGaqaWIY7n5dpia",
    "placeName": "old lyme",
    "state": "CT"
  },
  {
    "city": "ansonia",
    "state_code": "CT",
    "placeMasterId": "P02500000FsoEp4wtcCeUWhtuUtj0yHm2yHW5nyd",
    "placeName": "ansonia",
    "state": "CT"
  },
  {
    "city": "bridgeport",
    "state_code": "CT",
    "placeMasterId": "P02500000FsoEp4wtcCeUWhtuUtj0yHmMyLTfY5r",
    "placeName": "bridgeport",
    "state": "CT"
  },
  {
    "city": "waterbury",
    "state_code": "CT",
    "placeMasterId": "P02500000FsoEpVUKQONqaVdQuKlGhkvBzGUwIUs",
    "placeName": "waterbury",
    "state": "CT"
  },
  {
    "city": "bantam",
    "state_code": "CT",
    "placeMasterId": "P02500000FsoEp4wtcCeUWhtuUtj0yHn2KSkviyn",
    "placeName": "bantam",
    "state": "CT"
  },
  {
    "city": "morris",
    "state_code": "CT",
    "placeMasterId": "P02500000FsoHGbpyBBcSEfoxjGaqaWESXf7C8Nf",
    "placeName": "morris",
    "state": "CT"
  },
  {
    "city": "norwalk",
    "state_code": "CT",
    "placeMasterId": "P02500000FsoEpMdqozo3tuOG6WPqnGVjKk8zkLb",
    "placeName": "norwalk",
    "state": "CT"
  },
  {
    "city": "hoboken",
    "state_code": "NJ",
    "placeMasterId": "P02500000FsoFwHST9SaLm3bQ9jGhrrxCbndW9xJ",
    "placeName": "hoboken",
    "state": "NJ"
  },
  {
    "city": "newark",
    "state_code": "NJ",
    "placeMasterId": "P02500000FsoFwqqNZ2tUWSa7MyeNVpQgYNosLBh",
    "placeName": "newark",
    "state": "NJ"
  },
  {
    "city": "waldwick",
    "state_code": "NJ",
    "placeMasterId": "P02500000FsoFxzcCODVm1GXVnTPinkQZMvcKxZT",
    "placeName": "waldwick",
    "state": "NJ"
  },
  {
    "city": "paterson",
    "state_code": "NJ",
    "placeMasterId": "P02500000FsoFxHNoNEcqaGJdmPgdFIXGNmXiJXB",
    "placeName": "paterson",
    "state": "NJ"
  },
  {
    "city": "paterson",
    "state_code": "NJ",
    "placeMasterId": "P02500000FsoFxHNoNEcqaGJdmPgdFIXGNmXiJXB",
    "placeName": "paterson",
    "state": "NJ"
  },
  {
    "city": "barnegat light",
    "state_code": "NJ",
    "placeMasterId": "P02500000FsoFvHX7vgXqxqtCX2qmUROFwiXBbAi",
    "placeName": "barnegat light",
    "state": "NJ"
  },
  {
    "city": "elwood",
    "state_code": "NJ",
    "placeMasterId": "P02500000FsoFvqv2LGqziFrtkIES8OnaMcY8Ice",
    "placeName": "elwood",
    "state": "NJ"
  },
  {
    "city": "pleasantville",
    "state_code": "NJ",
    "placeMasterId": "P02500000FsoFxHNoNEcqaGJdmPgdFIajEf1IWtm",
    "placeName": "pleasantville",
    "state": "NJ"
  },
  {
    "city": "somers point",
    "state_code": "NJ",
    "placeMasterId": "P02500000FsoFxhvFBQMCe43ABqisylbLWSu6BKo",
    "placeName": "somers point",
    "state": "NJ"
  },
  {
    "city": "wildwood",
    "state_code": "NJ",
    "placeMasterId": "P02500000FsoFxzcCODVm1GXVnTPinkTArTc0InG",
    "placeName": "wildwood",
    "state": "NJ"
  },
  {
    "city": "metuchen",
    "state_code": "NJ",
    "placeMasterId": "P02500000FsoFwhztxeJhprKwZAIxbL7IezKvaTn",
    "placeName": "metuchen",
    "state": "NJ"
  },
  {
    "city": "new york",
    "state_code": "NY",
    "placeMasterId": "P02500000FsoG3hTIW4bBVIKTvxERFLPbpMNP8u9",
    "placeName": "new york",
    "state": "NY"
  },
  {
    "city": "new york",
    "state_code": "NY",
    "placeMasterId": "P02500000FsoG3hTIW4bBVIKTvxERFLPbpMNP8u9",
    "placeName": "new york",
    "state": "NY"
  },
  {
    "city": "staten island",
    "state_code": "NY",
    "placeMasterId": "P02500000FsoHDBWVhflbkFwmRmIoilOWW8CMZ4T",
    "placeName": "staten island",
    "state": "NY"
  },
  {
    "city": "staten island",
    "state_code": "NY",
    "placeMasterId": "P02500000FsoHDBWVhflbkFwmRmIoilOWW8CMZ4T",
    "placeName": "staten island",
    "state": "NY"
  },
  {
    "city": "bedford",
    "state_code": "NY",
    "placeMasterId": "P02500000FsoHDkuQ7G4kUevTf1gUMipqdheEkBA",
    "placeName": "bedford",
    "state": "NY"
  },
  {
    "city": "mount vernon",
    "state_code": "NY",
    "placeMasterId": "P02500000FsoG3hTIW4bBVIKTvxERFLC2iu9cqko",
    "placeName": "mount vernon",
    "state": "NY"
  },
  {
    "city": "thiells",
    "state_code": "NY",
    "placeMasterId": "P02500000FsoG5GmY9Qwp3u1Olt22GjNI8pDks2i",
    "placeName": "thiells",
    "state": "NY"
  },
  {
    "city": "unionville",
    "state_code": "NY",
    "placeMasterId": "P02500000FsoG5GmY9Qwp3u1Olt22GjPe2xiivt6",
    "placeName": "unionville",
    "state": "NY"
  },
  {
    "city": "west nyack",
    "state_code": "NY",
    "placeMasterId": "P02500000FsoG5hJyxcgB7hkvBK4I0CYGscmU5q7",
    "placeName": "west nyack",
    "state": "NY"
  },
  {
    "city": "floral park",
    "state_code": "NY",
    "placeMasterId": "P02500000FsoG2H0WU6pKdHsjtpmG8RX7d8wqlnJ",
    "placeName": "floral park",
    "state": "NY"
  },
  {
    "city": "great neck",
    "state_code": "NY",
    "placeMasterId": "P02500000FsoG2Pr05VP7Jt7uhe7g2vySCJk4o3L",
    "placeName": "great neck",
    "state": "NY"
  },
  {
    "city": "great neck",
    "state_code": "NY",
    "placeMasterId": "P02500000FsoG2Pr05VP7Jt7uhe7g2vySCJk4o3L",
    "placeName": "great neck",
    "state": "NY"
  },
  {
    "city": "brooklyn",
    "state_code": "NY",
    "placeMasterId": "P02500000FsoHCc8bI5SSzqy5EWv94nnzJKQNSS5",
    "placeName": "brooklyn",
    "state": "NY"
  },
  {
    "city": "brooklyn",
    "state_code": "NY",
    "placeMasterId": "P02500000FsoHCc8bI5SSzqy5EWv94nnzJKQNSS5",
    "placeName": "brooklyn",
    "state": "NY"
  },
  {
    "city": "freeport",
    "state_code": "NY",
    "placeMasterId": "P02500000FsoG2H0WU6pKdHsjtpmG8RXhEFh67qN",
    "placeName": "freeport",
    "state": "NY"
  },
  {
    "city": "patchogue",
    "state_code": "NY",
    "placeMasterId": "P02500000FsoG480jKGKXZ640LOGgyoPfKld8d82",
    "placeName": "patchogue",
    "state": "NY"
  },
  {
    "city": "stony brook",
    "state_code": "NY",
    "placeMasterId": "P02500000FsoG57w4Y2N2NImDy4gcMF8ig2PgiUs",
    "placeName": "stony brook",
    "state": "NY"
  },
  {
    "city": "shelter island heights",
    "state_code": "NY",
    "placeMasterId": "P02500000FsoG4z5awdnFghX3AGLCRkZ30C3BSU3",
    "placeName": "shelter island heights",
    "state": "NY"
  },
  {
    "city": "wainscott",
    "state_code": "NY",
    "placeMasterId": "P02500000FsoG5Pd1kpWbkVGZZhNSBDk1cT6TuAO",
    "placeName": "wainscott",
    "state": "NY"
  },
  {
    "city": "fultonville",
    "state_code": "NY",
    "placeMasterId": "P02500000FsoG2H0WU6pKdHsjtpmG8Rb2iZJXluO",
    "placeName": "fultonville",
    "state": "NY"
  },
  {
    "city": "gloversville",
    "state_code": "NY",
    "placeMasterId": "P02500000FsoG2Pr05VP7Jt7uhe7g2vwuznDFYQr",
    "placeName": "gloversville",
    "state": "NY"
  },
  {
    "city": "johnstown",
    "state_code": "NY",
    "placeMasterId": "P02500000FsoG2zEuV5iG4I6butVLgtUevYgk4xl",
    "placeName": "johnstown",
    "state": "NY"
  },
  {
    "city": "schenevus",
    "state_code": "NY",
    "placeMasterId": "P02500000FsoG4qF7LFDT06HsMRzmXGGqA2Cnws0",
    "placeName": "schenevus",
    "state": "NY"
  },
  {
    "city": "albany",
    "state_code": "NY",
    "placeMasterId": "P02500000FsoG0qXkS93TlHQzriK51XlWeUkwFLA",
    "placeName": "albany",
    "state": "NY"
  },
  {
    "city": "schenectady",
    "state_code": "NY",
    "placeMasterId": "P02500000FsoG4hOdjqdgJV2hYdeMcm1RzdPFAPT",
    "placeName": "schenectady",
    "state": "NY"
  },
  {
    "city": "kingston",
    "state_code": "NY",
    "placeMasterId": "P02500000FsoG385O6UI2ktLmihqlbNj9WcOLljx",
    "placeName": "kingston",
    "state": "NY"
  },
  {
    "city": "rifton",
    "state_code": "NY",
    "placeMasterId": "P02500000FsoG4YYA8S3tctnWkpIwiHTh5jTiA8F",
    "placeName": "rifton",
    "state": "NY"
  },
  {
    "city": "hyde park",
    "state_code": "NY",
    "placeMasterId": "P02500000FsoIF6iPvGLPZNaqNZ42uDt26SPC81O",
    "placeName": "hyde park",
    "state": "NY"
  },
  {
    "city": "south fallsburg",
    "state_code": "NY",
    "placeMasterId": "P02500000FsoG4z5awdnFghX3AGLCRkjTL27mYLM",
    "placeName": "south fallsburg",
    "state": "NY"
  },
  {
    "city": "woodridge",
    "state_code": "NY",
    "placeMasterId": "P02500000FsoG5hJyxcgB7hkvBK4I0CaDmIIvyQO",
    "placeName": "woodridge",
    "state": "NY"
  },
  {
    "city": "lake george",
    "state_code": "NY",
    "placeMasterId": "P02500000FsoHDTDSuSvB7SR83OzeXkCVLYTJJf4",
    "placeName": "lake george",
    "state": "NY"
  },
  {
    "city": "altona",
    "state_code": "NY",
    "placeMasterId": "P02500000FsoHCBbATtj6w3EYp5stLKfeoMT34yX",
    "placeName": "altona",
    "state": "NY"
  },
  {
    "city": "burke",
    "state_code": "NY",
    "placeMasterId": "P02500000FsoHCKRe5IItceTjcuEJFpD2bKiQbQL",
    "placeName": "burke",
    "state": "NY"
  },
  {
    "city": "keeseville",
    "state_code": "NY",
    "placeMasterId": "P02500000FsoG385O6UI2ktLmihqlbNmjpVfvlXW",
    "placeName": "keeseville",
    "state": "NY"
  },
  {
    "city": "crown point",
    "state_code": "NY",
    "placeMasterId": "P02500000FsoIEOU1uHSU8NMyMVKxLlyP6JhgeVL",
    "placeName": "crown point",
    "state": "NY"
  },
  {
    "city": "essex",
    "state_code": "NY",
    "placeMasterId": "P02500000FsoIEgAz74c3VZrJy81nAkkGUhxuDuY",
    "placeName": "essex",
    "state": "NY"
  },
  {
    "city": "mexico",
    "state_code": "NY",
    "placeMasterId": "P02500000FsoHD2g26HBp3ehbdxxOoH3eJmDzE32",
    "placeName": "mexico",
    "state": "NY"
  },
  {
    "city": "seneca falls",
    "state_code": "NY",
    "placeMasterId": "P02500000FsoHDKMzJ4LOQrBxFaeEdFgWFPHnu7C",
    "placeName": "seneca falls",
    "state": "NY"
  },
  {
    "city": "redfield",
    "state_code": "NY",
    "placeMasterId": "P02500000FsoIGOKiLpXTkmnPbsAo6d4ttKWmF5Y",
    "placeName": "redfield",
    "state": "NY"
  },
  {
    "city": "utica",
    "state_code": "NY",
    "placeMasterId": "P02500000FsoG5Pd1kpWbkVGZZhNSBDl0kUOD6FN",
    "placeName": "utica",
    "state": "NY"
  },
  {
    "city": "watertown",
    "state_code": "NY",
    "placeMasterId": "P02500000FsoG5YTVME6OR6VkNVis5iBT2r9jLCe",
    "placeName": "watertown",
    "state": "NY"
  },
  {
    "city": "chaumont",
    "state_code": "NY",
    "placeMasterId": "P02500000FsoG1Ym8T7wPCHersm3AZziObPQY3T5",
    "placeName": "chaumont",
    "state": "NY"
  },
  {
    "city": "edwards",
    "state_code": "NY",
    "placeMasterId": "P02500000FsoHDBWVhflbkFwmRmIoilK6cGK4bIy",
    "placeName": "edwards",
    "state": "NY"
  },
  {
    "city": "star lake",
    "state_code": "NY",
    "placeMasterId": "P02500000FsoG57w4Y2N2NImDy4gcMEuKhNBcg4s",
    "placeName": "star lake",
    "state": "NY"
  },
  {
    "city": "windsor",
    "state_code": "NY",
    "placeMasterId": "P02500000FsoHBl3jfhzksFV2Peqdbro1FAahDam",
    "placeName": "windsor",
    "state": "NY"
  },
  {
    "city": "lockport",
    "state_code": "NY",
    "placeMasterId": "P02500000FsoG3GvrhsrpRUaxWWCBVs8VC2sqf1B",
    "placeName": "lockport",
    "state": "NY"
  },
  {
    "city": "north tonawanda",
    "state_code": "NY",
    "placeMasterId": "P02500000FsoG3zAFirkksUopXZvH4JxnkhaKhuQ",
    "placeName": "north tonawanda",
    "state": "NY"
  },
  {
    "city": "pike",
    "state_code": "NY",
    "placeMasterId": "P02500000FsoHDkuQ7G4kUevTf1gUMiywEWAzGau",
    "placeName": "pike",
    "state": "NY"
  },
  {
    "city": "stafford",
    "state_code": "NY",
    "placeMasterId": "P02500000FsoIGos9A1GpoaWw1JD3q6I7qhVyYu8",
    "placeName": "stafford",
    "state": "NY"
  },
  {
    "city": "buffalo",
    "state_code": "NY",
    "placeMasterId": "P02500000FsoG1H5BGKmpp5AWH9MKl12AT3E2vOM",
    "placeName": "buffalo",
    "state": "NY"
  },
  {
    "city": "buffalo",
    "state_code": "NY",
    "placeMasterId": "P02500000FsoG1H5BGKmpp5AWH9MKl12AT3E2vOM",
    "placeName": "buffalo",
    "state": "NY"
  },
  {
    "city": "conesus",
    "state_code": "NY",
    "placeMasterId": "P02500000FsoIEOU1uHSU8NMyMVKxLlwhODbB4ST",
    "placeName": "conesus",
    "state": "NY"
  },
  {
    "city": "honeoye falls",
    "state_code": "NY",
    "placeMasterId": "P02500000FsoG2hXxIIYgh5cGJGoVrupzH5XJlFc",
    "placeName": "honeoye falls",
    "state": "NY"
  },
  {
    "city": "leicester",
    "state_code": "NY",
    "placeMasterId": "P02500000FsoHCkz4tU2FgSDG2LGYzIBZloIrMup",
    "placeName": "leicester",
    "state": "NY"
  },
  {
    "city": "pittsford",
    "state_code": "NY",
    "placeMasterId": "P02500000FsoHCc8bI5SSzqy5EWv94o27wCTW9WI",
    "placeName": "pittsford",
    "state": "NY"
  },
  {
    "city": "wyoming",
    "state_code": "NY",
    "placeMasterId": "P02500000FsoG5hJyxcgB7hkvBK4I0CdB5Kpf5d5",
    "placeName": "wyoming",
    "state": "NY"
  },
  {
    "city": "rochester",
    "state_code": "NY",
    "placeMasterId": "P02500000FsoG4YYA8S3tctnWkpIwiHXc7FWLpT6",
    "placeName": "rochester",
    "state": "NY"
  },
  {
    "city": "rochester",
    "state_code": "NY",
    "placeMasterId": "P02500000FsoG4YYA8S3tctnWkpIwiHXc7FWLpT6",
    "placeName": "rochester",
    "state": "NY"
  },
  {
    "city": "east otto",
    "state_code": "NY",
    "placeMasterId": "P02500000FsoIEgAz74c3VZrJy81nAkWgSaUR3Da",
    "placeName": "east otto",
    "state": "NY"
  },
  {
    "city": "savona",
    "state_code": "NY",
    "placeMasterId": "P02500000FsoG4qF7LFDT06HsMRzmXGEkrJue1qE",
    "placeName": "savona",
    "state": "NY"
  },
  {
    "city": "lawrence",
    "state_code": "PA",
    "placeMasterId": "P02500000FsoGVEpRvZzk7EZ6zfu65t53aEVsjrC",
    "placeName": "lawrence",
    "state": "PA"
  },
  {
    "city": "braddock",
    "state_code": "PA",
    "placeMasterId": "P02500000FsoGRF852TpksPiEUwEOaAkzUxKWMh3",
    "placeName": "braddock",
    "state": "PA"
  },
  {
    "city": "mckeesport",
    "state_code": "PA",
    "placeMasterId": "P02500000FsoGVfMsjlj6B2IdP6wLpMCwxDFHgSS",
    "placeName": "mckeesport",
    "state": "PA"
  },
  {
    "city": "wilmerding",
    "state_code": "PA",
    "placeMasterId": "P02500000FsoGaezaqdvaE3rjWX1yiVDCxvzP81L",
    "placeName": "wilmerding",
    "state": "PA"
  },
  {
    "city": "pittsburgh",
    "state_code": "PA",
    "placeMasterId": "P02500000FsoGXfDZBJo5nRj4eTmCaDENhHWAB15",
    "placeName": "pittsburgh",
    "state": "PA"
  },
  {
    "city": "pittsburgh",
    "state_code": "PA",
    "placeMasterId": "P02500000FsoGXfDZBJo5nRj4eTmCaDENhHWAB15",
    "placeName": "pittsburgh",
    "state": "PA"
  },
  {
    "city": "pittsburgh",
    "state_code": "PA",
    "placeMasterId": "P02500000FsoGXfDZBJo5nRj4eTmCaDENhHWAB15",
    "placeName": "pittsburgh",
    "state": "PA"
  },
  {
    "city": "daisytown",
    "state_code": "PA",
    "placeMasterId": "P02500000FsoGSNttreS2NDfcvQzjs5hbSrRNP73",
    "placeName": "daisytown",
    "state": "PA"
  },
  {
    "city": "delmont",
    "state_code": "PA",
    "placeMasterId": "P02500000FsoGSWkNT31p3ounjFL9mZtvcdnYrQt",
    "placeName": "delmont",
    "state": "PA"
  },
  {
    "city": "slickville",
    "state_code": "PA",
    "placeMasterId": "P02500000FsoGYwprbt09yqvdsmsxmcb5Yxnos7X",
    "placeName": "slickville",
    "state": "PA"
  },
  {
    "city": "worthville",
    "state_code": "PA",
    "placeMasterId": "P02500000FsoGaezaqdvaE3rjWX1yiVEknCrerCA",
    "placeName": "worthville",
    "state": "PA"
  },
  {
    "city": "valencia",
    "state_code": "PA",
    "placeMasterId": "P02500000FsoGZwlCpf2en3drVTItA3Fm4U7tK0a",
    "placeName": "valencia",
    "state": "PA"
  },
  {
    "city": "enon valley",
    "state_code": "PA",
    "placeMasterId": "P02500000FsoGT68HsdKxoDtUwUipQXSAMDiy4XK",
    "placeName": "enon valley",
    "state": "PA"
  },
  {
    "city": "farrell",
    "state_code": "PA",
    "placeMasterId": "P02500000FsoGTNpF5QUXBQNqY7PfFW5eWKkvMHC",
    "placeName": "farrell",
    "state": "PA"
  },
  {
    "city": "wheatland",
    "state_code": "PA",
    "placeMasterId": "P02500000FsoGaW97FFLnXScYiigYo0pesNq0LWK",
    "placeName": "wheatland",
    "state": "PA"
  },
  {
    "city": "worthington",
    "state_code": "PA",
    "placeMasterId": "P02500000FsoGaezaqdvaE3rjWX1yiVBS9jBN17g",
    "placeName": "worthington",
    "state": "PA"
  },
  {
    "city": "titusville",
    "state_code": "PA",
    "placeMasterId": "P02500000FsoGZf4Fcrt5Pr9Vtqc3L4aABsb4qfZ",
    "placeName": "titusville",
    "state": "PA"
  },
  {
    "city": "mill village",
    "state_code": "PA",
    "placeMasterId": "P02500000FsoGWEkn9M2EvRHKcMK1TJdVuWx4gwE",
    "placeName": "mill village",
    "state": "PA"
  },
  {
    "city": "erie",
    "state_code": "PA",
    "placeMasterId": "P02500000FsoGT68HsdKxoDtUwUipQXb9IbBAKWB",
    "placeName": "erie",
    "state": "PA"
  },
  {
    "city": "hastings",
    "state_code": "PA",
    "placeMasterId": "P02500000FsoGUEu6hnxFJ1qtMzUAiSRdhJcoJew",
    "placeName": "hastings",
    "state": "PA"
  },
  {
    "city": "houtzdale",
    "state_code": "PA",
    "placeMasterId": "P02500000FsoGUWb3ub6ogELEycB0XR7dapGzFw6",
    "placeName": "houtzdale",
    "state": "PA"
  },
  {
    "city": "roulette",
    "state_code": "PA",
    "placeMasterId": "P02500000FsoGYEbTau7EXqhlrj9sEAqtuT0XwLR",
    "placeName": "roulette",
    "state": "PA"
  },
  {
    "city": "enola",
    "state_code": "PA",
    "placeMasterId": "P02500000FsoGT68HsdKxoDtUwUipQXSFHjcTMQZ",
    "placeName": "enola",
    "state": "PA"
  },
  {
    "city": "hummelstown",
    "state_code": "PA",
    "placeMasterId": "P02500000FsoGUfRXVzgbMpaPmQWQRvRCxQb0lXE",
    "placeName": "hummelstown",
    "state": "PA"
  },
  {
    "city": "millersburg",
    "state_code": "PA",
    "placeMasterId": "P02500000FsoGWEkn9M2EvRHKcMK1TJTxcuGxtdv",
    "placeName": "millersburg",
    "state": "PA"
  },
  {
    "city": "denver",
    "state_code": "PA",
    "placeMasterId": "P02500000FsoGSWkNT31p3ounjFL9mZyrwchJZNb",
    "placeName": "denver",
    "state": "PA"
  },
  {
    "city": "lancaster",
    "state_code": "PA",
    "placeMasterId": "P02500000FsoGVEpRvZzk7EZ6zfu65svXgsNO7ZF",
    "placeName": "lancaster",
    "state": "PA"
  },
  {
    "city": "marion heights",
    "state_code": "PA",
    "placeMasterId": "P02500000FsoGVoDMLAIsrdXoCvHljqZJvQ7x1J9",
    "placeName": "marion heights",
    "state": "PA"
  },
  {
    "city": "middleburg",
    "state_code": "PA",
    "placeMasterId": "P02500000FsoGVx3pwYsfYEmz0jdBeKyzgBbsydH",
    "placeName": "middleburg",
    "state": "PA"
  },
  {
    "city": "montandon",
    "state_code": "PA",
    "placeMasterId": "P02500000FsoGWEkn9M2EvRHKcMK1TJlbevg7vrF",
    "placeName": "montandon",
    "state": "PA"
  },
  {
    "city": "new berlin",
    "state_code": "PA",
    "placeMasterId": "P02500000FsoGWfIDxXlazF0r1nMHCmdZK8SnDPE",
    "placeName": "new berlin",
    "state": "PA"
  },
  {
    "city": "cumbola",
    "state_code": "PA",
    "placeMasterId": "P02500000FsoGSNttreS2NDfcvQzjs5YmH8r6yJM",
    "placeName": "cumbola",
    "state": "PA"
  },
  {
    "city": "stroudsburg",
    "state_code": "PA",
    "placeMasterId": "P02500000FsoGZNNIQ4jW2efAIDvDW5mkaMBFErj",
    "placeName": "stroudsburg",
    "state": "PA"
  },
  {
    "city": "silverdale",
    "state_code": "PA",
    "placeMasterId": "P02500000FsoGYwprbt09yqvdsmsxmcXenYS8cRe",
    "placeName": "silverdale",
    "state": "PA"
  },
  {
    "city": "philadelphia",
    "state_code": "PA",
    "placeMasterId": "P02500000FsoGXWN5ZvEJ6qTtqfQmfiyVODy6MPW",
    "placeName": "philadelphia",
    "state": "PA"
  },
  {
    "city": "philadelphia",
    "state_code": "PA",
    "placeMasterId": "P02500000FsoGXWN5ZvEJ6qTtqfQmfiyVODy6MPW",
    "placeName": "philadelphia",
    "state": "PA"
  },
  {
    "city": "blue bell",
    "state_code": "PA",
    "placeMasterId": "P02500000FsoGRF852TpksPiEUwEOaAaJfNU4PAW",
    "placeName": "blue bell",
    "state": "PA"
  },
  {
    "city": "pottstown",
    "state_code": "PA",
    "placeMasterId": "P02500000FsoGXwuWO6xfAeDQG6T2PC2g2XVQqo1",
    "placeName": "pottstown",
    "state": "PA"
  },
  {
    "city": "fleetwood",
    "state_code": "PA",
    "placeMasterId": "P02500000FsoGTNpF5QUXBQNqY7PfFWIc9G123Tf",
    "placeName": "fleetwood",
    "state": "PA"
  },
  {
    "city": "mount aetna",
    "state_code": "PA",
    "placeMasterId": "P02500000FsoGWNbGkkc1c2WVQAfRNntA12jTQMn",
    "placeName": "mount aetna",
    "state": "PA"
  },
  {
    "city": "strausstown",
    "state_code": "PA",
    "placeMasterId": "P02500000FsoGZNNIQ4jW2efAIDvDW5mKV11yFKf",
    "placeName": "strausstown",
    "state": "PA"
  },
  {
    "city": "reading",
    "state_code": "PA",
    "placeMasterId": "P02500000FsoGY5kzzVXRrFSb3uoSJgIQftycIhP",
    "placeName": "reading",
    "state": "PA"
  },
  {
    "city": "middletown",
    "state_code": "DE",
    "placeMasterId": "P02500000FsoEpnBHdBXPxi7mVxS6WjiEyU80h1o",
    "placeName": "middletown",
    "state": "DE"
  },
  {
    "city": "washington",
    "state_code": "DC",
    "placeMasterId": "P02500000FsoEq4sEpygzKuc87a8wLiQYg142PzN",
    "placeName": "washington",
    "state": "DC"
  },
  {
    "city": "clifton",
    "state_code": "VA",
    "placeMasterId": "P02500000FsoGvCsLhj2fAZ6pDSm9v2hIuBetIxe",
    "placeName": "clifton",
    "state": "VA"
  },
  {
    "city": "washington",
    "state_code": "DC",
    "placeMasterId": "P02500000FsoEq4sEpygzKuc87a8wLiQYg142PzN",
    "placeName": "washington",
    "state": "DC"
  },
  {
    "city": "rockville",
    "state_code": "MD",
    "placeMasterId": "P02500000FsoFVk1exjEHyK50ih0yOkq6WS8Noai",
    "placeName": "rockville",
    "state": "MD"
  },
  {
    "city": "silver spring",
    "state_code": "MD",
    "placeMasterId": "P02500000FsoFVk1exjEHyK50ih0yOl85Zhht6fO",
    "placeName": "silver spring",
    "state": "MD"
  },
  {
    "city": "cockeysville",
    "state_code": "MD",
    "placeMasterId": "P02500000FsoFTt1S7Zj52VtkH8WXYO4Rp7mk88q",
    "placeName": "cockeysville",
    "state": "MD"
  },
  {
    "city": "edgewood",
    "state_code": "MD",
    "placeMasterId": "P02500000FsoFU1rviyIrj78v4wrxSsZyq1KWOXF",
    "placeName": "edgewood",
    "state": "MD"
  },
  {
    "city": "gambrills",
    "state_code": "MD",
    "placeMasterId": "P02500000FsoFUSPMXA2DmusRUNuDCLVhB8tcBbe",
    "placeName": "gambrills",
    "state": "MD"
  },
  {
    "city": "rawlings",
    "state_code": "MD",
    "placeMasterId": "P02500000FsoFVbBBMKeVHippusfYUGYm4EOZkud",
    "placeName": "rawlings",
    "state": "MD"
  },
  {
    "city": "braddock heights",
    "state_code": "MD",
    "placeMasterId": "P02500000FsoFTbKUumZVfJPOfVphjPHH1KW5Z7M",
    "placeName": "braddock heights",
    "state": "MD"
  },
  {
    "city": "little orleans",
    "state_code": "MD",
    "placeMasterId": "P02500000FsoFUswnLLlZqibxtowSvooCIIV6mix",
    "placeName": "little orleans",
    "state": "MD"
  },
  {
    "city": "newark",
    "state_code": "MD",
    "placeMasterId": "P02500000FsoFVAdkY8v9Dv6JVRdIknWzufbjAaD",
    "placeName": "newark",
    "state": "MD"
  },
  {
    "city": "oakton",
    "state_code": "VA",
    "placeMasterId": "P02500000FsoGwv24wTy5Pm2urCvAqv6SMgr2QLO",
    "placeName": "oakton",
    "state": "VA"
  },
  {
    "city": "alexandria",
    "state_code": "VA",
    "placeMasterId": "P02500000FsoGuUdxgk9jjYsxCP34MaiKDaDtr2h",
    "placeName": "alexandria",
    "state": "VA"
  },
  {
    "city": "saluda",
    "state_code": "VA",
    "placeMasterId": "P02500000FsoGxUPzM4HEAB1c4SIqUsSn1ubhZ4K",
    "placeName": "saluda",
    "state": "VA"
  },
  {
    "city": "exmore",
    "state_code": "VA",
    "placeMasterId": "P02500000FsoGvdPmVum1EMqLctoPeVeqS0QsU47",
    "placeName": "exmore",
    "state": "VA"
  },
  {
    "city": "norfolk",
    "state_code": "VA",
    "placeMasterId": "P02500000FsoGx3sYXsXs6NI5f1GalPIXzep0Ccf",
    "placeName": "norfolk",
    "state": "VA"
  },
  {
    "city": "ivor",
    "state_code": "VA",
    "placeMasterId": "P02500000FsoGw3xDK6VNIAZs2KqfNyuvBsho7bo",
    "placeName": "ivor",
    "state": "VA"
  },
  {
    "city": "claremont",
    "state_code": "VA",
    "placeMasterId": "P02500000FsoGvCsLhj2fAZ6pDSm9v2cRBRlvDWr",
    "placeName": "claremont",
    "state": "VA"
  },
  {
    "city": "montvale",
    "state_code": "VA",
    "placeMasterId": "P02500000FsoGwdL7jgoW2ZYZFaEL1wMZkpJnPRI",
    "placeName": "montvale",
    "state": "VA"
  },
  {
    "city": "draper",
    "state_code": "VA",
    "placeMasterId": "P02500000FsoGvUZIuWCEXlbAp5Szk1KEdUTAvyd",
    "placeName": "draper",
    "state": "VA"
  },
  {
    "city": "lynchburg",
    "state_code": "VA",
    "placeMasterId": "P02500000FsoGwLeAWtewfN4DdxXVCxd3TsjcPjf",
    "placeName": "lynchburg",
    "state": "VA"
  },
  {
    "city": "kopperston",
    "state_code": "WV",
    "placeMasterId": "P02500000FsoH33QbsWmqxbZPP7m91z7hFtVM0rn",
    "placeName": "kopperston",
    "state": "WV"
  },
  {
    "city": "new haven",
    "state_code": "WV",
    "placeMasterId": "P02500000FsoH3Ty2giWD1PIvoYoOlS0YebQ3A0f",
    "placeName": "new haven",
    "state": "WV"
  },
  {
    "city": "south charleston",
    "state_code": "WV",
    "placeMasterId": "P02500000FsoH3uVTUuFZ5D2SDzqeUvAGepDb9WM",
    "placeName": "south charleston",
    "state": "WV"
  },
  {
    "city": "matewan",
    "state_code": "WV",
    "placeMasterId": "P02500000FsoH3CH5TvMdeCoaCw7YwTTq2mYIGs7",
    "placeName": "matewan",
    "state": "WV"
  },
  {
    "city": "corinne",
    "state_code": "WV",
    "placeMasterId": "P02500000FsoH2LCDrXtvWbLXO433TX6PxdC6NOu",
    "placeName": "corinne",
    "state": "WV"
  },
  {
    "city": "crab orchard",
    "state_code": "WV",
    "placeMasterId": "P02500000FsoH2U2hSwTiDCaiBsOTO1SQwrGo8gS",
    "placeName": "crab orchard",
    "state": "WV"
  },
  {
    "city": "middlebourne",
    "state_code": "WV",
    "placeMasterId": "P02500000FsoH3CH5TvMdeCoaCw7YwTSdRWFLvJk",
    "placeName": "middlebourne",
    "state": "WV"
  },
  {
    "city": "bridgeport",
    "state_code": "WV",
    "placeMasterId": "P02500000FsoH23VGekkM9OrBmRMDeYa6UjtPmAK",
    "placeName": "bridgeport",
    "state": "WV"
  },
  {
    "city": "burnsville",
    "state_code": "WV",
    "placeMasterId": "P02500000FsoH2CLkG9K8q06MaFhdZ2wOtNNe7qL",
    "placeName": "burnsville",
    "state": "WV"
  },
  {
    "city": "aurora",
    "state_code": "WV",
    "placeMasterId": "P02500000FsoH1uen3MAZSnc0yd0nk3zPdlXzpz4",
    "placeName": "aurora",
    "state": "WV"
  },
  {
    "city": "romney",
    "state_code": "WV",
    "placeMasterId": "P02500000FsoH3leztVfmObnHQBVEaQqNgOsj8Kh",
    "placeName": "romney",
    "state": "WV"
  },
  {
    "city": "pinnacle",
    "state_code": "NC",
    "placeMasterId": "P02500000FsoG8pwUELNSEv8krBfU2yb1kyJcsC9",
    "placeName": "pinnacle",
    "state": "NC"
  },
  {
    "city": "asheboro",
    "state_code": "NC",
    "placeMasterId": "P02500000FsoG5z0wAPpkUuFGmwl7pBC2eBqoPfo",
    "placeName": "asheboro",
    "state": "NC"
  },
  {
    "city": "siler city",
    "state_code": "NC",
    "placeMasterId": "P02500000FsoG9PKOdvgazK7S4R39gwAGPLezj6r",
    "placeName": "siler city",
    "state": "NC"
  },
  {
    "city": "greensboro",
    "state_code": "NC",
    "placeMasterId": "P02500000FsoG7PTiCNbbMuh0p4DIw54JG0aDyyU",
    "placeName": "greensboro",
    "state": "NC"
  },
  {
    "city": "greensboro",
    "state_code": "NC",
    "placeMasterId": "P02500000FsoG7PTiCNbbMuh0p4DIw54JG0aDyyU",
    "placeName": "greensboro",
    "state": "NC"
  },
  {
    "city": "cary",
    "state_code": "NC",
    "placeMasterId": "P02500000FsoG6PYMybZ6YhynCNnNYeRe98ichEV",
    "placeName": "cary",
    "state": "NC"
  },
  {
    "city": "chapel hill",
    "state_code": "NC",
    "placeMasterId": "P02500000FsoG6YOqa08tFJDy0C8nT8oAogyZUyx",
    "placeName": "chapel hill",
    "state": "NC"
  },
  {
    "city": "morrisville",
    "state_code": "NC",
    "placeMasterId": "P02500000FsoG8PP3Q9e6B7PERkdEJVhYnYNhHq7",
    "placeName": "morrisville",
    "state": "NC"
  },
  {
    "city": "bath",
    "state_code": "NC",
    "placeMasterId": "P02500000FsoG67rPloPXBVURal6XjfXCAoN2F9m",
    "placeName": "bath",
    "state": "NC"
  },
  {
    "city": "black creek",
    "state_code": "NC",
    "placeMasterId": "P02500000FsoG6GhtNCzJs6jcOZRxe9sbHZf0es2",
    "placeName": "black creek",
    "state": "NC"
  },
  {
    "city": "everetts",
    "state_code": "NC",
    "placeMasterId": "P02500000FsoG6ywHOBsFJ6xUPdB3CbyrZI2S1yj",
    "placeName": "everetts",
    "state": "NC"
  },
  {
    "city": "fremont",
    "state_code": "NC",
    "placeMasterId": "P02500000FsoG7GdEaz1ogJRq1Frt1ael5Wpqzzh",
    "placeName": "fremont",
    "state": "NC"
  },
  {
    "city": "hamilton",
    "state_code": "NC",
    "placeMasterId": "P02500000FsoG7YKBnmBO3VwBcsYiqZH5G1wIkhd",
    "placeName": "hamilton",
    "state": "NC"
  },
  {
    "city": "hobgood",
    "state_code": "NC",
    "placeMasterId": "P02500000FsoG7YKBnmBO3VwBcsYiqZRriemHkVG",
    "placeName": "hobgood",
    "state": "NC"
  },
  {
    "city": "pinetown",
    "state_code": "NC",
    "placeMasterId": "P02500000FsoG8h60cwnfYJta3NK48UJVxWM3GM3",
    "placeName": "pinetown",
    "state": "NC"
  },
  {
    "city": "robersonville",
    "state_code": "NC",
    "placeMasterId": "P02500000FsoG8ymxpjxEvWNvf00txT7ohbZWvc8",
    "placeName": "robersonville",
    "state": "NC"
  },
  {
    "city": "spring hope",
    "state_code": "NC",
    "placeMasterId": "P02500000FsoG9PKOdvgazK7S4R39gwGEZhGsdP9",
    "placeName": "spring hope",
    "state": "NC"
  },
  {
    "city": "lincolnton",
    "state_code": "NC",
    "placeMasterId": "P02500000FsoG87i6DMUWnuusq7wOUWop4s04Z6d",
    "placeName": "lincolnton",
    "state": "NC"
  },
  {
    "city": "charlotte",
    "state_code": "NC",
    "placeMasterId": "P02500000FsoG6YOqa08tFJDy0C8nT8qHEOhlkFv",
    "placeName": "charlotte",
    "state": "NC"
  },
  {
    "city": "charlotte",
    "state_code": "NC",
    "placeMasterId": "P02500000FsoG6YOqa08tFJDy0C8nT8qHEOhlkFv",
    "placeName": "charlotte",
    "state": "NC"
  },
  {
    "city": "charlotte",
    "state_code": "NC",
    "placeMasterId": "P02500000FsoG6YOqa08tFJDy0C8nT8qHEOhlkFv",
    "placeName": "charlotte",
    "state": "NC"
  },
  {
    "city": "falcon",
    "state_code": "NC",
    "placeMasterId": "P02500000FsoG77mkzaS1ziCfDRWT76Ckz50RyB3",
    "placeName": "falcon",
    "state": "NC"
  },
  {
    "city": "laurinburg",
    "state_code": "NC",
    "placeMasterId": "P02500000FsoG7yrcbxuk7Jfi2Jaya2a0j4nfRMt",
    "placeName": "laurinburg",
    "state": "NC"
  },
  {
    "city": "wade",
    "state_code": "NC",
    "placeMasterId": "P02500000FsoG9prpS7Px37qyTs5PQPDxQQifJvS",
    "placeName": "wade",
    "state": "NC"
  },
  {
    "city": "garland",
    "state_code": "NC",
    "placeMasterId": "P02500000FsoG7GdEaz1ogJRq1Frt1aixCRjOkuD",
    "placeName": "garland",
    "state": "NC"
  },
  {
    "city": "hallsboro",
    "state_code": "NC",
    "placeMasterId": "P02500000FsoG7PTiCNbbMuh0p4DIw50As2Z5xzP",
    "placeName": "hallsboro",
    "state": "NC"
  },
  {
    "city": "kinston",
    "state_code": "NC",
    "placeMasterId": "P02500000FsoG7yrcbxuk7Jfi2Jaya2LlURZIVZZ",
    "placeName": "kinston",
    "state": "NC"
  },
  {
    "city": "cove city",
    "state_code": "NC",
    "placeMasterId": "P02500000FsoG6hFKBOifvuT8o0UDNdBCKBuG40X",
    "placeName": "cove city",
    "state": "NC"
  },
  {
    "city": "etowah",
    "state_code": "NC",
    "placeMasterId": "P02500000FsoG77mkzaS1ziCfDRWT7690YUmvwDK",
    "placeName": "etowah",
    "state": "NC"
  },
  {
    "city": "whitmire",
    "state_code": "SC",
    "placeMasterId": "P02500000FsoGdN4fJAtVHTW2mxav1o48O7eRU5W",
    "placeName": "whitmire",
    "state": "SC"
  },
  {
    "city": "fingerville",
    "state_code": "SC",
    "placeMasterId": "P02500000FsoGbnlPfoXrirp7x1nK0Pz5D7qKmg0",
    "placeName": "fingerville",
    "state": "SC"
  },
  {
    "city": "inman",
    "state_code": "SC",
    "placeMasterId": "P02500000FsoGbwbtHD7ePT4Ikq8juuVxeBGIaTn",
    "placeName": "inman",
    "state": "SC"
  },
  {
    "city": "myrtle beach",
    "state_code": "SC",
    "placeMasterId": "P02500000FsoGcN9K5Or0TGnpAHAzeNbBRrJHz9g",
    "placeName": "myrtle beach",
    "state": "SC"
  },
  {
    "city": "patrick",
    "state_code": "SC",
    "placeMasterId": "P02500000FsoGceqHIC0ZqTIAltrpTMKwN5TBLHu",
    "placeName": "patrick",
    "state": "SC"
  },
  {
    "city": "sharon",
    "state_code": "SC",
    "placeMasterId": "P02500000FsoGd5Ni6NjvuH1hBKu5CpOPXzdgKHQ",
    "placeName": "sharon",
    "state": "SC"
  },
  {
    "city": "york",
    "state_code": "SC",
    "placeMasterId": "P02500000FsoGdVv8uZTHy4lDalwKwIUXGTxX3pd",
    "placeName": "york",
    "state": "SC"
  },
  {
    "city": "aiken",
    "state_code": "SC",
    "placeMasterId": "P02500000FsoGb5X1epewHrbFvy4ERyEcYPvbgA7",
    "placeName": "aiken",
    "state": "SC"
  },
  {
    "city": "modoc",
    "state_code": "SC",
    "placeMasterId": "P02500000FsoGcN9K5Or0TGnpAHAzeNaLeXvqtUS",
    "placeName": "modoc",
    "state": "SC"
  },
  {
    "city": "auburn",
    "state_code": "GA",
    "placeMasterId": "P02500000FsoEvV2Nl2cpRjukeRGoyKXoHuidh1x",
    "placeName": "auburn",
    "state": "GA"
  },
  {
    "city": "conyers",
    "state_code": "GA",
    "placeMasterId": "P02500000FsoEwDGlm1Vksk8cfUzuWmMbL9eCECP",
    "placeName": "conyers",
    "state": "GA"
  },
  {
    "city": "kennesaw",
    "state_code": "GA",
    "placeMasterId": "P02500000FsoEx4LdOOyT0LbfUN4Pzic9VZcv12O",
    "placeName": "kennesaw",
    "state": "GA"
  },
  {
    "city": "lagrange",
    "state_code": "GA",
    "placeMasterId": "P02500000FsoExDC6znYFgwqqIBPpuCvsAnB1LxC",
    "placeName": "lagrange",
    "state": "GA"
  },
  {
    "city": "turin",
    "state_code": "GA",
    "placeMasterId": "P02500000FsoEydet1lK6YxIaKIs116hQUBR6Kwk",
    "placeName": "turin",
    "state": "GA"
  },
  {
    "city": "atlanta",
    "state_code": "GA",
    "placeMasterId": "P02500000FsoEvV2Nl2cpRjukeRGoyKXsQZ9lvPs",
    "placeName": "atlanta",
    "state": "GA"
  },
  {
    "city": "atlanta",
    "state_code": "GA",
    "placeMasterId": "P02500000FsoEvV2Nl2cpRjukeRGoyKXsQZ9lvPs",
    "placeName": "atlanta",
    "state": "GA"
  },
  {
    "city": "knoxville",
    "state_code": "GA",
    "placeMasterId": "P02500000FsoExDC6znYFgwqqIBPpuCyC2uPiMKI",
    "placeName": "knoxville",
    "state": "GA"
  },
  {
    "city": "tennille",
    "state_code": "GA",
    "placeMasterId": "P02500000FsoEyUoPQMkJsM3PWUWb6cKFI066iJe",
    "placeName": "tennille",
    "state": "GA"
  },
  {
    "city": "savannah",
    "state_code": "GA",
    "placeMasterId": "P02500000FsoEyD7SDZakV9Z3urplHdbJAuUvfKW",
    "placeName": "savannah",
    "state": "GA"
  },
  {
    "city": "port wentworth",
    "state_code": "GA",
    "placeMasterId": "P02500000FsoEy4GycB0xoYJt73ULN9AwNec1wjm",
    "placeName": "port wentworth",
    "state": "GA"
  },
  {
    "city": "waycross",
    "state_code": "GA",
    "placeMasterId": "P02500000FsoEyvLqEYTfw9mvvvYqq5QDeCD74Hz",
    "placeName": "waycross",
    "state": "GA"
  },
  {
    "city": "brunswick",
    "state_code": "GA",
    "placeMasterId": "P02500000FsoEvmjKxpmOowP6G3xenJDcS0xDtom",
    "placeName": "brunswick",
    "state": "GA"
  },
  {
    "city": "nicholls",
    "state_code": "GA",
    "placeMasterId": "P02500000FsoExma1PNrORLpXVQnVYAR73qTB7Uo",
    "placeName": "nicholls",
    "state": "GA"
  },
  {
    "city": "de soto",
    "state_code": "GA",
    "placeMasterId": "P02500000FsoEwM7FNQ5XZLNnTJLKRGiUIjYqbWj",
    "placeName": "de soto",
    "state": "GA"
  },
  {
    "city": "lawtey",
    "state_code": "FL",
    "placeMasterId": "P02500000FsoEse6ph757hj1GaCMSkX2swrR4H37",
    "placeName": "lawtey",
    "state": "FL"
  },
  {
    "city": "jacksonville",
    "state_code": "FL",
    "placeMasterId": "P02500000FsoEs4ivHWlyxK2ZMwyn6Zc9nJdRTGT",
    "placeName": "jacksonville",
    "state": "FL"
  },
  {
    "city": "cottondale",
    "state_code": "FL",
    "placeMasterId": "P02500000FsoEqn6cqxZuluq08ds1uAJPBgav4c0",
    "placeName": "cottondale",
    "state": "FL"
  },
  {
    "city": "marianna",
    "state_code": "FL",
    "placeMasterId": "P02500000FsoEsmxJIVeuOKGRO0hsf1R2buR2sXa",
    "placeName": "marianna",
    "state": "FL"
  },
  {
    "city": "wausau",
    "state_code": "FL",
    "placeMasterId": "P02500000FsoEuveTLSJghKw3RBt9KN1uyF0mUTh",
    "placeName": "wausau",
    "state": "FL"
  },
  {
    "city": "pensacola",
    "state_code": "FL",
    "placeMasterId": "P02500000FsoEte2Aut7cVvjUCsmO7xi1ABLGBK0",
    "placeName": "pensacola",
    "state": "FL"
  },
  {
    "city": "alachua",
    "state_code": "FL",
    "placeMasterId": "P02500000FsoEq4sEpygzKuc87a8wLiMhjd5so4A",
    "placeName": "alachua",
    "state": "FL"
  },
  {
    "city": "bell",
    "state_code": "FL",
    "placeMasterId": "P02500000FsoEqMZC2lqYi76TjCpmAh6b49LqEib",
    "placeName": "bell",
    "state": "FL"
  },
  {
    "city": "hollywood",
    "state_code": "FL",
    "placeMasterId": "P02500000FsoErvsRg8CCGinOZ8dNC5DYkbxOTEU",
    "placeName": "hollywood",
    "state": "FL"
  },
  {
    "city": "homestead",
    "state_code": "FL",
    "placeMasterId": "P02500000FsoErvsRg8CCGinOZ8dNC5FcyBHlPvk",
    "placeName": "homestead",
    "state": "FL"
  },
  {
    "city": "miami",
    "state_code": "FL",
    "placeMasterId": "P02500000FsoEsvnmtuEh4vVcBp3IZVnnnRh03zn",
    "placeName": "miami",
    "state": "FL"
  },
  {
    "city": "fort lauderdale",
    "state_code": "FL",
    "placeMasterId": "P02500000FsoErVL0rwSqCv3s9hb7Sc4XvAWhbEe",
    "placeName": "fort lauderdale",
    "state": "FL"
  },
  {
    "city": "palm beach gardens",
    "state_code": "FL",
    "placeMasterId": "P02500000FsoEtVBhJUXppKUJP4QyDTJRjs6Oezl",
    "placeName": "palm beach gardens",
    "state": "FL"
  },
  {
    "city": "boca raton",
    "state_code": "FL",
    "placeMasterId": "P02500000FsoEqVPfeAQLOiLeX1BC5BUmAvSIYfv",
    "placeName": "boca raton",
    "state": "FL"
  },
  {
    "city": "boca raton",
    "state_code": "FL",
    "placeMasterId": "P02500000FsoEqVPfeAQLOiLeX1BC5BUmAvSIYfv",
    "placeName": "boca raton",
    "state": "FL"
  },
  {
    "city": "delray beach",
    "state_code": "FL",
    "placeMasterId": "P02500000FsoEqvx6SM9hSW5AwSDRoedShzoxbKs",
    "placeName": "delray beach",
    "state": "FL"
  },
  {
    "city": "largo",
    "state_code": "FL",
    "placeMasterId": "P02500000FsoEsVGM5iVL17m5mO12q2kFNogYZCe",
    "placeName": "largo",
    "state": "FL"
  },
  {
    "city": "lakeland",
    "state_code": "FL",
    "placeMasterId": "P02500000FsoEsMPsUJvYKWWuyZfcvYKMAG7ePey",
    "placeName": "lakeland",
    "state": "FL"
  },
  {
    "city": "longboat key",
    "state_code": "FL",
    "placeMasterId": "P02500000FsoEse6ph757hj1GaCMSkX5Rnrx9K3R",
    "placeName": "longboat key",
    "state": "FL"
  },
  {
    "city": "dunnellon",
    "state_code": "FL",
    "placeMasterId": "P02500000FsoErDe3f9JGpiZWY4uHddKPqWQhb7V",
    "placeName": "dunnellon",
    "state": "FL"
  },
  {
    "city": "homosassa",
    "state_code": "FL",
    "placeMasterId": "P02500000FsoErvsRg8CCGinOZ8dNC5EfJ7lhWOY",
    "placeName": "homosassa",
    "state": "FL"
  },
  {
    "city": "inverness",
    "state_code": "FL",
    "placeMasterId": "P02500000FsoEs4ivHWlyxK2ZMwyn6ZbIN88JWIM",
    "placeName": "inverness",
    "state": "FL"
  },
  {
    "city": "ocala",
    "state_code": "FL",
    "placeMasterId": "P02500000FsoEtMLDi5y38jF8bG5YIyvCqOZlLNH",
    "placeName": "ocala",
    "state": "FL"
  },
  {
    "city": "brent",
    "state_code": "AL",
    "placeMasterId": "P02500000FsoESxkt7lBm1axty2BEkMDUwdWbfBP",
    "placeName": "brent",
    "state": "AL"
  },
  {
    "city": "gardendale",
    "state_code": "AL",
    "placeMasterId": "P02500000FsoETfzH8k4hSbBlz5uKIo5NTVpaOe2",
    "placeName": "gardendale",
    "state": "AL"
  },
  {
    "city": "birmingham",
    "state_code": "AL",
    "placeMasterId": "P02500000FsoESouPWMbzKzijADpoprrGKsxshig",
    "placeName": "birmingham",
    "state": "AL"
  },
  {
    "city": "tuscaloosa",
    "state_code": "AL",
    "placeMasterId": "P02500000FsoEVfpxaI9h50cDESkB3fGsgHO8W4v",
    "placeName": "tuscaloosa",
    "state": "AL"
  },
  {
    "city": "boligee",
    "state_code": "AL",
    "placeMasterId": "P02500000FsoESouPWMbzKzijADpoprsbGP2tRa9",
    "placeName": "boligee",
    "state": "AL"
  },
  {
    "city": "moulton",
    "state_code": "AL",
    "placeMasterId": "P02500000FsoEUfucMW7CGntzbmKFgEfPsJ4F2Sx",
    "placeName": "moulton",
    "state": "AL"
  },
  {
    "city": "trinity",
    "state_code": "AL",
    "placeMasterId": "P02500000FsoEVWzTytZuOPN2QeOl9AxE0RdsqY0",
    "placeName": "trinity",
    "state": "AL"
  },
  {
    "city": "tuscumbia",
    "state_code": "AL",
    "placeMasterId": "P02500000FsoEVfpxaI9h50cDESkB3fI5VPmWcOV",
    "placeName": "tuscumbia",
    "state": "AL"
  },
  {
    "city": "anniston",
    "state_code": "AL",
    "placeMasterId": "P02500000FsoESg3vuy2CeOTYMPUOvNVPm3E4hRx",
    "placeName": "anniston",
    "state": "AL"
  },
  {
    "city": "calvert",
    "state_code": "AL",
    "placeMasterId": "P02500000FsoESxkt7lBm1axty2BEkMGVLott7if",
    "placeName": "calvert",
    "state": "AL"
  },
  {
    "city": "gulf shores",
    "state_code": "AL",
    "placeMasterId": "P02500000FsoETxgELXEGpng7aibA7moOtKI5qHE",
    "placeName": "gulf shores",
    "state": "AL"
  },
  {
    "city": "silverhill",
    "state_code": "AL",
    "placeMasterId": "P02500000FsoEVO90NV07ho7rcq3LEgWlIRZwDsR",
    "placeName": "silverhill",
    "state": "AL"
  },
  {
    "city": "mobile",
    "state_code": "AL",
    "placeMasterId": "P02500000FsoEUX48l7XPaCeonxyplkKNMXCzpeH",
    "placeName": "mobile",
    "state": "AL"
  },
  {
    "city": "demopolis",
    "state_code": "AL",
    "placeMasterId": "P02500000FsoETOIJvwv85OhQNTDUTpL7ICMr9S4",
    "placeName": "demopolis",
    "state": "AL"
  },
  {
    "city": "dadeville",
    "state_code": "AL",
    "placeMasterId": "P02500000FsoETFRqKYLLOnSFZes4ZKyIdXhd69S",
    "placeName": "dadeville",
    "state": "AL"
  },
  {
    "city": "notasulga",
    "state_code": "AL",
    "placeMasterId": "P02500000FsoEUol5xugyxP9APaffaj5b0k5aVNM",
    "placeName": "notasulga",
    "state": "AL"
  },
  {
    "city": "cornersville",
    "state_code": "TN",
    "placeMasterId": "P02500000FsoGgE0DN6RD1UPWrCVHFbY4fRkLwXQ",
    "placeName": "cornersville",
    "state": "TN"
  },
  {
    "city": "white bluff",
    "state_code": "TN",
    "placeMasterId": "P02500000FsoGiDqtoeWCdtpy6ZL80SjGWExnGAb",
    "placeName": "white bluff",
    "state": "TN"
  },
  {
    "city": "nashville",
    "state_code": "TN",
    "placeMasterId": "P02500000FsoGhMm2CH3UWIMvHhGcXWZ0CJVUMa1",
    "placeName": "nashville",
    "state": "TN"
  },
  {
    "city": "fall branch",
    "state_code": "TN",
    "placeMasterId": "P02500000FsoGgVhAZtamOgtsSpC74aLJRTXN7JA",
    "placeName": "fall branch",
    "state": "TN"
  },
  {
    "city": "jonesborough",
    "state_code": "TN",
    "placeMasterId": "P02500000FsoGgnO7mgkLltOE4RswtZ9TzEcVxxF",
    "placeName": "jonesborough",
    "state": "TN"
  },
  {
    "city": "cumberland gap",
    "state_code": "TN",
    "placeMasterId": "P02500000FsoGgE0DN6RD1UPWrCVHFbj4MzD0ixT",
    "placeName": "cumberland gap",
    "state": "TN"
  },
  {
    "city": "dandridge",
    "state_code": "TN",
    "placeMasterId": "P02500000FsoGgE0DN6RD1UPWrCVHFbkwV4q5wAF",
    "placeName": "dandridge",
    "state": "TN"
  },
  {
    "city": "helenwood",
    "state_code": "TN",
    "placeMasterId": "P02500000FsoGgnO7mgkLltOE4RswtZ1H3utEsvH",
    "placeName": "helenwood",
    "state": "TN"
  },
  {
    "city": "new market",
    "state_code": "TN",
    "placeMasterId": "P02500000FsoGhMm2CH3UWIMvHhGcXWjI0xQE04C",
    "placeName": "new market",
    "state": "TN"
  },
  {
    "city": "walland",
    "state_code": "TN",
    "placeMasterId": "P02500000FsoGi50QDFwPxIanIkzi5yIikByOzDm",
    "placeName": "walland",
    "state": "TN"
  },
  {
    "city": "covington",
    "state_code": "TN",
    "placeMasterId": "P02500000FsoGgE0DN6RD1UPWrCVHFbbshw6EE2m",
    "placeName": "covington",
    "state": "TN"
  },
  {
    "city": "memphis",
    "state_code": "TN",
    "placeMasterId": "P02500000FsoGh554zTtv95sZg4ZmiXoGr41AEmS",
    "placeName": "memphis",
    "state": "TN"
  },
  {
    "city": "memphis",
    "state_code": "TN",
    "placeMasterId": "P02500000FsoGh554zTtv95sZg4ZmiXoGr41AEmS",
    "placeName": "memphis",
    "state": "TN"
  },
  {
    "city": "germantown",
    "state_code": "TN",
    "placeMasterId": "P02500000FsoGgeXeBIAZ5I93GdXWz4nG5vhxR7c",
    "placeName": "germantown",
    "state": "TN"
  },
  {
    "city": "trezevant",
    "state_code": "TN",
    "placeMasterId": "P02500000FsoGi50QDFwPxIanIkzi5yOmDgWEpXo",
    "placeName": "trezevant",
    "state": "TN"
  },
  {
    "city": "dyer",
    "state_code": "TN",
    "placeMasterId": "P02500000FsoGgMqgyV0zi5ehf0qhA5xUv6PiJhi",
    "placeName": "dyer",
    "state": "TN"
  },
  {
    "city": "milan",
    "state_code": "TN",
    "placeMasterId": "P02500000FsoGh554zTtv95sZg4ZmiXs6mGW73NY",
    "placeName": "milan",
    "state": "TN"
  },
  {
    "city": "elkton",
    "state_code": "TN",
    "placeMasterId": "P02500000FsoGgMqgyV0zi5ehf0qhA69hVfnJvcL",
    "placeName": "elkton",
    "state": "TN"
  },
  {
    "city": "cookeville",
    "state_code": "TN",
    "placeMasterId": "P02500000FsoGgE0DN6RD1UPWrCVHFbUAiM8ZijA",
    "placeName": "cookeville",
    "state": "TN"
  },
  {
    "city": "crossville",
    "state_code": "TN",
    "placeMasterId": "P02500000FsoGgE0DN6RD1UPWrCVHFbcm7SBmfU8",
    "placeName": "crossville",
    "state": "TN"
  },
  {
    "city": "doyle",
    "state_code": "TN",
    "placeMasterId": "P02500000FsoGgMqgyV0zi5ehf0qhA62jEhAZTXO",
    "placeName": "doyle",
    "state": "TN"
  },
  {
    "city": "metcalfe",
    "state_code": "MS",
    "placeMasterId": "P02500000FsoFhj7ld1iFgmdeCu24vu75SaL16nf",
    "placeName": "metcalfe",
    "state": "MS"
  },
  {
    "city": "mantachie",
    "state_code": "MS",
    "placeMasterId": "P02500000FsoFhaHI1d8T0BOTP5gf1PkCxX1UFMV",
    "placeName": "mantachie",
    "state": "MS"
  },
  {
    "city": "ethel",
    "state_code": "MS",
    "placeMasterId": "P02500000FsoFh9jrDRP6wNewzeePHwbvpckwBf6",
    "placeName": "ethel",
    "state": "MS"
  },
  {
    "city": "madison",
    "state_code": "MS",
    "placeMasterId": "P02500000FsoFhaHI1d8T0BOTP5gf1Pliw0pjkDw",
    "placeName": "madison",
    "state": "MS"
  },
  {
    "city": "jackson",
    "state_code": "MS",
    "placeMasterId": "P02500000FsoFhRQoQEYgJa9IbHLF6vGkcb3WK7F",
    "placeName": "jackson",
    "state": "MS"
  },
  {
    "city": "collins",
    "state_code": "MS",
    "placeMasterId": "P02500000FsoFgs2u0eFXZBAbO1xZSxwMh6rl8il",
    "placeName": "collins",
    "state": "MS"
  },
  {
    "city": "biloxi",
    "state_code": "MS",
    "placeMasterId": "P02500000FsoFgaLwnr5yBygFmPGjdzA8ATHpH98",
    "placeName": "biloxi",
    "state": "MS"
  },
  {
    "city": "crosby",
    "state_code": "MS",
    "placeMasterId": "P02500000FsoFh0tNc2pKFmPmBqIzNSBi2GCLAIg",
    "placeName": "crosby",
    "state": "MS"
  },
  {
    "city": "smithfield",
    "state_code": "KY",
    "placeMasterId": "P02500000FsoFPbd81gPWQUYWAmA0Dgz7UAgrjcG",
    "placeName": "smithfield",
    "state": "KY"
  },
  {
    "city": "louisville",
    "state_code": "KY",
    "placeMasterId": "P02500000FsoFOkYGPIwoIt5TLu5UkkhkzCsPo64",
    "placeName": "louisville",
    "state": "KY"
  },
  {
    "city": "annville",
    "state_code": "KY",
    "placeMasterId": "P02500000FsoFN2OXAY1O3g9Ni9wTosA7kxsbL7j",
    "placeName": "annville",
    "state": "KY"
  },
  {
    "city": "lexington",
    "state_code": "KY",
    "placeMasterId": "P02500000FsoFOkYGPIwoIt5TLu5UkkeaJQ4MXLq",
    "placeName": "lexington",
    "state": "KY"
  },
  {
    "city": "williamsburg",
    "state_code": "KY",
    "placeMasterId": "P02500000FsoFQ2AYps8sUII2aDCFxA8dWDpBXBe",
    "placeName": "williamsburg",
    "state": "KY"
  },
  {
    "city": "brooksville",
    "state_code": "KY",
    "placeMasterId": "P02500000FsoFNK5UNLAxQsdjJmdJdqvnVGkCc3T",
    "placeName": "brooksville",
    "state": "KY"
  },
  {
    "city": "sanders",
    "state_code": "KY",
    "placeMasterId": "P02500000FsoFPSmeQHpjjtJLMxoaJCfbtxk9e0a",
    "placeName": "sanders",
    "state": "KY"
  },
  {
    "city": "verona",
    "state_code": "KY",
    "placeMasterId": "P02500000FsoFPtK5ETZ5nh2rmOqq2fiUyQJKua2",
    "placeName": "verona",
    "state": "KY"
  },
  {
    "city": "booneville",
    "state_code": "KY",
    "placeMasterId": "P02500000FsoFNK5UNLAxQsdjJmdJdquxFxc93KP",
    "placeName": "booneville",
    "state": "KY"
  },
  {
    "city": "forest hills",
    "state_code": "KY",
    "placeMasterId": "P02500000FsoFO2JsOK3srsrbKqMPCIkvU3SRHj0",
    "placeName": "forest hills",
    "state": "KY"
  },
  {
    "city": "wayland",
    "state_code": "KY",
    "placeMasterId": "P02500000FsoFQ2AYps8sUII2aDCFxA4AIVEK1sg",
    "placeName": "wayland",
    "state": "KY"
  },
  {
    "city": "paducah",
    "state_code": "KY",
    "placeMasterId": "P02500000FsoFPB5hDUgAMgozlL7kUDpUyTvQRJn",
    "placeName": "paducah",
    "state": "KY"
  },
  {
    "city": "hazel",
    "state_code": "KY",
    "placeMasterId": "P02500000FsoFOK0pb7DSF5LwwT3F1Ha6TiPrtkn",
    "placeName": "hazel",
    "state": "KY"
  },
  {
    "city": "marion",
    "state_code": "KY",
    "placeMasterId": "P02500000FsoFOtOk0hWazUKe9iQufF5AItk6HOp",
    "placeName": "marion",
    "state": "KY"
  },
  {
    "city": "nortonville",
    "state_code": "KY",
    "placeMasterId": "P02500000FsoFPB5hDUgAMgozlL7kUDjZh4t5Qdn",
    "placeName": "nortonville",
    "state": "KY"
  },
  {
    "city": "sebree",
    "state_code": "KY",
    "placeMasterId": "P02500000FsoFPbd81gPWQUYWAmA0DgwYDJCNNOi",
    "placeName": "sebree",
    "state": "KY"
  },
  {
    "city": "horse cave",
    "state_code": "KY",
    "placeMasterId": "P02500000FsoFOSrJCVnEvgb7kHOevlxVPJ58wSB",
    "placeName": "horse cave",
    "state": "KY"
  },
  {
    "city": "newark",
    "state_code": "OH",
    "placeMasterId": "P02500000FsoGGyBhbwHDPA5geTMIytk22MZaS9h",
    "placeName": "newark",
    "state": "OH"
  },
  {
    "city": "orient",
    "state_code": "OH",
    "placeMasterId": "P02500000FsoGHOj8Q80ZSxpD3uOYiN5tRRpa5of",
    "placeName": "orient",
    "state": "OH"
  },
  {
    "city": "rockbridge",
    "state_code": "OH",
    "placeMasterId": "P02500000FsoGHy72piJiDMnuH9mEMKUwZ0htIMG",
    "placeName": "rockbridge",
    "state": "OH"
  },
  {
    "city": "columbus",
    "state_code": "OH",
    "placeMasterId": "P02500000FsoGDyPfwc9iyXx1mQ6Wqc0NMzPNh3d",
    "placeName": "columbus",
    "state": "OH"
  },
  {
    "city": "columbus",
    "state_code": "OH",
    "placeMasterId": "P02500000FsoGDyPfwc9iyXx1mQ6Wqc0NMzPNh3d",
    "placeName": "columbus",
    "state": "OH"
  },
  {
    "city": "jerry city",
    "state_code": "OH",
    "placeMasterId": "P02500000FsoGFXivZyVMX9dwcLu7s09vptBu6Rq",
    "placeName": "jerry city",
    "state": "OH"
  },
  {
    "city": "metamora",
    "state_code": "OH",
    "placeMasterId": "P02500000FsoGGXeGnkXrLMMAF2K3FQeTSQ5n2eN",
    "placeName": "metamora",
    "state": "OH"
  },
  {
    "city": "toledo",
    "state_code": "OH",
    "placeMasterId": "P02500000FsoGIpBuS5mQKyGx61qjpGheGoHOM1s",
    "placeName": "toledo",
    "state": "OH"
  },
  {
    "city": "toledo",
    "state_code": "OH",
    "placeMasterId": "P02500000FsoGIpBuS5mQKyGx61qjpGheGoHOM1s",
    "placeName": "toledo",
    "state": "OH"
  },
  {
    "city": "northwood",
    "state_code": "OH",
    "placeMasterId": "P02500000FsoGHFseojQmmMa2G638nsdr6Z4RAZ7",
    "placeName": "northwood",
    "state": "OH"
  },
  {
    "city": "belmont",
    "state_code": "OH",
    "placeMasterId": "P02500000FsoGD7KoKEh0qwTyxY21NfobHeLgHUF",
    "placeName": "belmont",
    "state": "OH"
  },
  {
    "city": "morristown",
    "state_code": "OH",
    "placeMasterId": "P02500000FsoGGgUkP97e1xbL2qfT9v8Av3aBJzx",
    "placeName": "morristown",
    "state": "OH"
  },
  {
    "city": "adena",
    "state_code": "OH",
    "placeMasterId": "P02500000FsoGCXwtueNs6XVHkIeLjiMal36USdW",
    "placeName": "adena",
    "state": "OH"
  },
  {
    "city": "chagrin falls",
    "state_code": "OH",
    "placeMasterId": "P02500000FsoGDgiijp09bLSgAnPh1dK69e4Dmcr",
    "placeName": "chagrin falls",
    "state": "OH"
  },
  {
    "city": "north olmsted",
    "state_code": "OH",
    "placeMasterId": "P02500000FsoGHFseojQmmMa2G638nsVGoCTJNJl",
    "placeName": "north olmsted",
    "state": "OH"
  },
  {
    "city": "aurora",
    "state_code": "OH",
    "placeMasterId": "P02500000FsoGCpdr7RXRTjzdLvLBYh3OJDtiXwY",
    "placeName": "aurora",
    "state": "OH"
  },
  {
    "city": "garrettsville",
    "state_code": "OH",
    "placeMasterId": "P02500000FsoGEpUXYzcR69Q4bIB2JYBqyeybZYO",
    "placeName": "garrettsville",
    "state": "OH"
  },
  {
    "city": "hiram",
    "state_code": "OH",
    "placeMasterId": "P02500000FsoGFOsRyZvZqYOloXYhxVmq0YjGErf",
    "placeName": "hiram",
    "state": "OH"
  },
  {
    "city": "lodi",
    "state_code": "OH",
    "placeMasterId": "P02500000FsoGFyGMOAEiaxNT1mwNbTQ6LchPc57",
    "placeName": "lodi",
    "state": "OH"
  },
  {
    "city": "richfield",
    "state_code": "OH",
    "placeMasterId": "P02500000FsoGHy72piJiDMnuH9mEMKUHuOXitys",
    "placeName": "richfield",
    "state": "OH"
  },
  {
    "city": "newton falls",
    "state_code": "OH",
    "placeMasterId": "P02500000FsoGH72BDKr05lKrSHhitOETaChxuyK",
    "placeName": "newton falls",
    "state": "OH"
  },
  {
    "city": "youngstown",
    "state_code": "OH",
    "placeMasterId": "P02500000FsoGJgGm4TF8SZjzutvFICtONAHpkmb",
    "placeName": "youngstown",
    "state": "OH"
  },
  {
    "city": "bolivar",
    "state_code": "OH",
    "placeMasterId": "P02500000FsoGDGBHvdGnXXj9lMNRIAJezVD5Jub",
    "placeName": "bolivar",
    "state": "OH"
  },
  {
    "city": "deersville",
    "state_code": "OH",
    "placeMasterId": "P02500000FsoGE7G9Y0jVf9CCaERwl6VDQkhD6uD",
    "placeName": "deersville",
    "state": "OH"
  },
  {
    "city": "east canton",
    "state_code": "OH",
    "placeMasterId": "P02500000FsoGEG6d9PJILkRNO2nMfaqzoOrZUNj",
    "placeName": "east canton",
    "state": "OH"
  },
  {
    "city": "bascom",
    "state_code": "OH",
    "placeMasterId": "P02500000FsoGCyUKiq7EALEo9jgbTBLjS5mYtSE",
    "placeName": "bascom",
    "state": "OH"
  },
  {
    "city": "fostoria",
    "state_code": "OH",
    "placeMasterId": "P02500000FsoGEge3xb2ePYAtnTpcP3o6782cppK",
    "placeName": "fostoria",
    "state": "OH"
  },
  {
    "city": "franklin",
    "state_code": "OH",
    "placeMasterId": "P02500000FsoGEge3xb2ePYAtnTpcP3ri6vwtasv",
    "placeName": "franklin",
    "state": "OH"
  },
  {
    "city": "south lebanon",
    "state_code": "OH",
    "placeMasterId": "P02500000FsoGIXUxFIcqxlmbUP9u0HyoPtBpdCC",
    "placeName": "south lebanon",
    "state": "OH"
  },
  {
    "city": "hillsboro",
    "state_code": "OH",
    "placeMasterId": "P02500000FsoGFOsRyZvZqYOloXYhxVkeHGyG7Rj",
    "placeName": "hillsboro",
    "state": "OH"
  },
  {
    "city": "ripley",
    "state_code": "OH",
    "placeMasterId": "P02500000FsoGHy72piJiDMnuH9mEMKVeLqYPgt8",
    "placeName": "ripley",
    "state": "OH"
  },
  {
    "city": "cincinnati",
    "state_code": "OH",
    "placeMasterId": "P02500000FsoGDpZCLDZwHwhqybl6w7e8Lps6H4x",
    "placeName": "cincinnati",
    "state": "OH"
  },
  {
    "city": "cincinnati",
    "state_code": "OH",
    "placeMasterId": "P02500000FsoGDpZCLDZwHwhqybl6w7e8Lps6H4x",
    "placeName": "cincinnati",
    "state": "OH"
  },
  {
    "city": "oak hill",
    "state_code": "OH",
    "placeMasterId": "P02500000FsoGHFseojQmmMa2G638nsibePDxECZ",
    "placeName": "oak hill",
    "state": "OH"
  },
  {
    "city": "kalida",
    "state_code": "OH",
    "placeMasterId": "P02500000FsoGFXivZyVMX9dwcLu7s09lwvpJPll",
    "placeName": "kalida",
    "state": "OH"
  },
  {
    "city": "anderson",
    "state_code": "IN",
    "placeMasterId": "P02500000FsoF93Rk3hSQioAIya5WWrlzCWe32cS",
    "placeName": "anderson",
    "state": "IN"
  },
  {
    "city": "orestes",
    "state_code": "IN",
    "placeMasterId": "P02500000FsoFBcgKupqZ5cZRRCJ2vgSq1fcWkgz",
    "placeName": "orestes",
    "state": "IN"
  },
  {
    "city": "avon",
    "state_code": "IN",
    "placeMasterId": "P02500000FsoF9CIDf62DPPPTmOQwRMAqlY9cziK",
    "placeName": "avon",
    "state": "IN"
  },
  {
    "city": "martinsville",
    "state_code": "IN",
    "placeMasterId": "P02500000FsoFB3IQVFXQLDakDwvNHiyfuYU2WDn",
    "placeName": "martinsville",
    "state": "IN"
  },
  {
    "city": "indianapolis",
    "state_code": "IN",
    "placeMasterId": "P02500000FsoFAckzh3o4HPrDoVt7YFuCi8MjR1V",
    "placeName": "indianapolis",
    "state": "IN"
  },
  {
    "city": "gary",
    "state_code": "IN",
    "placeMasterId": "P02500000FsoFAL42UGeUuDMsCtCHjH6C1Ea8Vf2",
    "placeName": "gary",
    "state": "IN"
  },
  {
    "city": "claypool",
    "state_code": "IN",
    "placeMasterId": "P02500000FsoF9cpeTHlZTD90BpTCApJyFcD6l3L",
    "placeName": "claypool",
    "state": "IN"
  },
  {
    "city": "elkhart",
    "state_code": "IN",
    "placeMasterId": "P02500000FsoFA3N5HTUvX0sWbGVRuINacuolnb4",
    "placeName": "elkhart",
    "state": "IN"
  },
  {
    "city": "south bend",
    "state_code": "IN",
    "placeMasterId": "P02500000FsoFCC4FKQ9hq1Y8eRgiZdyg3XsySz8",
    "placeName": "south bend",
    "state": "IN"
  },
  {
    "city": "angola",
    "state_code": "IN",
    "placeMasterId": "P02500000FsoF9CIDf62DPPPTmOQwRM9kizboFET",
    "placeName": "angola",
    "state": "IN"
  },
  {
    "city": "auburn",
    "state_code": "IN",
    "placeMasterId": "P02500000FsoF9CIDf62DPPPTmOQwRM8pF4ovacy",
    "placeName": "auburn",
    "state": "IN"
  },
  {
    "city": "greentown",
    "state_code": "IN",
    "placeMasterId": "P02500000FsoFAL42UGeUuDMsCtCHjH93hNMqxfd",
    "placeName": "greentown",
    "state": "IN"
  },
  {
    "city": "miami",
    "state_code": "IN",
    "placeMasterId": "P02500000FsoHTJASrSzLO8bTEXL2g7LMwW3R6P3",
    "placeName": "miami",
    "state": "IN"
  },
  {
    "city": "napoleon",
    "state_code": "IN",
    "placeMasterId": "P02500000FsoFBTprJRGmP1KGdNxd1C46vMmUhhr",
    "placeName": "napoleon",
    "state": "IN"
  },
  {
    "city": "georgetown",
    "state_code": "IN",
    "placeMasterId": "P02500000FsoFAL42UGeUuDMsCtCHjH7eXjvCxS5",
    "placeName": "georgetown",
    "state": "IN"
  },
  {
    "city": "new salisbury",
    "state_code": "IN",
    "placeMasterId": "P02500000FsoFBcgKupqZ5cZRRCJ2vgTLr9Bz9P8",
    "placeName": "new salisbury",
    "state": "IN"
  },
  {
    "city": "fountain city",
    "state_code": "IN",
    "placeMasterId": "P02500000FsoFACDYss4iDc7hP4qromkp0Xc0DXN",
    "placeName": "fountain city",
    "state": "IN"
  },
  {
    "city": "kennard",
    "state_code": "IN",
    "placeMasterId": "P02500000FsoFAckzh3o4HPrDoVt7YFsyZoWHCix",
    "placeName": "kennard",
    "state": "IN"
  },
  {
    "city": "modoc",
    "state_code": "IN",
    "placeMasterId": "P02500000FsoFBKzNi2gziQ55pZcD6hiH7Ivh0rs",
    "placeName": "modoc",
    "state": "IN"
  },
  {
    "city": "pennville",
    "state_code": "IN",
    "placeMasterId": "P02500000FsoFBlWoWEQLmDocF0eSqAqpGGI4tiQ",
    "placeName": "pennville",
    "state": "IN"
  },
  {
    "city": "sulphur springs",
    "state_code": "IN",
    "placeMasterId": "P02500000FsoFCKuivojUWcnJSG28U8LBAdfEQpy",
    "placeName": "sulphur springs",
    "state": "IN"
  },
  {
    "city": "spencer",
    "state_code": "IN",
    "placeMasterId": "P02500000FsoFCC4FKQ9hq1Y8eRgiZdza0tT7D0J",
    "placeName": "spencer",
    "state": "IN"
  },
  {
    "city": "bicknell",
    "state_code": "IN",
    "placeMasterId": "P02500000FsoF9CIDf62DPPPTmOQwRMA1Cixin99",
    "placeName": "bicknell",
    "state": "IN"
  },
  {
    "city": "freelandville",
    "state_code": "IN",
    "placeMasterId": "P02500000FsoFACDYss4iDc7hP4qromlLqlXSp2F",
    "placeName": "freelandville",
    "state": "IN"
  },
  {
    "city": "spurgeon",
    "state_code": "IN",
    "placeMasterId": "P02500000FsoFCKuivojUWcnJSG28U8Jm9CfHaMX",
    "placeName": "spurgeon",
    "state": "IN"
  },
  {
    "city": "fairbanks",
    "state_code": "IN",
    "placeMasterId": "P02500000FsoHRATIoWKZ57vrBM9m0lphuxKfTtw",
    "placeName": "fairbanks",
    "state": "IN"
  },
  {
    "city": "almont",
    "state_code": "MI",
    "placeMasterId": "P02500000FsoFXAUQzh08qKWkkoT9VeaLLhV8tEG",
    "placeName": "almont",
    "state": "MI"
  },
  {
    "city": "franklin",
    "state_code": "MI",
    "placeMasterId": "P02500000FsoFYS6jQGCD1jjJz7Zui43sDjZXrl0",
    "placeName": "franklin",
    "state": "MI"
  },
  {
    "city": "new haven",
    "state_code": "MI",
    "placeMasterId": "P02500000FsoFZjj1qpOHD8vtDQgfuTLWJwr8RbO",
    "placeName": "new haven",
    "state": "MI"
  },
  {
    "city": "carleton",
    "state_code": "MI",
    "placeMasterId": "P02500000FsoFXjsLPHJHajVRy3qp9c9WvUw1fFG",
    "placeName": "carleton",
    "state": "MI"
  },
  {
    "city": "dearborn heights",
    "state_code": "MI",
    "placeMasterId": "P02500000FsoFY1ZIc4SqxvznZgXeyamF6IOhfhp",
    "placeName": "dearborn heights",
    "state": "MI"
  },
  {
    "city": "dearborn heights",
    "state_code": "MI",
    "placeMasterId": "P02500000FsoFY1ZIc4SqxvznZgXeyamF6IOhfhp",
    "placeName": "dearborn heights",
    "state": "MI"
  },
  {
    "city": "ida",
    "state_code": "MI",
    "placeMasterId": "P02500000FsoHkQjlF2FZqDyNdynC0ttJ9JBTVTO",
    "placeName": "ida",
    "state": "MI"
  },
  {
    "city": "detroit",
    "state_code": "MI",
    "placeMasterId": "P02500000FsoFY1ZIc4SqxvznZgXeyauoH5nCTkI",
    "placeName": "detroit",
    "state": "MI"
  },
  {
    "city": "detroit",
    "state_code": "MI",
    "placeMasterId": "P02500000FsoFY1ZIc4SqxvznZgXeyauoH5nCTkI",
    "placeName": "detroit",
    "state": "MI"
  },
  {
    "city": "bancroft",
    "state_code": "MI",
    "placeMasterId": "P02500000FsoFXJKub5ZvWvlvYcoZQ8t5mP2Cc18",
    "placeName": "bancroft",
    "state": "MI"
  },
  {
    "city": "ortonville",
    "state_code": "MI",
    "placeMasterId": "P02500000FsoFZsZVSDy3tkB41F25oxmdIMrLYBa",
    "placeName": "ortonville",
    "state": "MI"
  },
  {
    "city": "flint",
    "state_code": "MI",
    "placeMasterId": "P02500000FsoFYJGForcQL8U9BJEUnZe6ic6ZYjH",
    "placeName": "flint",
    "state": "MI"
  },
  {
    "city": "beaverton",
    "state_code": "MI",
    "placeMasterId": "P02500000FsoFXJKub5ZvWvlvYcoZQ92jxM9Noz1",
    "placeName": "beaverton",
    "state": "MI"
  },
  {
    "city": "bentley",
    "state_code": "MI",
    "placeMasterId": "P02500000FsoHhQxjZi85PbpilvXPsbzmZf5QUUP",
    "placeName": "bentley",
    "state": "MI"
  },
  {
    "city": "oakley",
    "state_code": "MI",
    "placeMasterId": "P02500000FsoFZsZVSDy3tkB41F25oxdg7WVKXX4",
    "placeName": "oakley",
    "state": "MI"
  },
  {
    "city": "owendale",
    "state_code": "MI",
    "placeMasterId": "P02500000FsoFZsZVSDy3tkB41F25oxjLcvP9SCN",
    "placeName": "owendale",
    "state": "MI"
  },
  {
    "city": "prescott",
    "state_code": "MI",
    "placeMasterId": "P02500000FsoFaJ6wGPhPxXuaQg4LYQgtdcSufPU",
    "placeName": "prescott",
    "state": "MI"
  },
  {
    "city": "weidman",
    "state_code": "MI",
    "placeMasterId": "P02500000FsoFasUqg00YhwtHdvS1COKpNSzXe4I",
    "placeName": "weidman",
    "state": "MI"
  },
  {
    "city": "kalamazoo",
    "state_code": "MI",
    "placeMasterId": "P02500000FsoFZ1UdpqVLm8i1CMxaM1Y4EtACkYj",
    "placeName": "kalamazoo",
    "state": "MI"
  },
  {
    "city": "jackson",
    "state_code": "MI",
    "placeMasterId": "P02500000FsoFYseAERvZ5XSqOYcARXBB8z8RnUB",
    "placeName": "jackson",
    "state": "MI"
  },
  {
    "city": "middleville",
    "state_code": "MI",
    "placeMasterId": "P02500000FsoFZasYFQoUWXgiPcLFzyrdDX40ZpV",
    "placeName": "middleville",
    "state": "MI"
  },
  {
    "city": "stanwood",
    "state_code": "MI",
    "placeMasterId": "P02500000FsoFaantTCqzKkOw2IlBNPTv1RfiFyz",
    "placeName": "stanwood",
    "state": "MI"
  },
  {
    "city": "fruitport",
    "state_code": "MI",
    "placeMasterId": "P02500000FsoFYS6jQGCD1jjJz7Zui46eYQ84yMX",
    "placeName": "fruitport",
    "state": "MI"
  },
  {
    "city": "muskegon",
    "state_code": "MI",
    "placeMasterId": "P02500000FsoFZjj1qpOHD8vtDQgfuTK2X8vF9PN",
    "placeName": "muskegon",
    "state": "MI"
  },
  {
    "city": "muskegon",
    "state_code": "MI",
    "placeMasterId": "P02500000FsoFZjj1qpOHD8vtDQgfuTK2X8vF9PN",
    "placeName": "muskegon",
    "state": "MI"
  },
  {
    "city": "lake ann",
    "state_code": "MI",
    "placeMasterId": "P02500000FsoFZAL7RF58SjxC0BJ0GVkYXVGuiK7",
    "placeName": "lake ann",
    "state": "MI"
  },
  {
    "city": "mcbain",
    "state_code": "MI",
    "placeMasterId": "P02500000FsoFZJBb2dev9LCMnzeQB0MHxWwEgfZ",
    "placeName": "mcbain",
    "state": "MI"
  },
  {
    "city": "boyne falls",
    "state_code": "MI",
    "placeMasterId": "P02500000FsoFXb1rnsjUu8GHAFVPF7gBwoYFvyF",
    "placeName": "boyne falls",
    "state": "MI"
  },
  {
    "city": "east jordan",
    "state_code": "MI",
    "placeMasterId": "P02500000FsoFY1ZIc4SqxvznZgXeyaxMdJJHCFm",
    "placeName": "east jordan",
    "state": "MI"
  },
  {
    "city": "elmira",
    "state_code": "MI",
    "placeMasterId": "P02500000FsoHj97SoT3VeoloPfgQoUT2yGbdXyy",
    "placeName": "elmira",
    "state": "MI"
  },
  {
    "city": "pickford",
    "state_code": "MI",
    "placeMasterId": "P02500000FsoHmHjy5Bkmm29e5XHcrGmlNpAa4uW",
    "placeName": "pickford",
    "state": "MI"
  },
  {
    "city": "iron mountain",
    "state_code": "MI",
    "placeMasterId": "P02500000FsoFZ1UdpqVLm8i1CMxaM1Paf44cZ1x",
    "placeName": "iron mountain",
    "state": "MI"
  },
  {
    "city": "bark river",
    "state_code": "MI",
    "placeMasterId": "P02500000FsoHhI7FyJYIj0aXy7Bzy7gUb9NK0sg",
    "placeName": "bark river",
    "state": "MI"
  },
  {
    "city": "champion",
    "state_code": "MI",
    "placeMasterId": "P02500000FsoHi9C7ah10qc3amzGVR3uP3Bw4xT5",
    "placeName": "champion",
    "state": "MI"
  },
  {
    "city": "albion",
    "state_code": "IA",
    "placeMasterId": "P02500000FsoFD396wncPxd1BTJlE2aB2nxJRYFQ",
    "placeName": "albion",
    "state": "IA"
  },
  {
    "city": "alleman",
    "state_code": "IA",
    "placeMasterId": "P02500000FsoFD396wncPxd1BTJlE2aAq1kTil36",
    "placeName": "alleman",
    "state": "IA"
  },
  {
    "city": "baxter",
    "state_code": "IA",
    "placeMasterId": "P02500000FsoFDKq49alzKpVX4wS3rYyNeG1jvoy",
    "placeName": "baxter",
    "state": "IA"
  },
  {
    "city": "boone",
    "state_code": "IA",
    "placeMasterId": "P02500000FsoFDcX1MNvYi1zsgZ8tgXdiEHyncEm",
    "placeName": "boone",
    "state": "IA"
  },
  {
    "city": "leon",
    "state_code": "IA",
    "placeMasterId": "P02500000FsoFG2v8c7juOF9qLN10ArxdSuIMh55",
    "placeName": "leon",
    "state": "IA"
  },
  {
    "city": "sheldahl",
    "state_code": "IA",
    "placeMasterId": "P02500000FsoFI2lp3fou0eaHajqqvjB7Ym7QLN6",
    "placeName": "sheldahl",
    "state": "IA"
  },
  {
    "city": "des moines",
    "state_code": "IA",
    "placeMasterId": "P02500000FsoFETbsylOGpdSvVRDP9Ttytdspgxt",
    "placeName": "des moines",
    "state": "IA"
  },
  {
    "city": "rake",
    "state_code": "IA",
    "placeMasterId": "P02500000FsoFHTNue5VlGFbaNUTBHlhyrZy5g3N",
    "placeName": "rake",
    "state": "IA"
  },
  {
    "city": "fort dodge",
    "state_code": "IA",
    "placeMasterId": "P02500000FsoFEu9Jmx7ctRCRusFeswzCPJl4qlW",
    "placeName": "fort dodge",
    "state": "IA"
  },
  {
    "city": "aurora",
    "state_code": "IA",
    "placeMasterId": "P02500000FsoFDBzaYCCCeEGMH86dx4ZB5OOmor6",
    "placeName": "aurora",
    "state": "IA"
  },
  {
    "city": "grundy center",
    "state_code": "IA",
    "placeMasterId": "P02500000FsoFFBqGzkHCGdgnWUwUhvm7WMJOFOA",
    "placeName": "grundy center",
    "state": "IA"
  },
  {
    "city": "corning",
    "state_code": "IA",
    "placeMasterId": "P02500000FsoFEBuvlyEhSQyZtoWZKV7lODoIrbP",
    "placeName": "corning",
    "state": "IA"
  },
  {
    "city": "shannon city",
    "state_code": "IA",
    "placeMasterId": "P02500000FsoFHtvLSHF7K3L6mvVR1EpRf50m5LC",
    "placeName": "shannon city",
    "state": "IA"
  },
  {
    "city": "granville",
    "state_code": "IA",
    "placeMasterId": "P02500000FsoFFBqGzkHCGdgnWUwUhvjEEOiD512",
    "placeName": "granville",
    "state": "IA"
  },
  {
    "city": "paullina",
    "state_code": "IA",
    "placeMasterId": "P02500000FsoFHKXR2gvyZeMPZg7lNHIb0UUXl2M",
    "placeName": "paullina",
    "state": "IA"
  },
  {
    "city": "quimby",
    "state_code": "IA",
    "placeMasterId": "P02500000FsoFHTNue5VlGFbaNUTBHljFpIdLEKe",
    "placeName": "quimby",
    "state": "IA"
  },
  {
    "city": "sioux city",
    "state_code": "IA",
    "placeMasterId": "P02500000FsoFI2lp3fou0eaHajqqvjCarU2Srkt",
    "placeName": "sioux city",
    "state": "IA"
  },
  {
    "city": "boyden",
    "state_code": "IA",
    "placeMasterId": "P02500000FsoFDcX1MNvYi1zsgZ8tgXdXBi60s6g",
    "placeName": "boyden",
    "state": "IA"
  },
  {
    "city": "larchwood",
    "state_code": "IA",
    "placeMasterId": "P02500000FsoFFu4f0jA7hdufXYfaGNdqXR5Ui3D",
    "placeName": "larchwood",
    "state": "IA"
  },
  {
    "city": "graettinger",
    "state_code": "IA",
    "placeMasterId": "P02500000FsoFFBqGzkHCGdgnWUwUhvjxXCf29Xa",
    "placeName": "graettinger",
    "state": "IA"
  },
  {
    "city": "arthur",
    "state_code": "IA",
    "placeMasterId": "P02500000FsoFDBzaYCCCeEGMH86dx4aCrCCe6gY",
    "placeName": "arthur",
    "state": "IA"
  },
  {
    "city": "deloit",
    "state_code": "IA",
    "placeMasterId": "P02500000FsoFEKlPNMoU92DkhcrzEzX06AcwFKY",
    "placeName": "deloit",
    "state": "IA"
  },
  {
    "city": "lanesboro",
    "state_code": "IA",
    "placeMasterId": "P02500000FsoFFu4f0jA7hdufXYfaGNdnifneWRO",
    "placeName": "lanesboro",
    "state": "IA"
  },
  {
    "city": "lohrville",
    "state_code": "IA",
    "placeMasterId": "P02500000FsoFGBlcDWJh4qP19BMQ5MMKkT8t3o8",
    "placeName": "lohrville",
    "state": "IA"
  },
  {
    "city": "vail",
    "state_code": "IA",
    "placeMasterId": "P02500000FsoFITJFrrYG4SJo0At6fCIzBpaPoUb",
    "placeName": "vail",
    "state": "IA"
  },
  {
    "city": "dubuque",
    "state_code": "IA",
    "placeMasterId": "P02500000FsoFETbsylOGpdSvVRDP9TvdufdY75V",
    "placeName": "dubuque",
    "state": "IA"
  },
  {
    "city": "maquoketa",
    "state_code": "IA",
    "placeMasterId": "P02500000FsoFGTSZQJTGS2tMko3FuL5N2ph7rXG",
    "placeName": "maquoketa",
    "state": "IA"
  },
  {
    "city": "chester",
    "state_code": "IA",
    "placeMasterId": "P02500000FsoFDuDyZB585EUEIBpjVWRohQxqj1w",
    "placeName": "chester",
    "state": "IA"
  },
  {
    "city": "iowa city",
    "state_code": "IA",
    "placeMasterId": "P02500000FsoFFcNhnw0YKRQJvvykROrtaLOFPrR",
    "placeName": "iowa city",
    "state": "IA"
  },
  {
    "city": "lisbon",
    "state_code": "IA",
    "placeMasterId": "P02500000FsoFG2v8c7juOF9qLN10ArzftsUrRfo",
    "placeName": "lisbon",
    "state": "IA"
  },
  {
    "city": "ryan",
    "state_code": "IA",
    "placeMasterId": "P02500000FsoFHtvLSHF7K3L6mvVR1EmNmlqNxNf",
    "placeName": "ryan",
    "state": "IA"
  },
  {
    "city": "agency",
    "state_code": "IA",
    "placeMasterId": "P02500000FsoFD396wncPxd1BTJlE2aBc64oYRgh",
    "placeName": "agency",
    "state": "IA"
  },
  {
    "city": "chillicothe",
    "state_code": "IA",
    "placeMasterId": "P02500000FsoFDuDyZB585EUEIBpjVWPSnZgKhLh",
    "placeName": "chillicothe",
    "state": "IA"
  },
  {
    "city": "de witt",
    "state_code": "IA",
    "placeMasterId": "P02500000FsoFEKlPNMoU92DkhcrzEzYmIFwkSB2",
    "placeName": "de witt",
    "state": "IA"
  },
  {
    "city": "davenport",
    "state_code": "IA",
    "placeMasterId": "P02500000FsoFEKlPNMoU92DkhcrzEzWs1s9aXUd",
    "placeName": "davenport",
    "state": "IA"
  },
  {
    "city": "brownsville",
    "state_code": "WI",
    "placeMasterId": "P02500000FsoH4uQoigI3tPkfqgGZsLleaJxH3wr",
    "placeName": "brownsville",
    "state": "WI"
  },
  {
    "city": "cascade",
    "state_code": "WI",
    "placeMasterId": "P02500000FsoH4laL7HiHCoVV2rv9xrceOQmxtSi",
    "placeName": "cascade",
    "state": "WI"
  },
  {
    "city": "sheboygan",
    "state_code": "WI",
    "placeMasterId": "P02500000FsoH7lMMmbpldQe9uvAw69JuNWFWGFD",
    "placeName": "sheboygan",
    "state": "WI"
  },
  {
    "city": "slinger",
    "state_code": "WI",
    "placeMasterId": "P02500000FsoH7uCqO0PYK1tKijWM0daK5seD2LN",
    "placeName": "slinger",
    "state": "WI"
  },
  {
    "city": "kenosha",
    "state_code": "WI",
    "placeMasterId": "P02500000FsoH6C379FU84oxF4zNL4lBdr6f6YX2",
    "placeName": "kenosha",
    "state": "WI"
  },
  {
    "city": "milwaukee",
    "state_code": "WI",
    "placeMasterId": "P02500000FsoH6lR1YpnGpDvwIEl0iig1pZrPtxd",
    "placeName": "milwaukee",
    "state": "WI"
  },
  {
    "city": "milwaukee",
    "state_code": "WI",
    "placeMasterId": "P02500000FsoH6lR1YpnGpDvwIEl0iig1pZrPtxd",
    "placeName": "milwaukee",
    "state": "WI"
  },
  {
    "city": "belleville",
    "state_code": "WI",
    "placeMasterId": "P02500000FsoH4TtNuUYhpc19RFEK8smmiKXrs55",
    "placeName": "belleville",
    "state": "WI"
  },
  {
    "city": "livingston",
    "state_code": "WI",
    "placeMasterId": "P02500000FsoH6Tk4M2dhS1Ragc4Atjvm8lVuQwL",
    "placeName": "livingston",
    "state": "WI"
  },
  {
    "city": "sun prairie",
    "state_code": "WI",
    "placeMasterId": "P02500000FsoH833JzOzL0d8VWXrlv7x5QdjpwXe",
    "placeName": "sun prairie",
    "state": "WI"
  },
  {
    "city": "madison",
    "state_code": "WI",
    "placeMasterId": "P02500000FsoH6caXxRDU8cglUQPaoEDC1yqNdF5",
    "placeName": "madison",
    "state": "WI"
  },
  {
    "city": "glenwood city",
    "state_code": "WI",
    "placeMasterId": "P02500000FsoH5lVgL3km11DifYL5LI5Bv11ezXS",
    "placeName": "glenwood city",
    "state": "WI"
  },
  {
    "city": "prescott",
    "state_code": "WI",
    "placeMasterId": "P02500000FsoH7TfPZogCGE9oJIU6HAc7LcudLwW",
    "placeName": "prescott",
    "state": "WI"
  },
  {
    "city": "amberg",
    "state_code": "WI",
    "placeMasterId": "P02500000FsoIfVIkVb7ggVs50myMSqPwjxZ5VeJ",
    "placeName": "amberg",
    "state": "WI"
  },
  {
    "city": "coleman",
    "state_code": "WI",
    "placeMasterId": "P02500000FsoH53HIK4rqa0zqeUbzmqLEimf8GsO",
    "placeName": "coleman",
    "state": "WI"
  },
  {
    "city": "little chute",
    "state_code": "WI",
    "placeMasterId": "P02500000FsoH6Tk4M2dhS1Ragc4AtjrMPld0L4M",
    "placeName": "little chute",
    "state": "WI"
  },
  {
    "city": "townsend",
    "state_code": "WI",
    "placeMasterId": "P02500000FsoIkUvScTKAjXRB8D3zLzPMbPSr8f9",
    "placeName": "townsend",
    "state": "WI"
  },
  {
    "city": "stratford",
    "state_code": "WI",
    "placeMasterId": "P02500000FsoH833JzOzL0d8VWXrlv806kz0R8Y6",
    "placeName": "stratford",
    "state": "WI"
  },
  {
    "city": "wittenberg",
    "state_code": "WI",
    "placeMasterId": "P02500000FsoHFkl6Yo9k74LuuOWL7a8yZpmAQXE",
    "placeName": "wittenberg",
    "state": "WI"
  },
  {
    "city": "bangor",
    "state_code": "WI",
    "placeMasterId": "P02500000FsoHF2WiXpGog482tKnFZ8JyUS6v4lM",
    "placeName": "bangor",
    "state": "WI"
  },
  {
    "city": "norwalk",
    "state_code": "WI",
    "placeMasterId": "P02500000FsoH737ylcwqCQQHtrRqXhVcKwPfqS2",
    "placeName": "norwalk",
    "state": "WI"
  },
  {
    "city": "eau claire",
    "state_code": "WI",
    "placeMasterId": "P02500000FsoH5Toj8GbCdojN3veFWJHcj2fS596",
    "placeName": "eau claire",
    "state": "WI"
  },
  {
    "city": "conrath",
    "state_code": "WI",
    "placeMasterId": "P02500000FsoH5C7lvTRdGcF1SIxPhKZvyAk9sVy",
    "placeName": "conrath",
    "state": "WI"
  },
  {
    "city": "mondovi",
    "state_code": "WI",
    "placeMasterId": "P02500000FsoH6uHVAEN3VpB7636QdD1tjDNVhCG",
    "placeName": "mondovi",
    "state": "WI"
  },
  {
    "city": "hayward",
    "state_code": "WI",
    "placeMasterId": "P02500000FsoH5uM9wSKYhcStTMgVFmYbq6ygbB3",
    "placeName": "hayward",
    "state": "WI"
  },
  {
    "city": "hortonville",
    "state_code": "WI",
    "placeMasterId": "P02500000FsoH63CdXquLODi4HB1vAGnHTD1T6JT",
    "placeName": "hortonville",
    "state": "WI"
  },
  {
    "city": "manawa",
    "state_code": "WI",
    "placeMasterId": "P02500000FsoH6caXxRDU8cglUQPaoEJWkjCUOCU",
    "placeName": "manawa",
    "state": "WI"
  },
  {
    "city": "wautoma",
    "state_code": "WI",
    "placeMasterId": "P02500000FsoH8KkHCC8uNpcr8AYbk6hjNum51jX",
    "placeName": "wautoma",
    "state": "WI"
  },
  {
    "city": "forest lake",
    "state_code": "MN",
    "placeMasterId": "P02500000FsoFcjV3W9Vldl4Y5TwS2l7GLqqrm1x",
    "placeName": "forest lake",
    "state": "MN"
  },
  {
    "city": "frontenac",
    "state_code": "MN",
    "placeMasterId": "P02500000FsoFcjV3W9Vldl4Y5TwS2lG8X3urRsy",
    "placeName": "frontenac",
    "state": "MN"
  },
  {
    "city": "lindstrom",
    "state_code": "MN",
    "placeMasterId": "P02500000FsoFe17LwihppAH7Jn3DFAOCx5LihLQ",
    "placeName": "lindstrom",
    "state": "MN"
  },
  {
    "city": "red wing",
    "state_code": "MN",
    "placeMasterId": "P02500000FsoFf12hAUkKdMzKwTT8cb3cYkbOAIw",
    "placeName": "red wing",
    "state": "MN"
  },
  {
    "city": "willernie",
    "state_code": "MN",
    "placeMasterId": "P02500000FsoFgIezb3wOomBuAmZtp0SMkLe856k",
    "placeName": "willernie",
    "state": "MN"
  },
  {
    "city": "becker",
    "state_code": "MN",
    "placeMasterId": "P02500000FsoFbRsl5aJhSLryrApgqLowb5Rp4WN",
    "placeName": "becker",
    "state": "MN"
  },
  {
    "city": "chaska",
    "state_code": "MN",
    "placeMasterId": "P02500000FsoFbsQBtm33W9bVGbrwZouKvtcCoiM",
    "placeName": "chaska",
    "state": "MN"
  },
  {
    "city": "clearwater",
    "state_code": "MN",
    "placeMasterId": "P02500000FsoFc1GfVAcqCkqg4QDMUJFehKBUwE0",
    "placeName": "clearwater",
    "state": "MN"
  },
  {
    "city": "minnetonka",
    "state_code": "MN",
    "placeMasterId": "P02500000FsoFeRemkuRBsy0djE5SydXXN8txIEG",
    "placeName": "minnetonka",
    "state": "MN"
  },
  {
    "city": "minneapolis",
    "state_code": "MN",
    "placeMasterId": "P02500000FsoFeIoJ9VrPCMlSvPk349D9alJlgNT",
    "placeName": "minneapolis",
    "state": "MN"
  },
  {
    "city": "minneapolis",
    "state_code": "MN",
    "placeMasterId": "P02500000FsoFeIoJ9VrPCMlSvPk349D9alJlgNT",
    "placeName": "minneapolis",
    "state": "MN"
  },
  {
    "city": "brookston",
    "state_code": "MN",
    "placeMasterId": "P02500000FsoFbjZiINTGpYMKSnWWfKYBYf5sFNk",
    "placeName": "brookston",
    "state": "MN"
  },
  {
    "city": "goodland",
    "state_code": "MN",
    "placeMasterId": "P02500000FsoHs8RXoRPywfBn1pRlDM570jjnZEP",
    "placeName": "goodland",
    "state": "MN"
  },
  {
    "city": "rochester",
    "state_code": "MN",
    "placeMasterId": "P02500000FsoFf9tAltK7JyEVkHoYX5PeOLVeDVh",
    "placeName": "rochester",
    "state": "MN"
  },
  {
    "city": "byron",
    "state_code": "MN",
    "placeMasterId": "P02500000FsoFbjZiINTGpYMKSnWWfKZkaPuo7DP",
    "placeName": "byron",
    "state": "MN"
  },
  {
    "city": "preston",
    "state_code": "MN",
    "placeMasterId": "P02500000FsoFf12hAUkKdMzKwTT8cazAD0iF0Cn",
    "placeName": "preston",
    "state": "MN"
  },
  {
    "city": "spring grove",
    "state_code": "MN",
    "placeMasterId": "P02500000FsoFfaQba53TNly29iqoGYcPftYjiEi",
    "placeName": "spring grove",
    "state": "MN"
  },
  {
    "city": "amboy",
    "state_code": "MN",
    "placeMasterId": "P02500000FsoFbABnsnA859NdFY8r1N8QPdrfCUM",
    "placeName": "amboy",
    "state": "MN"
  },
  {
    "city": "kilkenny",
    "state_code": "MN",
    "placeMasterId": "P02500000FsoFdaZv8WyTlMXauM0xVhVfqwEGUSu",
    "placeName": "kilkenny",
    "state": "MN"
  },
  {
    "city": "currie",
    "state_code": "MN",
    "placeMasterId": "P02500000FsoFc1GfVAcqCkqg4QDMUJNQezUyuS7",
    "placeName": "currie",
    "state": "MN"
  },
  {
    "city": "hills",
    "state_code": "MN",
    "placeMasterId": "P02500000FsoFdIsxvjouOA3FIjK7gidt0pyHmkn",
    "placeName": "hills",
    "state": "MN"
  },
  {
    "city": "steen",
    "state_code": "MN",
    "placeMasterId": "P02500000FsoFfjH5BTdG4NDCxXCEB2pZTeIO4Up",
    "placeName": "steen",
    "state": "MN"
  },
  {
    "city": "tyler",
    "state_code": "MN",
    "placeMasterId": "P02500000FsoFfs7YmsD2kySNlLXe5XGYCiMbrSP",
    "placeName": "tyler",
    "state": "MN"
  },
  {
    "city": "ghent",
    "state_code": "MN",
    "placeMasterId": "P02500000FsoFcsLX7Y5YKMJitIHrxFVQIw5SeTd",
    "placeName": "ghent",
    "state": "MN"
  },
  {
    "city": "lake lillian",
    "state_code": "MN",
    "placeMasterId": "P02500000FsoFdjQOjvYGRxmliAMNQBjtNWrWKwt",
    "placeName": "lake lillian",
    "state": "MN"
  },
  {
    "city": "odessa",
    "state_code": "MN",
    "placeMasterId": "P02500000FsoFejLjxhalGAUzKqmIncCu6eJrjj1",
    "placeName": "odessa",
    "state": "MN"
  },
  {
    "city": "ortonville",
    "state_code": "MN",
    "placeMasterId": "P02500000FsoFejLjxhalGAUzKqmIncH69jTfna8",
    "placeName": "ortonville",
    "state": "MN"
  },
  {
    "city": "taunton",
    "state_code": "MN",
    "placeMasterId": "P02500000FsoFfjH5BTdG4NDCxXCEB31Docch6xV",
    "placeName": "taunton",
    "state": "MN"
  },
  {
    "city": "oak park",
    "state_code": "MN",
    "placeMasterId": "P02500000FsoHvzIR690BUsnUikm2oZvB9uetS1g",
    "placeName": "oak park",
    "state": "MN"
  },
  {
    "city": "rice",
    "state_code": "MN",
    "placeMasterId": "P02500000FsoFf9tAltK7JyEVkHoYX5L15Lfafzl",
    "placeName": "rice",
    "state": "MN"
  },
  {
    "city": "clarissa",
    "state_code": "MN",
    "placeMasterId": "P02500000FsoFbsQBtm33W9bVGbrwZowguaFLBYh",
    "placeName": "clarissa",
    "state": "MN"
  },
  {
    "city": "emily",
    "state_code": "MN",
    "placeMasterId": "P02500000FsoFcaeZukvyx9pNHfb28GjXpBczCKh",
    "placeName": "emily",
    "state": "MN"
  },
  {
    "city": "hewitt",
    "state_code": "MN",
    "placeMasterId": "P02500000FsoFdIsxvjouOA3FIjK7gifcLD6QklU",
    "placeName": "hewitt",
    "state": "MN"
  },
  {
    "city": "nielsville",
    "state_code": "MN",
    "placeMasterId": "P02500000FsoFeaVGMJ0yZZFoX2Qst7tEZ3iQ8ls",
    "placeName": "nielsville",
    "state": "MN"
  },
  {
    "city": "twin valley",
    "state_code": "MN",
    "placeMasterId": "P02500000FsoFfs7YmsD2kySNlLXe5XMVbf9eUqe",
    "placeName": "twin valley",
    "state": "MN"
  },
  {
    "city": "remer",
    "state_code": "MN",
    "placeMasterId": "P02500000FsoFf9tAltK7JyEVkHoYX5JVkOyjCiX",
    "placeName": "remer",
    "state": "MN"
  },
  {
    "city": "scotland",
    "state_code": "SD",
    "placeMasterId": "P02500000FsoGfMvLkiyUtswU2KQlmfEojDB55TY",
    "placeName": "scotland",
    "state": "SD"
  },
  {
    "city": "sioux falls",
    "state_code": "SD",
    "placeMasterId": "P02500000FsoGfE4s9KOiDHhJEW5LsAy2czuKme9",
    "placeName": "sioux falls",
    "state": "SD"
  },
  {
    "city": "eden",
    "state_code": "SD",
    "placeMasterId": "P02500000FsoGe5J3K9mQiTjuo1K0aG1KmpSHPDG",
    "placeName": "eden",
    "state": "SD"
  },
  {
    "city": "fedora",
    "state_code": "SD",
    "placeMasterId": "P02500000FsoGeE9WvYMDP4z5bpfQUkOgAUtFXAE",
    "placeName": "fedora",
    "state": "SD"
  },
  {
    "city": "reliance",
    "state_code": "SD",
    "placeMasterId": "P02500000FsoGf5EOXvovWgS8QhjvxgjGhep97sg",
    "placeName": "reliance",
    "state": "SD"
  },
  {
    "city": "cayuga",
    "state_code": "ND",
    "placeMasterId": "P02500000FsoGAY6DT6IsU84qUvoUyr78cRa3Xoh",
    "placeName": "cayuga",
    "state": "ND"
  },
  {
    "city": "kindred",
    "state_code": "ND",
    "placeMasterId": "P02500000FsoGBPB55TlabjXtJnt0RnMMClbMzA6",
    "placeName": "kindred",
    "state": "ND"
  },
  {
    "city": "wyndmere",
    "state_code": "ND",
    "placeMasterId": "P02500000FsoGCXwtueNs6XVHkIeLjiROYBXNqf5",
    "placeName": "wyndmere",
    "state": "ND"
  },
  {
    "city": "wimbledon",
    "state_code": "ND",
    "placeMasterId": "P02500000FsoGCP6QJFo5PwG6wUIvpE9dMQ4xzhW",
    "placeName": "wimbledon",
    "state": "ND"
  },
  {
    "city": "dunn center",
    "state_code": "ND",
    "placeMasterId": "P02500000FsoGAgwh4UsfAjK1Ik9utLVkWNAKUjW",
    "placeName": "dunn center",
    "state": "ND"
  },
  {
    "city": "marmarth",
    "state_code": "ND",
    "placeMasterId": "P02500000FsoGBgs2IGv9yw2EvQZqGm6okhilQ5g",
    "placeName": "marmarth",
    "state": "ND"
  },
  {
    "city": "minot",
    "state_code": "ND",
    "placeMasterId": "P02500000FsoGBgs2IGv9yw2EvQZqGmEfZY09zCb",
    "placeName": "minot",
    "state": "ND"
  }
]