[
  {
    "city": "boydton",
    "state_code": "VA",
    "placeMasterId": "P02500000FsoGuvBOUvt5nMcTbq5K63lWR6f5yoB",
    "placeName": "boydton",
    "state": "VA"
  },
  {
    "city": "keysville",
    "state_code": "VA",
    "placeMasterId": "P02500000FsoGwCngvV59ylp2q9C5IT5Hki6rinZ",
    "placeName": "keysville",
    "state": "VA"
  },
  {
    "city": "daleville",
    "state_code": "VA",
    "placeMasterId": "P02500000FsoGvLipJ7cRrAM01H7ZpX3eqCt50hO",
    "placeName": "daleville",
    "state": "VA"
  },
  {
    "city": "narrows",
    "state_code": "VA",
    "placeMasterId": "P02500000FsoGwv24wTy5Pm2urCvAquzLoCsRMZh",
    "placeName": "narrows",
    "state": "VA"
  },
  {
    "city": "shawsville",
    "state_code": "VA",
    "placeMasterId": "P02500000FsoGxUPzM4HEAB1c4SIqUsX9gGpC1I3",
    "placeName": "shawsville",
    "state": "VA"
  },
  {
    "city": "keokee",
    "state_code": "VA",
    "placeMasterId": "P02500000FsoGwCngvV59ylp2q9C5IT4vXyuVeyO",
    "placeName": "keokee",
    "state": "VA"
  },
  {
    "city": "atkins",
    "state_code": "VA",
    "placeMasterId": "P02500000FsoGudURI8jWQA880DOUH503WeD3myo",
    "placeName": "atkins",
    "state": "VA"
  },
  {
    "city": "cana",
    "state_code": "VA",
    "placeMasterId": "P02500000FsoGv41s6KSsTxrePeQk0Y8BJsLPN2E",
    "placeName": "cana",
    "state": "VA"
  },
  {
    "city": "fancy gap",
    "state_code": "VA",
    "placeMasterId": "P02500000FsoGvdPmVum1EMqLctoPeVejVq21jjZ",
    "placeName": "fancy gap",
    "state": "VA"
  },
  {
    "city": "wytheville",
    "state_code": "VA",
    "placeMasterId": "P02500000FsoGy3ntleaMua0JHhgW8q42Jc0M1Of",
    "placeName": "wytheville",
    "state": "VA"
  },
  {
    "city": "halifax",
    "state_code": "VA",
    "placeMasterId": "P02500000FsoGvv6jihvabZKhEWVFTUTW7peTaEF",
    "placeName": "halifax",
    "state": "VA"
  },
  {
    "city": "cucumber",
    "state_code": "WV",
    "placeMasterId": "P02500000FsoH2LCDrXtvWbLXO433TXCTsOQ7uyB",
    "placeName": "cucumber",
    "state": "WV"
  },
  {
    "city": "alum creek",
    "state_code": "WV",
    "placeMasterId": "P02500000FsoH1uen3MAZSnc0yd0nk45hFTLAdAv",
    "placeName": "alum creek",
    "state": "WV"
  },
  {
    "city": "bancroft",
    "state_code": "WV",
    "placeMasterId": "P02500000FsoH23VGekkM9OrBmRMDeYIySnpFT7h",
    "placeName": "bancroft",
    "state": "WV"
  },
  {
    "city": "henderson",
    "state_code": "WV",
    "placeMasterId": "P02500000FsoH2ua8H8D4H0KEbJQj7UfgJXD8OAw",
    "placeName": "henderson",
    "state": "WV"
  },
  {
    "city": "twilight",
    "state_code": "WV",
    "placeMasterId": "P02500000FsoH3uVTUuFZ5D2SDzqeUvM2XXZyB9F",
    "placeName": "twilight",
    "state": "WV"
  },
  {
    "city": "shenandoah junction",
    "state_code": "WV",
    "placeMasterId": "P02500000FsoH3leztVfmObnHQBVEaQyRFJMR50F",
    "placeName": "shenandoah junction",
    "state": "WV"
  },
  {
    "city": "barboursville",
    "state_code": "WV",
    "placeMasterId": "P02500000FsoH23VGekkM9OrBmRMDeYKKs9uBhjo",
    "placeName": "barboursville",
    "state": "WV"
  },
  {
    "city": "huntington",
    "state_code": "WV",
    "placeMasterId": "P02500000FsoH2ua8H8D4H0KEbJQj7UjL9eOcIxo",
    "placeName": "huntington",
    "state": "WV"
  },
  {
    "city": "fayetteville",
    "state_code": "WV",
    "placeMasterId": "P02500000FsoH2U2hSwTiDCaiBsOTO1c7ukaKO8H",
    "placeName": "fayetteville",
    "state": "WV"
  },
  {
    "city": "pax",
    "state_code": "WV",
    "placeMasterId": "P02500000FsoH3Ty2giWD1PIvoYoOlSDgSHUR202",
    "placeName": "pax",
    "state": "WV"
  },
  {
    "city": "new martinsville",
    "state_code": "WV",
    "placeMasterId": "P02500000FsoH3Ty2giWD1PIvoYoOlS3grgrOMyZ",
    "placeName": "new martinsville",
    "state": "WV"
  },
  {
    "city": "hambleton",
    "state_code": "WV",
    "placeMasterId": "P02500000FsoH2ua8H8D4H0KEbJQj7UYlyGwtnGc",
    "placeName": "hambleton",
    "state": "WV"
  },
  {
    "city": "morgantown",
    "state_code": "WV",
    "placeMasterId": "P02500000FsoH3L7Z5JwQKo3l0kSyqxnFrvqHco4",
    "placeName": "morgantown",
    "state": "WV"
  },
  {
    "city": "cooleemee",
    "state_code": "NC",
    "placeMasterId": "P02500000FsoG6hFKBOifvuT8o0UDNd8sr3EYtQp",
    "placeName": "cooleemee",
    "state": "NC"
  },
  {
    "city": "mount airy",
    "state_code": "NC",
    "placeMasterId": "P02500000FsoG8PP3Q9e6B7PERkdEJVbjHobynPF",
    "placeName": "mount airy",
    "state": "NC"
  },
  {
    "city": "high point",
    "state_code": "NC",
    "placeMasterId": "P02500000FsoG7YKBnmBO3VwBcsYiqZMYSFM4NK8",
    "placeName": "high point",
    "state": "NC"
  },
  {
    "city": "ramseur",
    "state_code": "NC",
    "placeMasterId": "P02500000FsoG8ymxpjxEvWNvf00txSyQLK7nw3R",
    "placeName": "ramseur",
    "state": "NC"
  },
  {
    "city": "greensboro",
    "state_code": "NC",
    "placeMasterId": "P02500000FsoG7PTiCNbbMuh0p4DIw54JG0aDyyU",
    "placeName": "greensboro",
    "state": "NC"
  },
  {
    "city": "franklinton",
    "state_code": "NC",
    "placeMasterId": "P02500000FsoG7GdEaz1ogJRq1Frt1aW5dSlxc9R",
    "placeName": "franklinton",
    "state": "NC"
  },
  {
    "city": "apex",
    "state_code": "NC",
    "placeMasterId": "P02500000FsoG5z0wAPpkUuFGmwl7pB9aG4soHBj",
    "placeName": "apex",
    "state": "NC"
  },
  {
    "city": "wake forest",
    "state_code": "NC",
    "placeMasterId": "P02500000FsoG9prpS7Px37qyTs5PQPQi0UoDsdB",
    "placeName": "wake forest",
    "state": "NC"
  },
  {
    "city": "castalia",
    "state_code": "NC",
    "placeMasterId": "P02500000FsoG6YOqa08tFJDy0C8nT8l3yOlfnvI",
    "placeName": "castalia",
    "state": "NC"
  },
  {
    "city": "cofield",
    "state_code": "NC",
    "placeMasterId": "P02500000FsoG6hFKBOifvuT8o0UDNd4tkIekwRE",
    "placeName": "cofield",
    "state": "NC"
  },
  {
    "city": "gastonia",
    "state_code": "NC",
    "placeMasterId": "P02500000FsoG7GdEaz1ogJRq1Frt1aav0WaiPIh",
    "placeName": "gastonia",
    "state": "NC"
  },
  {
    "city": "gastonia",
    "state_code": "NC",
    "placeMasterId": "P02500000FsoG7GdEaz1ogJRq1Frt1aav0WaiPIh",
    "placeName": "gastonia",
    "state": "NC"
  },
  {
    "city": "lowell",
    "state_code": "NC",
    "placeMasterId": "P02500000FsoG87i6DMUWnuusq7wOUWjxFgeTpY1",
    "placeName": "lowell",
    "state": "NC"
  },
  {
    "city": "charlotte",
    "state_code": "NC",
    "placeMasterId": "P02500000FsoG6YOqa08tFJDy0C8nT8qHEOhlkFv",
    "placeName": "charlotte",
    "state": "NC"
  },
  {
    "city": "wilmington",
    "state_code": "NC",
    "placeMasterId": "P02500000FsoGA7YmeuZWQKLK5UmFFNulrAI1CsW",
    "placeName": "wilmington",
    "state": "NC"
  },
  {
    "city": "wilmington",
    "state_code": "NC",
    "placeMasterId": "P02500000FsoGA7YmeuZWQKLK5UmFFNulrAI1CsW",
    "placeName": "wilmington",
    "state": "NC"
  },
  {
    "city": "burgaw",
    "state_code": "NC",
    "placeMasterId": "P02500000FsoG6PYMybZ6YhynCNnNYeILhXalpzs",
    "placeName": "burgaw",
    "state": "NC"
  },
  {
    "city": "holly ridge",
    "state_code": "NC",
    "placeMasterId": "P02500000FsoG7hAfPAlAk7BMQgu8l3etuTtzttL",
    "placeName": "holly ridge",
    "state": "NC"
  },
  {
    "city": "wrightsville beach",
    "state_code": "NC",
    "placeMasterId": "P02500000FsoGA7YmeuZWQKLK5UmFFO11XryWZnc",
    "placeName": "wrightsville beach",
    "state": "NC"
  },
  {
    "city": "pollocksville",
    "state_code": "NC",
    "placeMasterId": "P02500000FsoG8pwUELNSEv8krBfU2yk3fK2QtyZ",
    "placeName": "pollocksville",
    "state": "NC"
  },
  {
    "city": "richlands",
    "state_code": "NC",
    "placeMasterId": "P02500000FsoG8ymxpjxEvWNvf00txT4oXfrlgpu",
    "placeName": "richlands",
    "state": "NC"
  },
  {
    "city": "jonesville",
    "state_code": "NC",
    "placeMasterId": "P02500000FsoG7q190ZKxQiQXEVFYfY1IfsBddj3",
    "placeName": "jonesville",
    "state": "NC"
  },
  {
    "city": "columbus",
    "state_code": "NC",
    "placeMasterId": "P02500000FsoG6hFKBOifvuT8o0UDNd1IUVNw1YC",
    "placeName": "columbus",
    "state": "NC"
  },
  {
    "city": "marble",
    "state_code": "NC",
    "placeMasterId": "P02500000FsoG87i6DMUWnuusq7wOUWuEQRSPnZ8",
    "placeName": "marble",
    "state": "NC"
  },
  {
    "city": "heath springs",
    "state_code": "SC",
    "placeMasterId": "P02500000FsoGbwbtHD7ePT4Ikq8juuSXv3UJkRf",
    "placeName": "heath springs",
    "state": "SC"
  },
  {
    "city": "lake view",
    "state_code": "SC",
    "placeMasterId": "P02500000FsoGc5SMsbhR64JTYeU9pOuiGPzwMHt",
    "placeName": "lake view",
    "state": "SC"
  },
  {
    "city": "anderson",
    "state_code": "SC",
    "placeMasterId": "P02500000FsoGb5X1epewHrbFvy4ERyK3lzp4DKY",
    "placeName": "anderson",
    "state": "SC"
  },
  {
    "city": "greer",
    "state_code": "SC",
    "placeMasterId": "P02500000FsoGbwbtHD7ePT4Ikq8juuM0BGGcIFr",
    "placeName": "greer",
    "state": "SC"
  },
  {
    "city": "warrenville",
    "state_code": "SC",
    "placeMasterId": "P02500000FsoGdN4fJAtVHTW2mxav1o6EJ2nn9Sr",
    "placeName": "warrenville",
    "state": "SC"
  },
  {
    "city": "roswell",
    "state_code": "GA",
    "placeMasterId": "P02500000FsoEyD7SDZakV9Z3urplHdZpg4FkgdN",
    "placeName": "roswell",
    "state": "GA"
  },
  {
    "city": "temple",
    "state_code": "GA",
    "placeMasterId": "P02500000FsoEyUoPQMkJsM3PWUWb6cKrs4OKanf",
    "placeName": "temple",
    "state": "GA"
  },
  {
    "city": "atlanta",
    "state_code": "GA",
    "placeMasterId": "P02500000FsoEvV2Nl2cpRjukeRGoyKXsQZ9lvPs",
    "placeName": "atlanta",
    "state": "GA"
  },
  {
    "city": "atlanta",
    "state_code": "GA",
    "placeMasterId": "P02500000FsoEvV2Nl2cpRjukeRGoyKXsQZ9lvPs",
    "placeName": "atlanta",
    "state": "GA"
  },
  {
    "city": "gainesville",
    "state_code": "GA",
    "placeMasterId": "P02500000FsoEwmegBbotd97JskNaAjp2WK40aam",
    "placeName": "gainesville",
    "state": "GA"
  },
  {
    "city": "cleveland",
    "state_code": "GA",
    "placeMasterId": "P02500000FsoEw4QIAcvyC8tRrgeUcI1n3NdBo0M",
    "placeName": "cleveland",
    "state": "GA"
  },
  {
    "city": "jefferson",
    "state_code": "GA",
    "placeMasterId": "P02500000FsoExDC6znYFgwqqIBPpuCwWU9nzqcI",
    "placeName": "jefferson",
    "state": "GA"
  },
  {
    "city": "bishop",
    "state_code": "GA",
    "placeMasterId": "P02500000FsoEvdsrMRCc8L9vSFcEsottHlUYqA5",
    "placeName": "bishop",
    "state": "GA"
  },
  {
    "city": "white plains",
    "state_code": "GA",
    "placeMasterId": "P02500000FsoEyvLqEYTfw9mvvvYqq5PZlCD4DaP",
    "placeName": "white plains",
    "state": "GA"
  },
  {
    "city": "shady dale",
    "state_code": "GA",
    "placeMasterId": "P02500000FsoEyLxvoyAXBkoEigBBC7u8JqSH9jd",
    "placeName": "shady dale",
    "state": "GA"
  },
  {
    "city": "macon",
    "state_code": "GA",
    "placeMasterId": "P02500000FsoExUt4Cahp49LBto6fjBgwFvKC0bb",
    "placeName": "macon",
    "state": "GA"
  },
  {
    "city": "savannah",
    "state_code": "GA",
    "placeMasterId": "P02500000FsoEyD7SDZakV9Z3urplHdbJAuUvfKW",
    "placeName": "savannah",
    "state": "GA"
  },
  {
    "city": "shiloh",
    "state_code": "GA",
    "placeMasterId": "P02500000FsoEyLxvoyAXBkoEigBBC7wclBNhw5T",
    "placeName": "shiloh",
    "state": "GA"
  },
  {
    "city": "warm springs",
    "state_code": "GA",
    "placeMasterId": "P02500000FsoEyvLqEYTfw9mvvvYqq5O8KmkQGCm",
    "placeName": "warm springs",
    "state": "GA"
  },
  {
    "city": "west point",
    "state_code": "GA",
    "placeMasterId": "P02500000FsoEyvLqEYTfw9mvvvYqq5Qg1GjpVYE",
    "placeName": "west point",
    "state": "GA"
  },
  {
    "city": "jacksonville",
    "state_code": "FL",
    "placeMasterId": "P02500000FsoEs4ivHWlyxK2ZMwyn6Zc9nJdRTGT",
    "placeName": "jacksonville",
    "state": "FL"
  },
  {
    "city": "jacksonville",
    "state_code": "FL",
    "placeMasterId": "P02500000FsoEs4ivHWlyxK2ZMwyn6Zc9nJdRTGT",
    "placeName": "jacksonville",
    "state": "FL"
  },
  {
    "city": "jacksonville",
    "state_code": "FL",
    "placeMasterId": "P02500000FsoEs4ivHWlyxK2ZMwyn6Zc9nJdRTGT",
    "placeName": "jacksonville",
    "state": "FL"
  },
  {
    "city": "lamont",
    "state_code": "FL",
    "placeMasterId": "P02500000FsoEsMPsUJvYKWWuyZfcvYNBFcpA1Ys",
    "placeName": "lamont",
    "state": "FL"
  },
  {
    "city": "graceville",
    "state_code": "FL",
    "placeMasterId": "P02500000FsoEreBUTL2ctWJ2xVwXN6XfG0TB0YH",
    "placeName": "graceville",
    "state": "FL"
  },
  {
    "city": "molino",
    "state_code": "FL",
    "placeMasterId": "P02500000FsoEt4eGVIoTlWkmzdOiU0AjeW2JmHX",
    "placeName": "molino",
    "state": "FL"
  },
  {
    "city": "shalimar",
    "state_code": "FL",
    "placeMasterId": "P02500000FsoEuMGYvs0XwvxMDwVTgPW24Jlq81D",
    "placeName": "shalimar",
    "state": "FL"
  },
  {
    "city": "morriston",
    "state_code": "FL",
    "placeMasterId": "P02500000FsoEt4eGVIoTlWkmzdOiU0E379G6ZwS",
    "placeName": "morriston",
    "state": "FL"
  },
  {
    "city": "christmas",
    "state_code": "FL",
    "placeMasterId": "P02500000FsoEqn6cqxZuluq08ds1uAFDzXsWQkY",
    "placeName": "christmas",
    "state": "FL"
  },
  {
    "city": "deland",
    "state_code": "FL",
    "placeMasterId": "P02500000FsoEqvx6SM9hSW5AwSDRoedMhx3Hh8G",
    "placeName": "deland",
    "state": "FL"
  },
  {
    "city": "orlando",
    "state_code": "FL",
    "placeMasterId": "P02500000FsoEtVBhJUXppKUJP4QyDTHMDbz9uFq",
    "placeName": "orlando",
    "state": "FL"
  },
  {
    "city": "orlando",
    "state_code": "FL",
    "placeMasterId": "P02500000FsoEtVBhJUXppKUJP4QyDTHMDbz9uFq",
    "placeName": "orlando",
    "state": "FL"
  },
  {
    "city": "cocoa",
    "state_code": "FL",
    "placeMasterId": "P02500000FsoEqn6cqxZuluq08ds1uAFjI1CSzq5",
    "placeName": "cocoa",
    "state": "FL"
  },
  {
    "city": "fellsmere",
    "state_code": "FL",
    "placeMasterId": "P02500000FsoErMUXGXt3WJohLtFhY7hxB4rt7ne",
    "placeName": "fellsmere",
    "state": "FL"
  },
  {
    "city": "pembroke pines",
    "state_code": "FL",
    "placeMasterId": "P02500000FsoEtmseWHhPCWyf0h7o2S5jFMrRUvW",
    "placeName": "pembroke pines",
    "state": "FL"
  },
  {
    "city": "key west",
    "state_code": "FL",
    "placeMasterId": "P02500000FsoEsDZOsvLldvHkAlKD140YBAsUNdb",
    "placeName": "key west",
    "state": "FL"
  },
  {
    "city": "coral springs",
    "state_code": "FL",
    "placeMasterId": "P02500000FsoEqn6cqxZuluq08ds1uAIGn17JJZH",
    "placeName": "coral springs",
    "state": "FL"
  },
  {
    "city": "miami beach",
    "state_code": "FL",
    "placeMasterId": "P02500000FsoEsvnmtuEh4vVcBp3IZVokjlG7wuw",
    "placeName": "miami beach",
    "state": "FL"
  },
  {
    "city": "miami beach",
    "state_code": "FL",
    "placeMasterId": "P02500000FsoEsvnmtuEh4vVcBp3IZVokjlG7wuw",
    "placeName": "miami beach",
    "state": "FL"
  },
  {
    "city": "fort lauderdale",
    "state_code": "FL",
    "placeMasterId": "P02500000FsoErVL0rwSqCv3s9hb7Sc4XvAWhbEe",
    "placeName": "fort lauderdale",
    "state": "FL"
  },
  {
    "city": "lake worth",
    "state_code": "FL",
    "placeMasterId": "P02500000FsoEsVGM5iVL17m5mO12q2jEoYPCkzn",
    "placeName": "lake worth",
    "state": "FL"
  },
  {
    "city": "dover",
    "state_code": "FL",
    "placeMasterId": "P02500000FsoEr4na3kjU97KLkGYrj92LRbPd2Bs",
    "placeName": "dover",
    "state": "FL"
  },
  {
    "city": "wesley chapel",
    "state_code": "FL",
    "placeMasterId": "P02500000FsoEv4UwwqtTNwBEF0EZErMXpzJ5a9p",
    "placeName": "wesley chapel",
    "state": "FL"
  },
  {
    "city": "lakeland",
    "state_code": "FL",
    "placeMasterId": "P02500000FsoEsMPsUJvYKWWuyZfcvYKMAG7ePey",
    "placeName": "lakeland",
    "state": "FL"
  },
  {
    "city": "punta gorda",
    "state_code": "FL",
    "placeMasterId": "P02500000FsoEtvj87gHBt8DpoVTDwwPT0CFz3QF",
    "placeName": "punta gorda",
    "state": "FL"
  },
  {
    "city": "naples",
    "state_code": "FL",
    "placeMasterId": "P02500000FsoEtDUk6hOGS7zxnRk8OUWxbxM86aZ",
    "placeName": "naples",
    "state": "FL"
  },
  {
    "city": "ocala",
    "state_code": "FL",
    "placeMasterId": "P02500000FsoEtMLDi5y38jF8bG5YIyvCqOZlLNH",
    "placeName": "ocala",
    "state": "FL"
  },
  {
    "city": "groveland",
    "state_code": "FL",
    "placeMasterId": "P02500000FsoErn1y4jcPa7YDlKHxHarbjo5cMqJ",
    "placeName": "groveland",
    "state": "FL"
  },
  {
    "city": "kissimmee",
    "state_code": "FL",
    "placeMasterId": "P02500000FsoEsDZOsvLldvHkAlKD13zx5ZMuxgh",
    "placeName": "kissimmee",
    "state": "FL"
  },
  {
    "city": "okeechobee",
    "state_code": "FL",
    "placeMasterId": "P02500000FsoEtMLDi5y38jF8bG5YIyyaadMGtG8",
    "placeName": "okeechobee",
    "state": "FL"
  },
  {
    "city": "arab",
    "state_code": "AL",
    "placeMasterId": "P02500000FsoESg3vuy2CeOTYMPUOvNTxfmIyea3",
    "placeName": "arab",
    "state": "AL"
  },
  {
    "city": "centreville",
    "state_code": "AL",
    "placeMasterId": "P02500000FsoET6bMj9lYiCD4lqWeeqbNPsRqDFR",
    "placeName": "centreville",
    "state": "AL"
  },
  {
    "city": "hanceville",
    "state_code": "AL",
    "placeMasterId": "P02500000FsoETopkk8eU9CQwmuFkDIU9wwokbSo",
    "placeName": "hanceville",
    "state": "AL"
  },
  {
    "city": "leeds",
    "state_code": "AL",
    "placeMasterId": "P02500000FsoEUFNBYKNqD0ATCLHzwlbkC3C5qsH",
    "placeName": "leeds",
    "state": "AL"
  },
  {
    "city": "locust fork",
    "state_code": "AL",
    "placeMasterId": "P02500000FsoEUODf9ixctbPe09dPrFuvCRoHGrR",
    "placeName": "locust fork",
    "state": "AL"
  },
  {
    "city": "odenville",
    "state_code": "AL",
    "placeMasterId": "P02500000FsoEUol5xugyxP9APaffaj53qk9pNJk",
    "placeName": "odenville",
    "state": "AL"
  },
  {
    "city": "birmingham",
    "state_code": "AL",
    "placeMasterId": "P02500000FsoESouPWMbzKzijADpoprrGKsxshig",
    "placeName": "birmingham",
    "state": "AL"
  },
  {
    "city": "birmingham",
    "state_code": "AL",
    "placeMasterId": "P02500000FsoESouPWMbzKzijADpoprrGKsxshig",
    "placeName": "birmingham",
    "state": "AL"
  },
  {
    "city": "birmingham",
    "state_code": "AL",
    "placeMasterId": "P02500000FsoESouPWMbzKzijADpoprrGKsxshig",
    "placeName": "birmingham",
    "state": "AL"
  },
  {
    "city": "akron",
    "state_code": "AL",
    "placeMasterId": "P02500000FsoESg3vuy2CeOTYMPUOvNS5ceLOfSS",
    "placeName": "akron",
    "state": "AL"
  },
  {
    "city": "belk",
    "state_code": "AL",
    "placeMasterId": "P02500000FsoESouPWMbzKzijADpoprpEm3lRQOk",
    "placeName": "belk",
    "state": "AL"
  },
  {
    "city": "fayette",
    "state_code": "AL",
    "placeMasterId": "P02500000FsoETX8nXLUulzwbBHYuOJhsYjgkZmd",
    "placeName": "fayette",
    "state": "AL"
  },
  {
    "city": "florence",
    "state_code": "AL",
    "placeMasterId": "P02500000FsoETX8nXLUulzwbBHYuOJl88K0ajg8",
    "placeName": "florence",
    "state": "AL"
  },
  {
    "city": "florence",
    "state_code": "AL",
    "placeMasterId": "P02500000FsoETX8nXLUulzwbBHYuOJl88K0ajg8",
    "placeName": "florence",
    "state": "AL"
  },
  {
    "city": "collinsville",
    "state_code": "AL",
    "placeMasterId": "P02500000FsoET6bMj9lYiCD4lqWeeqbb7d4s41h",
    "placeName": "collinsville",
    "state": "AL"
  },
  {
    "city": "fort deposit",
    "state_code": "AL",
    "placeMasterId": "P02500000FsoETX8nXLUulzwbBHYuOJkNoME3mej",
    "placeName": "fort deposit",
    "state": "AL"
  },
  {
    "city": "troy",
    "state_code": "AL",
    "placeMasterId": "P02500000FsoEVfpxaI9h50cDESkB3fH3vcX754f",
    "placeName": "troy",
    "state": "AL"
  },
  {
    "city": "ohatchee",
    "state_code": "AL",
    "placeMasterId": "P02500000FsoEUol5xugyxP9APaffaj4GesUWx1l",
    "placeName": "ohatchee",
    "state": "AL"
  },
  {
    "city": "headland",
    "state_code": "AL",
    "placeMasterId": "P02500000FsoETxgELXEGpng7aibA7mo6j08YCeH",
    "placeName": "headland",
    "state": "AL"
  },
  {
    "city": "ozark",
    "state_code": "AL",
    "placeMasterId": "P02500000FsoEUxbZZJGle0OLDP15VDPHFZ8rXvh",
    "placeName": "ozark",
    "state": "AL"
  },
  {
    "city": "samson",
    "state_code": "AL",
    "placeMasterId": "P02500000FsoEVFIWm6QL1Csgp1hvKCBG2uvBaOb",
    "placeName": "samson",
    "state": "AL"
  },
  {
    "city": "jackson",
    "state_code": "AL",
    "placeMasterId": "P02500000FsoEUFNBYKNqD0ATCLHzwlXPRzBv8nl",
    "placeName": "jackson",
    "state": "AL"
  },
  {
    "city": "magnolia springs",
    "state_code": "AL",
    "placeMasterId": "P02500000FsoEUODf9ixctbPe09dPrFw4PObyx2c",
    "placeName": "magnolia springs",
    "state": "AL"
  },
  {
    "city": "lowndesboro",
    "state_code": "AL",
    "placeMasterId": "P02500000FsoEUODf9ixctbPe09dPrFuoqg13jrf",
    "placeName": "lowndesboro",
    "state": "AL"
  },
  {
    "city": "phenix city",
    "state_code": "AL",
    "placeMasterId": "P02500000FsoEUxbZZJGle0OLDP15VDUgI6E33CT",
    "placeName": "phenix city",
    "state": "AL"
  },
  {
    "city": "dowelltown",
    "state_code": "TN",
    "placeMasterId": "P02500000FsoGgMqgyV0zi5ehf0qhA5wQgIz8n39",
    "placeName": "dowelltown",
    "state": "TN"
  },
  {
    "city": "goodlettsville",
    "state_code": "TN",
    "placeMasterId": "P02500000FsoGgeXeBIAZ5I93GdXWz4ebeEimSH9",
    "placeName": "goodlettsville",
    "state": "TN"
  },
  {
    "city": "murfreesboro",
    "state_code": "TN",
    "placeMasterId": "P02500000FsoGhMm2CH3UWIMvHhGcXWWVtkn4xRN",
    "placeName": "murfreesboro",
    "state": "TN"
  },
  {
    "city": "red boiling springs",
    "state_code": "TN",
    "placeMasterId": "P02500000FsoGheSzP4D3tUrGtJxSMVHInt9zFmn",
    "placeName": "red boiling springs",
    "state": "TN"
  },
  {
    "city": "nashville",
    "state_code": "TN",
    "placeMasterId": "P02500000FsoGhMm2CH3UWIMvHhGcXWZ0CJVUMa1",
    "placeName": "nashville",
    "state": "TN"
  },
  {
    "city": "etowah",
    "state_code": "TN",
    "placeMasterId": "P02500000FsoGgMqgyV0zi5ehf0qhA61fQwE1fuy",
    "placeName": "etowah",
    "state": "TN"
  },
  {
    "city": "spring city",
    "state_code": "TN",
    "placeMasterId": "P02500000FsoGhnJT0Smqa66Rh8IsGzm8Je4xBgX",
    "placeName": "spring city",
    "state": "TN"
  },
  {
    "city": "sweetwater",
    "state_code": "TN",
    "placeMasterId": "P02500000FsoGhw9wbrMdGhLcUweIBU5x86BGEv0",
    "placeName": "sweetwater",
    "state": "TN"
  },
  {
    "city": "knoxville",
    "state_code": "TN",
    "placeMasterId": "P02500000FsoGgwEbO5K8SUdOsGEMo3NrnN3KYab",
    "placeName": "knoxville",
    "state": "TN"
  },
  {
    "city": "knoxville",
    "state_code": "TN",
    "placeMasterId": "P02500000FsoGgwEbO5K8SUdOsGEMo3NrnN3KYab",
    "placeName": "knoxville",
    "state": "TN"
  },
  {
    "city": "ripley",
    "state_code": "TN",
    "placeMasterId": "P02500000FsoGheSzP4D3tUrGtJxSMVDemc8vUoU",
    "placeName": "ripley",
    "state": "TN"
  },
  {
    "city": "memphis",
    "state_code": "TN",
    "placeMasterId": "P02500000FsoGh554zTtv95sZg4ZmiXoGr41AEmS",
    "placeName": "memphis",
    "state": "TN"
  },
  {
    "city": "memphis",
    "state_code": "TN",
    "placeMasterId": "P02500000FsoGh554zTtv95sZg4ZmiXoGr41AEmS",
    "placeName": "memphis",
    "state": "TN"
  },
  {
    "city": "greenfield",
    "state_code": "TN",
    "placeMasterId": "P02500000FsoGgeXeBIAZ5I93GdXWz4ghxPCS004",
    "placeName": "greenfield",
    "state": "TN"
  },
  {
    "city": "loretto",
    "state_code": "TN",
    "placeMasterId": "P02500000FsoGh554zTtv95sZg4ZmiXq4HPhjpZs",
    "placeName": "loretto",
    "state": "TN"
  },
  {
    "city": "allardt",
    "state_code": "TN",
    "placeMasterId": "P02500000FsoGfnSmYuhqxgg0RlT1W8Ree2xWUYE",
    "placeName": "allardt",
    "state": "TN"
  },
  {
    "city": "hickory flat",
    "state_code": "MS",
    "placeMasterId": "P02500000FsoFhIaKopytcyu7nSzpCR373MRGEXk",
    "placeName": "hickory flat",
    "state": "MS"
  },
  {
    "city": "lula",
    "state_code": "MS",
    "placeMasterId": "P02500000FsoFhRQoQEYgJa9IbHLF6vRk6VS32pB",
    "placeName": "lula",
    "state": "MS"
  },
  {
    "city": "sardis",
    "state_code": "MS",
    "placeMasterId": "P02500000FsoFi9fCRDRbkaNAcL4KfN8r1IiWoKo",
    "placeName": "sardis",
    "state": "MS"
  },
  {
    "city": "greenville",
    "state_code": "MS",
    "placeMasterId": "P02500000FsoFhIaKopytcyu7nSzpCQxhzRLZYEG",
    "placeName": "greenville",
    "state": "MS"
  },
  {
    "city": "doddsville",
    "state_code": "MS",
    "placeMasterId": "P02500000FsoFgs2u0eFXZBAbO1xZSy01r0IzHfj",
    "placeName": "doddsville",
    "state": "MS"
  },
  {
    "city": "tupelo",
    "state_code": "MS",
    "placeMasterId": "P02500000FsoFiIVg2c1ORBcLQ9PkZreoJ4UQWQv",
    "placeName": "tupelo",
    "state": "MS"
  },
  {
    "city": "water valley",
    "state_code": "MS",
    "placeMasterId": "P02500000FsoFiaCdFPAxoO6h1m6aOqGSrtR0a0d",
    "placeName": "water valley",
    "state": "MS"
  },
  {
    "city": "vaiden",
    "state_code": "MS",
    "placeMasterId": "P02500000FsoFiRM9e0bB7mrWDxlAUM4fHMxvE06",
    "placeName": "vaiden",
    "state": "MS"
  },
  {
    "city": "jackson",
    "state_code": "MS",
    "placeMasterId": "P02500000FsoFhRQoQEYgJa9IbHLF6vGkcb3WK7F",
    "placeName": "jackson",
    "state": "MS"
  },
  {
    "city": "waveland",
    "state_code": "MS",
    "placeMasterId": "P02500000FsoFiaCdFPAxoO6h1m6aOqKKWKKNSHl",
    "placeName": "waveland",
    "state": "MS"
  },
  {
    "city": "columbus",
    "state_code": "MS",
    "placeMasterId": "P02500000FsoFgs2u0eFXZBAbO1xZSxocfq7tUAV",
    "placeName": "columbus",
    "state": "MS"
  },
  {
    "city": "west point",
    "state_code": "MS",
    "placeMasterId": "P02500000FsoFiaCdFPAxoO6h1m6aOqIdUIrcohq",
    "placeName": "west point",
    "state": "MS"
  },
  {
    "city": "cuthbert",
    "state_code": "GA",
    "placeMasterId": "P02500000FsoEwDGlm1Vksk8cfUzuWmNg4p5EecS",
    "placeName": "cuthbert",
    "state": "GA"
  },
  {
    "city": "crestwood",
    "state_code": "KY",
    "placeMasterId": "P02500000FsoFNbmRa8KWo584vPK9SphmVMLV2HX",
    "placeName": "crestwood",
    "state": "KY"
  },
  {
    "city": "loretto",
    "state_code": "KY",
    "placeMasterId": "P02500000FsoFOkYGPIwoIt5TLu5UkklCNnEc8d0",
    "placeName": "loretto",
    "state": "KY"
  },
  {
    "city": "louisville",
    "state_code": "KY",
    "placeMasterId": "P02500000FsoFOkYGPIwoIt5TLu5UkkhkzCsPo64",
    "placeName": "louisville",
    "state": "KY"
  },
  {
    "city": "louisville",
    "state_code": "KY",
    "placeMasterId": "P02500000FsoFOkYGPIwoIt5TLu5UkkhkzCsPo64",
    "placeName": "louisville",
    "state": "KY"
  },
  {
    "city": "harrodsburg",
    "state_code": "KY",
    "placeMasterId": "P02500000FsoFOK0pb7DSF5LwwT3F1HfvMsEkCuC",
    "placeName": "harrodsburg",
    "state": "KY"
  },
  {
    "city": "wellington",
    "state_code": "KY",
    "placeMasterId": "P02500000FsoFQ2AYps8sUII2aDCFx9zBGgANpAT",
    "placeName": "wellington",
    "state": "KY"
  },
  {
    "city": "hustonville",
    "state_code": "KY",
    "placeMasterId": "P02500000FsoFOK0pb7DSF5LwwT3F1HdR7hTEWNx",
    "placeName": "hustonville",
    "state": "KY"
  },
  {
    "city": "wallins creek",
    "state_code": "KY",
    "placeMasterId": "P02500000FsoFPtK5ETZ5nh2rmOqq2fcCOVfnV1l",
    "placeName": "wallins creek",
    "state": "KY"
  },
  {
    "city": "corinth",
    "state_code": "KY",
    "placeMasterId": "P02500000FsoFNbmRa8KWo584vPK9SpeXz9ZObQZ",
    "placeName": "corinth",
    "state": "KY"
  },
  {
    "city": "ewing",
    "state_code": "KY",
    "placeMasterId": "P02500000FsoFNtTOmvU6BHcQX20zHoVvElmPXPy",
    "placeName": "ewing",
    "state": "KY"
  },
  {
    "city": "hebron",
    "state_code": "KY",
    "placeMasterId": "P02500000FsoFOK0pb7DSF5LwwT3F1HfDCsSZz5v",
    "placeName": "hebron",
    "state": "KY"
  },
  {
    "city": "newport",
    "state_code": "KY",
    "placeMasterId": "P02500000FsoFP2FDc66Ng5ZoxWmKZjQJq7oxLpv",
    "placeName": "newport",
    "state": "KY"
  },
  {
    "city": "petersburg",
    "state_code": "KY",
    "placeMasterId": "P02500000FsoFPJwAotFx3I4AZ9TAOi7GIDz1fGf",
    "placeName": "petersburg",
    "state": "KY"
  },
  {
    "city": "hindman",
    "state_code": "KY",
    "placeMasterId": "P02500000FsoFOK0pb7DSF5LwwT3F1HcGxtmyoD2",
    "placeName": "hindman",
    "state": "KY"
  },
  {
    "city": "burna",
    "state_code": "KY",
    "placeMasterId": "P02500000FsoFNSvxyjkk7Tsu7ayjYLHHw9OdTzf",
    "placeName": "burna",
    "state": "KY"
  },
  {
    "city": "gilbertsville",
    "state_code": "KY",
    "placeMasterId": "P02500000FsoFOBALzidfYU6m8ehp6nBSNwpy0Si",
    "placeName": "gilbertsville",
    "state": "KY"
  },
  {
    "city": "kuttawa",
    "state_code": "KY",
    "placeMasterId": "P02500000FsoFObhmnuN1cHqIY5k4qGNHYna838T",
    "placeName": "kuttawa",
    "state": "KY"
  },
  {
    "city": "bowling green",
    "state_code": "KY",
    "placeMasterId": "P02500000FsoFNK5UNLAxQsdjJmdJdqvjbCdesEP",
    "placeName": "bowling green",
    "state": "KY"
  },
  {
    "city": "gamaliel",
    "state_code": "KY",
    "placeMasterId": "P02500000FsoFO2JsOK3srsrbKqMPCIpeOQ2jXKY",
    "placeName": "gamaliel",
    "state": "KY"
  },
  {
    "city": "cerulean",
    "state_code": "KY",
    "placeMasterId": "P02500000FsoFNbmRa8KWo584vPK9SpdoztIRucq",
    "placeName": "cerulean",
    "state": "KY"
  },
  {
    "city": "lewisport",
    "state_code": "KY",
    "placeMasterId": "P02500000FsoFOkYGPIwoIt5TLu5UkkcMqLg4gBq",
    "placeName": "lewisport",
    "state": "KY"
  },
  {
    "city": "dawson springs",
    "state_code": "KY",
    "placeMasterId": "P02500000FsoFNkcvBWuJUgNFjDfZNK1MxqdYLkY",
    "placeName": "dawson springs",
    "state": "KY"
  },
  {
    "city": "morganfield",
    "state_code": "KY",
    "placeMasterId": "P02500000FsoFOtOk0hWazUKe9iQufF8TrLfjZ79",
    "placeName": "morganfield",
    "state": "KY"
  },
  {
    "city": "mortons gap",
    "state_code": "KY",
    "placeMasterId": "P02500000FsoFOtOk0hWazUKe9iQufFFKK2KbuDP",
    "placeName": "mortons gap",
    "state": "KY"
  },
  {
    "city": "burnside",
    "state_code": "KY",
    "placeMasterId": "P02500000FsoFNK5UNLAxQsdjJmdJdqws1FGKecN",
    "placeName": "burnside",
    "state": "KY"
  },
  {
    "city": "alexandria",
    "state_code": "OH",
    "placeMasterId": "P02500000FsoGCXwtueNs6XVHkIeLjiLiccEwNcW",
    "placeName": "alexandria",
    "state": "OH"
  },
  {
    "city": "radnor",
    "state_code": "OH",
    "placeMasterId": "P02500000FsoGHy72piJiDMnuH9mEMKMLkUrB8ig",
    "placeName": "radnor",
    "state": "OH"
  },
  {
    "city": "marengo",
    "state_code": "OH",
    "placeMasterId": "P02500000FsoGGOnnCLy4el6zRDydKwKNC4RNaXQ",
    "placeName": "marengo",
    "state": "OH"
  },
  {
    "city": "fremont",
    "state_code": "OH",
    "placeMasterId": "P02500000FsoGEge3xb2ePYAtnTpcP3vEBb2WXua",
    "placeName": "fremont",
    "state": "OH"
  },
  {
    "city": "fayette",
    "state_code": "OH",
    "placeMasterId": "P02500000FsoGEXnaMCSriwvizfUCUZVqkMInmft",
    "placeName": "fayette",
    "state": "OH"
  },
  {
    "city": "mcclure",
    "state_code": "OH",
    "placeMasterId": "P02500000FsoGG76pzYoVHYcdpbHnVxjGxitSe3x",
    "placeName": "mcclure",
    "state": "OH"
  },
  {
    "city": "sherwood",
    "state_code": "OH",
    "placeMasterId": "P02500000FsoGIXUxFIcqxlmbUP9u0HqCcrk92GA",
    "placeName": "sherwood",
    "state": "OH"
  },
  {
    "city": "brownsville",
    "state_code": "OH",
    "placeMasterId": "P02500000FsoGDP1lX1qaE8yKZAirCeb0XJZ9dHe",
    "placeName": "brownsville",
    "state": "OH"
  },
  {
    "city": "conesville",
    "state_code": "OH",
    "placeMasterId": "P02500000FsoGDyPfwc9iyXx1mQ6WqbxDfhe1CNu",
    "placeName": "conesville",
    "state": "OH"
  },
  {
    "city": "sardis",
    "state_code": "OH",
    "placeMasterId": "P02500000FsoGIFo02VTHaZIFsmT4BJJQ6s8Yckn",
    "placeName": "sardis",
    "state": "OH"
  },
  {
    "city": "north ridgeville",
    "state_code": "OH",
    "placeMasterId": "P02500000FsoGHFseojQmmMa2G638nsVUMTeo4r9",
    "placeName": "north ridgeville",
    "state": "OH"
  },
  {
    "city": "mentor",
    "state_code": "OH",
    "placeMasterId": "P02500000FsoGGOnnCLy4el6zRDydKwNlLsUvZhs",
    "placeName": "mentor",
    "state": "OH"
  },
  {
    "city": "cleveland",
    "state_code": "OH",
    "placeMasterId": "P02500000FsoGDpZCLDZwHwhqybl6w7hFiW8c2lu",
    "placeName": "cleveland",
    "state": "OH"
  },
  {
    "city": "cleveland",
    "state_code": "OH",
    "placeMasterId": "P02500000FsoGDpZCLDZwHwhqybl6w7hFiW8c2lu",
    "placeName": "cleveland",
    "state": "OH"
  },
  {
    "city": "cleveland",
    "state_code": "OH",
    "placeMasterId": "P02500000FsoGDpZCLDZwHwhqybl6w7hFiW8c2lu",
    "placeName": "cleveland",
    "state": "OH"
  },
  {
    "city": "west salem",
    "state_code": "OH",
    "placeMasterId": "P02500000FsoGJOZorg5Z5NFeJHEPTE9ASpjaa7z",
    "placeName": "west salem",
    "state": "OH"
  },
  {
    "city": "midvale",
    "state_code": "OH",
    "placeMasterId": "P02500000FsoGGXeGnkXrLMMAF2K3FQenfy0PPs3",
    "placeName": "midvale",
    "state": "OH"
  },
  {
    "city": "butler",
    "state_code": "OH",
    "placeMasterId": "P02500000FsoGDP1lX1qaE8yKZAirCecR9yi4ntf",
    "placeName": "butler",
    "state": "OH"
  },
  {
    "city": "tiffin",
    "state_code": "OH",
    "placeMasterId": "P02500000FsoGIy2O3UMD1ZW7tqC9jkzhYNvTojK",
    "placeName": "tiffin",
    "state": "OH"
  },
  {
    "city": "addyston",
    "state_code": "OH",
    "placeMasterId": "P02500000FsoGCXwtueNs6XVHkIeLjiLqdOL5Oge",
    "placeName": "addyston",
    "state": "OH"
  },
  {
    "city": "middletown",
    "state_code": "OH",
    "placeMasterId": "P02500000FsoGGXeGnkXrLMMAF2K3FQfafL8Aw7C",
    "placeName": "middletown",
    "state": "OH"
  },
  {
    "city": "georgetown",
    "state_code": "OH",
    "placeMasterId": "P02500000FsoGEpUXYzcR69Q4bIB2JYFJs5lFRSB",
    "placeName": "georgetown",
    "state": "OH"
  },
  {
    "city": "cincinnati",
    "state_code": "OH",
    "placeMasterId": "P02500000FsoGDpZCLDZwHwhqybl6w7e8Lps6H4x",
    "placeName": "cincinnati",
    "state": "OH"
  },
  {
    "city": "ansonia",
    "state_code": "OH",
    "placeMasterId": "P02500000FsoGCgnNW2xen8kSY6zleCgRwLwMs55",
    "placeName": "ansonia",
    "state": "OH"
  },
  {
    "city": "kettlersville",
    "state_code": "OH",
    "placeMasterId": "P02500000FsoGFgZPBN59Dkt7QAFXmUVWVIpkHHI",
    "placeName": "kettlersville",
    "state": "OH"
  },
  {
    "city": "lewisburg",
    "state_code": "OH",
    "placeMasterId": "P02500000FsoGFyGMOAEiaxNT1mwNbT8vzoEsDia",
    "placeName": "lewisburg",
    "state": "OH"
  },
  {
    "city": "osgood",
    "state_code": "OH",
    "placeMasterId": "P02500000FsoGHOj8Q80ZSxpD3uOYiMysfWY79Kt",
    "placeName": "osgood",
    "state": "OH"
  },
  {
    "city": "dayton",
    "state_code": "OH",
    "placeMasterId": "P02500000FsoGE7G9Y0jVf9CCaERwl6OdIDcWstb",
    "placeName": "dayton",
    "state": "OH"
  },
  {
    "city": "richmond dale",
    "state_code": "OH",
    "placeMasterId": "P02500000FsoGHy72piJiDMnuH9mEMKYAyjbPdFj",
    "placeName": "richmond dale",
    "state": "OH"
  },
  {
    "city": "little hocking",
    "state_code": "OH",
    "placeMasterId": "P02500000FsoGFyGMOAEiaxNT1mwNbTHNh3gAwmI",
    "placeName": "little hocking",
    "state": "OH"
  },
  {
    "city": "macksburg",
    "state_code": "OH",
    "placeMasterId": "P02500000FsoGGFxJaxOHy9rodPdDQRtcxrkt4dD",
    "placeName": "macksburg",
    "state": "OH"
  },
  {
    "city": "vincent",
    "state_code": "OH",
    "placeMasterId": "P02500000FsoGJ6sresvziAlIheXZeFWCEMXjxPe",
    "placeName": "vincent",
    "state": "OH"
  },
  {
    "city": "arlington",
    "state_code": "OH",
    "placeMasterId": "P02500000FsoGCpdr7RXRTjzdLvLBYgyAnRRJsG8",
    "placeName": "arlington",
    "state": "OH"
  },
  {
    "city": "cecil",
    "state_code": "OH",
    "placeMasterId": "P02500000FsoGDgiijp09bLSgAnPh1dFLTTmKlAr",
    "placeName": "cecil",
    "state": "OH"
  },
  {
    "city": "coldwater",
    "state_code": "OH",
    "placeMasterId": "P02500000FsoGDyPfwc9iyXx1mQ6WqbxzUMn9AAH",
    "placeName": "coldwater",
    "state": "OH"
  },
  {
    "city": "pandora",
    "state_code": "OH",
    "placeMasterId": "P02500000FsoGHXZc1WaM9Z4NrijycrHqTfXCgnP",
    "placeName": "pandora",
    "state": "OH"
  },
  {
    "city": "anderson",
    "state_code": "IN",
    "placeMasterId": "P02500000FsoF93Rk3hSQioAIya5WWrlzCWe32cS",
    "placeName": "anderson",
    "state": "IN"
  },
  {
    "city": "markleville",
    "state_code": "IN",
    "placeMasterId": "P02500000FsoFB3IQVFXQLDakDwvNHizOgtZYxsG",
    "placeName": "markleville",
    "state": "IN"
  },
  {
    "city": "noblesville",
    "state_code": "IN",
    "placeMasterId": "P02500000FsoFBTprJRGmP1KGdNxd1C8MtVIYwXJ",
    "placeName": "noblesville",
    "state": "IN"
  },
  {
    "city": "lizton",
    "state_code": "IN",
    "placeMasterId": "P02500000FsoFAuRwtqxdecLZQ8ZxNEbYxsIiUe5",
    "placeName": "lizton",
    "state": "IN"
  },
  {
    "city": "indianapolis",
    "state_code": "IN",
    "placeMasterId": "P02500000FsoFAckzh3o4HPrDoVt7YFuCi8MjR1V",
    "placeName": "indianapolis",
    "state": "IN"
  },
  {
    "city": "hammond",
    "state_code": "IN",
    "placeMasterId": "P02500000FsoFATuW5fEHaoc30hXhdlTShZesZR8",
    "placeName": "hammond",
    "state": "IN"
  },
  {
    "city": "middlebury",
    "state_code": "IN",
    "placeMasterId": "P02500000FsoFB3IQVFXQLDakDwvNHj0L5Yip2Xo",
    "placeName": "middlebury",
    "state": "IN"
  },
  {
    "city": "south bend",
    "state_code": "IN",
    "placeMasterId": "P02500000FsoFCC4FKQ9hq1Y8eRgiZdyg3XsySz8",
    "placeName": "south bend",
    "state": "IN"
  },
  {
    "city": "garrett",
    "state_code": "IN",
    "placeMasterId": "P02500000FsoFACDYss4iDc7hP4qromjrd7hK8yc",
    "placeName": "garrett",
    "state": "IN"
  },
  {
    "city": "howe",
    "state_code": "IN",
    "placeMasterId": "P02500000FsoFAckzh3o4HPrDoVt7YFrwGfLUFAb",
    "placeName": "howe",
    "state": "IN"
  },
  {
    "city": "larwill",
    "state_code": "IN",
    "placeMasterId": "P02500000FsoFAuRwtqxdecLZQ8ZxNEdZ9Om76bj",
    "placeName": "larwill",
    "state": "IN"
  },
  {
    "city": "fairmount",
    "state_code": "IN",
    "placeMasterId": "P02500000FsoFA3N5HTUvX0sWbGVRuIQDU7shfcU",
    "placeName": "fairmount",
    "state": "IN"
  },
  {
    "city": "bath",
    "state_code": "IN",
    "placeMasterId": "P02500000FsoHQ1hTzLiHaJySkrOQiqpRXph0U19",
    "placeName": "bath",
    "state": "IN"
  },
  {
    "city": "charlestown",
    "state_code": "IN",
    "placeMasterId": "P02500000FsoF9TzArtBmmbtpO17mGKusl9v5yaS",
    "placeName": "charlestown",
    "state": "IN"
  },
  {
    "city": "jeffersonville",
    "state_code": "IN",
    "placeMasterId": "P02500000FsoFAckzh3o4HPrDoVt7YFwJjKxKbVD",
    "placeName": "jeffersonville",
    "state": "IN"
  },
  {
    "city": "muncie",
    "state_code": "IN",
    "placeMasterId": "P02500000FsoFBKzNi2gziQ55pZcD6hjHnegWN5v",
    "placeName": "muncie",
    "state": "IN"
  },
  {
    "city": "ellettsville",
    "state_code": "IN",
    "placeMasterId": "P02500000FsoFA3N5HTUvX0sWbGVRuIP0zMFElI6",
    "placeName": "ellettsville",
    "state": "IN"
  },
  {
    "city": "lyons",
    "state_code": "IN",
    "placeMasterId": "P02500000FsoFB3IQVFXQLDakDwvNHiyoJdLKWQU",
    "placeName": "lyons",
    "state": "IN"
  },
  {
    "city": "owensburg",
    "state_code": "IN",
    "placeMasterId": "P02500000FsoFBcgKupqZ5cZRRCJ2vgTVdPRzmQc",
    "placeName": "owensburg",
    "state": "IN"
  },
  {
    "city": "evansville",
    "state_code": "IN",
    "placeMasterId": "P02500000FsoF9uWbg4v8qPdLnSA1zo2zspGZniW",
    "placeName": "evansville",
    "state": "IN"
  },
  {
    "city": "evansville",
    "state_code": "IN",
    "placeMasterId": "P02500000FsoF9uWbg4v8qPdLnSA1zo2zspGZniW",
    "placeName": "evansville",
    "state": "IN"
  },
  {
    "city": "terre haute",
    "state_code": "IN",
    "placeMasterId": "P02500000FsoFCTlCXDJHDE2UG4NYOcfygXVyJsD",
    "placeName": "terre haute",
    "state": "IN"
  },
  {
    "city": "lafayette",
    "state_code": "IN",
    "placeMasterId": "P02500000FsoFAlbTISNqy16OcKEXSkFmTbTx15f",
    "placeName": "lafayette",
    "state": "IN"
  },
  {
    "city": "attica",
    "state_code": "IN",
    "placeMasterId": "P02500000FsoF9CIDf62DPPPTmOQwRMAv5lSkVTY",
    "placeName": "attica",
    "state": "IN"
  },
  {
    "city": "buck creek",
    "state_code": "IN",
    "placeMasterId": "P02500000FsoF9TzArtBmmbtpO17mGKs48AZq9kk",
    "placeName": "buck creek",
    "state": "IN"
  },
  {
    "city": "reynolds",
    "state_code": "IN",
    "placeMasterId": "P02500000FsoFBuNI7d08Sp3n2ozskfEMu8hjqcG",
    "placeName": "reynolds",
    "state": "IN"
  },
  {
    "city": "wingate",
    "state_code": "IN",
    "placeMasterId": "P02500000FsoFCuIdLP2dH1m0fVPo85pfK8nsaQu",
    "placeName": "wingate",
    "state": "IN"
  },
  {
    "city": "memphis",
    "state_code": "MI",
    "placeMasterId": "P02500000FsoFZS24e2EhpwRXbnzq5UaPaLTDEU2",
    "placeName": "memphis",
    "state": "MI"
  },
  {
    "city": "huntington woods",
    "state_code": "MI",
    "placeMasterId": "P02500000FsoFYseAERvZ5XSqOYcARWzfjjSIcQ2",
    "placeName": "huntington woods",
    "state": "MI"
  },
  {
    "city": "ray",
    "state_code": "MI",
    "placeMasterId": "P02500000FsoHmiHOtNU8pptAUyJsajkljyODkWW",
    "placeName": "ray",
    "state": "MI"
  },
  {
    "city": "erie",
    "state_code": "MI",
    "placeMasterId": "P02500000FsoHj97SoT3VeoloPfgQoUVihB6BoWl",
    "placeName": "erie",
    "state": "MI"
  },
  {
    "city": "wyandotte",
    "state_code": "MI",
    "placeMasterId": "P02500000FsoFb1LKHOaLOY8SRjnR6se959d8ldj",
    "placeName": "wyandotte",
    "state": "MI"
  },
  {
    "city": "goodrich",
    "state_code": "MI",
    "placeMasterId": "P02500000FsoFYaxD1elziKyUmvvKcYIaOfv6pRe",
    "placeName": "goodrich",
    "state": "MI"
  },
  {
    "city": "ubly",
    "state_code": "MI",
    "placeMasterId": "P02500000FsoFajeN4bQm1Le6q76bHtrmU6IdEQM",
    "placeName": "ubly",
    "state": "MI"
  },
  {
    "city": "saginaw",
    "state_code": "MI",
    "placeMasterId": "P02500000FsoFaRxProHCe99lEUPlSv76nEZg8RV",
    "placeName": "saginaw",
    "state": "MI"
  },
  {
    "city": "houghton lake",
    "state_code": "MI",
    "placeMasterId": "P02500000FsoFYseAERvZ5XSqOYcARWyXFk8XyPf",
    "placeName": "houghton lake",
    "state": "MI"
  },
  {
    "city": "carrollton",
    "state_code": "MI",
    "placeMasterId": "P02500000FsoHBTMmSuqBV30go29nmsnpdrKb5uS",
    "placeName": "carrollton",
    "state": "MI"
  },
  {
    "city": "fairgrove",
    "state_code": "MI",
    "placeMasterId": "P02500000FsoFYJGForcQL8U9BJEUnZgGlS68mTQ",
    "placeName": "fairgrove",
    "state": "MI"
  },
  {
    "city": "gagetown",
    "state_code": "MI",
    "placeMasterId": "P02500000FsoFYS6jQGCD1jjJz7Zui3wpvmkGaUe",
    "placeName": "gagetown",
    "state": "MI"
  },
  {
    "city": "harrisville",
    "state_code": "MI",
    "placeMasterId": "P02500000FsoFYaxD1elziKyUmvvKcYUWCiWnfAb",
    "placeName": "harrisville",
    "state": "MI"
  },
  {
    "city": "cohoctah",
    "state_code": "MI",
    "placeMasterId": "P02500000FsoHiQt4nUAaDoXwObxLG2juTONHkpH",
    "placeName": "cohoctah",
    "state": "MI"
  },
  {
    "city": "dimondale",
    "state_code": "MI",
    "placeMasterId": "P02500000FsoFY1ZIc4SqxvznZgXeyasekj7ZGMH",
    "placeName": "dimondale",
    "state": "MI"
  },
  {
    "city": "howell",
    "state_code": "MI",
    "placeMasterId": "P02500000FsoFYjngd3LmOwDfakGkX2m8ME3Y5N4",
    "placeName": "howell",
    "state": "MI"
  },
  {
    "city": "morrice",
    "state_code": "MI",
    "placeMasterId": "P02500000FsoFZasYFQoUWXgiPcLFzyzv9rwunpA",
    "placeName": "morrice",
    "state": "MI"
  },
  {
    "city": "saranac",
    "state_code": "MI",
    "placeMasterId": "P02500000FsoFaJ6wGPhPxXuaQg4LYQvHz4IxiSd",
    "placeName": "saranac",
    "state": "MI"
  },
  {
    "city": "sunfield",
    "state_code": "MI",
    "placeMasterId": "P02500000FsoFajeN4bQm1Le6q76bHtoqofKzBYQ",
    "placeName": "sunfield",
    "state": "MI"
  },
  {
    "city": "galesburg",
    "state_code": "MI",
    "placeMasterId": "P02500000FsoFYaxD1elziKyUmvvKcYFIvKGCuAL",
    "placeName": "galesburg",
    "state": "MI"
  },
  {
    "city": "marshall",
    "state_code": "MI",
    "placeMasterId": "P02500000FsoFZasYFQoUWXgiPcLFzyqMANonWiF",
    "placeName": "marshall",
    "state": "MI"
  },
  {
    "city": "douglas",
    "state_code": "MI",
    "placeMasterId": "P02500000FsoFY1ZIc4SqxvznZgXeyaurdPGTGTq",
    "placeName": "douglas",
    "state": "MI"
  },
  {
    "city": "wellston",
    "state_code": "MI",
    "placeMasterId": "P02500000FsoFasUqg00YhwtHdvS1COHZnxaJIF1",
    "placeName": "wellston",
    "state": "MI"
  },
  {
    "city": "frederic",
    "state_code": "MI",
    "placeMasterId": "P02500000FsoHjQoQ1GD521GA1INGdTHBNfy0bfW",
    "placeName": "frederic",
    "state": "MI"
  },
  {
    "city": "carney",
    "state_code": "MI",
    "placeMasterId": "P02500000FsoFXb1rnsjUu8GHAFVPF7qJFNKR87O",
    "placeName": "carney",
    "state": "MI"
  },
  {
    "city": "clemons",
    "state_code": "IA",
    "placeMasterId": "P02500000FsoFE34SAZeulpjP60B9Q0mqOlmXImU",
    "placeName": "clemons",
    "state": "IA"
  },
  {
    "city": "paton",
    "state_code": "IA",
    "placeMasterId": "P02500000FsoFHKXR2gvyZeMPZg7lNHJEC4HHZ09",
    "placeName": "paton",
    "state": "IA"
  },
  {
    "city": "pella",
    "state_code": "IA",
    "placeMasterId": "P02500000FsoFHBgxRIMBt37ElrmLSmzOG3OtAQC",
    "placeName": "pella",
    "state": "IA"
  },
  {
    "city": "rhodes",
    "state_code": "IA",
    "placeMasterId": "P02500000FsoFHcEOFU5XwqqlBIobCG4tGcsm5TB",
    "placeName": "rhodes",
    "state": "IA"
  },
  {
    "city": "sully",
    "state_code": "IA",
    "placeMasterId": "P02500000FsoFIBcIf4OghFpSOYCGqDbPu4kQofg",
    "placeName": "sully",
    "state": "IA"
  },
  {
    "city": "mcintire",
    "state_code": "IA",
    "placeMasterId": "P02500000FsoFGBlcDWJh4qP19BMQ5MMvjI0oiuy",
    "placeName": "mcintire",
    "state": "IA"
  },
  {
    "city": "bode",
    "state_code": "IA",
    "placeMasterId": "P02500000FsoFDTgXkzLm1QkhsknTm3IJGQI3zSC",
    "placeName": "bode",
    "state": "IA"
  },
  {
    "city": "clare",
    "state_code": "IA",
    "placeMasterId": "P02500000FsoFDuDyZB585EUEIBpjVWSA1qls8S2",
    "placeName": "clare",
    "state": "IA"
  },
  {
    "city": "jolley",
    "state_code": "IA",
    "placeMasterId": "P02500000FsoFFlEBPKaL12fUjkKALtEmAoZdC1A",
    "placeName": "jolley",
    "state": "IA"
  },
  {
    "city": "sioux rapids",
    "state_code": "IA",
    "placeMasterId": "P02500000FsoFI2lp3fou0eaHajqqvjBMhB80qYR",
    "placeName": "sioux rapids",
    "state": "IA"
  },
  {
    "city": "cedar falls",
    "state_code": "IA",
    "placeMasterId": "P02500000FsoFDuDyZB585EUEIBpjVWOJAL7b8e4",
    "placeName": "cedar falls",
    "state": "IA"
  },
  {
    "city": "denver",
    "state_code": "IA",
    "placeMasterId": "P02500000FsoFEKlPNMoU92DkhcrzEzXd0JSjqnM",
    "placeName": "denver",
    "state": "IA"
  },
  {
    "city": "fredericksburg",
    "state_code": "IA",
    "placeMasterId": "P02500000FsoFEu9Jmx7ctRCRusFesx1l50HdDNV",
    "placeName": "fredericksburg",
    "state": "IA"
  },
  {
    "city": "evansdale",
    "state_code": "IA",
    "placeMasterId": "P02500000FsoFElIqBYXqCpxH73uEySd1oh6HtCc",
    "placeName": "evansdale",
    "state": "IA"
  },
  {
    "city": "diagonal",
    "state_code": "IA",
    "placeMasterId": "P02500000FsoFEKlPNMoU92DkhcrzEzYll7YINrG",
    "placeName": "diagonal",
    "state": "IA"
  },
  {
    "city": "le mars",
    "state_code": "IA",
    "placeMasterId": "P02500000FsoFG2v8c7juOF9qLN10As0IuaomSVz",
    "placeName": "le mars",
    "state": "IA"
  },
  {
    "city": "sioux city",
    "state_code": "IA",
    "placeMasterId": "P02500000FsoFI2lp3fou0eaHajqqvjCarU2Srkt",
    "placeName": "sioux city",
    "state": "IA"
  },
  {
    "city": "sioux city",
    "state_code": "IA",
    "placeMasterId": "P02500000FsoFI2lp3fou0eaHajqqvjCarU2Srkt",
    "placeName": "sioux city",
    "state": "IA"
  },
  {
    "city": "glidden",
    "state_code": "IA",
    "placeMasterId": "P02500000FsoFF2znOLhPa2Rcigb4nRQqyirJ0Zb",
    "placeName": "glidden",
    "state": "IA"
  },
  {
    "city": "stanton",
    "state_code": "IA",
    "placeMasterId": "P02500000FsoFIBcIf4OghFpSOYCGqDZjouZkpHP",
    "placeName": "stanton",
    "state": "IA"
  },
  {
    "city": "yorktown",
    "state_code": "IA",
    "placeMasterId": "P02500000FsoFJ2hAHRrOorIVDQGmJ9mdwuzaa0V",
    "placeName": "yorktown",
    "state": "IA"
  },
  {
    "city": "earlville",
    "state_code": "IA",
    "placeMasterId": "P02500000FsoFEcSMa9y3WEi6JFYp3yGHpMLRh4A",
    "placeName": "earlville",
    "state": "IA"
  },
  {
    "city": "farley",
    "state_code": "IA",
    "placeMasterId": "P02500000FsoFElIqBYXqCpxH73uEySggKF5oW4n",
    "placeName": "farley",
    "state": "IA"
  },
  {
    "city": "manchester",
    "state_code": "IA",
    "placeMasterId": "P02500000FsoFGKc5outTlReBwzhpzqiSqaO4OuW",
    "placeName": "manchester",
    "state": "IA"
  },
  {
    "city": "new vienna",
    "state_code": "IA",
    "placeMasterId": "P02500000FsoFH2qTptmPCRs3y3QvYIYSUcQfLs9",
    "placeName": "new vienna",
    "state": "IA"
  },
  {
    "city": "volga",
    "state_code": "IA",
    "placeMasterId": "P02500000FsoFIc9jTG82l3YynzEWZggANiEpKxH",
    "placeName": "volga",
    "state": "IA"
  },
  {
    "city": "coggon",
    "state_code": "IA",
    "placeMasterId": "P02500000FsoFE34SAZeulpjP60B9Q0mx5gS3VhQ",
    "placeName": "coggon",
    "state": "IA"
  },
  {
    "city": "solon",
    "state_code": "IA",
    "placeMasterId": "P02500000FsoFIBcIf4OghFpSOYCGqDWUeOAHWsV",
    "placeName": "solon",
    "state": "IA"
  },
  {
    "city": "toledo",
    "state_code": "IA",
    "placeMasterId": "P02500000FsoFIKSmGSyTNr4dCMXgkhwS9AI7F1n",
    "placeName": "toledo",
    "state": "IA"
  },
  {
    "city": "eldon",
    "state_code": "IA",
    "placeMasterId": "P02500000FsoFEcSMa9y3WEi6JFYp3yHhkkFZzFx",
    "placeName": "eldon",
    "state": "IA"
  },
  {
    "city": "ollie",
    "state_code": "IA",
    "placeMasterId": "P02500000FsoFHBgxRIMBt37ElrmLSmw3WAfkUdk",
    "placeName": "ollie",
    "state": "IA"
  },
  {
    "city": "sigourney",
    "state_code": "IA",
    "placeMasterId": "P02500000FsoFI2lp3fou0eaHajqqvjB3KOo2urU",
    "placeName": "sigourney",
    "state": "IA"
  },
  {
    "city": "fort madison",
    "state_code": "IA",
    "placeMasterId": "P02500000FsoFEu9Jmx7ctRCRusFesx0QhVjhcKU",
    "placeName": "fort madison",
    "state": "IA"
  },
  {
    "city": "chilton",
    "state_code": "WI",
    "placeMasterId": "P02500000FsoH53HIK4rqa0zqeUbzmqA7QDhoKhr",
    "placeName": "chilton",
    "state": "WI"
  },
  {
    "city": "hingham",
    "state_code": "WI",
    "placeMasterId": "P02500000FsoH63CdXquLODi4HB1vAGmS5AD30DF",
    "placeName": "hingham",
    "state": "WI"
  },
  {
    "city": "johnson creek",
    "state_code": "WI",
    "placeMasterId": "P02500000FsoH6C379FU84oxF4zNL4lDIGISfMO7",
    "placeName": "johnson creek",
    "state": "WI"
  },
  {
    "city": "nashotah",
    "state_code": "WI",
    "placeMasterId": "P02500000FsoH6uHVAEN3VpB7636QdD8afDrm4iq",
    "placeName": "nashotah",
    "state": "WI"
  },
  {
    "city": "helenville",
    "state_code": "WI",
    "placeMasterId": "P02500000FsoH63CdXquLODi4HB1vAGhNJ0lgILs",
    "placeName": "helenville",
    "state": "WI"
  },
  {
    "city": "racine",
    "state_code": "WI",
    "placeMasterId": "P02500000FsoH7cVtBDFywpOz76pWBemPplBbDcJ",
    "placeName": "racine",
    "state": "WI"
  },
  {
    "city": "mount horeb",
    "state_code": "WI",
    "placeMasterId": "P02500000FsoH6uHVAEN3VpB7636QdCxuOYow4Qy",
    "placeName": "mount horeb",
    "state": "WI"
  },
  {
    "city": "shullsburg",
    "state_code": "WI",
    "placeMasterId": "P02500000FsoH7uCqO0PYK1tKijWM0dXfr2FprG8",
    "placeName": "shullsburg",
    "state": "WI"
  },
  {
    "city": "patch grove",
    "state_code": "WI",
    "placeMasterId": "P02500000FsoHEtgEwQh1zSss5WRpedlV6K083Xz",
    "placeName": "patch grove",
    "state": "WI"
  },
  {
    "city": "woodman",
    "state_code": "WI",
    "placeMasterId": "P02500000FsoHEtgEwQh1zSss5WRpedofaY28XMp",
    "placeName": "woodman",
    "state": "WI"
  },
  {
    "city": "cazenovia",
    "state_code": "WI",
    "placeMasterId": "P02500000FsoH4uQoigI3tPkfqgGZsLoGHHi2XUW",
    "placeName": "cazenovia",
    "state": "WI"
  },
  {
    "city": "marquette",
    "state_code": "WI",
    "placeMasterId": "P02500000FsoHEtgEwQh1zSss5WRpeditOaJi1G6",
    "placeName": "marquette",
    "state": "WI"
  },
  {
    "city": "amery",
    "state_code": "WI",
    "placeMasterId": "P02500000FsoH4L2uJ5yv90lydQsuEOI63rMU0oW",
    "placeName": "amery",
    "state": "WI"
  },
  {
    "city": "dresser",
    "state_code": "WI",
    "placeMasterId": "P02500000FsoH5KyFWs1PxDUCG7Ipbp5VPtQ9r3L",
    "placeName": "dresser",
    "state": "WI"
  },
  {
    "city": "hager city",
    "state_code": "WI",
    "placeMasterId": "P02500000FsoH5uM9wSKYhcStTMgVFmRBqvopCsu",
    "placeName": "hager city",
    "state": "WI"
  },
  {
    "city": "kaukauna",
    "state_code": "WI",
    "placeMasterId": "P02500000FsoH6C379FU84oxF4zNL4lAHqTF9Kad",
    "placeName": "kaukauna",
    "state": "WI"
  },
  {
    "city": "shawano",
    "state_code": "WI",
    "placeMasterId": "P02500000FsoH7lMMmbpldQe9uvAw69OZQvP8KTY",
    "placeName": "shawano",
    "state": "WI"
  },
  {
    "city": "amherst",
    "state_code": "WI",
    "placeMasterId": "P02500000FsoHFT49M10AjrrZIlpVIbMcaVwWn3w",
    "placeName": "amherst",
    "state": "WI"
  },
  {
    "city": "nekoosa",
    "state_code": "WI",
    "placeMasterId": "P02500000FsoH6uHVAEN3VpB7636QdD3JwANw10X",
    "placeName": "nekoosa",
    "state": "WI"
  },
  {
    "city": "woodruff",
    "state_code": "WI",
    "placeMasterId": "P02500000FsoIl4JN23dJTwPsLSRezwqQAiw41g0",
    "placeName": "woodruff",
    "state": "WI"
  },
  {
    "city": "la crosse",
    "state_code": "WI",
    "placeMasterId": "P02500000FsoH6Ktake3ulQCPsnikzFaVCbte43C",
    "placeName": "la crosse",
    "state": "WI"
  },
  {
    "city": "coon valley",
    "state_code": "WI",
    "placeMasterId": "P02500000FsoH5C7lvTRdGcF1SIxPhKY4ZsPFKy1",
    "placeName": "coon valley",
    "state": "WI"
  },
  {
    "city": "de soto",
    "state_code": "WI",
    "placeMasterId": "P02500000FsoH5KyFWs1PxDUCG7IpboxdyyZXdbX",
    "placeName": "de soto",
    "state": "WI"
  },
  {
    "city": "eastman",
    "state_code": "WI",
    "placeMasterId": "P02500000FsoHET8o8Exfvf9Lg5PZvAptBfOIYD1",
    "placeName": "eastman",
    "state": "WI"
  },
  {
    "city": "galesville",
    "state_code": "WI",
    "placeMasterId": "P02500000FsoH5lVgL3km11DifYL5LI1s1H0ZNtA",
    "placeName": "galesville",
    "state": "WI"
  },
  {
    "city": "westby",
    "state_code": "WI",
    "placeMasterId": "P02500000FsoH8KkHCC8uNpcr8AYbk6mvup5P4Vh",
    "placeName": "westby",
    "state": "WI"
  },
  {
    "city": "chippewa falls",
    "state_code": "WI",
    "placeMasterId": "P02500000FsoH53HIK4rqa0zqeUbzmqC7iw9x8CO",
    "placeName": "chippewa falls",
    "state": "WI"
  },
  {
    "city": "dallas",
    "state_code": "WI",
    "placeMasterId": "P02500000FsoHEKIKWqNtF3uAsH4A0gFxgqsPmzP",
    "placeName": "dallas",
    "state": "WI"
  },
  {
    "city": "stanley",
    "state_code": "WI",
    "placeMasterId": "P02500000FsoH7uCqO0PYK1tKijWM0dkCXbt6F2l",
    "placeName": "stanley",
    "state": "WI"
  },
  {
    "city": "brule",
    "state_code": "WI",
    "placeMasterId": "P02500000FsoIg4gevBQpQuqmE2M26nvftVd9uO8",
    "placeName": "brule",
    "state": "WI"
  },
  {
    "city": "radisson",
    "state_code": "WI",
    "placeMasterId": "P02500000FsoHFkl6Yo9k74LuuOWL7a3wvNtzIxV",
    "placeName": "radisson",
    "state": "WI"
  },
  {
    "city": "rice lake",
    "state_code": "WI",
    "placeMasterId": "P02500000FsoH7cVtBDFywpOz76pWBenvgtOPXIS",
    "placeName": "rice lake",
    "state": "WI"
  },
  {
    "city": "springbrook",
    "state_code": "WI",
    "placeMasterId": "P02500000FsoIkDEVPgAbMKwpWaN9X0b7cdCEkjy",
    "placeName": "springbrook",
    "state": "WI"
  },
  {
    "city": "oshkosh",
    "state_code": "WI",
    "placeMasterId": "P02500000FsoH7BySN1Wct1fShfnGSBo1VOoxcGU",
    "placeName": "oshkosh",
    "state": "WI"
  },
  {
    "city": "harris",
    "state_code": "MN",
    "placeMasterId": "P02500000FsoFdA2UKLF7hYo4UuyhmEICaXuNIo8",
    "placeName": "harris",
    "state": "MN"
  },
  {
    "city": "hastings",
    "state_code": "MN",
    "placeMasterId": "P02500000FsoFdA2UKLF7hYo4UuyhmEL1kddko1C",
    "placeName": "hastings",
    "state": "MN"
  },
  {
    "city": "scandia",
    "state_code": "MN",
    "placeMasterId": "P02500000FsoFfaQba53TNly29iqoGYVZrSMll1n",
    "placeName": "scandia",
    "state": "MN"
  },
  {
    "city": "buffalo lake",
    "state_code": "MN",
    "placeMasterId": "P02500000FsoFbjZiINTGpYMKSnWWfKSpeL6kbvE",
    "placeName": "buffalo lake",
    "state": "MN"
  },
  {
    "city": "stewart",
    "state_code": "MN",
    "placeMasterId": "P02500000FsoFfjH5BTdG4NDCxXCEB30adGhdwGf",
    "placeName": "stewart",
    "state": "MN"
  },
  {
    "city": "winsted",
    "state_code": "MN",
    "placeMasterId": "P02500000FsoFgIezb3wOomBuAmZtp0TMf1Xq2iT",
    "placeName": "winsted",
    "state": "MN"
  },
  {
    "city": "minneapolis",
    "state_code": "MN",
    "placeMasterId": "P02500000FsoFeIoJ9VrPCMlSvPk349D9alJlgNT",
    "placeName": "minneapolis",
    "state": "MN"
  },
  {
    "city": "minneapolis",
    "state_code": "MN",
    "placeMasterId": "P02500000FsoFeIoJ9VrPCMlSvPk349D9alJlgNT",
    "placeName": "minneapolis",
    "state": "MN"
  },
  {
    "city": "ely",
    "state_code": "MN",
    "placeMasterId": "P02500000FsoFcaeZukvyx9pNHfb28Gh2md2LT1p",
    "placeName": "ely",
    "state": "MN"
  },
  {
    "city": "keewatin",
    "state_code": "MN",
    "placeMasterId": "P02500000FsoFdaZv8WyTlMXauM0xVhSIbxsK0rh",
    "placeName": "keewatin",
    "state": "MN"
  },
  {
    "city": "meadowlands",
    "state_code": "MN",
    "placeMasterId": "P02500000FsoFeIoJ9VrPCMlSvPk3498dJo0qlk3",
    "placeName": "meadowlands",
    "state": "MN"
  },
  {
    "city": "taconite",
    "state_code": "MN",
    "placeMasterId": "P02500000FsoFfjH5BTdG4NDCxXCEB31Ro5VIZaf",
    "placeName": "taconite",
    "state": "MN"
  },
  {
    "city": "duluth",
    "state_code": "MN",
    "placeMasterId": "P02500000FsoFcRo6JMMCGYaCTrFcDmMBFYsYM4N",
    "placeName": "duluth",
    "state": "MN"
  },
  {
    "city": "eyota",
    "state_code": "MN",
    "placeMasterId": "P02500000FsoFcaeZukvyx9pNHfb28GnrT8W9HDZ",
    "placeName": "eyota",
    "state": "MN"
  },
  {
    "city": "hayfield",
    "state_code": "MN",
    "placeMasterId": "P02500000FsoFdA2UKLF7hYo4UuyhmEK5euohTCh",
    "placeName": "hayfield",
    "state": "MN"
  },
  {
    "city": "kellogg",
    "state_code": "MN",
    "placeMasterId": "P02500000FsoFdaZv8WyTlMXauM0xVhMisSZOANz",
    "placeName": "kellogg",
    "state": "MN"
  },
  {
    "city": "truman",
    "state_code": "MN",
    "placeMasterId": "P02500000FsoFfs7YmsD2kySNlLXe5XI2YTHOUo0",
    "placeName": "truman",
    "state": "MN"
  },
  {
    "city": "avoca",
    "state_code": "MN",
    "placeMasterId": "P02500000FsoFbJ2HUBjulkco3MUGvrS79VpOfGh",
    "placeName": "avoca",
    "state": "MN"
  },
  {
    "city": "leota",
    "state_code": "MN",
    "placeMasterId": "P02500000FsoFdsGsLK838Z1wVyhnKg40XWUKwwE",
    "placeName": "leota",
    "state": "MN"
  },
  {
    "city": "clinton",
    "state_code": "MN",
    "placeMasterId": "P02500000FsoFc1GfVAcqCkqg4QDMUJI8r5TpoHo",
    "placeName": "clinton",
    "state": "MN"
  },
  {
    "city": "hancock",
    "state_code": "MN",
    "placeMasterId": "P02500000FsoFdA2UKLF7hYo4UuyhmEL35XRIZ8W",
    "placeName": "hancock",
    "state": "MN"
  },
  {
    "city": "marshall",
    "state_code": "MN",
    "placeMasterId": "P02500000FsoFe9xpY7HcVlWI7bOd9ereYgeEktH",
    "placeName": "marshall",
    "state": "MN"
  },
  {
    "city": "pennock",
    "state_code": "MN",
    "placeMasterId": "P02500000FsoFejLjxhalGAUzKqmIncP8HWFUP26",
    "placeName": "pennock",
    "state": "MN"
  },
  {
    "city": "renville",
    "state_code": "MN",
    "placeMasterId": "P02500000FsoFf9tAltK7JyEVkHoYX5MJO7VwZHd",
    "placeName": "renville",
    "state": "MN"
  },
  {
    "city": "belgrade",
    "state_code": "MN",
    "placeMasterId": "P02500000FsoFbRsl5aJhSLryrApgqLqytKKK8xk",
    "placeName": "belgrade",
    "state": "MN"
  },
  {
    "city": "flensburg",
    "state_code": "MN",
    "placeMasterId": "P02500000FsoFcjV3W9Vldl4Y5TwS2l3GXGVvbB6",
    "placeName": "flensburg",
    "state": "MN"
  },
  {
    "city": "onamia",
    "state_code": "MN",
    "placeMasterId": "P02500000FsoFejLjxhalGAUzKqmIncKVkdIUc8G",
    "placeName": "onamia",
    "state": "MN"
  },
  {
    "city": "browerville",
    "state_code": "MN",
    "placeMasterId": "P02500000FsoFbjZiINTGpYMKSnWWfKRccBYzIG7",
    "placeName": "browerville",
    "state": "MN"
  },
  {
    "city": "fifty lakes",
    "state_code": "MN",
    "placeMasterId": "P02500000FsoFcjV3W9Vldl4Y5TwS2l3HDqaK2wn",
    "placeName": "fifty lakes",
    "state": "MN"
  },
  {
    "city": "callaway",
    "state_code": "MN",
    "placeMasterId": "P02500000FsoFbsQBtm33W9bVGbrwZopIdbosq2D",
    "placeName": "callaway",
    "state": "MN"
  },
  {
    "city": "sabin",
    "state_code": "MN",
    "placeMasterId": "P02500000FsoFfRa7ygTghAirLuVOM43kyBsTB5U",
    "placeName": "sabin",
    "state": "MN"
  },
  {
    "city": "squaw lake",
    "state_code": "MN",
    "placeMasterId": "P02500000FsoFfaQba53TNly29iqoGYcPqSuC7Wd",
    "placeName": "squaw lake",
    "state": "MN"
  },
  {
    "city": "strathcona",
    "state_code": "MN",
    "placeMasterId": "P02500000FsoFfjH5BTdG4NDCxXCEB2uVx5KmXza",
    "placeName": "strathcona",
    "state": "MN"
  },
  {
    "city": "davis",
    "state_code": "SD",
    "placeMasterId": "P02500000FsoGe5J3K9mQiTjuo1K0aFztgE3YOVH",
    "placeName": "davis",
    "state": "SD"
  },
  {
    "city": "summit",
    "state_code": "SD",
    "placeMasterId": "P02500000FsoGfMvLkiyUtswU2KQlmfOnClDkcac",
    "placeName": "summit",
    "state": "SD"
  },
  {
    "city": "tripp",
    "state_code": "SD",
    "placeMasterId": "P02500000FsoGfMvLkiyUtswU2KQlmfOE08dOWHG",
    "placeName": "tripp",
    "state": "SD"
  },
  {
    "city": "mission",
    "state_code": "SD",
    "placeMasterId": "P02500000FsoGenXRL8fM9Txmp5368hvH8p9UbhC",
    "placeName": "mission",
    "state": "SD"
  },
  {
    "city": "wanblee",
    "state_code": "SD",
    "placeMasterId": "P02500000FsoGfVlpM7YHaUBeq8mBh9k5zCu699l",
    "placeName": "wanblee",
    "state": "SD"
  },
  {
    "city": "bullhead",
    "state_code": "SD",
    "placeMasterId": "P02500000FsoGdnc67McrLHFZCOdAlHHWVTPDh8s",
    "placeName": "bullhead",
    "state": "SD"
  },
  {
    "city": "amenia",
    "state_code": "ND",
    "placeMasterId": "P02500000FsoGAGPGGJ9J6vaUtJ7f9sM4cRenuIJ",
    "placeName": "amenia",
    "state": "ND"
  },
  {
    "city": "grand forks",
    "state_code": "ND",
    "placeMasterId": "P02500000FsoGAydeHI2EXvoMuMqkiKLpqx16Hen",
    "placeName": "grand forks",
    "state": "ND"
  },
  {
    "city": "adams",
    "state_code": "ND",
    "placeMasterId": "P02500000FsoGA7YmeuZWQKLK5UmFFO6XN2egNgt",
    "placeName": "adams",
    "state": "ND"
  },
  {
    "city": "hannah",
    "state_code": "ND",
    "placeMasterId": "P02500000FsoGBGKbU5Bnv8IiVzXaXIsT9GbH9uG",
    "placeName": "hannah",
    "state": "ND"
  },
  {
    "city": "cooperstown",
    "state_code": "ND",
    "placeMasterId": "P02500000FsoGAY6DT6IsU84qUvoUyr8dbbeD7eh",
    "placeName": "cooperstown",
    "state": "ND"
  },
  {
    "city": "regan",
    "state_code": "ND",
    "placeMasterId": "P02500000FsoGByYzV44jM8WaX3Gg5kvypiiHLgY",
    "placeName": "regan",
    "state": "ND"
  },
  {
    "city": "hazelton",
    "state_code": "ND",
    "placeMasterId": "P02500000FsoGBGKbU5Bnv8IiVzXaXJ6ByzDTKOE",
    "placeName": "hazelton",
    "state": "ND"
  },
  {
    "city": "napoleon",
    "state_code": "ND",
    "placeMasterId": "P02500000FsoGBpiVtfUwfXHPjEvGBGRjxH8A7Cr",
    "placeName": "napoleon",
    "state": "ND"
  },
  {
    "city": "strasburg",
    "state_code": "ND",
    "placeMasterId": "P02500000FsoGCGFwhrEIjL0w8fxVujYNR0mMlnu",
    "placeName": "strasburg",
    "state": "ND"
  },
  {
    "city": "donnybrook",
    "state_code": "ND",
    "placeMasterId": "P02500000FsoGAgwh4UsfAjK1Ik9utLSyTes1AEX",
    "placeName": "donnybrook",
    "state": "ND"
  },
  {
    "city": "custer",
    "state_code": "MT",
    "placeMasterId": "P02500000FsoFp0I7OF9IjQ7XBJeOOtA7oVzhJZK",
    "placeName": "custer",
    "state": "MT"
  },
  {
    "city": "judith gap",
    "state_code": "MT",
    "placeMasterId": "P02500000FsoFpiWVPE2EAQLPCNNTxKsKEpMwiUu",
    "placeName": "judith gap",
    "state": "MT"
  },
  {
    "city": "helena",
    "state_code": "MT",
    "placeMasterId": "P02500000FsoFpQpYCQsenDr3akge8MFa3MzsN9f",
    "placeName": "helena",
    "state": "MT"
  },
  {
    "city": "belgrade",
    "state_code": "MT",
    "placeMasterId": "P02500000FsoForRdmqZW2osMNVIyUOZO35TKMul",
    "placeName": "belgrade",
    "state": "MT"
  },
  {
    "city": "pablo",
    "state_code": "MT",
    "placeMasterId": "P02500000FsoFq0DSc1BnXcpko04JmJhnd7WKi4o",
    "placeName": "pablo",
    "state": "MT"
  },
  {
    "city": "deerfield",
    "state_code": "IL",
    "placeMasterId": "P02500000FsoF2v3D7edfAydoQfEYLnq7AaRqDkI",
    "placeName": "deerfield",
    "state": "IL"
  },
  {
    "city": "lake forest",
    "state_code": "IL",
    "placeMasterId": "P02500000FsoF4uttZCienO4Fg24P6f1i1b7l0Gt",
    "placeName": "lake forest",
    "state": "IL"
  },
  {
    "city": "morton grove",
    "state_code": "IL",
    "placeMasterId": "P02500000FsoF5upEmyl9bamTIiUKU5bxR8EHXzS",
    "placeName": "morton grove",
    "state": "IL"
  },
  {
    "city": "northbrook",
    "state_code": "IL",
    "placeMasterId": "P02500000FsoF6CWBzluiynGouLBAJ4NFHoYzjil",
    "placeName": "northbrook",
    "state": "IL"
  },
  {
    "city": "waukegan",
    "state_code": "IL",
    "placeMasterId": "P02500000FsoF8cuJFVj4f0QmZ93GnOg9mezNiDp",
    "placeName": "waukegan",
    "state": "IL"
  },
  {
    "city": "glendale heights",
    "state_code": "IL",
    "placeMasterId": "P02500000FsoF3m84k26NIa6rFXJ3ok3YiKs00th",
    "placeName": "glendale heights",
    "state": "IL"
  },
  {
    "city": "broadview",
    "state_code": "IL",
    "placeMasterId": "P02500000FsoF1v7rtsbAMlvanyocyNEFkDSdM1x",
    "placeName": "broadview",
    "state": "IL"
  },
  {
    "city": "beecher",
    "state_code": "IL",
    "placeMasterId": "P02500000FsoF1dQuh5RazZRFCM7n9ORtOoTz0o8",
    "placeName": "beecher",
    "state": "IL"
  },
  {
    "city": "leland",
    "state_code": "IL",
    "placeMasterId": "P02500000FsoF53kNAbIRTzJQTqPp19O56BGquFB",
    "placeName": "leland",
    "state": "IL"
  },
  {
    "city": "naperville",
    "state_code": "IL",
    "placeMasterId": "P02500000FsoF5upEmyl9bamTIiUKU5d7vrWjH7i",
    "placeName": "naperville",
    "state": "IL"
  },
  {
    "city": "chicago",
    "state_code": "IL",
    "placeMasterId": "P02500000FsoF2LfIi4KWQZf7DPqshqNB04VNil1",
    "placeName": "chicago",
    "state": "IL"
  },
  {
    "city": "aroma park",
    "state_code": "IL",
    "placeMasterId": "P02500000FsoF1LjxUII1cMwtajQxKPmJ6LZzgUR",
    "placeName": "aroma park",
    "state": "IL"
  },
  {
    "city": "colona",
    "state_code": "IL",
    "placeMasterId": "P02500000FsoF2dMFurU5nm9Sp2XiWp7L8wseV0O",
    "placeName": "colona",
    "state": "IL"
  },
  {
    "city": "amboy",
    "state_code": "IL",
    "placeMasterId": "P02500000FsoF1LjxUII1cMwtajQxKPhgyWRVT6r",
    "placeName": "amboy",
    "state": "IL"
  },
  {
    "city": "compton",
    "state_code": "IL",
    "placeMasterId": "P02500000FsoF2UVmJSuJ7AuI1ECIcKirH4LYWsG",
    "placeName": "compton",
    "state": "IL"
  },
  {
    "city": "mcnabb",
    "state_code": "IL",
    "placeMasterId": "P02500000FsoF5LRKNOS0rBnm5T6eq89Xra689p7",
    "placeName": "mcnabb",
    "state": "IL"
  },
  {
    "city": "standard",
    "state_code": "IL",
    "placeMasterId": "P02500000FsoF7ufvEWq9E0CuY5KBEwmT2dTg4ZE",
    "placeName": "standard",
    "state": "IL"
  },
  {
    "city": "little york",
    "state_code": "IL",
    "placeMasterId": "P02500000FsoF5CaqlzsEAaYbHelEvdiw8dgAEcD",
    "placeName": "little york",
    "state": "IL"
  },
  {
    "city": "williamsfield",
    "state_code": "IL",
    "placeMasterId": "P02500000FsoF8lkmquIrLbfxMxOght4MdP0ZOgr",
    "placeName": "williamsfield",
    "state": "IL"
  },
  {
    "city": "london mills",
    "state_code": "IL",
    "placeMasterId": "P02500000FsoF5CaqlzsEAaYbHelEvdkFaQbeQu2",
    "placeName": "london mills",
    "state": "IL"
  },
  {
    "city": "east peoria",
    "state_code": "IL",
    "placeMasterId": "P02500000FsoF33tgj3DRrZszETZyGICTzId3zUC",
    "placeName": "east peoria",
    "state": "IL"
  },
  {
    "city": "anchor",
    "state_code": "IL",
    "placeMasterId": "P02500000FsoF1LjxUII1cMwtajQxKPkeTpFH0Ur",
    "placeName": "anchor",
    "state": "IL"
  },
  {
    "city": "mackinaw",
    "state_code": "IL",
    "placeMasterId": "P02500000FsoF5LRKNOS0rBnm5T6eq88heNaw4Dx",
    "placeName": "mackinaw",
    "state": "IL"
  },
  {
    "city": "henning",
    "state_code": "IL",
    "placeMasterId": "P02500000FsoF4CfVYDpjMNqNeyLJYD9aJPWfKBn",
    "placeName": "henning",
    "state": "IL"
  },
  {
    "city": "muncie",
    "state_code": "IL",
    "placeMasterId": "P02500000FsoF63fiONKwIC1e6WpkOZz9hqAiRCG",
    "placeName": "muncie",
    "state": "IL"
  },
  {
    "city": "sadorus",
    "state_code": "IL",
    "placeMasterId": "P02500000FsoF7LI0owX0TbEDKpwVazMp5AO8E8z",
    "placeName": "sadorus",
    "state": "IL"
  },
  {
    "city": "windsor",
    "state_code": "IL",
    "placeMasterId": "P02500000FsoF8lkmquIrLbfxMxOght5Gh0v5MXA",
    "placeName": "windsor",
    "state": "IL"
  },
  {
    "city": "fidelity",
    "state_code": "IL",
    "placeMasterId": "P02500000FsoF3UR7XEwnvNcVducDzlJsEYayLUU",
    "placeName": "fidelity",
    "state": "IL"
  },
  {
    "city": "kampsville",
    "state_code": "IL",
    "placeMasterId": "P02500000FsoF4m3Pxo8s6mp4sDizCAcwC0e2okO",
    "placeName": "kampsville",
    "state": "IL"
  },
  {
    "city": "sorento",
    "state_code": "IL",
    "placeMasterId": "P02500000FsoF7lpRd8GMXOxjkGylKSQSuyvPys4",
    "placeName": "sorento",
    "state": "IL"
  },
  {
    "city": "wood river",
    "state_code": "IL",
    "placeMasterId": "P02500000FsoF8ubGSIse2Cv8Alk6cNSPcgqgnBz",
    "placeName": "wood river",
    "state": "IL"
  },
  {
    "city": "hoffman",
    "state_code": "IL",
    "placeMasterId": "P02500000FsoF4LVz9cPW2z5YSmgjShWcmZFAq0i",
    "placeName": "hoffman",
    "state": "IL"
  },
  {
    "city": "lebanon",
    "state_code": "IL",
    "placeMasterId": "P02500000FsoF53kNAbIRTzJQTqPp19QEo005LSM",
    "placeName": "lebanon",
    "state": "IL"
  },
  {
    "city": "lawrenceville",
    "state_code": "IL",
    "placeMasterId": "P02500000FsoF53kNAbIRTzJQTqPp19NuOSpUwNj",
    "placeName": "lawrenceville",
    "state": "IL"
  },
  {
    "city": "lerna",
    "state_code": "IL",
    "placeMasterId": "P02500000FsoF53kNAbIRTzJQTqPp19NWzlD6cwF",
    "placeName": "lerna",
    "state": "IL"
  },
  {
    "city": "willow hill",
    "state_code": "IL",
    "placeMasterId": "P02500000FsoF8lkmquIrLbfxMxOght48bNhqeCr",
    "placeName": "willow hill",
    "state": "IL"
  },
  {
    "city": "harristown",
    "state_code": "IL",
    "placeMasterId": "P02500000FsoF43p1wpFwfmbCr9ztdipdC5wXKoE",
    "placeName": "harristown",
    "state": "IL"
  },
  {
    "city": "moweaqua",
    "state_code": "IL",
    "placeMasterId": "P02500000FsoF5upEmyl9bamTIiUKU5dvzDo99Gk",
    "placeName": "moweaqua",
    "state": "IL"
  },
  {
    "city": "pana",
    "state_code": "IL",
    "placeMasterId": "P02500000FsoF6d3cnxe52b0LJmDQ2XStriPHAbb",
    "placeName": "pana",
    "state": "IL"
  },
  {
    "city": "albion",
    "state_code": "IL",
    "placeMasterId": "P02500000FsoF1CtTstiEvlhimv5XPvMhnO6PCxB",
    "placeName": "albion",
    "state": "IL"
  },
  {
    "city": "grayville",
    "state_code": "IL",
    "placeMasterId": "P02500000FsoF43p1wpFwfmbCr9ztdin62W83lCU",
    "placeName": "grayville",
    "state": "IL"
  },
  {
    "city": "sims",
    "state_code": "IL",
    "placeMasterId": "P02500000FsoF7lpRd8GMXOxjkGylKSRhkcI2wbn",
    "placeName": "sims",
    "state": "IL"
  },
  {
    "city": "ridgway",
    "state_code": "IL",
    "placeMasterId": "P02500000FsoF7CRXDXxDmzz2X1b5gUwP68rbrh4",
    "placeName": "ridgway",
    "state": "IL"
  },
  {
    "city": "union",
    "state_code": "MO",
    "placeMasterId": "P02500000FsoFo9DFlrgaboeUMRZsvwkPt76L4kZ",
    "placeName": "union",
    "state": "MO"
  },
  {
    "city": "gibbs",
    "state_code": "MO",
    "placeMasterId": "P02500000FsoFkitnILpk7OmJ4xHr4BrMhalT5p5",
    "placeName": "gibbs",
    "state": "MO"
  },
  {
    "city": "winigan",
    "state_code": "MO",
    "placeMasterId": "P02500000FsoFoQuCyeq9z18py4Gikvb8hyvChNv",
    "placeName": "winigan",
    "state": "MO"
  },
  {
    "city": "sikeston",
    "state_code": "MO",
    "placeMasterId": "P02500000FsoFnifoxfxEY0uxx0XdCTl1PSuSsYA",
    "placeName": "sikeston",
    "state": "MO"
  },
  {
    "city": "missouri city",
    "state_code": "MO",
    "placeMasterId": "P02500000FsoFmID2viBNg0TDut5S5a2CJHT6HTk",
    "placeName": "missouri city",
    "state": "MO"
  },
  {
    "city": "kansas city",
    "state_code": "MO",
    "placeMasterId": "P02500000FsoFlR8BJKifYP0B610wcdmJLAheztV",
    "placeName": "kansas city",
    "state": "MO"
  },
  {
    "city": "kansas city",
    "state_code": "MO",
    "placeMasterId": "P02500000FsoFlR8BJKifYP0B610wcdmJLAheztV",
    "placeName": "kansas city",
    "state": "MO"
  },
  {
    "city": "denver",
    "state_code": "MO",
    "placeMasterId": "P02500000FsoFk0fPHMwogOYR3tYlVk26kA8VDFM",
    "placeName": "denver",
    "state": "MO"
  },
  {
    "city": "hume",
    "state_code": "MO",
    "placeMasterId": "P02500000FsoFl9RE6XZ6BCVpUOK6nf61I7HoGMJ",
    "placeName": "hume",
    "state": "MO"
  },
  {
    "city": "diamond",
    "state_code": "MO",
    "placeMasterId": "P02500000FsoFk0fPHMwogOYR3tYlVk5vTXTKfeG",
    "placeName": "diamond",
    "state": "MO"
  },
  {
    "city": "brumley",
    "state_code": "MO",
    "placeMasterId": "P02500000FsoFjIR1GO3tFOKZ2ppfxIDNSObeZsW",
    "placeName": "brumley",
    "state": "MO"
  },
  {
    "city": "jacksonville",
    "state_code": "MO",
    "placeMasterId": "P02500000FsoFlIHhhw8srnl0ICfWi9PZYq1Y8l1",
    "placeName": "jacksonville",
    "state": "MO"
  },
  {
    "city": "wooldridge",
    "state_code": "MO",
    "placeMasterId": "P02500000FsoFoZkga3PwfcO0lsc8fPrTlXzy1J5",
    "placeName": "wooldridge",
    "state": "MO"
  },
  {
    "city": "knob noster",
    "state_code": "MO",
    "placeMasterId": "P02500000FsoFlip8W7sEvbUWhdhmRcQBCiGnKAw",
    "placeName": "knob noster",
    "state": "MO"
  },
  {
    "city": "bourbon",
    "state_code": "MO",
    "placeMasterId": "P02500000FsoFjIR1GO3tFOKZ2ppfxI7ONMwswoa",
    "placeName": "bourbon",
    "state": "MO"
  },
  {
    "city": "salem",
    "state_code": "MO",
    "placeMasterId": "P02500000FsoFnZpLMHNRrPfn9CCDHzNwBmRfj2t",
    "placeName": "salem",
    "state": "MO"
  },
  {
    "city": "cross timbers",
    "state_code": "MO",
    "placeMasterId": "P02500000FsoFjrovfyN1znJGG5DLbFl8juPppxl",
    "placeName": "cross timbers",
    "state": "MO"
  },
  {
    "city": "pierce city",
    "state_code": "MO",
    "placeMasterId": "P02500000FsoFn0RQwh4J70h5vwoXe1kOjkw2bEN",
    "placeName": "pierce city",
    "state": "MO"
  },
  {
    "city": "la cygne",
    "state_code": "KS",
    "placeMasterId": "P02500000FsoFKthN7bMbkfTleylD9Wbb7DqMhVQ",
    "placeName": "la cygne",
    "state": "KS"
  },
  {
    "city": "lansing",
    "state_code": "KS",
    "placeMasterId": "P02500000FsoFL2XqizwORGiwSn6d40zMTNrJa01",
    "placeName": "lansing",
    "state": "KS"
  },
  {
    "city": "perry",
    "state_code": "KS",
    "placeMasterId": "P02500000FsoFLtciLNP6YsBzHfB8WxELB3oPRrZ",
    "placeName": "perry",
    "state": "KS"
  },
  {
    "city": "prairie village",
    "state_code": "KS",
    "placeMasterId": "P02500000FsoFM2TBwlytFTRA5TWYRRY6UX74tYI",
    "placeName": "prairie village",
    "state": "KS"
  },
  {
    "city": "carbondale",
    "state_code": "KS",
    "placeMasterId": "P02500000FsoFJc54h2AXZGHCQfeRx7JZH2sibRk",
    "placeName": "carbondale",
    "state": "KS"
  },
  {
    "city": "harveyville",
    "state_code": "KS",
    "placeMasterId": "P02500000FsoFKc0PuoD2NSzQ3M4NKXqh5dB0IbB",
    "placeName": "harveyville",
    "state": "KS"
  },
  {
    "city": "mayetta",
    "state_code": "KS",
    "placeMasterId": "P02500000FsoFLKEnvn5xoTDI4PnSszkSuspxbrP",
    "placeName": "mayetta",
    "state": "KS"
  },
  {
    "city": "morrill",
    "state_code": "KS",
    "placeMasterId": "P02500000FsoFLT5HXBfkV4SSsE8snU6sKNaYTF1",
    "placeName": "morrill",
    "state": "KS"
  },
  {
    "city": "quenemo",
    "state_code": "KS",
    "placeMasterId": "P02500000FsoFMBJfYAYfw4gKtHryLvvBrTESnOo",
    "placeName": "quenemo",
    "state": "KS"
  },
  {
    "city": "vermillion",
    "state_code": "KS",
    "placeMasterId": "P02500000FsoFMkhZxkrogTf26XFdztRBzhvscXK",
    "placeName": "vermillion",
    "state": "KS"
  },
  {
    "city": "topeka",
    "state_code": "KS",
    "placeMasterId": "P02500000FsoFMbr6MMI1zsPrIiuE5P2hY2Q28N9",
    "placeName": "topeka",
    "state": "KS"
  },
  {
    "city": "agenda",
    "state_code": "KS",
    "placeMasterId": "P02500000FsoFJBXdsqRBVSXg1EcCDe82yqcIrRC",
    "placeName": "agenda",
    "state": "KS"
  },
  {
    "city": "atlanta",
    "state_code": "KS",
    "placeMasterId": "P02500000FsoFJBXdsqRBVSXg1EcCDeAhTfjT5Em",
    "placeName": "atlanta",
    "state": "KS"
  },
  {
    "city": "fall river",
    "state_code": "KS",
    "placeMasterId": "P02500000FsoFKBSz6cTgJfFtdv27b4jopfA8kgu",
    "placeName": "fall river",
    "state": "KS"
  },
  {
    "city": "latham",
    "state_code": "KS",
    "placeMasterId": "P02500000FsoFL2XqizwORGiwSn6d40zAIVZdqbc",
    "placeName": "latham",
    "state": "KS"
  },
  {
    "city": "south haven",
    "state_code": "KS",
    "placeMasterId": "P02500000FsoFMT0ckxiFJHAgUuYoAugH2AX0x3L",
    "placeName": "south haven",
    "state": "KS"
  },
  {
    "city": "udall",
    "state_code": "KS",
    "placeMasterId": "P02500000FsoFMbr6MMI1zsPrIiuE5P4LvhokaUE",
    "placeName": "udall",
    "state": "KS"
  },
  {
    "city": "assaria",
    "state_code": "KS",
    "placeMasterId": "P02500000FsoFJBXdsqRBVSXg1EcCDeAvHwBeUJx",
    "placeName": "assaria",
    "state": "KS"
  },
  {
    "city": "alexander",
    "state_code": "KS",
    "placeMasterId": "P02500000FsoFJ2hAHRrOorIVDQGmJ9pAUp5UIQv",
    "placeName": "alexander",
    "state": "KS"
  },
  {
    "city": "lewis",
    "state_code": "KS",
    "placeMasterId": "P02500000FsoFL2XqizwORGiwSn6d410dPtkVRqL",
    "placeName": "lewis",
    "state": "KS"
  },
  {
    "city": "ness city",
    "state_code": "KS",
    "placeMasterId": "P02500000FsoFLbvl8aFXBfhdg2UIhyTRwbc4JOg",
    "placeName": "ness city",
    "state": "KS"
  },
  {
    "city": "jennings",
    "state_code": "KS",
    "placeMasterId": "P02500000FsoFKthN7bMbkfTleylD9WbU6wQ243f",
    "placeName": "jennings",
    "state": "KS"
  },
  {
    "city": "paradise",
    "state_code": "KS",
    "placeMasterId": "P02500000FsoFLtciLNP6YsBzHfB8WxCuAJ7K458",
    "placeName": "paradise",
    "state": "KS"
  },
  {
    "city": "woodston",
    "state_code": "KS",
    "placeMasterId": "P02500000FsoFMtY3Z9RbN4uCuLb3uNqzmWqQxDI",
    "placeName": "woodston",
    "state": "KS"
  },
  {
    "city": "winona",
    "state_code": "KS",
    "placeMasterId": "P02500000FsoFMtY3Z9RbN4uCuLb3uNquUcult8P",
    "placeName": "winona",
    "state": "KS"
  },
  {
    "city": "sublette",
    "state_code": "KS",
    "placeMasterId": "P02500000FsoFMbr6MMI1zsPrIiuE5P29SNCaQL1",
    "placeName": "sublette",
    "state": "KS"
  },
  {
    "city": "oakland",
    "state_code": "NE",
    "placeMasterId": "P02500000FsoFszzUHLJHyEyPg3K5ubOlx7xWWp7",
    "placeName": "oakland",
    "state": "NE"
  },
  {
    "city": "bee",
    "state_code": "NE",
    "placeMasterId": "P02500000FsoFr08npnEILpXyQgUF9kHycIRJ51M",
    "placeName": "bee",
    "state": "NE"
  },
  {
    "city": "bruning",
    "state_code": "NE",
    "placeMasterId": "P02500000FsoFr8zHRBo52Qn9EUpf4EfXo7BPRUq",
    "placeName": "bruning",
    "state": "NE"
  },
  {
    "city": "deshler",
    "state_code": "NE",
    "placeMasterId": "P02500000FsoFriNBqm7DmplqRkDKiC8YVJ7ygIl",
    "placeName": "deshler",
    "state": "NE"
  },
  {
    "city": "filley",
    "state_code": "NE",
    "placeMasterId": "P02500000FsoFrrDfSAh0TR11FYYkcgQNQioISB7",
    "placeName": "filley",
    "state": "NE"
  },
  {
    "city": "geneva",
    "state_code": "NE",
    "placeMasterId": "P02500000FsoFs0493ZGnA2GC3MuAXAqfMG3kPch",
    "placeName": "geneva",
    "state": "NE"
  },
  {
    "city": "nehawka",
    "state_code": "NE",
    "placeMasterId": "P02500000FsoFsr90fwjVHdjEsEyg07Bp7Oq4Ubc",
    "placeName": "nehawka",
    "state": "NE"
  },
  {
    "city": "ong",
    "state_code": "NE",
    "placeMasterId": "P02500000FsoFszzUHLJHyEyPg3K5ubUBM12dDtX",
    "placeName": "ong",
    "state": "NE"
  },
  {
    "city": "waco",
    "state_code": "NE",
    "placeMasterId": "P02500000FsoFtr4Ltim05qRSUvObNXnEkzcBbGr",
    "placeName": "waco",
    "state": "NE"
  },
  {
    "city": "bartlett",
    "state_code": "NE",
    "placeMasterId": "P02500000FsoFr08npnEILpXyQgUF9k9Yw6eudfE",
    "placeName": "bartlett",
    "state": "NE"
  },
  {
    "city": "carroll",
    "state_code": "NE",
    "placeMasterId": "P02500000FsoFrQgEdyxePdHUq7WUtDI6nhCMAe8",
    "placeName": "carroll",
    "state": "NE"
  },
  {
    "city": "chambers",
    "state_code": "NE",
    "placeMasterId": "P02500000FsoFrQgEdyxePdHUq7WUtDGHqpYEwH6",
    "placeName": "chambers",
    "state": "NE"
  },
  {
    "city": "neligh",
    "state_code": "NE",
    "placeMasterId": "P02500000FsoFsr90fwjVHdjEsEyg07Ah15e3w8P",
    "placeName": "neligh",
    "state": "NE"
  },
  {
    "city": "plainview",
    "state_code": "NE",
    "placeMasterId": "P02500000FsoFtHgRU8SrLRSlHg0vja8ebjHnhSb",
    "placeName": "plainview",
    "state": "NE"
  },
  {
    "city": "wausa",
    "state_code": "NE",
    "placeMasterId": "P02500000FsoFtzupV7LmmRgdIjk1I237aPV0eby",
    "placeName": "wausa",
    "state": "NE"
  },
  {
    "city": "gibbon",
    "state_code": "NE",
    "placeMasterId": "P02500000FsoFs0493ZGnA2GC3MuAXAs1L67P9PL",
    "placeName": "gibbon",
    "state": "NE"
  },
  {
    "city": "minden",
    "state_code": "NE",
    "placeMasterId": "P02500000FsoFsr90fwjVHdjEsEyg0741bPQq4kX",
    "placeName": "minden",
    "state": "NE"
  },
  {
    "city": "oxford",
    "state_code": "NE",
    "placeMasterId": "P02500000FsoFt8pxsjt4eqDaTrfVp5pUZ3H0EQk",
    "placeName": "oxford",
    "state": "NE"
  },
  {
    "city": "trumbull",
    "state_code": "NE",
    "placeMasterId": "P02500000FsoFtr4Ltim05qRSUvObNXdvKF3Tvdg",
    "placeName": "trumbull",
    "state": "NE"
  },
  {
    "city": "parks",
    "state_code": "NE",
    "placeMasterId": "P02500000FsoFtHgRU8SrLRSlHg0vja6X0L70h7y",
    "placeName": "parks",
    "state": "NE"
  },
  {
    "city": "chadron",
    "state_code": "NE",
    "placeMasterId": "P02500000FsoFrQgEdyxePdHUq7WUtDOORuqIpBV",
    "placeName": "chadron",
    "state": "NE"
  },
  {
    "city": "pierre part",
    "state_code": "LA",
    "placeMasterId": "P02500000FsoFSArisonenIxedONWcVcSTc6Tjjo",
    "placeName": "pierre part",
    "state": "LA"
  },
  {
    "city": "lake charles",
    "state_code": "LA",
    "placeMasterId": "P02500000FsoFRkKI4d4IjVE8DxLGt2Q5hpUnD3T",
    "placeName": "lake charles",
    "state": "LA"
  },
  {
    "city": "elizabeth",
    "state_code": "LA",
    "placeMasterId": "P02500000FsoFQtFQSFbabtl5P5GlQ6Ir51gtgtE",
    "placeName": "elizabeth",
    "state": "LA"
  },
  {
    "city": "hosston",
    "state_code": "LA",
    "placeMasterId": "P02500000FsoFRJmrGRKwfhUboWJ19ZR3E4jdFJ7",
    "placeName": "hosston",
    "state": "LA"
  },
  {
    "city": "shreveport",
    "state_code": "LA",
    "placeMasterId": "P02500000FsoFSbP9h0X0r6hB2pPmLynLJaoEkpz",
    "placeName": "shreveport",
    "state": "LA"
  },
  {
    "city": "bastrop",
    "state_code": "LA",
    "placeMasterId": "P02500000FsoFQJrW2fIRrUmOBpt5m8kT0Y39RmX",
    "placeName": "bastrop",
    "state": "LA"
  },
  {
    "city": "kilbourne",
    "state_code": "LA",
    "placeMasterId": "P02500000FsoFRSdKrpujMIjmcKeR43tK4Kpe4XT",
    "placeName": "kilbourne",
    "state": "LA"
  },
  {
    "city": "marksville",
    "state_code": "LA",
    "placeMasterId": "P02500000FsoFRkKI4d4IjVE8DxLGt2ex5EGfar4",
    "placeName": "marksville",
    "state": "LA"
  },
  {
    "city": "oakdale",
    "state_code": "LA",
    "placeMasterId": "P02500000FsoFSArisonenIxedONWcVbncRNRV3w",
    "placeName": "oakdale",
    "state": "LA"
  },
  {
    "city": "junction city",
    "state_code": "AR",
    "placeMasterId": "P02500000FsoEc5vRj88202d3O0Hz3hytBRmAe7t",
    "placeName": "junction city",
    "state": "AR"
  },
  {
    "city": "ben lomond",
    "state_code": "AR",
    "placeMasterId": "P02500000FsoEafSfhAMB82BJLspnwoKb0Wa9FwP",
    "placeName": "ben lomond",
    "state": "AR"
  },
  {
    "city": "bradley",
    "state_code": "AR",
    "placeMasterId": "P02500000FsoEaoJ9IYvxodQU9hBDrIenqVetgne",
    "placeName": "bradley",
    "state": "AR"
  },
  {
    "city": "buckner",
    "state_code": "AR",
    "placeMasterId": "P02500000FsoEaoJ9IYvxodQU9hBDrIhfkoiuGKr",
    "placeName": "buckner",
    "state": "AR"
  },
  {
    "city": "ozan",
    "state_code": "AR",
    "placeMasterId": "P02500000FsoEcfJM8iRAkRbkbFfehfTbnoKlfx7",
    "placeName": "ozan",
    "state": "AR"
  },
  {
    "city": "smithville",
    "state_code": "AR",
    "placeMasterId": "P02500000FsoEd5qmwuAWoFLH0ghuR8bNB9y6K7X",
    "placeName": "smithville",
    "state": "AR"
  },
  {
    "city": "swifton",
    "state_code": "AR",
    "placeMasterId": "P02500000FsoEdEhGYIkJUqaRoV3KLcx9tNPdObe",
    "placeName": "swifton",
    "state": "AR"
  },
  {
    "city": "trumann",
    "state_code": "AR",
    "placeMasterId": "P02500000FsoEdEhGYIkJUqaRoV3KLd0ueNV7OCq",
    "placeName": "trumann",
    "state": "AR"
  },
  {
    "city": "oxford",
    "state_code": "AR",
    "placeMasterId": "P02500000FsoEcfJM8iRAkRbkbFfehfSSfYR4BRt",
    "placeName": "oxford",
    "state": "AR"
  },
  {
    "city": "pindall",
    "state_code": "AR",
    "placeMasterId": "P02500000FsoEco9pk70xR2qvP414c9pBohc4Phw",
    "placeName": "pindall",
    "state": "AR"
  },
  {
    "city": "centerton",
    "state_code": "AR",
    "placeMasterId": "P02500000FsoEb606VM5XBpuplJs3gHNaNmuSEMO",
    "placeName": "centerton",
    "state": "AR"
  },
  {
    "city": "ola",
    "state_code": "AR",
    "placeMasterId": "P02500000FsoEcWSsXJrO3qMZnRKEnB8y6nG0zbX",
    "placeName": "ola",
    "state": "AR"
  },
  {
    "city": "corn",
    "state_code": "OK",
    "placeMasterId": "P02500000FsoGKgC7IFHdGmSDXaLAfdbGNJySNuK",
    "placeName": "corn",
    "state": "OK"
  },
  {
    "city": "lindsay",
    "state_code": "OK",
    "placeMasterId": "P02500000FsoGM6etKD3U8mtxZhnLmXDA5bOUWF9",
    "placeName": "lindsay",
    "state": "OK"
  },
  {
    "city": "union city",
    "state_code": "OK",
    "placeMasterId": "P02500000FsoGNoocYxyuNzq3DRwMiPfbMau0IrL",
    "placeName": "union city",
    "state": "OK"
  },
  {
    "city": "oklahoma city",
    "state_code": "OK",
    "placeMasterId": "P02500000FsoGMg2njnMctBsemxB1QUgVkw3g3BI",
    "placeName": "oklahoma city",
    "state": "OK"
  },
  {
    "city": "oklahoma city",
    "state_code": "OK",
    "placeMasterId": "P02500000FsoGMg2njnMctBsemxB1QUgVkw3g3BI",
    "placeName": "oklahoma city",
    "state": "OK"
  },
  {
    "city": "foster",
    "state_code": "OK",
    "placeMasterId": "P02500000FsoGLFa1hpam1BQukpiqJb1yv7lWIs1",
    "placeName": "foster",
    "state": "OK"
  },
  {
    "city": "wilson",
    "state_code": "OK",
    "placeMasterId": "P02500000FsoGO6VZll8TlCKOp4dCXONjhNS0PtG",
    "placeName": "wilson",
    "state": "OK"
  },
  {
    "city": "lawton",
    "state_code": "OK",
    "placeMasterId": "P02500000FsoGM6etKD3U8mtxZhnLmX72deoXr8U",
    "placeName": "lawton",
    "state": "OK"
  },
  {
    "city": "foss",
    "state_code": "OK",
    "placeMasterId": "P02500000FsoGLFa1hpam1BQukpiqJb6JJG6SGVy",
    "placeName": "foss",
    "state": "OK"
  },
  {
    "city": "oakwood",
    "state_code": "OK",
    "placeMasterId": "P02500000FsoGMXCK8OmqCadTz8pbW0Rewo4J6Y1",
    "placeName": "oakwood",
    "state": "OK"
  },
  {
    "city": "kremlin",
    "state_code": "OK",
    "placeMasterId": "P02500000FsoGLoxw7PtulaPby56VxYYHo9uwYZF",
    "placeName": "kremlin",
    "state": "OK"
  },
  {
    "city": "tulsa",
    "state_code": "OK",
    "placeMasterId": "P02500000FsoGNfy8xZP7hOasPdawnvKembwKfLR",
    "placeName": "tulsa",
    "state": "OK"
  },
  {
    "city": "spavinaw",
    "state_code": "OK",
    "placeMasterId": "P02500000FsoGNOHBkmFYKC6Wo0u6ywe6ElxU1Gk",
    "placeName": "spavinaw",
    "state": "OK"
  },
  {
    "city": "porter",
    "state_code": "OK",
    "placeMasterId": "P02500000FsoGMotHLBwPZn7palWRKzBBWTAkwqc",
    "placeName": "porter",
    "state": "OK"
  },
  {
    "city": "welling",
    "state_code": "OK",
    "placeMasterId": "P02500000FsoGNxf6AMYh4b5E1GHmcu0xebtv53R",
    "placeName": "welling",
    "state": "OK"
  },
  {
    "city": "alderson",
    "state_code": "OK",
    "placeMasterId": "P02500000FsoGJp7Ffrov9AzAiiGfChHDpc47HmY",
    "placeName": "alderson",
    "state": "OK"
  },
  {
    "city": "clayton",
    "state_code": "OK",
    "placeMasterId": "P02500000FsoGKgC7IFHdGmSDXaLAfdU84BgkHdf",
    "placeName": "clayton",
    "state": "OK"
  },
  {
    "city": "coalgate",
    "state_code": "OK",
    "placeMasterId": "P02500000FsoGKgC7IFHdGmSDXaLAfdQSuSJAVcM",
    "placeName": "coalgate",
    "state": "OK"
  },
  {
    "city": "fairfax",
    "state_code": "OK",
    "placeMasterId": "P02500000FsoGL6jY6R0zKaBjx1NQP6iwi5hFLYb",
    "placeName": "fairfax",
    "state": "OK"
  },
  {
    "city": "durant",
    "state_code": "OK",
    "placeMasterId": "P02500000FsoGKxt4V2RCdywZ9D20UcC9I8IxXz9",
    "placeName": "durant",
    "state": "OK"
  },
  {
    "city": "kemp",
    "state_code": "OK",
    "placeMasterId": "P02500000FsoGLoxw7PtulaPby56VxYVrPIm7INS",
    "placeName": "kemp",
    "state": "OK"
  },
  {
    "city": "swink",
    "state_code": "OK",
    "placeMasterId": "P02500000FsoGNX7fMApL0nLhbpFWtQv6x8LbaB0",
    "placeName": "swink",
    "state": "OK"
  },
  {
    "city": "cromwell",
    "state_code": "OK",
    "placeMasterId": "P02500000FsoGKp2atdrPxNhOLOgaa7rPVzNOPX2",
    "placeName": "cromwell",
    "state": "OK"
  },
  {
    "city": "lewisville",
    "state_code": "TX",
    "placeMasterId": "P02500000FsoGnMK5WvITNWeF1nmAo6IN3MuxnDs",
    "placeName": "lewisville",
    "state": "TX"
  },
  {
    "city": "canton",
    "state_code": "TX",
    "placeMasterId": "P02500000FsoGjeJfqcI3VuHi8gnJ7MPlI2vec3h",
    "placeName": "canton",
    "state": "TX"
  },
  {
    "city": "corsicana",
    "state_code": "TX",
    "placeMasterId": "P02500000FsoGk4r6eo1PZi1EY7pYqpZ91YJXen7",
    "placeName": "corsicana",
    "state": "TX"
  },
  {
    "city": "seagoville",
    "state_code": "TX",
    "placeMasterId": "P02500000FsoGqUwandzkUk24hfNMqsQR8v3EQks",
    "placeName": "seagoville",
    "state": "TX"
  },
  {
    "city": "mesquite",
    "state_code": "TX",
    "placeMasterId": "P02500000FsoGo4YTXuBOoWs72rVGMY3lRUYhh2A",
    "placeName": "mesquite",
    "state": "TX"
  },
  {
    "city": "dallas",
    "state_code": "TX",
    "placeMasterId": "P02500000FsoGkMY3rbAywuVa9kWOfoNE7vnQ9N4",
    "placeName": "dallas",
    "state": "TX"
  },
  {
    "city": "lone oak",
    "state_code": "TX",
    "placeMasterId": "P02500000FsoGnVAZ8JsG47tPpc7aiaeVU12gFVP",
    "placeName": "lone oak",
    "state": "TX"
  },
  {
    "city": "tom bean",
    "state_code": "TX",
    "placeMasterId": "P02500000FsoGrUrw1Q2FIwkIKLnIEIs6EBdLQD6",
    "placeName": "tom bean",
    "state": "TX"
  },
  {
    "city": "tyler",
    "state_code": "TX",
    "placeMasterId": "P02500000FsoGrUrw1Q2FIwkIKLnIEIqxT9CHRU3",
    "placeName": "tyler",
    "state": "TX"
  },
  {
    "city": "jewett",
    "state_code": "TX",
    "placeMasterId": "P02500000FsoGmVFDuXplFvBCCvhfLA3vKLG87PE",
    "placeName": "jewett",
    "state": "TX"
  },
  {
    "city": "granbury",
    "state_code": "TX",
    "placeMasterId": "P02500000FsoGleAMIAN38Ji9O3d9sDf52jB44N1",
    "placeName": "granbury",
    "state": "TX"
  },
  {
    "city": "fort worth",
    "state_code": "TX",
    "placeMasterId": "P02500000FsoGlMTP5NDTl7DnmQwK3EqQnKzuFlE",
    "placeName": "fort worth",
    "state": "TX"
  },
  {
    "city": "comanche",
    "state_code": "TX",
    "placeMasterId": "P02500000FsoGjw0d3PRct6m3kJU8wLI8YEwqoYL",
    "placeName": "comanche",
    "state": "TX"
  },
  {
    "city": "graford",
    "state_code": "TX",
    "placeMasterId": "P02500000FsoGleAMIAN38Ji9O3d9sDlvSAt6z8Z",
    "placeName": "graford",
    "state": "TX"
  },
  {
    "city": "mart",
    "state_code": "TX",
    "placeMasterId": "P02500000FsoGnvhzwVbc7vcwF39qS3jkHcaU5Fw",
    "placeName": "mart",
    "state": "TX"
  },
  {
    "city": "lometa",
    "state_code": "TX",
    "placeMasterId": "P02500000FsoGnVAZ8JsG47tPpc7aiaXlJjOOmDo",
    "placeName": "lometa",
    "state": "TX"
  },
  {
    "city": "mertzon",
    "state_code": "TX",
    "placeMasterId": "P02500000FsoGnvhzwVbc7vcwF39qS3kuX6GASAp",
    "placeName": "mertzon",
    "state": "TX"
  },
  {
    "city": "sonora",
    "state_code": "TX",
    "placeMasterId": "P02500000FsoGqmdY0R9JrwWQJI4CfrBmKh4H9HG",
    "placeName": "sonora",
    "state": "TX"
  },
  {
    "city": "conroe",
    "state_code": "TX",
    "placeMasterId": "P02500000FsoGk4r6eo1PZi1EY7pYqpW1YjRM0qs",
    "placeName": "conroe",
    "state": "TX"
  },
  {
    "city": "conroe",
    "state_code": "TX",
    "placeMasterId": "P02500000FsoGk4r6eo1PZi1EY7pYqpW1YjRM0qs",
    "placeName": "conroe",
    "state": "TX"
  },
  {
    "city": "brookshire",
    "state_code": "TX",
    "placeMasterId": "P02500000FsoGjDmF2QYhS6YBjFl3NtImsJnAcXt",
    "placeName": "brookshire",
    "state": "TX"
  },
  {
    "city": "orchard",
    "state_code": "TX",
    "placeMasterId": "P02500000FsoGovdLAHe6w8L9rjZlpUEvuZz3NCJ",
    "placeName": "orchard",
    "state": "TX"
  },
  {
    "city": "richmond",
    "state_code": "TX",
    "placeMasterId": "P02500000FsoGpvYgO3gbkL3NUPzhCupLeJr85kQ",
    "placeName": "richmond",
    "state": "TX"
  },
  {
    "city": "pasadena",
    "state_code": "TX",
    "placeMasterId": "P02500000FsoGp4TolgDtcjaKfXvBjyUjswu6ier",
    "placeName": "pasadena",
    "state": "TX"
  },
  {
    "city": "anahuac",
    "state_code": "TX",
    "placeMasterId": "P02500000FsoGiMhNQ35zKV58uNgXuxEBdODM6WI",
    "placeName": "anahuac",
    "state": "TX"
  },
  {
    "city": "college station",
    "state_code": "TX",
    "placeMasterId": "P02500000FsoGjw0d3PRct6m3kJU8wLCO4ngr8OO",
    "placeName": "college station",
    "state": "TX"
  },
  {
    "city": "edna",
    "state_code": "TX",
    "placeMasterId": "P02500000FsoGkeF14OKYK6zvlNDEUnBo10bGKzC",
    "placeName": "edna",
    "state": "TX"
  },
  {
    "city": "port lavaca",
    "state_code": "TX",
    "placeMasterId": "P02500000FsoGpMAlyTNSzw4gHAc1YxNyN1uryPC",
    "placeName": "port lavaca",
    "state": "TX"
  },
  {
    "city": "yoakum",
    "state_code": "TX",
    "placeMasterId": "P02500000FsoGsD6K2OvAjwyALPWNmkrz4wwJtpC",
    "placeName": "yoakum",
    "state": "TX"
  },
  {
    "city": "san antonio",
    "state_code": "TX",
    "placeMasterId": "P02500000FsoGqM67CFPxo8mttr1wwNqfYQdpCPu",
    "placeName": "san antonio",
    "state": "TX"
  },
  {
    "city": "san antonio",
    "state_code": "TX",
    "placeMasterId": "P02500000FsoGqM67CFPxo8mttr1wwNqfYQdpCPu",
    "placeName": "san antonio",
    "state": "TX"
  },
  {
    "city": "banquete",
    "state_code": "TX",
    "placeMasterId": "P02500000FsoGieOKcqFYhhZUW0NNjvtTc77qR8L",
    "placeName": "banquete",
    "state": "TX"
  },
  {
    "city": "driscoll",
    "state_code": "TX",
    "placeMasterId": "P02500000FsoGkeF14OKYK6zvlNDEUn2e7h5EJKj",
    "placeName": "driscoll",
    "state": "TX"
  },
  {
    "city": "hebbronville",
    "state_code": "TX",
    "placeMasterId": "P02500000FsoGlvrJUxWcVWCUzgJzhCP5LDSqg0G",
    "placeName": "hebbronville",
    "state": "TX"
  },
  {
    "city": "corpus christi",
    "state_code": "TX",
    "placeMasterId": "P02500000FsoGkDhaGCbCGJGPLwAylJumHp42lmi",
    "placeName": "corpus christi",
    "state": "TX"
  },
  {
    "city": "corpus christi",
    "state_code": "TX",
    "placeMasterId": "P02500000FsoGkDhaGCbCGJGPLwAylJumHp42lmi",
    "placeName": "corpus christi",
    "state": "TX"
  },
  {
    "city": "corpus christi",
    "state_code": "TX",
    "placeMasterId": "P02500000FsoGkDhaGCbCGJGPLwAylJumHp42lmi",
    "placeName": "corpus christi",
    "state": "TX"
  },
  {
    "city": "penitas",
    "state_code": "TX",
    "placeMasterId": "P02500000FsoGpDKIN4ngJKpVTMGbeSzTtRcVVtW",
    "placeName": "penitas",
    "state": "TX"
  },
  {
    "city": "port mansfield",
    "state_code": "TX",
    "placeMasterId": "P02500000FsoGpMAlyTNSzw4gHAc1YxHuFtSL3bb",
    "placeName": "port mansfield",
    "state": "TX"
  },
  {
    "city": "austin",
    "state_code": "TX",
    "placeMasterId": "P02500000FsoGieOKcqFYhhZUW0NNjvrbzzBh3wR",
    "placeName": "austin",
    "state": "TX"
  },
  {
    "city": "austin",
    "state_code": "TX",
    "placeMasterId": "P02500000FsoGieOKcqFYhhZUW0NNjvrbzzBh3wR",
    "placeName": "austin",
    "state": "TX"
  },
  {
    "city": "austin",
    "state_code": "TX",
    "placeMasterId": "P02500000FsoGieOKcqFYhhZUW0NNjvrbzzBh3wR",
    "placeName": "austin",
    "state": "TX"
  },
  {
    "city": "austin",
    "state_code": "TX",
    "placeMasterId": "P02500000FsoGieOKcqFYhhZUW0NNjvrbzzBh3wR",
    "placeName": "austin",
    "state": "TX"
  },
  {
    "city": "springlake",
    "state_code": "TX",
    "placeMasterId": "P02500000FsoGqvU1bpj6YXlb76PcaLM6Ih9DfdP",
    "placeName": "springlake",
    "state": "TX"
  },
  {
    "city": "silverton",
    "state_code": "TX",
    "placeMasterId": "P02500000FsoGqdn4P2ZXBLHFVTimlMh22kd191z",
    "placeName": "silverton",
    "state": "TX"
  },
  {
    "city": "baird",
    "state_code": "TX",
    "placeMasterId": "P02500000FsoGieOKcqFYhhZUW0NNjvyOGeUzIvX",
    "placeName": "baird",
    "state": "TX"
  },
  {
    "city": "abilene",
    "state_code": "TX",
    "placeMasterId": "P02500000FsoGiDqtoeWCdtpy6ZL80SrkQQVB2g4",
    "placeName": "abilene",
    "state": "TX"
  },
  {
    "city": "midland",
    "state_code": "TX",
    "placeMasterId": "P02500000FsoGo4YTXuBOoWs72rVGMY10s9Q1EL7",
    "placeName": "midland",
    "state": "TX"
  },
  {
    "city": "terlingua",
    "state_code": "TX",
    "placeMasterId": "P02500000FsoGrDAyocsfvkFwij6SPKDhhbi8lzK",
    "placeName": "terlingua",
    "state": "TX"
  },
  {
    "city": "el paso",
    "state_code": "TX",
    "placeMasterId": "P02500000FsoGkn5UfmuL0iF6ZBYePHb6XkiWYkD",
    "placeName": "el paso",
    "state": "TX"
  },
  {
    "city": "el paso",
    "state_code": "TX",
    "placeMasterId": "P02500000FsoGkn5UfmuL0iF6ZBYePHb6XkiWYkD",
    "placeName": "el paso",
    "state": "TX"
  },
  {
    "city": "kiowa",
    "state_code": "CO",
    "placeMasterId": "P02500000FsoEnnKbBdSQLIhLGacFlsQFzUb7A32",
    "placeName": "kiowa",
    "state": "CO"
  },
  {
    "city": "littleton",
    "state_code": "CO",
    "placeMasterId": "P02500000FsoEnwB4n22D1twW4OxfgMnLpWDqofA",
    "placeName": "littleton",
    "state": "CO"
  },
  {
    "city": "milliken",
    "state_code": "CO",
    "placeMasterId": "P02500000FsoEo51YOQbziVBgsDJ5arCyhFjKQtC",
    "placeName": "milliken",
    "state": "CO"
  },
  {
    "city": "timnath",
    "state_code": "CO",
    "placeMasterId": "P02500000FsoEonFwPPUv9VPYtH2B9J4WrVASGBv",
    "placeName": "timnath",
    "state": "CO"
  },
  {
    "city": "kersey",
    "state_code": "CO",
    "placeMasterId": "P02500000FsoEnnKbBdSQLIhLGacFlsPz2aHqnG7",
    "placeName": "kersey",
    "state": "CO"
  },
  {
    "city": "manitou springs",
    "state_code": "CO",
    "placeMasterId": "P02500000FsoEo51YOQbziVBgsDJ5arAv8mDrCLg",
    "placeName": "manitou springs",
    "state": "CO"
  },
  {
    "city": "san luis",
    "state_code": "CO",
    "placeMasterId": "P02500000FsoEoVYzCcLLmIvDHeLLKKJlckeX3LJ",
    "placeName": "san luis",
    "state": "CO"
  },
  {
    "city": "avon",
    "state_code": "CO",
    "placeMasterId": "P02500000FsoEmeYmMSq8qUjwq5quTxTMginOUfN",
    "placeName": "avon",
    "state": "CO"
  },
  {
    "city": "parachute",
    "state_code": "CO",
    "placeMasterId": "P02500000FsoEoDs1zpBmP6Qrg1eVVLaFfOCk1xe",
    "placeName": "parachute",
    "state": "CO"
  },
  {
    "city": "cheyenne",
    "state_code": "WY",
    "placeMasterId": "P02500000FsoH8lHi0NsGRdMNXbarTZtuWJMmZrv",
    "placeName": "cheyenne",
    "state": "WY"
  },
  {
    "city": "worland",
    "state_code": "WY",
    "placeMasterId": "P02500000FsoH9lD3E9ulFq4bAI0mr0aZySqrRg0",
    "placeName": "worland",
    "state": "WY"
  },
  {
    "city": "dayton",
    "state_code": "ID",
    "placeMasterId": "P02500000FsoF047f3j5xQxkKMQKC80Oqo9Vyw1X",
    "placeName": "dayton",
    "state": "ID"
  },
  {
    "city": "malad city",
    "state_code": "ID",
    "placeMasterId": "P02500000FsoF0dVZTJP6BMj1ZfhrlxrlpprGJg5",
    "placeName": "malad city",
    "state": "ID"
  },
  {
    "city": "hailey",
    "state_code": "ID",
    "placeMasterId": "P02500000FsoF0LocGWFWoAEfy311wz7fUwk8Vqq",
    "placeName": "hailey",
    "state": "ID"
  },
  {
    "city": "teton",
    "state_code": "ID",
    "placeMasterId": "P02500000FsoF1430HV8SFASXz6k7VR0Frtx62Ek",
    "placeName": "teton",
    "state": "ID"
  },
  {
    "city": "kamiah",
    "state_code": "ID",
    "placeMasterId": "P02500000FsoF0LocGWFWoAEfy311wz9xuzkX2tk",
    "placeName": "kamiah",
    "state": "ID"
  },
  {
    "city": "caldwell",
    "state_code": "ID",
    "placeMasterId": "P02500000FsoF047f3j5xQxkKMQKC80OYbW46OTl",
    "placeName": "caldwell",
    "state": "ID"
  },
  {
    "city": "homedale",
    "state_code": "ID",
    "placeMasterId": "P02500000FsoF0LocGWFWoAEfy311wzA4tnp2DD3",
    "placeName": "homedale",
    "state": "ID"
  },
  {
    "city": "bonners ferry",
    "state_code": "ID",
    "placeMasterId": "P02500000FsoEzvHBSKWAkMV9YbymDW298iTfTWo",
    "placeName": "bonners ferry",
    "state": "ID"
  },
  {
    "city": "park city",
    "state_code": "UT",
    "placeMasterId": "P02500000FsoGtUicSy7EvMAjZid8zA8J5Nnd2c0",
    "placeName": "park city",
    "state": "UT"
  },
  {
    "city": "roy",
    "state_code": "UT",
    "placeMasterId": "P02500000FsoGtmPZflGoIYf5BLJyo8qotPUI9Lz",
    "placeName": "roy",
    "state": "UT"
  },
  {
    "city": "rush valley",
    "state_code": "UT",
    "placeMasterId": "P02500000FsoGtmPZflGoIYf5BLJyo8slDBF4NHr",
    "placeName": "rush valley",
    "state": "UT"
  },
  {
    "city": "park city",
    "state_code": "UT",
    "placeMasterId": "P02500000FsoGtUicSy7EvMAjZid8zA8J5Nnd2c0",
    "placeName": "park city",
    "state": "UT"
  },
  {
    "city": "salt lake city",
    "state_code": "UT",
    "placeMasterId": "P02500000FsoGtmPZflGoIYf5BLJyo8m8TJqdpCK",
    "placeName": "salt lake city",
    "state": "UT"
  },
  {
    "city": "bear river city",
    "state_code": "UT",
    "placeMasterId": "P02500000FsoGsLwndnUxQYDL9DrnhFA4Vx3mKWE",
    "placeName": "bear river city",
    "state": "UT"
  },
  {
    "city": "brigham city",
    "state_code": "UT",
    "placeMasterId": "P02500000FsoGsLwndnUxQYDL9DrnhFEEYauL9Cq",
    "placeName": "brigham city",
    "state": "UT"
  },
  {
    "city": "trenton",
    "state_code": "UT",
    "placeMasterId": "P02500000FsoGtvG3H9qaz9uFz9fOidDtVEK9Avk",
    "placeName": "trenton",
    "state": "UT"
  },
  {
    "city": "orangeville",
    "state_code": "UT",
    "placeMasterId": "P02500000FsoGtdZ64Mh1bxPuNWyYteNjlxtzkSe",
    "placeName": "orangeville",
    "state": "UT"
  },
  {
    "city": "gunnison",
    "state_code": "UT",
    "placeMasterId": "P02500000FsoGsvKi3No6AxC2MTFTLCiRI4oVQUr",
    "placeName": "gunnison",
    "state": "UT"
  },
  {
    "city": "scipio",
    "state_code": "UT",
    "placeMasterId": "P02500000FsoGtmPZflGoIYf5BLJyo8mgo6IDP5u",
    "placeName": "scipio",
    "state": "UT"
  },
  {
    "city": "phoenix",
    "state_code": "AZ",
    "placeMasterId": "P02500000FsoEZWgqrzjtdEDuvO4SetJca76kZR3",
    "placeName": "phoenix",
    "state": "AZ"
  },
  {
    "city": "stanfield",
    "state_code": "AZ",
    "placeMasterId": "P02500000FsoEZoNo4mtT0QiGX0lITs5XXQECbma",
    "placeName": "stanfield",
    "state": "AZ"
  },
  {
    "city": "pima",
    "state_code": "AZ",
    "placeMasterId": "P02500000FsoEZNqNGbA6wcyk7Zj2kOy6KRh1Nd5",
    "placeName": "pima",
    "state": "AZ"
  },
  {
    "city": "bowie",
    "state_code": "AZ",
    "placeMasterId": "P02500000FsoEYF4YRQXpRp1Lh4xhSTx2qNCN2FK",
    "placeName": "bowie",
    "state": "AZ"
  },
  {
    "city": "oracle",
    "state_code": "AZ",
    "placeMasterId": "P02500000FsoEZNqNGbA6wcyk7Zj2kOyOcCRvIUw",
    "placeName": "oracle",
    "state": "AZ"
  },
  {
    "city": "amado",
    "state_code": "AZ",
    "placeMasterId": "P02500000FsoEXxNbEdOG4cX05SGrdVDPzLQ1Ygp",
    "placeName": "amado",
    "state": "AZ"
  },
  {
    "city": "show low",
    "state_code": "AZ",
    "placeMasterId": "P02500000FsoEZxEHgBTFh1xRKp6iOMR0UymeN4p",
    "placeName": "show low",
    "state": "AZ"
  },
  {
    "city": "concho",
    "state_code": "AZ",
    "placeMasterId": "P02500000FsoEYWlVeDhOp1VhIheXHSg34Secnha",
    "placeName": "concho",
    "state": "AZ"
  },
  {
    "city": "golden valley",
    "state_code": "AZ",
    "placeMasterId": "P02500000FsoEYoSSr0qyCE02uKLN6RVXcqdB6lD",
    "placeName": "golden valley",
    "state": "AZ"
  },
  {
    "city": "tsaile",
    "state_code": "AZ",
    "placeMasterId": "P02500000FsoEa64lHa32NdCc8dS8IqoCVFVCS8s",
    "placeName": "tsaile",
    "state": "AZ"
  },
  {
    "city": "paguate",
    "state_code": "NM",
    "placeMasterId": "P02500000FsoFzqcPEN0yx4imF1u9e7GeneHPDKW",
    "placeName": "paguate",
    "state": "NM"
  },
  {
    "city": "albuquerque",
    "state_code": "NM",
    "placeMasterId": "P02500000FsoFyHJ9b0fLOT1rP66Ycj5SoodoNbU",
    "placeName": "albuquerque",
    "state": "NM"
  },
  {
    "city": "newcomb",
    "state_code": "NM",
    "placeMasterId": "P02500000FsoFzqcPEN0yx4imF1u9e7Aij9gFU5F",
    "placeName": "newcomb",
    "state": "NM"
  },
  {
    "city": "arroyo seco",
    "state_code": "NM",
    "placeMasterId": "P02500000FsoFyHJ9b0fLOT1rP66YcjCLkL7dTXb",
    "placeName": "arroyo seco",
    "state": "NM"
  },
  {
    "city": "chimayo",
    "state_code": "NM",
    "placeMasterId": "P02500000FsoFyZ06nnoulfWD0inORi1GqpAt10V",
    "placeName": "chimayo",
    "state": "NM"
  },
  {
    "city": "dulce",
    "state_code": "NM",
    "placeMasterId": "P02500000FsoFyhqaPCOhSGlNoX8oMCQooNBbK7t",
    "placeName": "dulce",
    "state": "NM"
  },
  {
    "city": "espanola",
    "state_code": "NM",
    "placeMasterId": "P02500000FsoFyqh40ayU8s0YcLUEGgnnMTGotrB",
    "placeName": "espanola",
    "state": "NM"
  },
  {
    "city": "hillsboro",
    "state_code": "NM",
    "placeMasterId": "P02500000FsoFyzXXbzYGpTFjQ9peBB9M6J1qusS",
    "placeName": "hillsboro",
    "state": "NM"
  },
  {
    "city": "house",
    "state_code": "NM",
    "placeMasterId": "P02500000FsoFz8O1DO83W4UuDyB45fLB5hjesqe",
    "placeName": "house",
    "state": "NM"
  },
  {
    "city": "artesia",
    "state_code": "NM",
    "placeMasterId": "P02500000FsoFyHJ9b0fLOT1rP66YcjBlEw0pQu6",
    "placeName": "artesia",
    "state": "NM"
  },
  {
    "city": "hobbs",
    "state_code": "NM",
    "placeMasterId": "P02500000FsoFyzXXbzYGpTFjQ9peBBAETdrr1I3",
    "placeName": "hobbs",
    "state": "NM"
  },
  {
    "city": "lake arthur",
    "state_code": "NM",
    "placeMasterId": "P02500000FsoFzHEUomhqCfk51mWU09pG2NkiE79",
    "placeName": "lake arthur",
    "state": "NM"
  },
  {
    "city": "north las vegas",
    "state_code": "NV",
    "placeMasterId": "P02500000FsoFuZIjuhevWqfKVz7gvzZ3kBq8jkB",
    "placeName": "north las vegas",
    "state": "NV"
  },
  {
    "city": "las vegas",
    "state_code": "NV",
    "placeMasterId": "P02500000FsoFuQSGJJ58qFQ9iAmH1VC0RKB5lYR",
    "placeName": "las vegas",
    "state": "NV"
  },
  {
    "city": "empire",
    "state_code": "NV",
    "placeMasterId": "P02500000FsoFuQSGJJ58qFQ9iAmH1V3PcEPSlo1",
    "placeName": "empire",
    "state": "NV"
  },
  {
    "city": "zephyr cove",
    "state_code": "NV",
    "placeMasterId": "P02500000FsoFuqzh7UoUu39g7boWkyL1LypsTJK",
    "placeName": "zephyr cove",
    "state": "NV"
  },
  {
    "city": "carson city",
    "state_code": "NV",
    "placeMasterId": "P02500000FsoFu8lJ6VvZT2vo6Y5RCWPoMg8UsQl",
    "placeName": "carson city",
    "state": "NV"
  },
  {
    "city": "centerville",
    "state_code": "WA",
    "placeMasterId": "P02500000FsoGydBoBEtVeyz0Ux4BmnUtidhemXt",
    "placeName": "centerville",
    "state": "WA"
  },
  {
    "city": "vancouver",
    "state_code": "WA",
    "placeMasterId": "P02500000FsoH1cxpqZ105b7fN0Jxv5AzaVoQseW",
    "placeName": "vancouver",
    "state": "WA"
  },
  {
    "city": "vancouver",
    "state_code": "WA",
    "placeMasterId": "P02500000FsoH1cxpqZ105b7fN0Jxv5AzaVoQseW",
    "placeName": "vancouver",
    "state": "WA"
  },
  {
    "city": "loomis",
    "state_code": "WA",
    "placeMasterId": "P02500000FsoGzuo6bo5ZqOBZjGAwzCpSK5p7ca8",
    "placeName": "loomis",
    "state": "WA"
  },
  {
    "city": "warden",
    "state_code": "WA",
    "placeMasterId": "P02500000FsoH1cxpqZ105b7fN0Jxv5GOghCwxor",
    "placeName": "warden",
    "state": "WA"
  },
  {
    "city": "waterville",
    "state_code": "WA",
    "placeMasterId": "P02500000FsoH1cxpqZ105b7fN0Jxv5JPkYxs9TF",
    "placeName": "waterville",
    "state": "WA"
  },
  {
    "city": "yakima",
    "state_code": "WA",
    "placeMasterId": "P02500000FsoH1loJRxammCMqAofNpZiywt4eY6R",
    "placeName": "yakima",
    "state": "WA"
  },
  {
    "city": "fairfield",
    "state_code": "WA",
    "placeMasterId": "P02500000FsoGzCZiapCePNxhiCRrQkyFehlqJ0J",
    "placeName": "fairfield",
    "state": "WA"
  },
  {
    "city": "spangle",
    "state_code": "WA",
    "placeMasterId": "P02500000FsoH1CQP2NHe1nO8xZHiBcGo8aPkyET",
    "placeName": "spangle",
    "state": "WA"
  },
  {
    "city": "grand coulee",
    "state_code": "WA",
    "placeMasterId": "P02500000FsoGzUGfncMDmaS3Jp8hFjfiHg48DVm",
    "placeName": "grand coulee",
    "state": "WA"
  },
  {
    "city": "loon lake",
    "state_code": "WA",
    "placeMasterId": "P02500000FsoGzuo6bo5ZqOBZjGAwzCrNhWE8uvD",
    "placeName": "loon lake",
    "state": "WA"
  },
  {
    "city": "newport",
    "state_code": "WA",
    "placeMasterId": "P02500000FsoH0UC11OOianAGwVYcdADMuSvarif",
    "placeName": "newport",
    "state": "WA"
  },
  {
    "city": "palouse",
    "state_code": "WA",
    "placeMasterId": "P02500000FsoH0d2UcmyVHOPRkJu2XepFyXsVh0d",
    "placeName": "palouse",
    "state": "WA"
  },
  {
    "city": "dayton",
    "state_code": "WA",
    "placeMasterId": "P02500000FsoGyuslO2352BTM6Zl1bmKaEcMz0cN",
    "placeName": "dayton",
    "state": "WA"
  },
  {
    "city": "mesa",
    "state_code": "WA",
    "placeMasterId": "P02500000FsoH0CV3obF9DafvKsrmoBcvwoTUKRR",
    "placeName": "mesa",
    "state": "WA"
  },
  {
    "city": "bethel",
    "state_code": "AK",
    "placeMasterId": "P02500000FsoEWFDrzsSppPauRi7qhckRO1jGD7t",
    "placeName": "bethel",
    "state": "AK"
  },
  {
    "city": "marshall",
    "state_code": "AK",
    "placeMasterId": "P02500000FsoEX6IjcFvXx13xGaCMAZ1of3hYxlO",
    "placeName": "marshall",
    "state": "AK"
  },
  {
    "city": "kenai",
    "state_code": "AK",
    "placeMasterId": "P02500000FsoEWobmPSlyZoZbexVWLaELVs5qLpa",
    "placeName": "kenai",
    "state": "AK"
  },
  {
    "city": "moose pass",
    "state_code": "AK",
    "placeMasterId": "P02500000FsoEX6IjcFvXx13xGaCMAZ1qqOEiih6",
    "placeName": "moose pass",
    "state": "AK"
  },
  {
    "city": "south naknek",
    "state_code": "AK",
    "placeMasterId": "P02500000FsoEXfge1qEghQ2eTpa1oWUakKZXO3P",
    "placeName": "south naknek",
    "state": "AK"
  },
  {
    "city": "fairbanks",
    "state_code": "AK",
    "placeMasterId": "P02500000FsoEWWupCfcPCc5G3KogWbX3A1nKP4z",
    "placeName": "fairbanks",
    "state": "AK"
  },
  {
    "city": "fairbanks",
    "state_code": "AK",
    "placeMasterId": "P02500000FsoEWWupCfcPCc5G3KogWbX3A1nKP4z",
    "placeName": "fairbanks",
    "state": "AK"
  },
  {
    "city": "gambell",
    "state_code": "AK",
    "placeMasterId": "P02500000FsoEWWupCfcPCc5G3KogWbXVH7pCbst",
    "placeName": "gambell",
    "state": "AK"
  },
  {
    "city": "shishmaref",
    "state_code": "AK",
    "placeMasterId": "P02500000FsoEXfge1qEghQ2eTpa1oWT9NZXeeVQ",
    "placeName": "shishmaref",
    "state": "AK"
  },
  {
    "city": "sitka",
    "state_code": "AK",
    "placeMasterId": "P02500000FsoEXfge1qEghQ2eTpa1oWShVd5PGnP",
    "placeName": "sitka",
    "state": "AK"
  },
  {
    "city": "point baker",
    "state_code": "AK",
    "placeMasterId": "P02500000FsoEXNzgp357KDYIsCtBzXlSnp1neTZ",
    "placeName": "point baker",
    "state": "AK"
  },
  {
    "city": "byron",
    "state_code": "GA",
    "placeMasterId": "P02500000FsoEvmjKxpmOowP6G3xenJI1YGSAMWT",
    "placeName": "byron",
    "state": "GA"
  },
  {
    "city": "allenhurst",
    "state_code": "GA",
    "placeMasterId": "P02500000FsoEvV2Nl2cpRjukeRGoyKVedDvh3sW",
    "placeName": "allenhurst",
    "state": "GA"
  },
  {
    "city": "alapaha",
    "state_code": "GA",
    "placeMasterId": "P02500000FsoEvV2Nl2cpRjukeRGoyKUx5Sp4MOv",
    "placeName": "alapaha",
    "state": "GA"
  },
  {
    "city": "valdosta",
    "state_code": "GA",
    "placeMasterId": "P02500000FsoEymVMd9ttFYXl87DQvb2eUneqOft",
    "placeName": "valdosta",
    "state": "GA"
  },
  {
    "city": "columbus",
    "state_code": "GA",
    "placeMasterId": "P02500000FsoEwDGlm1Vksk8cfUzuWmKM4R9DiHm",
    "placeName": "columbus",
    "state": "GA"
  },
  {
    "city": "macclenny",
    "state_code": "FL",
    "placeMasterId": "P02500000FsoEsmxJIVeuOKGRO0hsf1PiDJz256K",
    "placeName": "macclenny",
    "state": "FL"
  },
  {
    "city": "jacksonville",
    "state_code": "FL",
    "placeMasterId": "P02500000FsoEs4ivHWlyxK2ZMwyn6Zc9nJdRTGT",
    "placeName": "jacksonville",
    "state": "FL"
  },
  {
    "city": "jacksonville",
    "state_code": "FL",
    "placeMasterId": "P02500000FsoEs4ivHWlyxK2ZMwyn6Zc9nJdRTGT",
    "placeName": "jacksonville",
    "state": "FL"
  },
  {
    "city": "tallahassee",
    "state_code": "FL",
    "placeMasterId": "P02500000FsoEuV72XGaKdXCX1kqtatxuQPy6zAD",
    "placeName": "tallahassee",
    "state": "FL"
  },
  {
    "city": "caryville",
    "state_code": "FL",
    "placeMasterId": "P02500000FsoEqeG9FZ085JapKpWbzfthkOtOPxp",
    "placeName": "caryville",
    "state": "FL"
  },
  {
    "city": "greenwood",
    "state_code": "FL",
    "placeMasterId": "P02500000FsoEreBUTL2ctWJ2xVwXN6VOQOjS9xY",
    "placeName": "greenwood",
    "state": "FL"
  },
  {
    "city": "wewahitchka",
    "state_code": "FL",
    "placeMasterId": "P02500000FsoEv4UwwqtTNwBEF0EZErOnqoSjqfT",
    "placeName": "wewahitchka",
    "state": "FL"
  },
  {
    "city": "pensacola",
    "state_code": "FL",
    "placeMasterId": "P02500000FsoEte2Aut7cVvjUCsmO7xi1ABLGBK0",
    "placeName": "pensacola",
    "state": "FL"
  },
  {
    "city": "archer",
    "state_code": "FL",
    "placeMasterId": "P02500000FsoEq4sEpygzKuc87a8wLiQKXU7QhXM",
    "placeName": "archer",
    "state": "FL"
  },
  {
    "city": "chiefland",
    "state_code": "FL",
    "placeMasterId": "P02500000FsoEqn6cqxZuluq08ds1uAEbThbvk4M",
    "placeName": "chiefland",
    "state": "FL"
  },
  {
    "city": "gainesville",
    "state_code": "FL",
    "placeMasterId": "P02500000FsoErVL0rwSqCv3s9hb7Sc6QcwCAknl",
    "placeName": "gainesville",
    "state": "FL"
  },
  {
    "city": "newberry",
    "state_code": "FL",
    "placeMasterId": "P02500000FsoEtDUk6hOGS7zxnRk8OUXMjGRPnPK",
    "placeName": "newberry",
    "state": "FL"
  },
  {
    "city": "oak hill",
    "state_code": "FL",
    "placeMasterId": "P02500000FsoEtDUk6hOGS7zxnRk8OUacy3nsNV1",
    "placeName": "oak hill",
    "state": "FL"
  },
  {
    "city": "winter park",
    "state_code": "FL",
    "placeMasterId": "P02500000FsoEvDLQYFTG4XQP2oZz9LkillO9Ls8",
    "placeName": "winter park",
    "state": "FL"
  },
  {
    "city": "orlando",
    "state_code": "FL",
    "placeMasterId": "P02500000FsoEtVBhJUXppKUJP4QyDTHMDbz9uFq",
    "placeName": "orlando",
    "state": "FL"
  },
  {
    "city": "merritt island",
    "state_code": "FL",
    "placeMasterId": "P02500000FsoEsmxJIVeuOKGRO0hsf1SFpS75ADW",
    "placeName": "merritt island",
    "state": "FL"
  },
  {
    "city": "vero beach",
    "state_code": "FL",
    "placeMasterId": "P02500000FsoEuveTLSJghKw3RBt9KMzs5ZihiYU",
    "placeName": "vero beach",
    "state": "FL"
  },
  {
    "city": "miami",
    "state_code": "FL",
    "placeMasterId": "P02500000FsoEsvnmtuEh4vVcBp3IZVnnnRh03zn",
    "placeName": "miami",
    "state": "FL"
  },
  {
    "city": "miami",
    "state_code": "FL",
    "placeMasterId": "P02500000FsoEsvnmtuEh4vVcBp3IZVnnnRh03zn",
    "placeName": "miami",
    "state": "FL"
  },
  {
    "city": "miami",
    "state_code": "FL",
    "placeMasterId": "P02500000FsoEsvnmtuEh4vVcBp3IZVnnnRh03zn",
    "placeName": "miami",
    "state": "FL"
  },
  {
    "city": "miami",
    "state_code": "FL",
    "placeMasterId": "P02500000FsoEsvnmtuEh4vVcBp3IZVnnnRh03zn",
    "placeName": "miami",
    "state": "FL"
  },
  {
    "city": "boynton beach",
    "state_code": "FL",
    "placeMasterId": "P02500000FsoEqVPfeAQLOiLeX1BC5BTmvRaDTr1",
    "placeName": "boynton beach",
    "state": "FL"
  },
  {
    "city": "brandon",
    "state_code": "FL",
    "placeMasterId": "P02500000FsoEqMZC2lqYi76TjCpmAhAOwsNehnl",
    "placeName": "brandon",
    "state": "FL"
  },
  {
    "city": "sun city center",
    "state_code": "FL",
    "placeMasterId": "P02500000FsoEuV72XGaKdXCX1kqtatvPXJmhCT8",
    "placeName": "sun city center",
    "state": "FL"
  },
  {
    "city": "lake alfred",
    "state_code": "FL",
    "placeMasterId": "P02500000FsoEsMPsUJvYKWWuyZfcvYLGkYXj4ON",
    "placeName": "lake alfred",
    "state": "FL"
  },
  {
    "city": "polk city",
    "state_code": "FL",
    "placeMasterId": "P02500000FsoEtvj87gHBt8DpoVTDwwQJ6DlqNkc",
    "placeName": "polk city",
    "state": "FL"
  },
  {
    "city": "port charlotte",
    "state_code": "FL",
    "placeMasterId": "P02500000FsoEtmseWHhPCWyf0h7o2S6ULmS1eGT",
    "placeName": "port charlotte",
    "state": "FL"
  },
  {
    "city": "marco island",
    "state_code": "FL",
    "placeMasterId": "P02500000FsoEsmxJIVeuOKGRO0hsf1QLtNFO6qq",
    "placeName": "marco island",
    "state": "FL"
  },
  {
    "city": "englewood",
    "state_code": "FL",
    "placeMasterId": "P02500000FsoErDe3f9JGpiZWY4uHddMUcQowGUm",
    "placeName": "englewood",
    "state": "FL"
  },
  {
    "city": "venice",
    "state_code": "FL",
    "placeMasterId": "P02500000FsoEumnzk3ju0jgsdNXjPsez9qkz5am",
    "placeName": "venice",
    "state": "FL"
  },
  {
    "city": "venice",
    "state_code": "FL",
    "placeMasterId": "P02500000FsoEumnzk3ju0jgsdNXjPsez9qkz5am",
    "placeName": "venice",
    "state": "FL"
  },
  {
    "city": "ocala",
    "state_code": "FL",
    "placeMasterId": "P02500000FsoEtMLDi5y38jF8bG5YIyvCqOZlLNH",
    "placeName": "ocala",
    "state": "FL"
  },
  {
    "city": "holly pond",
    "state_code": "AL",
    "placeMasterId": "P02500000FsoEU6Whwvo3WOvIOWwa2HDq2v9tZIU",
    "placeName": "holly pond",
    "state": "AL"
  },
  {
    "city": "jemison",
    "state_code": "AL",
    "placeMasterId": "P02500000FsoEU6Whwvo3WOvIOWwa2HCs7NT3npe",
    "placeName": "jemison",
    "state": "AL"
  },
  {
    "city": "kimberly",
    "state_code": "AL",
    "placeMasterId": "P02500000FsoEUFNBYKNqD0ATCLHzwlZfQzaI6Pg",
    "placeName": "kimberly",
    "state": "AL"
  },
  {
    "city": "morris",
    "state_code": "AL",
    "placeMasterId": "P02500000FsoEUX48l7XPaCeonxyplkL8P7jqrZe",
    "placeName": "morris",
    "state": "AL"
  },
  {
    "city": "trafford",
    "state_code": "AL",
    "placeMasterId": "P02500000FsoEVfpxaI9h50cDESkB3fHSFaeWSfe",
    "placeName": "trafford",
    "state": "AL"
  },
  {
    "city": "birmingham",
    "state_code": "AL",
    "placeMasterId": "P02500000FsoESouPWMbzKzijADpoprrGKsxshig",
    "placeName": "birmingham",
    "state": "AL"
  },
  {
    "city": "birmingham",
    "state_code": "AL",
    "placeMasterId": "P02500000FsoESouPWMbzKzijADpoprrGKsxshig",
    "placeName": "birmingham",
    "state": "AL"
  },
  {
    "city": "brilliant",
    "state_code": "AL",
    "placeMasterId": "P02500000FsoESxkt7lBm1axty2BEkMElaT0GHsL",
    "placeName": "brilliant",
    "state": "AL"
  },
  {
    "city": "glen allen",
    "state_code": "AL",
    "placeMasterId": "P02500000FsoETfzH8k4hSbBlz5uKIo7AImikqSx",
    "placeName": "glen allen",
    "state": "AL"
  },
  {
    "city": "lynn",
    "state_code": "AL",
    "placeMasterId": "P02500000FsoEUODf9ixctbPe09dPrFyieVwCI14",
    "placeName": "lynn",
    "state": "AL"
  },
  {
    "city": "gaylesville",
    "state_code": "AL",
    "placeMasterId": "P02500000FsoETopkk8eU9CQwmuFkDIRQopKE1sV",
    "placeName": "gaylesville",
    "state": "AL"
  },
  {
    "city": "wetumpka",
    "state_code": "AL",
    "placeMasterId": "P02500000FsoEVxWun5JGSD6Yq5R0se0HV3b5H0y",
    "placeName": "wetumpka",
    "state": "AL"
  },
  {
    "city": "black",
    "state_code": "AL",
    "placeMasterId": "P02500000FsoESouPWMbzKzijADpoprtLHd2hQKa",
    "placeName": "black",
    "state": "AL"
  },
  {
    "city": "axis",
    "state_code": "AL",
    "placeMasterId": "P02500000FsoESouPWMbzKzijADpoprpyxH01ryj",
    "placeName": "axis",
    "state": "AL"
  },
  {
    "city": "mount vernon",
    "state_code": "AL",
    "placeMasterId": "P02500000FsoEUfucMW7CGntzbmKFgEgPtJUrjj1",
    "placeName": "mount vernon",
    "state": "AL"
  },
  {
    "city": "semmes",
    "state_code": "AL",
    "placeMasterId": "P02500000FsoEVO90NV07ho7rcq3LEgWKpAB3fDQ",
    "placeName": "semmes",
    "state": "AL"
  },
  {
    "city": "mobile",
    "state_code": "AL",
    "placeMasterId": "P02500000FsoEUX48l7XPaCeonxyplkKNMXCzpeH",
    "placeName": "mobile",
    "state": "AL"
  },
  {
    "city": "faunsdale",
    "state_code": "AL",
    "placeMasterId": "P02500000FsoETX8nXLUulzwbBHYuOJhR0u9IS2y",
    "placeName": "faunsdale",
    "state": "AL"
  },
  {
    "city": "cuba",
    "state_code": "AL",
    "placeMasterId": "P02500000FsoETFRqKYLLOnSFZes4ZKzPU3hewUe",
    "placeName": "cuba",
    "state": "AL"
  },
  {
    "city": "murfreesboro",
    "state_code": "TN",
    "placeMasterId": "P02500000FsoGhMm2CH3UWIMvHhGcXWWVtkn4xRN",
    "placeName": "murfreesboro",
    "state": "TN"
  },
  {
    "city": "petersburg",
    "state_code": "TN",
    "placeMasterId": "P02500000FsoGhVcVnfdHCtc65Vc2S0x82jRrUIG",
    "placeName": "petersburg",
    "state": "TN"
  },
  {
    "city": "wartrace",
    "state_code": "TN",
    "placeMasterId": "P02500000FsoGiDqtoeWCdtpy6ZL80Sfxk5kQyCj",
    "placeName": "wartrace",
    "state": "TN"
  },
  {
    "city": "nashville",
    "state_code": "TN",
    "placeMasterId": "P02500000FsoGhMm2CH3UWIMvHhGcXWZ0CJVUMa1",
    "placeName": "nashville",
    "state": "TN"
  },
  {
    "city": "sale creek",
    "state_code": "TN",
    "placeMasterId": "P02500000FsoGhnJT0Smqa66Rh8IsGzZCKch4Oc1",
    "placeName": "sale creek",
    "state": "TN"
  },
  {
    "city": "chattanooga",
    "state_code": "TN",
    "placeMasterId": "P02500000FsoGg59jlhrQKtAM3O9rL7CHHcMaKbF",
    "placeName": "chattanooga",
    "state": "TN"
  },
  {
    "city": "greeneville",
    "state_code": "TN",
    "placeMasterId": "P02500000FsoGgeXeBIAZ5I93GdXWz4h4GvgulyJ",
    "placeName": "greeneville",
    "state": "TN"
  },
  {
    "city": "newport",
    "state_code": "TN",
    "placeMasterId": "P02500000FsoGhMm2CH3UWIMvHhGcXWRRLYeLDgD",
    "placeName": "newport",
    "state": "TN"
  },
  {
    "city": "rutledge",
    "state_code": "TN",
    "placeMasterId": "P02500000FsoGheSzP4D3tUrGtJxSMVOyqS5Jm4h",
    "placeName": "rutledge",
    "state": "TN"
  },
  {
    "city": "trimble",
    "state_code": "TN",
    "placeMasterId": "P02500000FsoGhw9wbrMdGhLcUweIBU5PXtFgr4h",
    "placeName": "trimble",
    "state": "TN"
  },
  {
    "city": "finger",
    "state_code": "TN",
    "placeMasterId": "P02500000FsoGgVhAZtamOgtsSpC74aLEF72UiDR",
    "placeName": "finger",
    "state": "TN"
  },
  {
    "city": "medina",
    "state_code": "TN",
    "placeMasterId": "P02500000FsoGh554zTtv95sZg4ZmiY58U654zKL",
    "placeName": "medina",
    "state": "TN"
  },
  {
    "city": "savannah",
    "state_code": "TN",
    "placeMasterId": "P02500000FsoGheSzP4D3tUrGtJxSMVHsK6j0taC",
    "placeName": "savannah",
    "state": "TN"
  },
  {
    "city": "trenton",
    "state_code": "TN",
    "placeMasterId": "P02500000FsoGi50QDFwPxIanIkzi5yMKxUECOnY",
    "placeName": "trenton",
    "state": "TN"
  },
  {
    "city": "ardmore",
    "state_code": "TN",
    "placeMasterId": "P02500000FsoGfnSmYuhqxgg0RlT1W8QlaDfWlAB",
    "placeName": "ardmore",
    "state": "TN"
  },
  {
    "city": "lynnville",
    "state_code": "TN",
    "placeMasterId": "P02500000FsoGh554zTtv95sZg4ZmiXnseTp533C",
    "placeName": "lynnville",
    "state": "TN"
  },
  {
    "city": "abbeville",
    "state_code": "MS",
    "placeMasterId": "P02500000FsoFgRVTCSWBVNR4yavJjUgtw9vxIdB",
    "placeName": "abbeville",
    "state": "MS"
  },
  {
    "city": "crenshaw",
    "state_code": "MS",
    "placeMasterId": "P02500000FsoFh0tNc2pKFmPmBqIzNS8o5LMaStG",
    "placeName": "crenshaw",
    "state": "MS"
  },
  {
    "city": "new albany",
    "state_code": "MS",
    "placeMasterId": "P02500000FsoFhj7ld1iFgmdeCu24vuAfgzIIPZE",
    "placeName": "new albany",
    "state": "MS"
  },
  {
    "city": "shelby",
    "state_code": "MS",
    "placeMasterId": "P02500000FsoFi9fCRDRbkaNAcL4KfNGxoI9wQVy",
    "placeName": "shelby",
    "state": "MS"
  },
  {
    "city": "fulton",
    "state_code": "MS",
    "placeMasterId": "P02500000FsoFh9jrDRP6wNewzeePHwh2zgPhrNn",
    "placeName": "fulton",
    "state": "MS"
  },
  {
    "city": "mooreville",
    "state_code": "MS",
    "placeMasterId": "P02500000FsoFhj7ld1iFgmdeCu24vu68rwSNph8",
    "placeName": "mooreville",
    "state": "MS"
  },
  {
    "city": "mayersville",
    "state_code": "MS",
    "placeMasterId": "P02500000FsoFhj7ld1iFgmdeCu24vu4gFunpvM6",
    "placeName": "mayersville",
    "state": "MS"
  },
  {
    "city": "yazoo city",
    "state_code": "MS",
    "placeMasterId": "P02500000FsoFij36qnkkUzLrpaS0JKbhacPUxEl",
    "placeName": "yazoo city",
    "state": "MS"
  },
  {
    "city": "jackson",
    "state_code": "MS",
    "placeMasterId": "P02500000FsoFhRQoQEYgJa9IbHLF6vGkcb3WK7F",
    "placeName": "jackson",
    "state": "MS"
  },
  {
    "city": "hickory",
    "state_code": "MS",
    "placeMasterId": "P02500000FsoFhIaKopytcyu7nSzpCR0rrclENMU",
    "placeName": "hickory",
    "state": "MS"
  },
  {
    "city": "prentiss",
    "state_code": "MS",
    "placeMasterId": "P02500000FsoFi0oiporp3z7zoWiukspqSC2exRo",
    "placeName": "prentiss",
    "state": "MS"
  },
  {
    "city": "french camp",
    "state_code": "MS",
    "placeMasterId": "P02500000FsoFh9jrDRP6wNewzeePHwfLxmbPUMT",
    "placeName": "french camp",
    "state": "MS"
  },
  {
    "city": "cairo",
    "state_code": "GA",
    "placeMasterId": "P02500000FsoEvmjKxpmOowP6G3xenJEgo9jSewF",
    "placeName": "cairo",
    "state": "GA"
  },
  {
    "city": "brooks",
    "state_code": "KY",
    "placeMasterId": "P02500000FsoFNK5UNLAxQsdjJmdJdqvAVRiIcYr",
    "placeName": "brooks",
    "state": "KY"
  },
  {
    "city": "hardinsburg",
    "state_code": "KY",
    "placeMasterId": "P02500000FsoFOBALzidfYU6m8ehp6nJ1MFNRFzf",
    "placeName": "hardinsburg",
    "state": "KY"
  },
  {
    "city": "lexington",
    "state_code": "KY",
    "placeMasterId": "P02500000FsoFOkYGPIwoIt5TLu5UkkeaJQ4MXLq",
    "placeName": "lexington",
    "state": "KY"
  },
  {
    "city": "lexington",
    "state_code": "KY",
    "placeMasterId": "P02500000FsoFOkYGPIwoIt5TLu5UkkeaJQ4MXLq",
    "placeName": "lexington",
    "state": "KY"
  },
  {
    "city": "fort thomas",
    "state_code": "KY",
    "placeMasterId": "P02500000FsoFO2JsOK3srsrbKqMPCIuE2S2a7FF",
    "placeName": "fort thomas",
    "state": "KY"
  },
  {
    "city": "phelps",
    "state_code": "KY",
    "placeMasterId": "P02500000FsoFPB5hDUgAMgozlL7kUDp6WP6KBrC",
    "placeName": "phelps",
    "state": "KY"
  },
  {
    "city": "eddyville",
    "state_code": "KY",
    "placeMasterId": "P02500000FsoFNkcvBWuJUgNFjDfZNK5vDIA1Wd7",
    "placeName": "eddyville",
    "state": "KY"
  },
  {
    "city": "woodburn",
    "state_code": "KY",
    "placeMasterId": "P02500000FsoFQB12RGifAtXDO1XfreNccAmbZFs",
    "placeName": "woodburn",
    "state": "KY"
  },
  {
    "city": "harrisburg",
    "state_code": "OH",
    "placeMasterId": "P02500000FsoGF7BUlmm0TLuQCurs8WyKC1yIrp4",
    "placeName": "harrisburg",
    "state": "OH"
  },
  {
    "city": "washington court house",
    "state_code": "OH",
    "placeMasterId": "P02500000FsoGJFjLGHVmOm0TVSszYjptVKickVk",
    "placeName": "washington court house",
    "state": "OH"
  },
  {
    "city": "columbus",
    "state_code": "OH",
    "placeMasterId": "P02500000FsoGDyPfwc9iyXx1mQ6Wqc0NMzPNh3d",
    "placeName": "columbus",
    "state": "OH"
  },
  {
    "city": "columbus",
    "state_code": "OH",
    "placeMasterId": "P02500000FsoGDyPfwc9iyXx1mQ6Wqc0NMzPNh3d",
    "placeName": "columbus",
    "state": "OH"
  },
  {
    "city": "columbus",
    "state_code": "OH",
    "placeMasterId": "P02500000FsoGDyPfwc9iyXx1mQ6Wqc0NMzPNh3d",
    "placeName": "columbus",
    "state": "OH"
  },
  {
    "city": "huntsville",
    "state_code": "OH",
    "placeMasterId": "P02500000FsoGFXivZyVMX9dwcLu7s08Vlscpu7D",
    "placeName": "huntsville",
    "state": "OH"
  },
  {
    "city": "lewistown",
    "state_code": "OH",
    "placeMasterId": "P02500000FsoGFyGMOAEiaxNT1mwNbTDmivFtVX0",
    "placeName": "lewistown",
    "state": "OH"
  },
  {
    "city": "zanesfield",
    "state_code": "OH",
    "placeMasterId": "P02500000FsoGJgGm4TF8SZjzutvFICwlUyMB4iR",
    "placeName": "zanesfield",
    "state": "OH"
  },
  {
    "city": "weston",
    "state_code": "OH",
    "placeMasterId": "P02500000FsoGJOZorg5Z5NFeJHEPTE64iPls9U1",
    "placeName": "weston",
    "state": "OH"
  },
  {
    "city": "west unity",
    "state_code": "OH",
    "placeMasterId": "P02500000FsoGJXQIT4fLlyUp75ZpNiUcJGN540v",
    "placeName": "west unity",
    "state": "OH"
  },
  {
    "city": "philo",
    "state_code": "OH",
    "placeMasterId": "P02500000FsoGHgQ5cvA8qAJYfX5OXLeRr3bu6Fl",
    "placeName": "philo",
    "state": "OH"
  },
  {
    "city": "frazeysburg",
    "state_code": "OH",
    "placeMasterId": "P02500000FsoGEge3xb2ePYAtnTpcP3v2S9StKS2",
    "placeName": "frazeysburg",
    "state": "OH"
  },
  {
    "city": "brilliant",
    "state_code": "OH",
    "placeMasterId": "P02500000FsoGDP1lX1qaE8yKZAirCeX0nGyCgkl",
    "placeName": "brilliant",
    "state": "OH"
  },
  {
    "city": "empire",
    "state_code": "OH",
    "placeMasterId": "P02500000FsoGEXnaMCSriwvizfUCUZWPNO96Cy8",
    "placeName": "empire",
    "state": "OH"
  },
  {
    "city": "martins ferry",
    "state_code": "OH",
    "placeMasterId": "P02500000FsoGGOnnCLy4el6zRDydKwFTtJUWN6K",
    "placeName": "martins ferry",
    "state": "OH"
  },
  {
    "city": "neffs",
    "state_code": "OH",
    "placeMasterId": "P02500000FsoGGyBhbwHDPA5geTMIytmcBVkgo38",
    "placeName": "neffs",
    "state": "OH"
  },
  {
    "city": "summitville",
    "state_code": "OH",
    "placeMasterId": "P02500000FsoGIpBuS5mQKyGx61qjpGfmjREMGXZ",
    "placeName": "summitville",
    "state": "OH"
  },
  {
    "city": "flushing",
    "state_code": "OH",
    "placeMasterId": "P02500000FsoGEXnaMCSriwvizfUCUZb71nwQQwc",
    "placeName": "flushing",
    "state": "OH"
  },
  {
    "city": "oberlin",
    "state_code": "OH",
    "placeMasterId": "P02500000FsoGHFseojQmmMa2G638nsgXDp0quMc",
    "placeName": "oberlin",
    "state": "OH"
  },
  {
    "city": "orwell",
    "state_code": "OH",
    "placeMasterId": "P02500000FsoGHOj8Q80ZSxpD3uOYiN5jlbPHH1i",
    "placeName": "orwell",
    "state": "OH"
  },
  {
    "city": "cleveland",
    "state_code": "OH",
    "placeMasterId": "P02500000FsoGDpZCLDZwHwhqybl6w7hFiW8c2lu",
    "placeName": "cleveland",
    "state": "OH"
  },
  {
    "city": "cuyahoga falls",
    "state_code": "OH",
    "placeMasterId": "P02500000FsoGE7G9Y0jVf9CCaERwl6M3RRSYDZI",
    "placeName": "cuyahoga falls",
    "state": "OH"
  },
  {
    "city": "akron",
    "state_code": "OH",
    "placeMasterId": "P02500000FsoGCXwtueNs6XVHkIeLjiMh8uljxTa",
    "placeName": "akron",
    "state": "OH"
  },
  {
    "city": "cortland",
    "state_code": "OH",
    "placeMasterId": "P02500000FsoGDyPfwc9iyXx1mQ6Wqbw9HM6IKK1",
    "placeName": "cortland",
    "state": "OH"
  },
  {
    "city": "new middletown",
    "state_code": "OH",
    "placeMasterId": "P02500000FsoGH72BDKr05lKrSHhitOABix3CUnd",
    "placeName": "new middletown",
    "state": "OH"
  },
  {
    "city": "youngstown",
    "state_code": "OH",
    "placeMasterId": "P02500000FsoGJgGm4TF8SZjzutvFICtONAHpkmb",
    "placeName": "youngstown",
    "state": "OH"
  },
  {
    "city": "canal fulton",
    "state_code": "OH",
    "placeMasterId": "P02500000FsoGDXsF8QQMukDVMz4H78wBH9jT6Hq",
    "placeName": "canal fulton",
    "state": "OH"
  },
  {
    "city": "sherrodsville",
    "state_code": "OH",
    "placeMasterId": "P02500000FsoGIOeTdu34HAXQgaoU5ngP0KvZ3Ks",
    "placeName": "sherrodsville",
    "state": "OH"
  },
  {
    "city": "canton",
    "state_code": "OH",
    "placeMasterId": "P02500000FsoGDXsF8QQMukDVMz4H790las5R4Gr",
    "placeName": "canton",
    "state": "OH"
  },
  {
    "city": "mansfield",
    "state_code": "OH",
    "placeMasterId": "P02500000FsoGGFxJaxOHy9rodPdDQRzT3egLih6",
    "placeName": "mansfield",
    "state": "OH"
  },
  {
    "city": "college corner",
    "state_code": "OH",
    "placeMasterId": "P02500000FsoGDyPfwc9iyXx1mQ6WqbzXbewUtAi",
    "placeName": "college corner",
    "state": "OH"
  },
  {
    "city": "middletown",
    "state_code": "OH",
    "placeMasterId": "P02500000FsoGGXeGnkXrLMMAF2K3FQfafL8Aw7C",
    "placeName": "middletown",
    "state": "OH"
  },
  {
    "city": "martinsville",
    "state_code": "OH",
    "placeMasterId": "P02500000FsoGGOnnCLy4el6zRDydKwPNGcUkHgx",
    "placeName": "martinsville",
    "state": "OH"
  },
  {
    "city": "neville",
    "state_code": "OH",
    "placeMasterId": "P02500000FsoGGpLE0XhQiYqVqf0t4PZ2c1uDZb6",
    "placeName": "neville",
    "state": "OH"
  },
  {
    "city": "cincinnati",
    "state_code": "OH",
    "placeMasterId": "P02500000FsoGDpZCLDZwHwhqybl6w7e8Lps6H4x",
    "placeName": "cincinnati",
    "state": "OH"
  },
  {
    "city": "cincinnati",
    "state_code": "OH",
    "placeMasterId": "P02500000FsoGDpZCLDZwHwhqybl6w7e8Lps6H4x",
    "placeName": "cincinnati",
    "state": "OH"
  },
  {
    "city": "cincinnati",
    "state_code": "OH",
    "placeMasterId": "P02500000FsoGDpZCLDZwHwhqybl6w7e8Lps6H4x",
    "placeName": "cincinnati",
    "state": "OH"
  },
  {
    "city": "north hampton",
    "state_code": "OH",
    "placeMasterId": "P02500000FsoGH72BDKr05lKrSHhitOIFnT1IbFH",
    "placeName": "north hampton",
    "state": "OH"
  },
  {
    "city": "dayton",
    "state_code": "OH",
    "placeMasterId": "P02500000FsoGE7G9Y0jVf9CCaERwl6OdIDcWstb",
    "placeName": "dayton",
    "state": "OH"
  },
  {
    "city": "cherry fork",
    "state_code": "OH",
    "placeMasterId": "P02500000FsoGDgiijp09bLSgAnPh1dDSMaFKUMg",
    "placeName": "cherry fork",
    "state": "OH"
  },
  {
    "city": "jackson",
    "state_code": "OH",
    "placeMasterId": "P02500000FsoGFXivZyVMX9dwcLu7s086iChLvjP",
    "placeName": "jackson",
    "state": "OH"
  },
  {
    "city": "mcarthur",
    "state_code": "OH",
    "placeMasterId": "P02500000FsoGGFxJaxOHy9rodPdDQRtxp2pC7Mt",
    "placeName": "mcarthur",
    "state": "OH"
  },
  {
    "city": "middleport",
    "state_code": "OH",
    "placeMasterId": "P02500000FsoGGOnnCLy4el6zRDydKwRf6ob3Njb",
    "placeName": "middleport",
    "state": "OH"
  },
  {
    "city": "stewart",
    "state_code": "OH",
    "placeMasterId": "P02500000FsoGIgLQqhCdeN1mIDVJumJbRrozhc2",
    "placeName": "stewart",
    "state": "OH"
  },
  {
    "city": "elwood",
    "state_code": "IN",
    "placeMasterId": "P02500000FsoFA3N5HTUvX0sWbGVRuIMTZgFulBh",
    "placeName": "elwood",
    "state": "IN"
  },
  {
    "city": "rolling prairie",
    "state_code": "IN",
    "placeMasterId": "P02500000FsoFC3Dlj1Zv9QIxqdLIf9ZTifmnqtL",
    "placeName": "rolling prairie",
    "state": "IN"
  },
  {
    "city": "monroe",
    "state_code": "IN",
    "placeMasterId": "P02500000FsoFBC8u6e7D1opv1lGnCDNhrahfMhX",
    "placeName": "monroe",
    "state": "IN"
  },
  {
    "city": "waterloo",
    "state_code": "IN",
    "placeMasterId": "P02500000FsoFCcbg8bt3tpHf3siyJ74ieygVZ6M",
    "placeName": "waterloo",
    "state": "IN"
  },
  {
    "city": "marion",
    "state_code": "IN",
    "placeMasterId": "P02500000FsoFB3IQVFXQLDakDwvNHixP4HZSRQd",
    "placeName": "marion",
    "state": "IN"
  },
  {
    "city": "matthews",
    "state_code": "IN",
    "placeMasterId": "P02500000FsoFB3IQVFXQLDakDwvNHj0r3zsq2I4",
    "placeName": "matthews",
    "state": "IN"
  },
  {
    "city": "silver lake",
    "state_code": "IN",
    "placeMasterId": "P02500000FsoFCC4FKQ9hq1Y8eRgiZdxP85asN1X",
    "placeName": "silver lake",
    "state": "IN"
  },
  {
    "city": "sweetser",
    "state_code": "IN",
    "placeMasterId": "P02500000FsoFCKuivojUWcnJSG28U8OAeYz6W0y",
    "placeName": "sweetser",
    "state": "IN"
  },
  {
    "city": "new middletown",
    "state_code": "IN",
    "placeMasterId": "P02500000FsoFBTprJRGmP1KGdNxd1C6O9Ny9ysi",
    "placeName": "new middletown",
    "state": "IN"
  },
  {
    "city": "vernon",
    "state_code": "IN",
    "placeMasterId": "P02500000FsoFCTlCXDJHDE2UG4NYOcjjoikMwJJ",
    "placeName": "vernon",
    "state": "IN"
  },
  {
    "city": "portland",
    "state_code": "IN",
    "placeMasterId": "P02500000FsoFBlWoWEQLmDocF0eSqApd8BKvimu",
    "placeName": "portland",
    "state": "IN"
  },
  {
    "city": "mitchell",
    "state_code": "IN",
    "placeMasterId": "P02500000FsoFBKzNi2gziQ55pZcD6hhfOZdF0tO",
    "placeName": "mitchell",
    "state": "IN"
  },
  {
    "city": "ferdinand",
    "state_code": "IN",
    "placeMasterId": "P02500000FsoFA3N5HTUvX0sWbGVRuINkaBnZqn1",
    "placeName": "ferdinand",
    "state": "IN"
  },
  {
    "city": "tell city",
    "state_code": "IN",
    "placeMasterId": "P02500000FsoFCKuivojUWcnJSG28U8Nxc2mbmX9",
    "placeName": "tell city",
    "state": "IN"
  },
  {
    "city": "carlisle",
    "state_code": "IN",
    "placeMasterId": "P02500000FsoF9TzArtBmmbtpO17mGKs733YX2ag",
    "placeName": "carlisle",
    "state": "IN"
  },
  {
    "city": "staunton",
    "state_code": "IN",
    "placeMasterId": "P02500000FsoFCTlCXDJHDE2UG4NYOcgKN6FoFrC",
    "placeName": "staunton",
    "state": "IN"
  },
  {
    "city": "sullivan",
    "state_code": "IN",
    "placeMasterId": "P02500000FsoFCKuivojUWcnJSG28U8LCG7BmRlS",
    "placeName": "sullivan",
    "state": "IN"
  },
  {
    "city": "brook",
    "state_code": "IN",
    "placeMasterId": "P02500000FsoF9L8hGUc060eeaCmMLqXM7U7Se7t",
    "placeName": "brook",
    "state": "IN"
  },
  {
    "city": "eastpointe",
    "state_code": "MI",
    "placeMasterId": "P02500000FsoFYAPmDT2deXEyNUt4t5IjVJx1rAl",
    "placeName": "eastpointe",
    "state": "MI"
  },
  {
    "city": "troy",
    "state_code": "MI",
    "placeMasterId": "P02500000FsoFajeN4bQm1Le6q76bHtosaoXIJU9",
    "placeName": "troy",
    "state": "MI"
  },
  {
    "city": "monroe",
    "state_code": "MI",
    "placeMasterId": "P02500000FsoFZasYFQoUWXgiPcLFzz3GVkMkBTY",
    "placeName": "monroe",
    "state": "MI"
  },
  {
    "city": "south lyon",
    "state_code": "MI",
    "placeMasterId": "P02500000FsoFaRxProHCe99lEUPlSvHwpSuZnxV",
    "placeName": "south lyon",
    "state": "MI"
  },
  {
    "city": "ypsilanti",
    "state_code": "MI",
    "placeMasterId": "P02500000FsoFb1LKHOaLOY8SRjnR6sgkjopy4mb",
    "placeName": "ypsilanti",
    "state": "MI"
  },
  {
    "city": "river rouge",
    "state_code": "MI",
    "placeMasterId": "P02500000FsoFaJ6wGPhPxXuaQg4LYQmrbU8027e",
    "placeName": "river rouge",
    "state": "MI"
  },
  {
    "city": "applegate",
    "state_code": "MI",
    "placeMasterId": "P02500000FsoFXAUQzh08qKWkkoT9VedmUDygQbQ",
    "placeName": "applegate",
    "state": "MI"
  },
  {
    "city": "grand blanc",
    "state_code": "MI",
    "placeMasterId": "P02500000FsoFYaxD1elziKyUmvvKcYFMBpvl62A",
    "placeName": "grand blanc",
    "state": "MI"
  },
  {
    "city": "swartz creek",
    "state_code": "MI",
    "placeMasterId": "P02500000FsoFajeN4bQm1Le6q76bHtrhF1jHU1Y",
    "placeName": "swartz creek",
    "state": "MI"
  },
  {
    "city": "flint",
    "state_code": "MI",
    "placeMasterId": "P02500000FsoFYJGForcQL8U9BJEUnZe6ic6ZYjH",
    "placeName": "flint",
    "state": "MI"
  },
  {
    "city": "midland",
    "state_code": "MI",
    "placeMasterId": "P02500000FsoFZasYFQoUWXgiPcLFzyydRElbHy8",
    "placeName": "midland",
    "state": "MI"
  },
  {
    "city": "lansing",
    "state_code": "MI",
    "placeMasterId": "P02500000FsoFZAL7RF58SjxC0BJ0GVtzoDUs0q2",
    "placeName": "lansing",
    "state": "MI"
  },
  {
    "city": "kalamazoo",
    "state_code": "MI",
    "placeMasterId": "P02500000FsoFZ1UdpqVLm8i1CMxaM1Y4EtACkYj",
    "placeName": "kalamazoo",
    "state": "MI"
  },
  {
    "city": "bangor",
    "state_code": "MI",
    "placeMasterId": "P02500000FsoFXAUQzh08qKWkkoT9VejU8ff6Nd3",
    "placeName": "bangor",
    "state": "MI"
  },
  {
    "city": "coldwater",
    "state_code": "MI",
    "placeMasterId": "P02500000FsoFXsip0ft4HKkclsCF46VJmCmyLKt",
    "placeName": "coldwater",
    "state": "MI"
  },
  {
    "city": "covert",
    "state_code": "MI",
    "placeMasterId": "P02500000FsoHiZjYOskMuPn7CQIlAX6yBS0gYCP",
    "placeName": "covert",
    "state": "MI"
  },
  {
    "city": "decatur",
    "state_code": "MI",
    "placeMasterId": "P02500000FsoFY1ZIc4SqxvznZgXeyalTf8sR1xX",
    "placeName": "decatur",
    "state": "MI"
  },
  {
    "city": "kalamazoo",
    "state_code": "MI",
    "placeMasterId": "P02500000FsoFZ1UdpqVLm8i1CMxaM1Y4EtACkYj",
    "placeName": "kalamazoo",
    "state": "MI"
  },
  {
    "city": "fulton",
    "state_code": "MI",
    "placeMasterId": "P02500000FsoHjQoQ1GD521GA1INGdTLKnqyBsUX",
    "placeName": "fulton",
    "state": "MI"
  },
  {
    "city": "otsego",
    "state_code": "MI",
    "placeMasterId": "P02500000FsoFZsZVSDy3tkB41F25oxfyHio9gmG",
    "placeName": "otsego",
    "state": "MI"
  },
  {
    "city": "paw paw",
    "state_code": "MI",
    "placeMasterId": "P02500000FsoFa1Pz3cXqaLQEp3NVjRyrN5kM6sr",
    "placeName": "paw paw",
    "state": "MI"
  },
  {
    "city": "riga",
    "state_code": "MI",
    "placeMasterId": "P02500000FsoHmiHOtNU8pptAUyJsajq8EvBxeY3",
    "placeName": "riga",
    "state": "MI"
  },
  {
    "city": "dorr",
    "state_code": "MI",
    "placeMasterId": "P02500000FsoHirQVbftwHcHSo2zazVjXGELJ5f6",
    "placeName": "dorr",
    "state": "MI"
  },
  {
    "city": "morley",
    "state_code": "MI",
    "placeMasterId": "P02500000FsoFZasYFQoUWXgiPcLFzz6GGE6SJVx",
    "placeName": "morley",
    "state": "MI"
  },
  {
    "city": "holland",
    "state_code": "MI",
    "placeMasterId": "P02500000FsoFYjngd3LmOwDfakGkX2k5V3FcLjc",
    "placeName": "holland",
    "state": "MI"
  },
  {
    "city": "whitehall",
    "state_code": "MI",
    "placeMasterId": "P02500000FsoFasUqg00YhwtHdvS1CON8ANqF6vL",
    "placeName": "whitehall",
    "state": "MI"
  },
  {
    "city": "zeeland",
    "state_code": "MI",
    "placeMasterId": "P02500000FsoFb1LKHOaLOY8SRjnR6scyTTBcLtJ",
    "placeName": "zeeland",
    "state": "MI"
  },
  {
    "city": "gaylord",
    "state_code": "MI",
    "placeMasterId": "P02500000FsoFYS6jQGCD1jjJz7Zui411WvIUALh",
    "placeName": "gaylord",
    "state": "MI"
  },
  {
    "city": "rudyard",
    "state_code": "MI",
    "placeMasterId": "P02500000FsoHmr7sUm3vWR8LImfIVEHYUvriwlG",
    "placeName": "rudyard",
    "state": "MI"
  },
  {
    "city": "vanderbilt",
    "state_code": "MI",
    "placeMasterId": "P02500000FsoFasUqg00YhwtHdvS1COBQR7TKDFI",
    "placeName": "vanderbilt",
    "state": "MI"
  },
  {
    "city": "norway",
    "state_code": "MI",
    "placeMasterId": "P02500000FsoFZsZVSDy3tkB41F25oxdGyhriXiJ",
    "placeName": "norway",
    "state": "MI"
  },
  {
    "city": "alpha",
    "state_code": "MI",
    "placeMasterId": "P02500000FsoFXAUQzh08qKWkkoT9VeeKhuImX3J",
    "placeName": "alpha",
    "state": "MI"
  },
  {
    "city": "lineville",
    "state_code": "IA",
    "placeMasterId": "P02500000FsoFG2v8c7juOF9qLN10As2ntlqEO7N",
    "placeName": "lineville",
    "state": "IA"
  },
  {
    "city": "new sharon",
    "state_code": "IA",
    "placeMasterId": "P02500000FsoFGu00EVCcVqctAF5VdoDEvMDiT3d",
    "placeName": "new sharon",
    "state": "IA"
  },
  {
    "city": "williamson",
    "state_code": "IA",
    "placeMasterId": "P02500000FsoFItqgg3Hc8G3KPbvMOfR9Tokcx6e",
    "placeName": "williamson",
    "state": "IA"
  },
  {
    "city": "woodburn",
    "state_code": "IA",
    "placeMasterId": "P02500000FsoFItqgg3Hc8G3KPbvMOfYzjyJMQpx",
    "placeName": "woodburn",
    "state": "IA"
  },
  {
    "city": "des moines",
    "state_code": "IA",
    "placeMasterId": "P02500000FsoFETbsylOGpdSvVRDP9Ttytdspgxt",
    "placeName": "des moines",
    "state": "IA"
  },
  {
    "city": "crystal lake",
    "state_code": "IA",
    "placeMasterId": "P02500000FsoFEKlPNMoU92DkhcrzEzUoldmFxxj",
    "placeName": "crystal lake",
    "state": "IA"
  },
  {
    "city": "havelock",
    "state_code": "IA",
    "placeMasterId": "P02500000FsoFFKgkb8qyxEvyKJHucQ8EXGRTaW7",
    "placeName": "havelock",
    "state": "IA"
  },
  {
    "city": "fairbank",
    "state_code": "IA",
    "placeMasterId": "P02500000FsoFElIqBYXqCpxH73uEySeM9ha3ObR",
    "placeName": "fairbank",
    "state": "IA"
  },
  {
    "city": "spirit lake",
    "state_code": "IA",
    "placeMasterId": "P02500000FsoFI2lp3fou0eaHajqqvjCy0pZTdWs",
    "placeName": "spirit lake",
    "state": "IA"
  },
  {
    "city": "odebolt",
    "state_code": "IA",
    "placeMasterId": "P02500000FsoFH2qTptmPCRs3y3QvYIa1fHjYrAv",
    "placeName": "odebolt",
    "state": "IA"
  },
  {
    "city": "pacific junction",
    "state_code": "IA",
    "placeMasterId": "P02500000FsoFHBgxRIMBt37ElrmLSmyehTWmeKW",
    "placeName": "pacific junction",
    "state": "IA"
  },
  {
    "city": "essex",
    "state_code": "IA",
    "placeMasterId": "P02500000FsoFElIqBYXqCpxH73uEySbjSkxKLna",
    "placeName": "essex",
    "state": "IA"
  },
  {
    "city": "guttenberg",
    "state_code": "IA",
    "placeMasterId": "P02500000FsoFFBqGzkHCGdgnWUwUhvlvr9UqOPj",
    "placeName": "guttenberg",
    "state": "IA"
  },
  {
    "city": "worthington",
    "state_code": "IA",
    "placeMasterId": "P02500000FsoFItqgg3Hc8G3KPbvMOfUqYU0DRBj",
    "placeName": "worthington",
    "state": "IA"
  },
  {
    "city": "atkins",
    "state_code": "IA",
    "placeMasterId": "P02500000FsoFDBzaYCCCeEGMH86dx4a7njPq3k2",
    "placeName": "atkins",
    "state": "IA"
  },
  {
    "city": "hiawatha",
    "state_code": "IA",
    "placeMasterId": "P02500000FsoFFKgkb8qyxEvyKJHucQ9G9WYX37d",
    "placeName": "hiawatha",
    "state": "IA"
  },
  {
    "city": "iowa city",
    "state_code": "IA",
    "placeMasterId": "P02500000FsoFFcNhnw0YKRQJvvykROrtaLOFPrR",
    "placeName": "iowa city",
    "state": "IA"
  },
  {
    "city": "swisher",
    "state_code": "IA",
    "placeMasterId": "P02500000FsoFIKSmGSyTNr4dCMXgkhuBTG7iEme",
    "placeName": "swisher",
    "state": "IA"
  },
  {
    "city": "walker",
    "state_code": "IA",
    "placeMasterId": "P02500000FsoFIc9jTG82l3YynzEWZgjOgWbcv6S",
    "placeName": "walker",
    "state": "IA"
  },
  {
    "city": "glenbeulah",
    "state_code": "WI",
    "placeMasterId": "P02500000FsoH5lVgL3km11DifYL5LI5T4mH2upE",
    "placeName": "glenbeulah",
    "state": "WI"
  },
  {
    "city": "pewaukee",
    "state_code": "WI",
    "placeMasterId": "P02500000FsoH7KovyQ6PZcudVU8gMg2wGNriBSo",
    "placeName": "pewaukee",
    "state": "WI"
  },
  {
    "city": "union grove",
    "state_code": "WI",
    "placeMasterId": "P02500000FsoH8BtnanZ7hENgKMDBpcQvB5yr2MP",
    "placeName": "union grove",
    "state": "WI"
  },
  {
    "city": "waterford",
    "state_code": "WI",
    "placeMasterId": "P02500000FsoHFbucxPZxQT6k6aAvD5jsw220e5U",
    "placeName": "waterford",
    "state": "WI"
  },
  {
    "city": "milwaukee",
    "state_code": "WI",
    "placeMasterId": "P02500000FsoH6lR1YpnGpDvwIEl0iig1pZrPtxd",
    "placeName": "milwaukee",
    "state": "WI"
  },
  {
    "city": "deforest",
    "state_code": "WI",
    "placeMasterId": "P02500000FsoH5KyFWs1PxDUCG7Ipboptr9xBTmN",
    "placeName": "deforest",
    "state": "WI"
  },
  {
    "city": "south wayne",
    "state_code": "WI",
    "placeMasterId": "P02500000FsoH7uCqO0PYK1tKijWM0dmaE5MaWVy",
    "placeName": "south wayne",
    "state": "WI"
  },
  {
    "city": "madison",
    "state_code": "WI",
    "placeMasterId": "P02500000FsoH6caXxRDU8cglUQPaoEDC1yqNdF5",
    "placeName": "madison",
    "state": "WI"
  },
  {
    "city": "brandon",
    "state_code": "WI",
    "placeMasterId": "P02500000FsoH4cjrVt8UWDGKF3Zk3N8v0XXDSKR",
    "placeName": "brandon",
    "state": "WI"
  },
  {
    "city": "friesland",
    "state_code": "WI",
    "placeMasterId": "P02500000FsoH5lVgL3km11DifYL5LHyUuP6TznR",
    "placeName": "friesland",
    "state": "WI"
  },
  {
    "city": "collins",
    "state_code": "WI",
    "placeMasterId": "P02500000FsoH53HIK4rqa0zqeUbzmqKVSIkecuG",
    "placeName": "collins",
    "state": "WI"
  },
  {
    "city": "lac du flambeau",
    "state_code": "WI",
    "placeMasterId": "P02500000FsoHG2S3lbJJUGqGW1DAwYjZZek4nuh",
    "placeName": "lac du flambeau",
    "state": "WI"
  },
  {
    "city": "mellen",
    "state_code": "WI",
    "placeMasterId": "P02500000FsoH6caXxRDU8cglUQPaoEPny7COVZC",
    "placeName": "mellen",
    "state": "WI"
  },
  {
    "city": "ettrick",
    "state_code": "WI",
    "placeMasterId": "P02500000FsoHFtbaACjWnfb5iCrl24Kn7n3RStd",
    "placeName": "ettrick",
    "state": "WI"
  },
  {
    "city": "bloomer",
    "state_code": "WI",
    "placeMasterId": "P02500000FsoH4cjrVt8UWDGKF3Zk3N4efVZomD1",
    "placeName": "bloomer",
    "state": "WI"
  },
  {
    "city": "boyceville",
    "state_code": "WI",
    "placeMasterId": "P02500000FsoH4cjrVt8UWDGKF3Zk3N9LL35WLlX",
    "placeName": "boyceville",
    "state": "WI"
  },
  {
    "city": "downing",
    "state_code": "WI",
    "placeMasterId": "P02500000FsoH5KyFWs1PxDUCG7Ipbp0MQtBALij",
    "placeName": "downing",
    "state": "WI"
  },
  {
    "city": "dale",
    "state_code": "WI",
    "placeMasterId": "P02500000FsoIge4ZKljyBJpTRHjhklKUBNFVjxO",
    "placeName": "dale",
    "state": "WI"
  },
  {
    "city": "wild rose",
    "state_code": "WI",
    "placeMasterId": "P02500000FsoH8Taknaih4Qs1vyu1ebA65bztUeD",
    "placeName": "wild rose",
    "state": "WI"
  },
  {
    "city": "wyoming",
    "state_code": "MN",
    "placeMasterId": "P02500000FsoFgRVTCSWBVNR4yavJjUfo7xflUpZ",
    "placeName": "wyoming",
    "state": "MN"
  },
  {
    "city": "albertville",
    "state_code": "MN",
    "placeMasterId": "P02500000FsoFb1LKHOaLOY8SRjnR6slSiPuf1uW",
    "placeName": "albertville",
    "state": "MN"
  },
  {
    "city": "anoka",
    "state_code": "MN",
    "placeMasterId": "P02500000FsoFbABnsnA859NdFY8r1N1nTXE5e6i",
    "placeName": "anoka",
    "state": "MN"
  },
  {
    "city": "andover",
    "state_code": "MN",
    "placeMasterId": "P02500000FsoFbABnsnA859NdFY8r1NBaPtY8QkR",
    "placeName": "andover",
    "state": "MN"
  },
  {
    "city": "glencoe",
    "state_code": "MN",
    "placeMasterId": "P02500000FsoFd1C0iwfL0xYth6dHrjmStuYnLUO",
    "placeName": "glencoe",
    "state": "MN"
  },
  {
    "city": "green isle",
    "state_code": "MN",
    "placeMasterId": "P02500000FsoFdA2UKLF7hYo4UuyhmECnRKE86os",
    "placeName": "green isle",
    "state": "MN"
  },
  {
    "city": "jordan",
    "state_code": "MN",
    "placeMasterId": "P02500000FsoFdaZv8WyTlMXauM0xVhMDaLkywhQ",
    "placeName": "jordan",
    "state": "MN"
  },
  {
    "city": "savage",
    "state_code": "MN",
    "placeMasterId": "P02500000FsoFfaQba53TNly29iqoGYTpQKF6Tww",
    "placeName": "savage",
    "state": "MN"
  },
  {
    "city": "minneapolis",
    "state_code": "MN",
    "placeMasterId": "P02500000FsoFeIoJ9VrPCMlSvPk349D9alJlgNT",
    "placeName": "minneapolis",
    "state": "MN"
  },
  {
    "city": "minneapolis",
    "state_code": "MN",
    "placeMasterId": "P02500000FsoFeIoJ9VrPCMlSvPk349D9alJlgNT",
    "placeName": "minneapolis",
    "state": "MN"
  },
  {
    "city": "minneapolis",
    "state_code": "MN",
    "placeMasterId": "P02500000FsoFeIoJ9VrPCMlSvPk349D9alJlgNT",
    "placeName": "minneapolis",
    "state": "MN"
  },
  {
    "city": "grand marais",
    "state_code": "MN",
    "placeMasterId": "P02500000FsoFd1C0iwfL0xYth6dHrjqIO2F6VZU",
    "placeName": "grand marais",
    "state": "MN"
  },
  {
    "city": "tamarack",
    "state_code": "MN",
    "placeMasterId": "P02500000FsoFfjH5BTdG4NDCxXCEB2z0snnuuMz",
    "placeName": "tamarack",
    "state": "MN"
  },
  {
    "city": "rochester",
    "state_code": "MN",
    "placeMasterId": "P02500000FsoFf9tAltK7JyEVkHoYX5PeOLVeDVh",
    "placeName": "rochester",
    "state": "MN"
  },
  {
    "city": "rochester",
    "state_code": "MN",
    "placeMasterId": "P02500000FsoFf9tAltK7JyEVkHoYX5PeOLVeDVh",
    "placeName": "rochester",
    "state": "MN"
  },
  {
    "city": "caledonia",
    "state_code": "MN",
    "placeMasterId": "P02500000FsoFbsQBtm33W9bVGbrwZopaFG6GYj3",
    "placeName": "caledonia",
    "state": "MN"
  },
  {
    "city": "wabasha",
    "state_code": "MN",
    "placeMasterId": "P02500000FsoFg0y2OGmpRZhYZ9t401gO092gCcP",
    "placeName": "wabasha",
    "state": "MN"
  },
  {
    "city": "twin lakes",
    "state_code": "MN",
    "placeMasterId": "P02500000FsoFfs7YmsD2kySNlLXe5XPPHhUjlY9",
    "placeName": "twin lakes",
    "state": "MN"
  },
  {
    "city": "waseca",
    "state_code": "MN",
    "placeMasterId": "P02500000FsoFg9oVzfMc8AwjMyETuVv6QvCs44b",
    "placeName": "waseca",
    "state": "MN"
  },
  {
    "city": "edgerton",
    "state_code": "MN",
    "placeMasterId": "P02500000FsoFcRo6JMMCGYaCTrFcDmP4exu7o8i",
    "placeName": "edgerton",
    "state": "MN"
  },
  {
    "city": "hendricks",
    "state_code": "MN",
    "placeMasterId": "P02500000FsoFdIsxvjouOA3FIjK7giX6SRzSone",
    "placeName": "hendricks",
    "state": "MN"
  },
  {
    "city": "lynd",
    "state_code": "MN",
    "placeMasterId": "P02500000FsoFe17LwihppAH7Jn3DFASKOYolmaU",
    "placeName": "lynd",
    "state": "MN"
  },
  {
    "city": "sherburn",
    "state_code": "MN",
    "placeMasterId": "P02500000FsoFfaQba53TNly29iqoGYXEzTkBCDc",
    "placeName": "sherburn",
    "state": "MN"
  },
  {
    "city": "appleton",
    "state_code": "MN",
    "placeMasterId": "P02500000FsoFbABnsnA859NdFY8r1N3d10P3Scd",
    "placeName": "appleton",
    "state": "MN"
  },
  {
    "city": "barry",
    "state_code": "MN",
    "placeMasterId": "P02500000FsoFbJ2HUBjulkco3MUGvrZDVskwHeI",
    "placeName": "barry",
    "state": "MN"
  },
  {
    "city": "dumont",
    "state_code": "MN",
    "placeMasterId": "P02500000FsoFcRo6JMMCGYaCTrFcDmNQRfpeDYo",
    "placeName": "dumont",
    "state": "MN"
  },
  {
    "city": "alexandria",
    "state_code": "MN",
    "placeMasterId": "P02500000FsoFbABnsnA859NdFY8r1N95SURdxGM",
    "placeName": "alexandria",
    "state": "MN"
  },
  {
    "city": "rockville",
    "state_code": "MN",
    "placeMasterId": "P02500000FsoFf9tAltK7JyEVkHoYX5QNIDBmhh5",
    "placeName": "rockville",
    "state": "MN"
  },
  {
    "city": "baxter",
    "state_code": "MN",
    "placeMasterId": "P02500000FsoFbRsl5aJhSLryrApgqLoAB7DJyst",
    "placeName": "baxter",
    "state": "MN"
  },
  {
    "city": "laporte",
    "state_code": "MN",
    "placeMasterId": "P02500000FsoFdsGsLK838Z1wVyhnKg67EExITe6",
    "placeName": "laporte",
    "state": "MN"
  },
  {
    "city": "menahga",
    "state_code": "MN",
    "placeMasterId": "P02500000FsoFeIoJ9VrPCMlSvPk34970VbCANk7",
    "placeName": "menahga",
    "state": "MN"
  },
  {
    "city": "park rapids",
    "state_code": "MN",
    "placeMasterId": "P02500000FsoFejLjxhalGAUzKqmIncMSNTsE5FU",
    "placeName": "park rapids",
    "state": "MN"
  },
  {
    "city": "hendrum",
    "state_code": "MN",
    "placeMasterId": "P02500000FsoFdIsxvjouOA3FIjK7giWgjhDjkyM",
    "placeName": "hendrum",
    "state": "MN"
  },
  {
    "city": "hitterdal",
    "state_code": "MN",
    "placeMasterId": "P02500000FsoFdIsxvjouOA3FIjK7gifVp0nQllM",
    "placeName": "hitterdal",
    "state": "MN"
  },
  {
    "city": "lake park",
    "state_code": "MN",
    "placeMasterId": "P02500000FsoFdjQOjvYGRxmliAMNQBkDubCICYX",
    "placeName": "lake park",
    "state": "MN"
  },
  {
    "city": "gonvick",
    "state_code": "MN",
    "placeMasterId": "P02500000FsoFd1C0iwfL0xYth6dHrjlXhQx1s7W",
    "placeName": "gonvick",
    "state": "MN"
  },
  {
    "city": "littlefork",
    "state_code": "MN",
    "placeMasterId": "P02500000FsoFe17LwihppAH7Jn3DFAPQPNQNqY9",
    "placeName": "littlefork",
    "state": "MN"
  },
  {
    "city": "max",
    "state_code": "MN",
    "placeMasterId": "P02500000FsoHuzN5sMxggg5H64M7R9MrYoGhSBA",
    "placeName": "max",
    "state": "MN"
  },
  {
    "city": "roseau",
    "state_code": "MN",
    "placeMasterId": "P02500000FsoFf9tAltK7JyEVkHoYX5XIIj9xP3U",
    "placeName": "roseau",
    "state": "MN"
  },
  {
    "city": "warroad",
    "state_code": "MN",
    "placeMasterId": "P02500000FsoFg9oVzfMc8AwjMyETuVy05vKRrA5",
    "placeName": "warroad",
    "state": "MN"
  },
  {
    "city": "chester",
    "state_code": "SD",
    "placeMasterId": "P02500000FsoGdwSZilCe1sUk0CyaflWsnq56rqC",
    "placeName": "chester",
    "state": "SD"
  },
  {
    "city": "sioux falls",
    "state_code": "SD",
    "placeMasterId": "P02500000FsoGfE4s9KOiDHhJEW5LsAy2czuKme9",
    "placeName": "sioux falls",
    "state": "SD"
  },
  {
    "city": "hazel",
    "state_code": "SD",
    "placeMasterId": "P02500000FsoGeN00Www05gEGPe0qPEnFGBlQXui",
    "placeName": "hazel",
    "state": "SD"
  },
  {
    "city": "marvin",
    "state_code": "SD",
    "placeMasterId": "P02500000FsoGeegxjk5ZSsic1GhgEDXBYlqmDFR",
    "placeName": "marvin",
    "state": "SD"
  },
  {
    "city": "revillo",
    "state_code": "SD",
    "placeMasterId": "P02500000FsoGfE4s9KOiDHhJEW5LsAroDHTheqz",
    "placeName": "revillo",
    "state": "SD"
  },
  {
    "city": "mitchell",
    "state_code": "SD",
    "placeMasterId": "P02500000FsoGenXRL8fM9Txmp5368hsbxoiKtyF",
    "placeName": "mitchell",
    "state": "SD"
  },
  {
    "city": "parkston",
    "state_code": "SD",
    "placeMasterId": "P02500000FsoGf5EOXvovWgS8QhjvxgX3qBsAmsi",
    "placeName": "parkston",
    "state": "SD"
  },
  {
    "city": "white lake",
    "state_code": "SD",
    "placeMasterId": "P02500000FsoGfecIxW84H5Qpdx7bbe6maXDUivj",
    "placeName": "white lake",
    "state": "SD"
  },
  {
    "city": "hermosa",
    "state_code": "SD",
    "placeMasterId": "P02500000FsoGeN00Www05gEGPe0qPEheTIh4gnz",
    "placeName": "hermosa",
    "state": "SD"
  },
  {
    "city": "nisland",
    "state_code": "SD",
    "placeMasterId": "P02500000FsoGewNuwXF8q5CxctOW3CGozSLCXDt",
    "placeName": "nisland",
    "state": "SD"
  },
  {
    "city": "davenport",
    "state_code": "ND",
    "placeMasterId": "P02500000FsoGAY6DT6IsU84qUvoUyrBnXWV9qam",
    "placeName": "davenport",
    "state": "ND"
  },
  {
    "city": "fargo",
    "state_code": "ND",
    "placeMasterId": "P02500000FsoGApnAftSRrKZC6YVKnpnJRNiYL2k",
    "placeName": "fargo",
    "state": "ND"
  },
  {
    "city": "finley",
    "state_code": "ND",
    "placeMasterId": "P02500000FsoGApnAftSRrKZC6YVKnq1wyFBrsCr",
    "placeName": "finley",
    "state": "ND"
  },
  {
    "city": "langdon",
    "state_code": "ND",
    "placeMasterId": "P02500000FsoGBPB55TlabjXtJnt0RnUwPwSA91N",
    "placeName": "langdon",
    "state": "ND"
  },
  {
    "city": "neche",
    "state_code": "ND",
    "placeMasterId": "P02500000FsoGBpiVtfUwfXHPjEvGBGPxh7AdPuP",
    "placeName": "neche",
    "state": "ND"
  },
  {
    "city": "dickey",
    "state_code": "ND",
    "placeMasterId": "P02500000FsoGAgwh4UsfAjK1Ik9utLOWKpN6wQH",
    "placeName": "dickey",
    "state": "ND"
  },
  {
    "city": "steele",
    "state_code": "ND",
    "placeMasterId": "P02500000FsoGCP6QJFo5PwG6wUIvpDqWvMxzca2",
    "placeName": "steele",
    "state": "ND"
  },
  {
    "city": "almont",
    "state_code": "ND",
    "placeMasterId": "P02500000FsoGA7YmeuZWQKLK5UmFFOBHdHZdDRJ",
    "placeName": "almont",
    "state": "ND"
  },
  {
    "city": "amidon",
    "state_code": "ND",
    "placeMasterId": "P02500000FsoGA7YmeuZWQKLK5UmFFO5ZgzFl471",
    "placeName": "amidon",
    "state": "ND"
  },
  {
    "city": "flaxton",
    "state_code": "ND",
    "placeMasterId": "P02500000FsoGApnAftSRrKZC6YVKnprXZRsDJoe",
    "placeName": "flaxton",
    "state": "ND"
  },
  {
    "city": "los angeles",
    "state_code": "CA",
    "placeMasterId": "P02500000FsoEiEJyfAwnXs9Xvv8xEm0Sp2kcekK",
    "placeName": "los angeles",
    "state": "CA"
  },
  {
    "city": "los angeles",
    "state_code": "CA",
    "placeMasterId": "P02500000FsoEiEJyfAwnXs9Xvv8xEm0Sp2kcekK",
    "placeName": "los angeles",
    "state": "CA"
  },
  {
    "city": "los angeles",
    "state_code": "CA",
    "placeMasterId": "P02500000FsoEiEJyfAwnXs9Xvv8xEm0Sp2kcekK",
    "placeName": "los angeles",
    "state": "CA"
  },
  {
    "city": "downey",
    "state_code": "CA",
    "placeMasterId": "P02500000FsoEfnvrPR8RrezaH7GqkReJ1QUtbRf",
    "placeName": "downey",
    "state": "CA"
  },
  {
    "city": "inglewood",
    "state_code": "CA",
    "placeMasterId": "P02500000FsoEhEOdROuIjfRKJEj1rLNsoCk4oxk",
    "placeName": "inglewood",
    "state": "CA"
  },
  {
    "city": "paramount",
    "state_code": "CA",
    "placeMasterId": "P02500000FsoEjVwH5k8rjHM7AEFiRBJaSNHdTlb",
    "placeName": "paramount",
    "state": "CA"
  },
  {
    "city": "long beach",
    "state_code": "CA",
    "placeMasterId": "P02500000FsoEiEJyfAwnXs9Xvv8xElwosKjKxLA",
    "placeName": "long beach",
    "state": "CA"
  },
  {
    "city": "san marino",
    "state_code": "CA",
    "placeMasterId": "P02500000FsoEknYZWJKvugYgOXMTdacbDDbABWH",
    "placeName": "san marino",
    "state": "CA"
  },
  {
    "city": "azusa",
    "state_code": "CA",
    "placeMasterId": "P02500000FsoEdwveZHdEvqoJpYmPu4rp1nf3GiW",
    "placeName": "azusa",
    "state": "CA"
  },
  {
    "city": "chula vista",
    "state_code": "CA",
    "placeMasterId": "P02500000FsoEfEXwzqpJ7G0t3rtB6U98fMniHey",
    "placeName": "chula vista",
    "state": "CA"
  },
  {
    "city": "la mesa",
    "state_code": "CA",
    "placeMasterId": "P02500000FsoEhnmXqzDRU4Q1WU6hVIomUwbe0pd",
    "placeName": "la mesa",
    "state": "CA"
  },
  {
    "city": "indian wells",
    "state_code": "CA",
    "placeMasterId": "P02500000FsoEhEOdROuIjfRKJEj1rLQAQiFAj57",
    "placeName": "indian wells",
    "state": "CA"
  },
  {
    "city": "palm desert",
    "state_code": "CA",
    "placeMasterId": "P02500000FsoEjVwH5k8rjHM7AEFiRBJp2Oc2t4D",
    "placeName": "palm desert",
    "state": "CA"
  },
  {
    "city": "hesperia",
    "state_code": "CA",
    "placeMasterId": "P02500000FsoEh5Y9q0KW34C9VQNbwqzVI6gwv8R",
    "placeName": "hesperia",
    "state": "CA"
  },
  {
    "city": "mentone",
    "state_code": "CA",
    "placeMasterId": "P02500000FsoEierPTMg9bft4LMBCyF6ftASKe2j",
    "placeName": "mentone",
    "state": "CA"
  },
  {
    "city": "rialto",
    "state_code": "CA",
    "placeMasterId": "P02500000FsoEkEAf6j1nAHZzBHynzd8gKZbmXFT",
    "placeName": "rialto",
    "state": "CA"
  },
  {
    "city": "hemet",
    "state_code": "CA",
    "placeMasterId": "P02500000FsoEgwhgEbkjMSwyhc2C2MerC0o42P9",
    "placeName": "hemet",
    "state": "CA"
  },
  {
    "city": "perris",
    "state_code": "CA",
    "placeMasterId": "P02500000FsoEjemkh8iePsbHy2b8Lfk0yYO9vFB",
    "placeName": "perris",
    "state": "CA"
  },
  {
    "city": "costa mesa",
    "state_code": "CA",
    "placeMasterId": "P02500000FsoEfNOQbFP5nrG3rgEb0yVQ5mooJE2",
    "placeName": "costa mesa",
    "state": "CA"
  },
  {
    "city": "lake forest",
    "state_code": "CA",
    "placeMasterId": "P02500000FsoEhew4FadenTAqiflHaoUO7rLkzA2",
    "placeName": "lake forest",
    "state": "CA"
  },
  {
    "city": "yorba linda",
    "state_code": "CA",
    "placeMasterId": "P02500000FsoEmViIl4GM9tUm2HVUZT4ra9R0Q0b",
    "placeName": "yorba linda",
    "state": "CA"
  },
  {
    "city": "armona",
    "state_code": "CA",
    "placeMasterId": "P02500000FsoEdwveZHdEvqoJpYmPu4n8OdQ2pxE",
    "placeName": "armona",
    "state": "CA"
  },
  {
    "city": "porterville",
    "state_code": "CA",
    "placeMasterId": "P02500000FsoEjwThtvsDn55dZfHyAeQYGROQJou",
    "placeName": "porterville",
    "state": "CA"
  },
  {
    "city": "santa maria",
    "state_code": "CA",
    "placeMasterId": "P02500000FsoEkei5uul9E5JVaj13j6JMH7bOEyc",
    "placeName": "santa maria",
    "state": "CA"
  },
  {
    "city": "templeton",
    "state_code": "CA",
    "placeMasterId": "P02500000FsoElVmxXIDrLgmYPb5ZC2UDlAg2jxZ",
    "placeName": "templeton",
    "state": "CA"
  },
  {
    "city": "tehachapi",
    "state_code": "CA",
    "placeMasterId": "P02500000FsoElVmxXIDrLgmYPb5ZC2WUQJVDl3W",
    "placeName": "tehachapi",
    "state": "CA"
  },
  {
    "city": "cutler",
    "state_code": "CA",
    "placeMasterId": "P02500000FsoEfWEuCdysUSVEfUa0vStdgTvWF15",
    "placeName": "cutler",
    "state": "CA"
  },
  {
    "city": "fresno",
    "state_code": "CA",
    "placeMasterId": "P02500000FsoEgf0j1ob9zGSd5zLMDNqyCZUrC3I",
    "placeName": "fresno",
    "state": "CA"
  },
  {
    "city": "salinas",
    "state_code": "CA",
    "placeMasterId": "P02500000FsoEkVrcJWBMXU4KmufdobvIsLSCpDQ",
    "placeName": "salinas",
    "state": "CA"
  },
  {
    "city": "salinas",
    "state_code": "CA",
    "placeMasterId": "P02500000FsoEkVrcJWBMXU4KmufdobvIsLSCpDQ",
    "placeName": "salinas",
    "state": "CA"
  },
  {
    "city": "greenfield",
    "state_code": "CA",
    "placeMasterId": "P02500000FsoEgnrCdDAwfrhntngm7sFtPzXnEOe",
    "placeName": "greenfield",
    "state": "CA"
  },
  {
    "city": "mountain view",
    "state_code": "CA",
    "placeMasterId": "P02500000FsoEiwYMg9piysNPwys2nDqaZzNzqjS",
    "placeName": "mountain view",
    "state": "CA"
  },
  {
    "city": "san francisco",
    "state_code": "CA",
    "placeMasterId": "P02500000FsoEkVrcJWBMXU4KmufdobtfKVREvsP",
    "placeName": "san francisco",
    "state": "CA"
  },
  {
    "city": "san francisco",
    "state_code": "CA",
    "placeMasterId": "P02500000FsoEkVrcJWBMXU4KmufdobtfKVREvsP",
    "placeName": "san francisco",
    "state": "CA"
  },
  {
    "city": "walnut creek",
    "state_code": "CA",
    "placeMasterId": "P02500000FsoEm5ArwsX065lFcqTEpzxiwocScrl",
    "placeName": "walnut creek",
    "state": "CA"
  },
  {
    "city": "walnut creek",
    "state_code": "CA",
    "placeMasterId": "P02500000FsoEm5ArwsX065lFcqTEpzxiwocScrl",
    "placeName": "walnut creek",
    "state": "CA"
  },
  {
    "city": "oakland",
    "state_code": "CA",
    "placeMasterId": "P02500000FsoEjN5nULZ52g6wMPuIWgwHJpxtC9b",
    "placeName": "oakland",
    "state": "CA"
  },
  {
    "city": "berkeley",
    "state_code": "CA",
    "placeMasterId": "P02500000FsoEeEcbm4moJ3IfRBTFj3Xr6gOP3lm",
    "placeName": "berkeley",
    "state": "CA"
  },
  {
    "city": "bolinas",
    "state_code": "CA",
    "placeMasterId": "P02500000FsoEeEcbm4moJ3IfRBTFj3bcSYAaiPW",
    "placeName": "bolinas",
    "state": "CA"
  },
  {
    "city": "boulder creek",
    "state_code": "CA",
    "placeMasterId": "P02500000FsoEeWJYyrwNgFn12oA5Y2HhdLG3izz",
    "placeName": "boulder creek",
    "state": "CA"
  },
  {
    "city": "san martin",
    "state_code": "CA",
    "placeMasterId": "P02500000FsoEknYZWJKvugYgOXMTdadaEhMv5FM",
    "placeName": "san martin",
    "state": "CA"
  },
  {
    "city": "santa cruz",
    "state_code": "CA",
    "placeMasterId": "P02500000FsoEknYZWJKvugYgOXMTdacPG1pxRmS",
    "placeName": "santa cruz",
    "state": "CA"
  },
  {
    "city": "san jose",
    "state_code": "CA",
    "placeMasterId": "P02500000FsoEkei5uul9E5JVaj13j6FZZ7utLyF",
    "placeName": "san jose",
    "state": "CA"
  },
  {
    "city": "delhi",
    "state_code": "CA",
    "placeMasterId": "P02500000FsoEfWEuCdysUSVEfUa0vSwQ08w0oVu",
    "placeName": "delhi",
    "state": "CA"
  },
  {
    "city": "keyes",
    "state_code": "CA",
    "placeMasterId": "P02500000FsoEhW5aeC3s6rvfurPrgK7f4pC54gA",
    "placeName": "keyes",
    "state": "CA"
  },
  {
    "city": "modesto",
    "state_code": "CA",
    "placeMasterId": "P02500000FsoEierPTMg9bft4LMBCyF8jDoSNABl",
    "placeName": "modesto",
    "state": "CA"
  },
  {
    "city": "snelling",
    "state_code": "CA",
    "placeMasterId": "P02500000FsoEl5FWj6UVHt320A3JSZNIDBXoNPe",
    "placeName": "snelling",
    "state": "CA"
  },
  {
    "city": "soulsbyville",
    "state_code": "CA",
    "placeMasterId": "P02500000FsoElE60KV4HyUICnyOjN3jPQMuMkyG",
    "placeName": "soulsbyville",
    "state": "CA"
  },
  {
    "city": "westley",
    "state_code": "CA",
    "placeMasterId": "P02500000FsoEm5ArwsX065lFcqTEq016CZ8XV6T",
    "placeName": "westley",
    "state": "CA"
  },
  {
    "city": "albion",
    "state_code": "CA",
    "placeMasterId": "P02500000FsoEdfEhMUTfYeJyDw5a5649eq6Z1is",
    "placeName": "albion",
    "state": "CA"
  },
  {
    "city": "forestville",
    "state_code": "CA",
    "placeMasterId": "P02500000FsoEgWAFQQ1NIfDSIAzwItUCX6RPnWF",
    "placeName": "forestville",
    "state": "CA"
  },
  {
    "city": "kenwood",
    "state_code": "CA",
    "placeMasterId": "P02500000FsoEhW5aeC3s6rvfurPrgK5IF0569kF",
    "placeName": "kenwood",
    "state": "CA"
  },
  {
    "city": "fortuna",
    "state_code": "CA",
    "placeMasterId": "P02500000FsoEgNJlp1Rac3yHUMeWOPBIax2Pa75",
    "placeName": "fortuna",
    "state": "CA"
  },
  {
    "city": "redway",
    "state_code": "CA",
    "placeMasterId": "P02500000FsoEkEAf6j1nAHZzBHynzdBrt4jqlcK",
    "placeName": "redway",
    "state": "CA"
  },
  {
    "city": "smith river",
    "state_code": "CA",
    "placeMasterId": "P02500000FsoEl5FWj6UVHt320A3JSZSBrJVmCut",
    "placeName": "smith river",
    "state": "CA"
  },
  {
    "city": "citrus heights",
    "state_code": "CA",
    "placeMasterId": "P02500000FsoEf5hTOSFWQeliG3XlBzo2RyTJCmm",
    "placeName": "citrus heights",
    "state": "CA"
  },
  {
    "city": "sacramento",
    "state_code": "CA",
    "placeMasterId": "P02500000FsoEkVrcJWBMXU4KmufdobsP4JCiDgI",
    "placeName": "sacramento",
    "state": "CA"
  },
  {
    "city": "oroville",
    "state_code": "CA",
    "placeMasterId": "P02500000FsoEjVwH5k8rjHM7AEFiRBHNRgcL1It",
    "placeName": "oroville",
    "state": "CA"
  },
  {
    "city": "rough and ready",
    "state_code": "CA",
    "placeMasterId": "P02500000FsoEkN18i7bZqsp9z6KDu7YEmNpOnHr",
    "placeName": "rough and ready",
    "state": "CA"
  },
  {
    "city": "stirling city",
    "state_code": "CA",
    "placeMasterId": "P02500000FsoElMwTvte4f5XNbmk9HY9KU88Uv3J",
    "placeName": "stirling city",
    "state": "CA"
  },
  {
    "city": "hornbrook",
    "state_code": "CA",
    "placeMasterId": "P02500000FsoEhEOdROuIjfRKJEj1rLN099FyBHQ",
    "placeName": "hornbrook",
    "state": "CA"
  },
  {
    "city": "hyampom",
    "state_code": "CA",
    "placeMasterId": "P02500000FsoEhEOdROuIjfRKJEj1rLLXGgh2ccz",
    "placeName": "hyampom",
    "state": "CA"
  },
  {
    "city": "redding",
    "state_code": "CA",
    "placeMasterId": "P02500000FsoEkEAf6j1nAHZzBHynzd8rsupDAqv",
    "placeName": "redding",
    "state": "CA"
  },
  {
    "city": "paynes creek",
    "state_code": "CA",
    "placeMasterId": "P02500000FsoEjemkh8iePsbHy2b8LfeKgzgheoV",
    "placeName": "paynes creek",
    "state": "CA"
  },
  {
    "city": "vina",
    "state_code": "CA",
    "placeMasterId": "P02500000FsoElwKOLTxDPUW4p27ovVcFZTnxjiu",
    "placeName": "vina",
    "state": "CA"
  },
  {
    "city": "sierraville",
    "state_code": "CA",
    "placeMasterId": "P02500000FsoEl5FWj6UVHt320A3JSZOLKugifu1",
    "placeName": "sierraville",
    "state": "CA"
  },
  {
    "city": "mulino",
    "state_code": "OR",
    "placeMasterId": "P02500000FsoGPWyLniuKdCm8rC5NeI9dOwePL2t",
    "placeName": "mulino",
    "state": "OR"
  },
  {
    "city": "mcminnville",
    "state_code": "OR",
    "placeMasterId": "P02500000FsoGPFHOavklG0HnFZOXpJSSHUt2Dsm",
    "placeName": "mcminnville",
    "state": "OR"
  },
  {
    "city": "portland",
    "state_code": "OR",
    "placeMasterId": "P02500000FsoGPfopP7U7Jo1Jf0QnYmTaqhg2Hwh",
    "placeName": "portland",
    "state": "OR"
  },
  {
    "city": "corvallis",
    "state_code": "OR",
    "placeMasterId": "P02500000FsoGOX30Zwrpp03vEVfSGrWdNejVD3F",
    "placeName": "corvallis",
    "state": "OR"
  },
  {
    "city": "glide",
    "state_code": "OR",
    "placeMasterId": "P02500000FsoGOojxmk1PCCYGq8MI5qN9Z9ikDU9",
    "placeName": "glide",
    "state": "OR"
  },
  {
    "city": "madras",
    "state_code": "OR",
    "placeMasterId": "P02500000FsoGPFHOavklG0HnFZOXpJQeTxMZxZK",
    "placeName": "madras",
    "state": "OR"
  },
  {
    "city": "prairie city",
    "state_code": "OR",
    "placeMasterId": "P02500000FsoGPofJ0W3u0PGUSomDTGnBeVwMWP6",
    "placeName": "prairie city",
    "state": "OR"
  },
  {
    "city": "union",
    "state_code": "OR",
    "placeMasterId": "P02500000FsoGQFCjohnG4D00sFoTCk3ZXKmP4fv",
    "placeName": "union",
    "state": "OR"
  },
  {
    "city": "duvall",
    "state_code": "WA",
    "placeMasterId": "P02500000FsoGz3jEzQcrimiWuO6RWGaVtKlJxH9",
    "placeName": "duvall",
    "state": "WA"
  },
  {
    "city": "seattle",
    "state_code": "WA",
    "placeMasterId": "P02500000FsoH13ZvQyhrLC8y9kwIH7vOQ9mB44J",
    "placeName": "seattle",
    "state": "WA"
  },
  {
    "city": "index",
    "state_code": "WA",
    "placeMasterId": "P02500000FsoGzUGfncMDmaS3Jp8hFjpa0lvfZ8V",
    "placeName": "index",
    "state": "WA"
  },
  {
    "city": "monroe",
    "state_code": "WA",
    "placeMasterId": "P02500000FsoH0CV3obF9DafvKsrmoBYwgHgikiw",
    "placeName": "monroe",
    "state": "WA"
  },
  {
    "city": "bremerton",
    "state_code": "WA",
    "placeMasterId": "P02500000FsoGyULKZqJiyNjph8ilsJ86UsuhgwD",
    "placeName": "bremerton",
    "state": "WA"
  },
  {
    "city": "carbonado",
    "state_code": "WA",
    "placeMasterId": "P02500000FsoGydBoBEtVeyz0Ux4BmnTIFEupteN",
    "placeName": "carbonado",
    "state": "WA"
  },
  {
    "city": "longbranch",
    "state_code": "WA",
    "placeMasterId": "P02500000FsoH03eaDCfMWzQkX4WMth92gL3Cuhy",
    "placeName": "longbranch",
    "state": "WA"
  },
  {
    "city": "millington",
    "state_code": "MD",
    "placeMasterId": "P02500000FsoFVAdkY8v9Dv6JVRdIknNYYScYIsR",
    "placeName": "millington",
    "state": "MD"
  },
  {
    "city": "ridgely",
    "state_code": "MD",
    "placeMasterId": "P02500000FsoFVbBBMKeVHippusfYUGei7F0q0f6",
    "placeName": "ridgely",
    "state": "MD"
  },
  {
    "city": "alexandria",
    "state_code": "VA",
    "placeMasterId": "P02500000FsoGuUdxgk9jjYsxCP34MaiKDaDtr2h",
    "placeName": "alexandria",
    "state": "VA"
  },
  {
    "city": "fredericksburg",
    "state_code": "VA",
    "placeMasterId": "P02500000FsoGvmGG7JLnuy5WQi9pZ00uWETqz97",
    "placeName": "fredericksburg",
    "state": "VA"
  },
  {
    "city": "tacoma",
    "state_code": "WA",
    "placeMasterId": "P02500000FsoH1LGsdlrQiOdJlNd866Yu1WjXF5B",
    "placeName": "tacoma",
    "state": "WA"
  },
  {
    "city": "tacoma",
    "state_code": "WA",
    "placeMasterId": "P02500000FsoH1LGsdlrQiOdJlNd866Yu1WjXF5B",
    "placeName": "tacoma",
    "state": "WA"
  },
  {
    "city": "tacoma",
    "state_code": "WA",
    "placeMasterId": "P02500000FsoH1LGsdlrQiOdJlNd866Yu1WjXF5B",
    "placeName": "tacoma",
    "state": "WA"
  },
  {
    "city": "pacific beach",
    "state_code": "WA",
    "placeMasterId": "P02500000FsoH0d2UcmyVHOPRkJu2XenIlibBn3a",
    "placeName": "pacific beach",
    "state": "WA"
  },
  {
    "city": "westport",
    "state_code": "WA",
    "placeMasterId": "P02500000FsoH1cxpqZ105b7fN0Jxv5P7BqbdKqW",
    "placeName": "westport",
    "state": "WA"
  },
  {
    "city": "kelso",
    "state_code": "WA",
    "placeMasterId": "P02500000FsoGzd79P0w0TBhE7dU7AE6Ihh9Q2HS",
    "placeName": "kelso",
    "state": "WA"
  },
  {
    "city": "north bonneville",
    "state_code": "WA",
    "placeMasterId": "P02500000FsoH0UC11OOianAGwVYcdAGKJkcm4kS",
    "placeName": "north bonneville",
    "state": "WA"
  },
  {
    "city": "stevenson",
    "state_code": "WA",
    "placeMasterId": "P02500000FsoH1LGsdlrQiOdJlNd866TMDjGcQSF",
    "placeName": "stevenson",
    "state": "WA"
  },
  {
    "city": "harrah",
    "state_code": "WA",
    "placeMasterId": "P02500000FsoGzUGfncMDmaS3Jp8hFjbLrOIWTGB",
    "placeName": "harrah",
    "state": "WA"
  },
  {
    "city": "roslyn",
    "state_code": "WA",
    "placeMasterId": "P02500000FsoH13ZvQyhrLC8y9kwIH7ouPkDfchi",
    "placeName": "roslyn",
    "state": "WA"
  },
  {
    "city": "airway heights",
    "state_code": "WA",
    "placeMasterId": "P02500000FsoGyCeNN3A9bBFU5W1w3KI3wuJgYfw",
    "placeName": "airway heights",
    "state": "WA"
  },
  {
    "city": "medical lake",
    "state_code": "WA",
    "placeMasterId": "P02500000FsoH0CV3obF9DafvKsrmoBhtpxH0Udg",
    "placeName": "medical lake",
    "state": "WA"
  },
  {
    "city": "creston",
    "state_code": "WA",
    "placeMasterId": "P02500000FsoGyuslO2352BTM6Zl1bmFovRePCQS",
    "placeName": "creston",
    "state": "WA"
  },
  {
    "city": "keller",
    "state_code": "WA",
    "placeMasterId": "P02500000FsoGzlxd0PVn9mwOvRpX4iPD1u25d0k",
    "placeName": "keller",
    "state": "WA"
  },
  {
    "city": "pullman",
    "state_code": "WA",
    "placeMasterId": "P02500000FsoH0lsyEBYHxzecY8FSS95HRH2wsRM",
    "placeName": "pullman",
    "state": "WA"
  },
  {
    "city": "atka",
    "state_code": "AK",
    "placeMasterId": "P02500000FsoEVxWun5JGSD6Yq5R0se2ZmOtZI3a",
    "placeName": "atka",
    "state": "AK"
  },
  {
    "city": "sleetmute",
    "state_code": "AK",
    "placeMasterId": "P02500000FsoEXfge1qEghQ2eTpa1oWTaA9epCM8",
    "placeName": "sleetmute",
    "state": "AK"
  },
  {
    "city": "salcha",
    "state_code": "AK",
    "placeMasterId": "P02500000FsoEXWqAQReu0onTg1Ebu250eCJGRwt",
    "placeName": "salcha",
    "state": "AK"
  },
  {
    "city": "anaktuvuk pass",
    "state_code": "AK",
    "placeMasterId": "P02500000FsoEVxWun5JGSD6Yq5R0se0wMWsv8AI",
    "placeName": "anaktuvuk pass",
    "state": "AK"
  },
  {
    "city": "buckland",
    "state_code": "AK",
    "placeMasterId": "P02500000FsoEWFDrzsSppPauRi7qhckwp3tOHd2",
    "placeName": "buckland",
    "state": "AK"
  },
  {
    "city": "deering",
    "state_code": "AK",
    "placeMasterId": "P02500000FsoEWO4LbH2cW0q5FWTGc77wBgYUncv",
    "placeName": "deering",
    "state": "AK"
  },
  {
    "city": "upham",
    "state_code": "ND",
    "placeMasterId": "P02500000FsoGCP6QJFo5PwG6wUIvpDu7w9SrCEp",
    "placeName": "upham",
    "state": "ND"
  },
  {
    "city": "lodge grass",
    "state_code": "MT",
    "placeMasterId": "P02500000FsoFpiWVPE2EAQLPCNNTxL0C2z5w32p",
    "placeName": "lodge grass",
    "state": "MT"
  },
  {
    "city": "pray",
    "state_code": "MT",
    "placeMasterId": "P02500000FsoFq0DSc1BnXcpko04JmJjTPnEABac",
    "placeName": "pray",
    "state": "MT"
  },
  {
    "city": "richey",
    "state_code": "MT",
    "placeMasterId": "P02500000FsoFqHuPooLMupK6Pcl9bIKD8tmuT9h",
    "placeName": "richey",
    "state": "MT"
  },
  {
    "city": "ismay",
    "state_code": "MT",
    "placeMasterId": "P02500000FsoFpZg1npSRTp6EOZ242qY4b8hoLaz",
    "placeName": "ismay",
    "state": "MT"
  },
  {
    "city": "terry",
    "state_code": "MT",
    "placeMasterId": "P02500000FsoFqZbN1bUwI1oS1FRzQH4pKoeipn2",
    "placeName": "terry",
    "state": "MT"
  },
  {
    "city": "choteau",
    "state_code": "MT",
    "placeMasterId": "P02500000FsoFp0I7OF9IjQ7XBJeOOt44XYKR0tZ",
    "placeName": "choteau",
    "state": "MT"
  },
  {
    "city": "stockett",
    "state_code": "MT",
    "placeMasterId": "P02500000FsoFqZbN1bUwI1oS1FRzQH1lmus8Z0T",
    "placeName": "stockett",
    "state": "MT"
  },
  {
    "city": "zortman",
    "state_code": "MT",
    "placeMasterId": "P02500000FsoFqrIKEOeVfEIncs8pFFsAGykOhjR",
    "placeName": "zortman",
    "state": "MT"
  },
  {
    "city": "cardwell",
    "state_code": "MT",
    "placeMasterId": "P02500000FsoFp0I7OF9IjQ7XBJeOOt1Wm2YAJx1",
    "placeName": "cardwell",
    "state": "MT"
  },
  {
    "city": "elliston",
    "state_code": "MT",
    "placeMasterId": "P02500000FsoFp98azdj5Q1Mhz7zoJNWbWBLf8iE",
    "placeName": "elliston",
    "state": "MT"
  },
  {
    "city": "charlo",
    "state_code": "MT",
    "placeMasterId": "P02500000FsoForRdmqZW2osMNVIyUOknDKWRlRd",
    "placeName": "charlo",
    "state": "MT"
  },
  {
    "city": "libby",
    "state_code": "MT",
    "placeMasterId": "P02500000FsoFpiWVPE2EAQLPCNNTxKt6mTsj6Mr",
    "placeName": "libby",
    "state": "MT"
  },
  {
    "city": "des plaines",
    "state_code": "IL",
    "placeMasterId": "P02500000FsoF2v3D7edfAydoQfEYLnoL2wjanzh",
    "placeName": "des plaines",
    "state": "IL"
  },
  {
    "city": "harvard",
    "state_code": "IL",
    "placeMasterId": "P02500000FsoF43p1wpFwfmbCr9ztdiouP1WOF97",
    "placeName": "harvard",
    "state": "IL"
  },
  {
    "city": "kenilworth",
    "state_code": "IL",
    "placeMasterId": "P02500000FsoF4m3Pxo8s6mp4sDizCAejSMvbbsF",
    "placeName": "kenilworth",
    "state": "IL"
  },
  {
    "city": "itasca",
    "state_code": "IL",
    "placeMasterId": "P02500000FsoF4dCwMPZ5QBZu4PNZHgHSDWKLr8Y",
    "placeName": "itasca",
    "state": "IL"
  },
  {
    "city": "maywood",
    "state_code": "IL",
    "placeMasterId": "P02500000FsoF5d8HaBbaEOI7h5nUf6soP0WTk7G",
    "placeName": "maywood",
    "state": "IL"
  },
  {
    "city": "westchester",
    "state_code": "IL",
    "placeMasterId": "P02500000FsoF8cuJFVj4f0QmZ93GnOgz8bsW4RL",
    "placeName": "westchester",
    "state": "IL"
  },
  {
    "city": "south elgin",
    "state_code": "IL",
    "placeMasterId": "P02500000FsoF7lpRd8GMXOxjkGylKSTTmxy58Cz",
    "placeName": "south elgin",
    "state": "IL"
  },
  {
    "city": "coal city",
    "state_code": "IL",
    "placeMasterId": "P02500000FsoF2dMFurU5nm9Sp2XiWp3MQAL7ACj",
    "placeName": "coal city",
    "state": "IL"
  },
  {
    "city": "frankfort",
    "state_code": "IL",
    "placeMasterId": "P02500000FsoF3dHb8dWabyrgRixduFf1evnnZ4T",
    "placeName": "frankfort",
    "state": "IL"
  },
  {
    "city": "markham",
    "state_code": "IL",
    "placeMasterId": "P02500000FsoF5d8HaBbaEOI7h5nUf6sA44MXnri",
    "placeName": "markham",
    "state": "IL"
  },
  {
    "city": "lansing",
    "state_code": "IL",
    "placeMasterId": "P02500000FsoF53kNAbIRTzJQTqPp19PZm7BKKt2",
    "placeName": "lansing",
    "state": "IL"
  },
  {
    "city": "robbins",
    "state_code": "IL",
    "placeMasterId": "P02500000FsoF73b3c9NR6OjrjDFfm0bmoRMJNPU",
    "placeName": "robbins",
    "state": "IL"
  },
  {
    "city": "la grange park",
    "state_code": "IL",
    "placeMasterId": "P02500000FsoF4m3Pxo8s6mp4sDizCAfpZjb4CWA",
    "placeName": "la grange park",
    "state": "IL"
  },
  {
    "city": "darien",
    "state_code": "IL",
    "placeMasterId": "P02500000FsoF2mCjWG3sUNOdcqt8RJUBthsJm4m",
    "placeName": "darien",
    "state": "IL"
  },
  {
    "city": "chicago",
    "state_code": "IL",
    "placeMasterId": "P02500000FsoF2LfIi4KWQZf7DPqshqNB04VNil1",
    "placeName": "chicago",
    "state": "IL"
  },
  {
    "city": "chicago",
    "state_code": "IL",
    "placeMasterId": "P02500000FsoF2LfIi4KWQZf7DPqshqNB04VNil1",
    "placeName": "chicago",
    "state": "IL"
  },
  {
    "city": "chicago",
    "state_code": "IL",
    "placeMasterId": "P02500000FsoF2LfIi4KWQZf7DPqshqNB04VNil1",
    "placeName": "chicago",
    "state": "IL"
  },
  {
    "city": "chebanse",
    "state_code": "IL",
    "placeMasterId": "P02500000FsoF2LfIi4KWQZf7DPqshqMR1s1d0y9",
    "placeName": "chebanse",
    "state": "IL"
  },
  {
    "city": "manteno",
    "state_code": "IL",
    "placeMasterId": "P02500000FsoF5UHnyn1nXn2wtHS4kcU7HYztY6z",
    "placeName": "manteno",
    "state": "IL"
  },
  {
    "city": "freeport",
    "state_code": "IL",
    "placeMasterId": "P02500000FsoF3dHb8dWabyrgRixduFhxqysV9ui",
    "placeName": "freeport",
    "state": "IL"
  },
  {
    "city": "port byron",
    "state_code": "IL",
    "placeMasterId": "P02500000FsoF6uka0knePnUgvOuFrWCGXrACB2O",
    "placeName": "port byron",
    "state": "IL"
  },
  {
    "city": "neponset",
    "state_code": "IL",
    "placeMasterId": "P02500000FsoF63fiONKwIC1e6WpkOa0OIoaOUZ0",
    "placeName": "neponset",
    "state": "IL"
  },
  {
    "city": "bardolph",
    "state_code": "IL",
    "placeMasterId": "P02500000FsoF1UaR5groIyC4OXmNEu7qnRdeZfl",
    "placeName": "bardolph",
    "state": "IL"
  },
  {
    "city": "knoxville",
    "state_code": "IL",
    "placeMasterId": "P02500000FsoF4uttZCienO4Fg24P6ezTfjTA80L",
    "placeName": "knoxville",
    "state": "IL"
  },
  {
    "city": "cropsey",
    "state_code": "IL",
    "placeMasterId": "P02500000FsoHItNbpWr1EHjkaG7XAM6rz7ASgvo",
    "placeName": "cropsey",
    "state": "IL"
  },
  {
    "city": "minier",
    "state_code": "IL",
    "placeMasterId": "P02500000FsoF5lylBaBMuzXIUu8uZbG4hTxYrev",
    "placeName": "minier",
    "state": "IL"
  },
  {
    "city": "normal",
    "state_code": "IL",
    "placeMasterId": "P02500000FsoF6CWBzluiynGouLBAJ4Luzzd2Hct",
    "placeName": "normal",
    "state": "IL"
  },
  {
    "city": "oakwood",
    "state_code": "IL",
    "placeMasterId": "P02500000FsoF6LMfbAUVfOVzi9WaDYliYA3DfQC",
    "placeName": "oakwood",
    "state": "IL"
  },
  {
    "city": "bethalto",
    "state_code": "IL",
    "placeMasterId": "P02500000FsoF1mHOIU1NgAgQ0ATD3sqYh14T1qW",
    "placeName": "bethalto",
    "state": "IL"
  },
  {
    "city": "panama",
    "state_code": "IL",
    "placeMasterId": "P02500000FsoF6d3cnxe52b0LJmDQ2XUPbjzDoCy",
    "placeName": "panama",
    "state": "IL"
  },
  {
    "city": "albers",
    "state_code": "IL",
    "placeMasterId": "P02500000FsoF1430HV8SFASXz6k7VR1in93HvLu",
    "placeName": "albers",
    "state": "IL"
  },
  {
    "city": "colchester",
    "state_code": "IL",
    "placeMasterId": "P02500000FsoF2dMFurU5nm9Sp2XiWp2jq6s3UfV",
    "placeName": "colchester",
    "state": "IL"
  },
  {
    "city": "mount sterling",
    "state_code": "IL",
    "placeMasterId": "P02500000FsoF63fiONKwIC1e6WpkOZxwpVdWWpG",
    "placeName": "mount sterling",
    "state": "IL"
  },
  {
    "city": "ursa",
    "state_code": "IL",
    "placeMasterId": "P02500000FsoF8LDM2iZVHnwQxWMQyPws6vnLYkd",
    "placeName": "ursa",
    "state": "IL"
  },
  {
    "city": "beecher city",
    "state_code": "IL",
    "placeMasterId": "P02500000FsoF1dQuh5RazZRFCM7n9OUznlkBmVM",
    "placeName": "beecher city",
    "state": "IL"
  },
  {
    "city": "edgewood",
    "state_code": "IL",
    "placeMasterId": "P02500000FsoF3CkAKRnEYB8A2HvOAmXssUWeYvn",
    "placeName": "edgewood",
    "state": "IL"
  },
  {
    "city": "montrose",
    "state_code": "IL",
    "placeMasterId": "P02500000FsoF5upEmyl9bamTIiUKU5dNmnUOVlF",
    "placeName": "montrose",
    "state": "IL"
  },
  {
    "city": "beason",
    "state_code": "IL",
    "placeMasterId": "P02500000FsoF1UaR5groIyC4OXmNEu7YzhCDnKY",
    "placeName": "beason",
    "state": "IL"
  },
  {
    "city": "bulpitt",
    "state_code": "IL",
    "placeMasterId": "P02500000FsoF23yLVHAx3NAlbnA2srYkpLyOyBH",
    "placeName": "bulpitt",
    "state": "IL"
  },
  {
    "city": "chandlerville",
    "state_code": "IL",
    "placeMasterId": "P02500000FsoF2LfIi4KWQZf7DPqshqMgebAwCW7",
    "placeName": "chandlerville",
    "state": "IL"
  },
  {
    "city": "virginia",
    "state_code": "IL",
    "placeMasterId": "P02500000FsoF8U3pe79HyPBblKhqsuJwN4koNq0",
    "placeName": "virginia",
    "state": "IL"
  },
  {
    "city": "hoyleton",
    "state_code": "IL",
    "placeMasterId": "P02500000FsoF4UMSl0zIjaKjGb29NBsfwtltw1m",
    "placeName": "hoyleton",
    "state": "IL"
  },
  {
    "city": "broughton",
    "state_code": "IL",
    "placeMasterId": "P02500000FsoF1v7rtsbAMlvanyocyNGNqkb7Vrz",
    "placeName": "broughton",
    "state": "IL"
  },
  {
    "city": "dahlgren",
    "state_code": "IL",
    "placeMasterId": "P02500000FsoF2mCjWG3sUNOdcqt8RJSeUYbspZy",
    "placeName": "dahlgren",
    "state": "IL"
  },
  {
    "city": "sesser",
    "state_code": "IL",
    "placeMasterId": "P02500000FsoF7cyy1jgZqniYwSdLPy76vH63GjM",
    "placeName": "sesser",
    "state": "IL"
  },
  {
    "city": "carbondale",
    "state_code": "IL",
    "placeMasterId": "P02500000FsoF2Cop6fkjjyPwPbVSnLyXX4wbDOH",
    "placeName": "carbondale",
    "state": "IL"
  },
  {
    "city": "creal springs",
    "state_code": "IL",
    "placeMasterId": "P02500000FsoF2mCjWG3sUNOdcqt8RJQZpGH3gYk",
    "placeName": "creal springs",
    "state": "IL"
  },
  {
    "city": "elsberry",
    "state_code": "MO",
    "placeMasterId": "P02500000FsoFk9VsslWbMznbrhuBQESbL7eSLWV",
    "placeName": "elsberry",
    "state": "MO"
  },
  {
    "city": "luray",
    "state_code": "MO",
    "placeMasterId": "P02500000FsoFm0W5iv1oInysJGOcGbCUN6s1jok",
    "placeName": "luray",
    "state": "MO"
  },
  {
    "city": "baring",
    "state_code": "MO",
    "placeMasterId": "P02500000FsoFj0k43auJsBqDRD8q8JMbfQnKCrC",
    "placeName": "baring",
    "state": "MO"
  },
  {
    "city": "bevier",
    "state_code": "MO",
    "placeMasterId": "P02500000FsoFj0k43auJsBqDRD8q8JZ5y0xfnDR",
    "placeName": "bevier",
    "state": "MO"
  },
  {
    "city": "glenwood",
    "state_code": "MO",
    "placeMasterId": "P02500000FsoFkitnILpk7OmJ4xHr4Bsc1UxXwPs",
    "placeName": "glenwood",
    "state": "MO"
  },
  {
    "city": "mineral point",
    "state_code": "MO",
    "placeMasterId": "P02500000FsoFmID2viBNg0TDut5S5a0MGKirorh",
    "placeName": "mineral point",
    "state": "MO"
  },
  {
    "city": "charleston",
    "state_code": "MO",
    "placeMasterId": "P02500000FsoFjiyS4ZnFJC45SGrvglCakivlVzY",
    "placeName": "charleston",
    "state": "MO"
  },
  {
    "city": "essex",
    "state_code": "MO",
    "placeMasterId": "P02500000FsoFkIMMUA6O3b2mfWFbKilKSR5wUsv",
    "placeName": "essex",
    "state": "MO"
  },
  {
    "city": "wyatt",
    "state_code": "MO",
    "placeMasterId": "P02500000FsoFoZkga3PwfcO0lsc8fPz71dxNFht",
    "placeName": "wyatt",
    "state": "MO"
  },
  {
    "city": "dudley",
    "state_code": "MO",
    "placeMasterId": "P02500000FsoFk9VsslWbMznbrhuBQERArFCyQ4L",
    "placeName": "dudley",
    "state": "MO"
  },
  {
    "city": "weston",
    "state_code": "MO",
    "placeMasterId": "P02500000FsoFoI3jNGGNIPtfAFvIqRIACgQK1uw",
    "placeName": "weston",
    "state": "MO"
  },
  {
    "city": "kansas city",
    "state_code": "MO",
    "placeMasterId": "P02500000FsoFlR8BJKifYP0B610wcdmJLAheztV",
    "placeName": "kansas city",
    "state": "MO"
  },
  {
    "city": "kansas city",
    "state_code": "MO",
    "placeMasterId": "P02500000FsoFlR8BJKifYP0B610wcdmJLAheztV",
    "placeName": "kansas city",
    "state": "MO"
  },
  {
    "city": "bethany",
    "state_code": "MO",
    "placeMasterId": "P02500000FsoFj0k43auJsBqDRD8q8JLVrZWTekS",
    "placeName": "bethany",
    "state": "MO"
  },
  {
    "city": "conception",
    "state_code": "MO",
    "placeMasterId": "P02500000FsoFjiyS4ZnFJC45SGrvglLp3rPz5rg",
    "placeName": "conception",
    "state": "MO"
  },
  {
    "city": "hopkins",
    "state_code": "MO",
    "placeMasterId": "P02500000FsoFl9RE6XZ6BCVpUOK6nf228aoTscr",
    "placeName": "hopkins",
    "state": "MO"
  },
  {
    "city": "tarkio",
    "state_code": "MO",
    "placeMasterId": "P02500000FsoFo0MmAT6nvDPJYdET1SMzhIiywIo",
    "placeName": "tarkio",
    "state": "MO"
  },
  {
    "city": "weatherby",
    "state_code": "MO",
    "placeMasterId": "P02500000FsoFoQuCyeq9z18py4GikvV2GMflpGF",
    "placeName": "weatherby",
    "state": "MO"
  },
  {
    "city": "breckenridge",
    "state_code": "MO",
    "placeMasterId": "P02500000FsoFjIR1GO3tFOKZ2ppfxI6hH4Hox92",
    "placeName": "breckenridge",
    "state": "MO"
  },
  {
    "city": "browning",
    "state_code": "MO",
    "placeMasterId": "P02500000FsoFjRHUrmdfvzZjqeB5rmSMnJPM5ij",
    "placeName": "browning",
    "state": "MO"
  },
  {
    "city": "appleton city",
    "state_code": "MO",
    "placeMasterId": "P02500000FsoFij36qnkkUzLrpaS0JKklNqyLKZ8",
    "placeName": "appleton city",
    "state": "MO"
  },
  {
    "city": "chilhowee",
    "state_code": "MO",
    "placeMasterId": "P02500000FsoFja7yTBDScaoueSWVmH07NuLvJjF",
    "placeName": "chilhowee",
    "state": "MO"
  },
  {
    "city": "ashland",
    "state_code": "MO",
    "placeMasterId": "P02500000FsoFirtaSCKXBab2dOnQDp3l23233a1",
    "placeName": "ashland",
    "state": "MO"
  },
  {
    "city": "meta",
    "state_code": "MO",
    "placeMasterId": "P02500000FsoFmID2viBNg0TDut5S5ZvoB818F3K",
    "placeName": "meta",
    "state": "MO"
  },
  {
    "city": "clifton hill",
    "state_code": "MO",
    "placeMasterId": "P02500000FsoFjiyS4ZnFJC45SGrvglP0wyS4gTU",
    "placeName": "clifton hill",
    "state": "MO"
  },
  {
    "city": "sturgeon",
    "state_code": "MO",
    "placeMasterId": "P02500000FsoFnrWIZ4X1EcA8kot36y7gkQssiFw",
    "placeName": "sturgeon",
    "state": "MO"
  },
  {
    "city": "birch tree",
    "state_code": "MO",
    "placeMasterId": "P02500000FsoFj9aXezU6Yn5OF1UG2nimnYp2NJb",
    "placeName": "birch tree",
    "state": "MO"
  },
  {
    "city": "bolivar",
    "state_code": "MO",
    "placeMasterId": "P02500000FsoFj9aXezU6Yn5OF1UG2nto55lUFVS",
    "placeName": "bolivar",
    "state": "MO"
  },
  {
    "city": "everton",
    "state_code": "MO",
    "placeMasterId": "P02500000FsoFkIMMUA6O3b2mfWFbKirb2Z4ILPA",
    "placeName": "everton",
    "state": "MO"
  },
  {
    "city": "kissee mills",
    "state_code": "MO",
    "placeMasterId": "P02500000FsoFlZyeujISF0FLtpMMX84Hm4J0vDn",
    "placeName": "kissee mills",
    "state": "MO"
  }
]