[
  {
    "city": "republic",
    "state_code": "MO",
    "placeMasterId": "P02500000FsoFnI8O9UDsUDBRXZVNT0XYt723waM",
    "placeName": "republic",
    "state": "MO"
  },
  {
    "city": "springfield",
    "state_code": "MO",
    "placeMasterId": "P02500000FsoFnifoxfxEY0uxx0XdCTlHDhP1BxY",
    "placeName": "springfield",
    "state": "MO"
  },
  {
    "city": "nortonville",
    "state_code": "KS",
    "placeMasterId": "P02500000FsoFLbvl8aFXBfhdg2UIhyV0Y3v8F5t",
    "placeName": "nortonville",
    "state": "KS"
  },
  {
    "city": "pleasanton",
    "state_code": "KS",
    "placeMasterId": "P02500000FsoFLtciLNP6YsBzHfB8WxFLQtY7fTt",
    "placeName": "pleasanton",
    "state": "KS"
  },
  {
    "city": "wellsville",
    "state_code": "KS",
    "placeMasterId": "P02500000FsoFMkhZxkrogTf26XFdztQgnX7Czp6",
    "placeName": "wellsville",
    "state": "KS"
  },
  {
    "city": "delia",
    "state_code": "KS",
    "placeMasterId": "P02500000FsoFJtm1tpK6wSlY2ILHm60SPFT14en",
    "placeName": "delia",
    "state": "KS"
  },
  {
    "city": "netawaka",
    "state_code": "KS",
    "placeMasterId": "P02500000FsoFLbvl8aFXBfhdg2UIhyTWyO7dXN0",
    "placeName": "netawaka",
    "state": "KS"
  },
  {
    "city": "buffalo",
    "state_code": "KS",
    "placeMasterId": "P02500000FsoFJTEb5daksf21crJ22cxly9ZMcbH",
    "placeName": "buffalo",
    "state": "KS"
  },
  {
    "city": "hanover",
    "state_code": "KS",
    "placeMasterId": "P02500000FsoFKc0PuoD2NSzQ3M4NKXrymqRlXlE",
    "placeName": "hanover",
    "state": "KS"
  },
  {
    "city": "burden",
    "state_code": "KS",
    "placeMasterId": "P02500000FsoFJTEb5daksf21crJ22cwAhKMut9n",
    "placeName": "burden",
    "state": "KS"
  },
  {
    "city": "burrton",
    "state_code": "KS",
    "placeMasterId": "P02500000FsoFJc54h2AXZGHCQfeRx7FXR2At8wr",
    "placeName": "burrton",
    "state": "KS"
  },
  {
    "city": "halstead",
    "state_code": "KS",
    "placeMasterId": "P02500000FsoFKT9wJPdFgrkFFXixQ3UIbXcZKlx",
    "placeName": "halstead",
    "state": "KS"
  },
  {
    "city": "norwich",
    "state_code": "KS",
    "placeMasterId": "P02500000FsoFLkmEjypJsGwoTqpicSoWZZIbw6R",
    "placeName": "norwich",
    "state": "KS"
  },
  {
    "city": "brookville",
    "state_code": "KS",
    "placeMasterId": "P02500000FsoFJTEb5daksf21crJ22d0DjJpdLtc",
    "placeName": "brookville",
    "state": "KS"
  },
  {
    "city": "longford",
    "state_code": "KS",
    "placeMasterId": "P02500000FsoFLBOKKOWB7ry7GbS2yVNUItUk7Xp",
    "placeName": "longford",
    "state": "KS"
  },
  {
    "city": "bunker hill",
    "state_code": "KS",
    "placeMasterId": "P02500000FsoFJTEb5daksf21crJ22cy4elFW6xj",
    "placeName": "bunker hill",
    "state": "KS"
  },
  {
    "city": "walker",
    "state_code": "KS",
    "placeMasterId": "P02500000FsoHcrsSH1exQO093wU2iw785Lphxz5",
    "placeName": "walker",
    "state": "KS"
  },
  {
    "city": "sharon springs",
    "state_code": "KS",
    "placeMasterId": "P02500000FsoFMT0ckxiFJHAgUuYoAuhNq6hkRlT",
    "placeName": "sharon springs",
    "state": "KS"
  },
  {
    "city": "wallace",
    "state_code": "KS",
    "placeMasterId": "P02500000FsoFMkhZxkrogTf26XFdztTvePd2Xdm",
    "placeName": "wallace",
    "state": "KS"
  },
  {
    "city": "gretna",
    "state_code": "NE",
    "placeMasterId": "P02500000FsoFs8ucexqZqdVMrBFaRfCuF53HAxd",
    "placeName": "gretna",
    "state": "NE"
  },
  {
    "city": "omaha",
    "state_code": "NE",
    "placeMasterId": "P02500000FsoFszzUHLJHyEyPg3K5ubV6FuzuT2T",
    "placeName": "omaha",
    "state": "NE"
  },
  {
    "city": "bellevue",
    "state_code": "NE",
    "placeMasterId": "P02500000FsoFr8zHRBo52Qn9EUpf4EbnsB7qVfn",
    "placeName": "bellevue",
    "state": "NE"
  },
  {
    "city": "byron",
    "state_code": "NE",
    "placeMasterId": "P02500000FsoFrHpl2aNrj22K2JB4yiybgqqWj2K",
    "placeName": "byron",
    "state": "NE"
  },
  {
    "city": "de witt",
    "state_code": "NE",
    "placeMasterId": "P02500000FsoFrZWiFNXR6EWfdvrunhoHmUxtPCS",
    "placeName": "de witt",
    "state": "NE"
  },
  {
    "city": "nebraska city",
    "state_code": "NE",
    "placeMasterId": "P02500000FsoFsr90fwjVHdjEsEyg078O2u2UVkl",
    "placeName": "nebraska city",
    "state": "NE"
  },
  {
    "city": "lincoln",
    "state_code": "NE",
    "placeMasterId": "P02500000FsoFsZS3T9ZvuREtGcHqB8DyQVvTvuI",
    "placeName": "lincoln",
    "state": "NE"
  },
  {
    "city": "howells",
    "state_code": "NE",
    "placeMasterId": "P02500000FsoFsHl6GMQMXEkXezb0M9cNqzJbPg4",
    "placeName": "howells",
    "state": "NE"
  },
  {
    "city": "hubbard",
    "state_code": "NE",
    "placeMasterId": "P02500000FsoFsHl6GMQMXEkXezb0M9nSFGFj32g",
    "placeName": "hubbard",
    "state": "NE"
  },
  {
    "city": "mclean",
    "state_code": "NE",
    "placeMasterId": "P02500000FsoFsiIX4Y9ib2U44QdG5cfQyNcSACz",
    "placeName": "mclean",
    "state": "NE"
  },
  {
    "city": "randolph",
    "state_code": "NE",
    "placeMasterId": "P02500000FsoFtHgRU8SrLRSlHg0vjaAvKWKLuwe",
    "placeName": "randolph",
    "state": "NE"
  },
  {
    "city": "winnetoon",
    "state_code": "NE",
    "placeMasterId": "P02500000FsoFtzupV7LmmRgdIjk1I22Huyg8yYd",
    "placeName": "winnetoon",
    "state": "NE"
  },
  {
    "city": "bloomington",
    "state_code": "NE",
    "placeMasterId": "P02500000FsoFr8zHRBo52Qn9EUpf4EackveyBkU",
    "placeName": "bloomington",
    "state": "NE"
  },
  {
    "city": "orleans",
    "state_code": "NE",
    "placeMasterId": "P02500000FsoFt8pxsjt4eqDaTrfVp5jqMupNk5H",
    "placeName": "orleans",
    "state": "NE"
  },
  {
    "city": "smithfield",
    "state_code": "NE",
    "placeMasterId": "P02500000FsoFtZNOgvcQidx6tIhlYYvHyFP3DMW",
    "placeName": "smithfield",
    "state": "NE"
  },
  {
    "city": "cambridge",
    "state_code": "NE",
    "placeMasterId": "P02500000FsoFrHpl2aNrj22K2JB4yj0PuD8bUec",
    "placeName": "cambridge",
    "state": "NE"
  },
  {
    "city": "danbury",
    "state_code": "NE",
    "placeMasterId": "P02500000FsoFrZWiFNXR6EWfdvrunhkfltLkCK5",
    "placeName": "danbury",
    "state": "NE"
  },
  {
    "city": "indianola",
    "state_code": "NE",
    "placeMasterId": "P02500000FsoFsQbZrl09DpziSnwQGdzHu3ZH3RZ",
    "placeName": "indianola",
    "state": "NE"
  },
  {
    "city": "bushnell",
    "state_code": "NE",
    "placeMasterId": "P02500000FsoFrHpl2aNrj22K2JB4yiwsGLgJa6c",
    "placeName": "bushnell",
    "state": "NE"
  },
  {
    "city": "paxton",
    "state_code": "NE",
    "placeMasterId": "P02500000FsoFt8pxsjt4eqDaTrfVp5o5vD5KXfT",
    "placeName": "paxton",
    "state": "NE"
  },
  {
    "city": "marrero",
    "state_code": "LA",
    "placeMasterId": "P02500000FsoFRkKI4d4IjVE8DxLGt2euLFi5MQA",
    "placeName": "marrero",
    "state": "LA"
  },
  {
    "city": "new orleans",
    "state_code": "LA",
    "placeMasterId": "P02500000FsoFS21FHQDs6hiTpa26i1JVz94sOtB",
    "placeName": "new orleans",
    "state": "LA"
  },
  {
    "city": "new orleans",
    "state_code": "LA",
    "placeMasterId": "P02500000FsoFS21FHQDs6hiTpa26i1JVz94sOtB",
    "placeName": "new orleans",
    "state": "LA"
  },
  {
    "city": "berwick",
    "state_code": "LA",
    "placeMasterId": "P02500000FsoFQJrW2fIRrUmOBpt5m8xmw1xJDX1",
    "placeName": "berwick",
    "state": "LA"
  },
  {
    "city": "charenton",
    "state_code": "LA",
    "placeMasterId": "P02500000FsoFQbYTFSS1EhGjnSZvb7VgaU7jQWx",
    "placeName": "charenton",
    "state": "LA"
  },
  {
    "city": "eunice",
    "state_code": "LA",
    "placeMasterId": "P02500000FsoFR25u3eBNIV0GCtcBKakjzKiSO5Y",
    "placeName": "eunice",
    "state": "LA"
  },
  {
    "city": "lake arthur",
    "state_code": "LA",
    "placeMasterId": "P02500000FsoFRbToTEUW2tyxQ8zqyY8XTtsWhvs",
    "placeName": "lake arthur",
    "state": "LA"
  },
  {
    "city": "iowa",
    "state_code": "LA",
    "placeMasterId": "P02500000FsoFRSdKrpujMIjmcKeR43fIvZFxbPe",
    "placeName": "iowa",
    "state": "LA"
  },
  {
    "city": "kinder",
    "state_code": "LA",
    "placeMasterId": "P02500000FsoFRbToTEUW2tyxQ8zqyY5HmUvY0jG",
    "placeName": "kinder",
    "state": "LA"
  },
  {
    "city": "paulina",
    "state_code": "LA",
    "placeMasterId": "P02500000FsoFSArisonenIxedONWcVjf4OZl2zS",
    "placeName": "paulina",
    "state": "LA"
  },
  {
    "city": "baton rouge",
    "state_code": "LA",
    "placeMasterId": "P02500000FsoFQJrW2fIRrUmOBpt5m8hbG1ZgRcE",
    "placeName": "baton rouge",
    "state": "LA"
  },
  {
    "city": "mansfield",
    "state_code": "LA",
    "placeMasterId": "P02500000FsoFRtAlg1e5Q6TJ1lggnWpllLm42Ag",
    "placeName": "mansfield",
    "state": "LA"
  },
  {
    "city": "shreveport",
    "state_code": "LA",
    "placeMasterId": "P02500000FsoFSbP9h0X0r6hB2pPmLynLJaoEkpz",
    "placeName": "shreveport",
    "state": "LA"
  },
  {
    "city": "bernice",
    "state_code": "LA",
    "placeMasterId": "P02500000FsoFQShze3sEY61YzeEVgd6vsQxkVrq",
    "placeName": "bernice",
    "state": "LA"
  },
  {
    "city": "cottonport",
    "state_code": "LA",
    "placeMasterId": "P02500000FsoFQkOwqr1nvIVubGvLVbxmln6MtmX",
    "placeName": "cottonport",
    "state": "LA"
  },
  {
    "city": "mansura",
    "state_code": "LA",
    "placeMasterId": "P02500000FsoFRkKI4d4IjVE8DxLGt2caNLMe7WX",
    "placeName": "mansura",
    "state": "LA"
  },
  {
    "city": "pineville",
    "state_code": "LA",
    "placeMasterId": "P02500000FsoFSArisonenIxedONWcVeIMrvQv9E",
    "placeName": "pineville",
    "state": "LA"
  },
  {
    "city": "colfax",
    "state_code": "LA",
    "placeMasterId": "P02500000FsoFQbYTFSS1EhGjnSZvb7cfGvnhseY",
    "placeName": "colfax",
    "state": "LA"
  },
  {
    "city": "montgomery",
    "state_code": "LA",
    "placeMasterId": "P02500000FsoFS21FHQDs6hiTpa26i1AvuSYQV9g",
    "placeName": "montgomery",
    "state": "LA"
  },
  {
    "city": "montrose",
    "state_code": "AR",
    "placeMasterId": "P02500000FsoEcNcOvvHbNF7OzcyosgmE1F4unMU",
    "placeName": "montrose",
    "state": "AR"
  },
  {
    "city": "lockesburg",
    "state_code": "AR",
    "placeMasterId": "P02500000FsoEcElvKWhogdsEBodOyCNNEaDZ5SE",
    "placeName": "lockesburg",
    "state": "AR"
  },
  {
    "city": "hatfield",
    "state_code": "AR",
    "placeMasterId": "P02500000FsoEboEUWKyScq8hmNb9EjGJrd8S0Nn",
    "placeName": "hatfield",
    "state": "AR"
  },
  {
    "city": "poyen",
    "state_code": "AR",
    "placeMasterId": "P02500000FsoEco9pk70xR2qvP414c9sO2Qy8H3S",
    "placeName": "poyen",
    "state": "AR"
  },
  {
    "city": "redfield",
    "state_code": "AR",
    "placeMasterId": "P02500000FsoEcx0JLVak7e66CsMUWeD7FrxQN8w",
    "placeName": "redfield",
    "state": "AR"
  },
  {
    "city": "ulm",
    "state_code": "AR",
    "placeMasterId": "P02500000FsoEdEhGYIkJUqaRoV3KLcz2byRzjQM",
    "placeName": "ulm",
    "state": "AR"
  },
  {
    "city": "wabbaseka",
    "state_code": "AR",
    "placeMasterId": "P02500000FsoEdEhGYIkJUqaRoV3KLczEw74Fkhr",
    "placeName": "wabbaseka",
    "state": "AR"
  },
  {
    "city": "clarkedale",
    "state_code": "AR",
    "placeMasterId": "P02500000FsoEb606VM5XBpuplJs3gHOayqP8HCD",
    "placeName": "clarkedale",
    "state": "AR"
  },
  {
    "city": "edmondson",
    "state_code": "AR",
    "placeMasterId": "P02500000FsoEbEqa6kfJsRA0Z8DTalmjqmBdBWD",
    "placeName": "edmondson",
    "state": "AR"
  },
  {
    "city": "marion",
    "state_code": "AR",
    "placeMasterId": "P02500000FsoEcNcOvvHbNF7OzcyosgiaMoWlOMh",
    "placeName": "marion",
    "state": "AR"
  },
  {
    "city": "marked tree",
    "state_code": "AR",
    "placeMasterId": "P02500000FsoEcElvKWhogdsEBodOyCPfLA038FS",
    "placeName": "marked tree",
    "state": "AR"
  },
  {
    "city": "widener",
    "state_code": "AR",
    "placeMasterId": "P02500000FsoEdWODl5tss34nQ7kAAbgfszkvyrR",
    "placeName": "widener",
    "state": "AR"
  },
  {
    "city": "omaha",
    "state_code": "AR",
    "placeMasterId": "P02500000FsoEcWSsXJrO3qMZnRKEnB9ICFm6BOu",
    "placeName": "omaha",
    "state": "AR"
  },
  {
    "city": "prairie grove",
    "state_code": "AR",
    "placeMasterId": "P02500000FsoEco9pk70xR2qvP414c9rRNASJElk",
    "placeName": "prairie grove",
    "state": "AR"
  },
  {
    "city": "rogers",
    "state_code": "AR",
    "placeMasterId": "P02500000FsoEco9pk70xR2qvP414c9rQgCn4hbf",
    "placeName": "rogers",
    "state": "AR"
  },
  {
    "city": "altus",
    "state_code": "AR",
    "placeMasterId": "P02500000FsoEaWcC5lmORQw8Y4UO2JvzxVyzMPp",
    "placeName": "altus",
    "state": "AR"
  },
  {
    "city": "branch",
    "state_code": "AR",
    "placeMasterId": "P02500000FsoEaoJ9IYvxodQU9hBDrIeDCaWkpMg",
    "placeName": "branch",
    "state": "AR"
  },
  {
    "city": "mountainburg",
    "state_code": "AR",
    "placeMasterId": "P02500000FsoEcNcOvvHbNF7OzcyosgjC0bNRrTJ",
    "placeName": "mountainburg",
    "state": "AR"
  },
  {
    "city": "alex",
    "state_code": "OK",
    "placeMasterId": "P02500000FsoGJp7Ffrov9AzAiiGfChFIe64wH21",
    "placeName": "alex",
    "state": "OK"
  },
  {
    "city": "apache",
    "state_code": "OK",
    "placeMasterId": "P02500000FsoGJxxjHGOhpmELWWc57Bavqj8piky",
    "placeName": "apache",
    "state": "OK"
  },
  {
    "city": "davis",
    "state_code": "OK",
    "placeMasterId": "P02500000FsoGKp2atdrPxNhOLOgaa7mu7XDFeMp",
    "placeName": "davis",
    "state": "OK"
  },
  {
    "city": "minco",
    "state_code": "OK",
    "placeMasterId": "P02500000FsoGMOLqX0D3VzOJBKUBbW0ASklTF9D",
    "placeName": "minco",
    "state": "OK"
  },
  {
    "city": "oklahoma city",
    "state_code": "OK",
    "placeMasterId": "P02500000FsoGMg2njnMctBsemxB1QUgVkw3g3BI",
    "placeName": "oklahoma city",
    "state": "OK"
  },
  {
    "city": "lawton",
    "state_code": "OK",
    "placeMasterId": "P02500000FsoGM6etKD3U8mtxZhnLmX72deoXr8U",
    "placeName": "lawton",
    "state": "OK"
  },
  {
    "city": "loveland",
    "state_code": "OK",
    "placeMasterId": "P02500000FsoGM6etKD3U8mtxZhnLmXC61KgBP5Q",
    "placeName": "loveland",
    "state": "OK"
  },
  {
    "city": "arapaho",
    "state_code": "OK",
    "placeMasterId": "P02500000FsoGJxxjHGOhpmELWWc57Bdse5CthIC",
    "placeName": "arapaho",
    "state": "OK"
  },
  {
    "city": "sweetwater",
    "state_code": "OK",
    "placeMasterId": "P02500000FsoGNX7fMApL0nLhbpFWtR0hXU1VoUH",
    "placeName": "sweetwater",
    "state": "OK"
  },
  {
    "city": "enid",
    "state_code": "OK",
    "placeMasterId": "P02500000FsoGL6jY6R0zKaBjx1NQP6gfswmOsKW",
    "placeName": "enid",
    "state": "OK"
  },
  {
    "city": "woodward",
    "state_code": "OK",
    "placeMasterId": "P02500000FsoGO6VZll8TlCKOp4dCXOPR095Kvbt",
    "placeName": "woodward",
    "state": "OK"
  },
  {
    "city": "may",
    "state_code": "OK",
    "placeMasterId": "P02500000FsoGMFVMvbdGpO98NW8lh1a0TdVccOF",
    "placeName": "may",
    "state": "OK"
  },
  {
    "city": "shattuck",
    "state_code": "OK",
    "placeMasterId": "P02500000FsoGNOHBkmFYKC6Wo0u6ywUgDqEoo2t",
    "placeName": "shattuck",
    "state": "OK"
  },
  {
    "city": "mannford",
    "state_code": "OK",
    "placeMasterId": "P02500000FsoGMFVMvbdGpO98NW8lh1VLxAGyvXK",
    "placeName": "mannford",
    "state": "OK"
  },
  {
    "city": "oologah",
    "state_code": "OK",
    "placeMasterId": "P02500000FsoGMg2njnMctBsemxB1QUfvaYsqI6G",
    "placeName": "oologah",
    "state": "OK"
  },
  {
    "city": "tulsa",
    "state_code": "OK",
    "placeMasterId": "P02500000FsoGNfy8xZP7hOasPdawnvKembwKfLR",
    "placeName": "tulsa",
    "state": "OK"
  },
  {
    "city": "braggs",
    "state_code": "OK",
    "placeMasterId": "P02500000FsoGKFegU3YHCyih89IuwAOZzhViGdV",
    "placeName": "braggs",
    "state": "OK"
  },
  {
    "city": "lane",
    "state_code": "OK",
    "placeMasterId": "P02500000FsoGLxoPioThSBemltRvs2nakv9rDW5",
    "placeName": "lane",
    "state": "OK"
  },
  {
    "city": "blackwell",
    "state_code": "OK",
    "placeMasterId": "P02500000FsoGK6oCseyUWNTWKKxV1fzdWfTSEby",
    "placeName": "blackwell",
    "state": "OK"
  },
  {
    "city": "haworth",
    "state_code": "OK",
    "placeMasterId": "P02500000FsoGLOQVJEAYhmg5Ye4GE5SIJodH2wy",
    "placeName": "haworth",
    "state": "OK"
  },
  {
    "city": "tecumseh",
    "state_code": "OK",
    "placeMasterId": "P02500000FsoGNfy8xZP7hOasPdawnvCehqCYFec",
    "placeName": "tecumseh",
    "state": "OK"
  },
  {
    "city": "mccurtain",
    "state_code": "OK",
    "placeMasterId": "P02500000FsoGMFVMvbdGpO98NW8lh1WTf0uWetp",
    "placeName": "mccurtain",
    "state": "OK"
  },
  {
    "city": "panama",
    "state_code": "OK",
    "placeMasterId": "P02500000FsoGMotHLBwPZn7palWRKz4uoDdg88k",
    "placeName": "panama",
    "state": "OK"
  },
  {
    "city": "sherman",
    "state_code": "TX",
    "placeMasterId": "P02500000FsoGqdn4P2ZXBLHFVTimlMgcdLUlsAF",
    "placeName": "sherman",
    "state": "TX"
  },
  {
    "city": "dallas",
    "state_code": "TX",
    "placeMasterId": "P02500000FsoGkMY3rbAywuVa9kWOfoNE7vnQ9N4",
    "placeName": "dallas",
    "state": "TX"
  },
  {
    "city": "dallas",
    "state_code": "TX",
    "placeMasterId": "P02500000FsoGkMY3rbAywuVa9kWOfoNE7vnQ9N4",
    "placeName": "dallas",
    "state": "TX"
  },
  {
    "city": "dallas",
    "state_code": "TX",
    "placeMasterId": "P02500000FsoGkMY3rbAywuVa9kWOfoNE7vnQ9N4",
    "placeName": "dallas",
    "state": "TX"
  },
  {
    "city": "cumby",
    "state_code": "TX",
    "placeMasterId": "P02500000FsoGkDhaGCbCGJGPLwAylK52wmCmtHC",
    "placeName": "cumby",
    "state": "TX"
  },
  {
    "city": "detroit",
    "state_code": "TX",
    "placeMasterId": "P02500000FsoGkVOXSzkldVkkxYroaIoYt1NU0lS",
    "placeName": "detroit",
    "state": "TX"
  },
  {
    "city": "ivanhoe",
    "state_code": "TX",
    "placeMasterId": "P02500000FsoGmVFDuXplFvBCCvhfL9tEF6i4Nzg",
    "placeName": "ivanhoe",
    "state": "TX"
  },
  {
    "city": "powderly",
    "state_code": "TX",
    "placeMasterId": "P02500000FsoGpMAlyTNSzw4gHAc1YxV1jXmMxla",
    "placeName": "powderly",
    "state": "TX"
  },
  {
    "city": "omaha",
    "state_code": "TX",
    "placeMasterId": "P02500000FsoGommrYt4KFX5z3vELuzxySGraCru",
    "placeName": "omaha",
    "state": "TX"
  },
  {
    "city": "big sandy",
    "state_code": "TX",
    "placeMasterId": "P02500000FsoGiw5HpdP84u3q7d4DYuhXEw3lvkM",
    "placeName": "big sandy",
    "state": "TX"
  },
  {
    "city": "grapeland",
    "state_code": "TX",
    "placeMasterId": "P02500000FsoGln0ptYwpouxKBryZmi1eL2Hz6mH",
    "placeName": "grapeland",
    "state": "TX"
  },
  {
    "city": "teague",
    "state_code": "TX",
    "placeMasterId": "P02500000FsoGrDAyocsfvkFwij6SPK8s8GG8bwz",
    "placeName": "teague",
    "state": "TX"
  },
  {
    "city": "arlington",
    "state_code": "TX",
    "placeMasterId": "P02500000FsoGiVXr1Rfm16KJiC1xpRRvnErdMUM",
    "placeName": "arlington",
    "state": "TX"
  },
  {
    "city": "burleson",
    "state_code": "TX",
    "placeMasterId": "P02500000FsoGjMcidp8U8hnMX46TINyV3jGkrQH",
    "placeName": "burleson",
    "state": "TX"
  },
  {
    "city": "cresson",
    "state_code": "TX",
    "placeMasterId": "P02500000FsoGkDhaGCbCGJGPLwAylJtCdiCOi9V",
    "placeName": "cresson",
    "state": "TX"
  },
  {
    "city": "krum",
    "state_code": "TX",
    "placeMasterId": "P02500000FsoGmmwB7KzKd7fXoYOVA8i4pV5FEax",
    "placeName": "krum",
    "state": "TX"
  },
  {
    "city": "southmayd",
    "state_code": "TX",
    "placeMasterId": "P02500000FsoGqvU1bpj6YXlb76PcaLLwNzSIfxQ",
    "placeName": "southmayd",
    "state": "TX"
  },
  {
    "city": "albany",
    "state_code": "TX",
    "placeMasterId": "P02500000FsoGiMhNQ35zKV58uNgXuxAga0SxiO4",
    "placeName": "albany",
    "state": "TX"
  },
  {
    "city": "putnam",
    "state_code": "TX",
    "placeMasterId": "P02500000FsoGpV1FZrxFgXJr4yxRTRgLmQQgXy6",
    "placeName": "putnam",
    "state": "TX"
  },
  {
    "city": "oglesby",
    "state_code": "TX",
    "placeMasterId": "P02500000FsoGommrYt4KFX5z3vELuztBBEmPbFg",
    "placeName": "oglesby",
    "state": "TX"
  },
  {
    "city": "mertens",
    "state_code": "TX",
    "placeMasterId": "P02500000FsoGo4YTXuBOoWs72rVGMY35exlojT2",
    "placeName": "mertens",
    "state": "TX"
  },
  {
    "city": "mexia",
    "state_code": "TX",
    "placeMasterId": "P02500000FsoGoDOx9IlBV87HqfqgH2JiTyMFTIk",
    "placeName": "mexia",
    "state": "TX"
  },
  {
    "city": "waco",
    "state_code": "TX",
    "placeMasterId": "P02500000FsoGrdiPcoc1zXzT8A8i8nMQbSmxQI8",
    "placeName": "waco",
    "state": "TX"
  },
  {
    "city": "houston",
    "state_code": "TX",
    "placeMasterId": "P02500000FsoGmDYGhkgBsigqbJ0pWBK8GcFdEcU",
    "placeName": "houston",
    "state": "TX"
  },
  {
    "city": "houston",
    "state_code": "TX",
    "placeMasterId": "P02500000FsoGmDYGhkgBsigqbJ0pWBK8GcFdEcU",
    "placeName": "houston",
    "state": "TX"
  },
  {
    "city": "livingston",
    "state_code": "TX",
    "placeMasterId": "P02500000FsoGnVAZ8JsG47tPpc7aiaPkMmAaRqt",
    "placeName": "livingston",
    "state": "TX"
  },
  {
    "city": "magnolia",
    "state_code": "TX",
    "placeMasterId": "P02500000FsoGnmrWL71pRKNlREoQXZCvj4YyaZH",
    "placeName": "magnolia",
    "state": "TX"
  },
  {
    "city": "bay city",
    "state_code": "TX",
    "placeMasterId": "P02500000FsoGieOKcqFYhhZUW0NNjw2BmCHaLCE",
    "placeName": "bay city",
    "state": "TX"
  },
  {
    "city": "damon",
    "state_code": "TX",
    "placeMasterId": "P02500000FsoGkMY3rbAywuVa9kWOfoLAEkuUxAv",
    "placeName": "damon",
    "state": "TX"
  },
  {
    "city": "kendleton",
    "state_code": "TX",
    "placeMasterId": "P02500000FsoGme5hVwPXwWQN0k35FeHNuwCJ1Po",
    "placeName": "kendleton",
    "state": "TX"
  },
  {
    "city": "stafford",
    "state_code": "TX",
    "placeMasterId": "P02500000FsoGqvU1bpj6YXlb76PcaLb24AZVCsT",
    "placeName": "stafford",
    "state": "TX"
  },
  {
    "city": "galena park",
    "state_code": "TX",
    "placeMasterId": "P02500000FsoGlMTP5NDTl7DnmQwK3EzPwtScwEy",
    "placeName": "galena park",
    "state": "TX"
  },
  {
    "city": "beaumont",
    "state_code": "TX",
    "placeMasterId": "P02500000FsoGinEoEEpLOIofJoineQDrbqYiyGU",
    "placeName": "beaumont",
    "state": "TX"
  },
  {
    "city": "beaumont",
    "state_code": "TX",
    "placeMasterId": "P02500000FsoGinEoEEpLOIofJoineQDrbqYiyGU",
    "placeName": "beaumont",
    "state": "TX"
  },
  {
    "city": "christine",
    "state_code": "TX",
    "placeMasterId": "P02500000FsoGjnA9S0rqCVWswV8j1qvBCyLYxAV",
    "placeName": "christine",
    "state": "TX"
  },
  {
    "city": "canyon lake",
    "state_code": "TX",
    "placeMasterId": "P02500000FsoGjVTCFDiGpJ2XKsRtCs7blsEj48K",
    "placeName": "canyon lake",
    "state": "TX"
  },
  {
    "city": "san antonio",
    "state_code": "TX",
    "placeMasterId": "P02500000FsoGqM67CFPxo8mttr1wwNqfYQdpCPu",
    "placeName": "san antonio",
    "state": "TX"
  },
  {
    "city": "san antonio",
    "state_code": "TX",
    "placeMasterId": "P02500000FsoGqM67CFPxo8mttr1wwNqfYQdpCPu",
    "placeName": "san antonio",
    "state": "TX"
  },
  {
    "city": "san antonio",
    "state_code": "TX",
    "placeMasterId": "P02500000FsoGqM67CFPxo8mttr1wwNqfYQdpCPu",
    "placeName": "san antonio",
    "state": "TX"
  },
  {
    "city": "san antonio",
    "state_code": "TX",
    "placeMasterId": "P02500000FsoGqM67CFPxo8mttr1wwNqfYQdpCPu",
    "placeName": "san antonio",
    "state": "TX"
  },
  {
    "city": "portland",
    "state_code": "TX",
    "placeMasterId": "P02500000FsoGpMAlyTNSzw4gHAc1YxIIOaZ3UZW",
    "placeName": "portland",
    "state": "TX"
  },
  {
    "city": "corpus christi",
    "state_code": "TX",
    "placeMasterId": "P02500000FsoGkDhaGCbCGJGPLwAylJumHp42lmi",
    "placeName": "corpus christi",
    "state": "TX"
  },
  {
    "city": "combes",
    "state_code": "TX",
    "placeMasterId": "P02500000FsoGjw0d3PRct6m3kJU8wLGVEoorDpD",
    "placeName": "combes",
    "state": "TX"
  },
  {
    "city": "edcouch",
    "state_code": "TX",
    "placeMasterId": "P02500000FsoGkn5UfmuL0iF6ZBYePHSwmoi18zw",
    "placeName": "edcouch",
    "state": "TX"
  },
  {
    "city": "edinburg",
    "state_code": "TX",
    "placeMasterId": "P02500000FsoGkn5UfmuL0iF6ZBYePHSuXIKYATl",
    "placeName": "edinburg",
    "state": "TX"
  },
  {
    "city": "harlingen",
    "state_code": "TX",
    "placeMasterId": "P02500000FsoGlvrJUxWcVWCUzgJzhCSb3CniUwj",
    "placeName": "harlingen",
    "state": "TX"
  },
  {
    "city": "la blanca",
    "state_code": "TX",
    "placeMasterId": "P02500000FsoGmvmeijZ7JiuicMjv4cwyCBFX32e",
    "placeName": "la blanca",
    "state": "TX"
  },
  {
    "city": "buchanan dam",
    "state_code": "TX",
    "placeMasterId": "P02500000FsoGjMcidp8U8hnMX46TINeFh4ccL9t",
    "placeName": "buchanan dam",
    "state": "TX"
  },
  {
    "city": "austin",
    "state_code": "TX",
    "placeMasterId": "P02500000FsoGieOKcqFYhhZUW0NNjvrbzzBh3wR",
    "placeName": "austin",
    "state": "TX"
  },
  {
    "city": "dalhart",
    "state_code": "TX",
    "placeMasterId": "P02500000FsoGkMY3rbAywuVa9kWOfoKvIL2L3h8",
    "placeName": "dalhart",
    "state": "TX"
  },
  {
    "city": "lipscomb",
    "state_code": "TX",
    "placeMasterId": "P02500000FsoGnMK5WvITNWeF1nmAo6FXMCM3udY",
    "placeName": "lipscomb",
    "state": "TX"
  },
  {
    "city": "chillicothe",
    "state_code": "TX",
    "placeMasterId": "P02500000FsoGjeJfqcI3VuHi8gnJ7MatRV48l5w",
    "placeName": "chillicothe",
    "state": "TX"
  },
  {
    "city": "estelline",
    "state_code": "TX",
    "placeMasterId": "P02500000FsoGkvvyHBU7hJUHMzu4JlxwDkB5kiK",
    "placeName": "estelline",
    "state": "TX"
  },
  {
    "city": "sundown",
    "state_code": "TX",
    "placeMasterId": "P02500000FsoGr4KVDEItF90luul2UphWKSqFiAa",
    "placeName": "sundown",
    "state": "TX"
  },
  {
    "city": "tahoka",
    "state_code": "TX",
    "placeMasterId": "P02500000FsoGrDAyocsfvkFwij6SPK5taxwKjPq",
    "placeName": "tahoka",
    "state": "TX"
  },
  {
    "city": "lubbock",
    "state_code": "TX",
    "placeMasterId": "P02500000FsoGne12jiS2kj8adQT0d50AbRrldL6",
    "placeName": "lubbock",
    "state": "TX"
  },
  {
    "city": "jayton",
    "state_code": "TX",
    "placeMasterId": "P02500000FsoGmVFDuXplFvBCCvhfLA1VyZukdx5",
    "placeName": "jayton",
    "state": "TX"
  },
  {
    "city": "roscoe",
    "state_code": "TX",
    "placeMasterId": "P02500000FsoGpvYgO3gbkL3NUPzhCuuO3DvQibS",
    "placeName": "roscoe",
    "state": "TX"
  },
  {
    "city": "midland",
    "state_code": "TX",
    "placeMasterId": "P02500000FsoGo4YTXuBOoWs72rVGMY10s9Q1EL7",
    "placeName": "midland",
    "state": "TX"
  },
  {
    "city": "ackerly",
    "state_code": "TX",
    "placeMasterId": "P02500000FsoGiDqtoeWCdtpy6ZL80Sw9OoiKb9X",
    "placeName": "ackerly",
    "state": "TX"
  },
  {
    "city": "imperial",
    "state_code": "TX",
    "placeMasterId": "P02500000FsoGmVFDuXplFvBCCvhfL9qs4P9zK42",
    "placeName": "imperial",
    "state": "TX"
  },
  {
    "city": "mccamey",
    "state_code": "TX",
    "placeMasterId": "P02500000FsoGnmrWL71pRKNlREoQXZCvnMrF1r3",
    "placeName": "mccamey",
    "state": "TX"
  },
  {
    "city": "pyote",
    "state_code": "TX",
    "placeMasterId": "P02500000FsoGpV1FZrxFgXJr4yxRTRi594ujczG",
    "placeName": "pyote",
    "state": "TX"
  },
  {
    "city": "el paso",
    "state_code": "TX",
    "placeMasterId": "P02500000FsoGkn5UfmuL0iF6ZBYePHb6XkiWYkD",
    "placeName": "el paso",
    "state": "TX"
  },
  {
    "city": "el paso",
    "state_code": "TX",
    "placeMasterId": "P02500000FsoGkn5UfmuL0iF6ZBYePHb6XkiWYkD",
    "placeName": "el paso",
    "state": "TX"
  },
  {
    "city": "commerce city",
    "state_code": "CO",
    "placeMasterId": "P02500000FsoEmwFjZFziDhEIRiXkIwENmW1NPjr",
    "placeName": "commerce city",
    "state": "CO"
  },
  {
    "city": "englewood",
    "state_code": "CO",
    "placeMasterId": "P02500000FsoEnDwgm39Hatie3LEa7uzwOVvOryu",
    "placeName": "englewood",
    "state": "CO"
  },
  {
    "city": "sedalia",
    "state_code": "CO",
    "placeMasterId": "P02500000FsoEoVYzCcLLmIvDHeLLKKK1d2qDz7d",
    "placeName": "sedalia",
    "state": "CO"
  },
  {
    "city": "denver",
    "state_code": "CO",
    "placeMasterId": "P02500000FsoEmwFjZFziDhEIRiXkIwGQWtD2cc9",
    "placeName": "denver",
    "state": "CO"
  },
  {
    "city": "empire",
    "state_code": "CO",
    "placeMasterId": "P02500000FsoEnDwgm39Hatie3LEa7uzRwCp3CAJ",
    "placeName": "empire",
    "state": "CO"
  },
  {
    "city": "leadville",
    "state_code": "CO",
    "placeMasterId": "P02500000FsoEnnKbBdSQLIhLGacFlsU79IRYzgJ",
    "placeName": "leadville",
    "state": "CO"
  },
  {
    "city": "estes park",
    "state_code": "CO",
    "placeMasterId": "P02500000FsoEnDwgm39Hatie3LEa7uzOFU7wKgh",
    "placeName": "estes park",
    "state": "CO"
  },
  {
    "city": "laporte",
    "state_code": "CO",
    "placeMasterId": "P02500000FsoEnnKbBdSQLIhLGacFlsSldywpvQM",
    "placeName": "laporte",
    "state": "CO"
  },
  {
    "city": "snyder",
    "state_code": "CO",
    "placeMasterId": "P02500000FsoEoePSo0v8SuAO5SglEoeRqej5tRC",
    "placeName": "snyder",
    "state": "CO"
  },
  {
    "city": "colorado springs",
    "state_code": "CO",
    "placeMasterId": "P02500000FsoEmwFjZFziDhEIRiXkIwGl9Aki2Up",
    "placeName": "colorado springs",
    "state": "CO"
  },
  {
    "city": "ignacio",
    "state_code": "CO",
    "placeMasterId": "P02500000FsoEnVddyqIqy6CzexvPwtm0YmXNkta",
    "placeName": "ignacio",
    "state": "CO"
  },
  {
    "city": "montrose",
    "state_code": "CO",
    "placeMasterId": "P02500000FsoEo51YOQbziVBgsDJ5arApe3FjaKI",
    "placeName": "montrose",
    "state": "CO"
  },
  {
    "city": "powell",
    "state_code": "WY",
    "placeMasterId": "P02500000FsoH9TW61MlBsdaFYfJx21piQ77I1cv",
    "placeName": "powell",
    "state": "WY"
  },
  {
    "city": "powder river",
    "state_code": "WY",
    "placeMasterId": "P02500000FsoH9TW61MlBsdaFYfJx21jLo7qLmyW",
    "placeName": "powder river",
    "state": "WY"
  },
  {
    "city": "buffalo",
    "state_code": "WY",
    "placeMasterId": "P02500000FsoH8lHi0NsGRdMNXbarTZvWJHg3CsV",
    "placeName": "buffalo",
    "state": "WY"
  },
  {
    "city": "rock springs",
    "state_code": "WY",
    "placeMasterId": "P02500000FsoH9TW61MlBsdaFYfJx21nDXD4lVch",
    "placeName": "rock springs",
    "state": "WY"
  },
  {
    "city": "boulder",
    "state_code": "WY",
    "placeMasterId": "P02500000FsoH8lHi0NsGRdMNXbarTZpPW7DmzWi",
    "placeName": "boulder",
    "state": "WY"
  },
  {
    "city": "fort bridger",
    "state_code": "WY",
    "placeMasterId": "P02500000FsoH92yfDB1popqj9EHhIYd7kNPi0H8",
    "placeName": "fort bridger",
    "state": "WY"
  },
  {
    "city": "oakley",
    "state_code": "ID",
    "placeMasterId": "P02500000FsoF0dVZTJP6BMj1ZfhrlxuIJLmHijD",
    "placeName": "oakley",
    "state": "ID"
  },
  {
    "city": "mccall",
    "state_code": "ID",
    "placeMasterId": "P02500000FsoF0Uf5rupJUlTqlrMRrTWM9jXtkLX",
    "placeName": "mccall",
    "state": "ID"
  },
  {
    "city": "kellogg",
    "state_code": "ID",
    "placeMasterId": "P02500000FsoF0Uf5rupJUlTqlrMRrTVOAD2LRPL",
    "placeName": "kellogg",
    "state": "ID"
  },
  {
    "city": "midway",
    "state_code": "UT",
    "placeMasterId": "P02500000FsoGtLs8rZXSEkvYluHj4fiH8zTpcMv",
    "placeName": "midway",
    "state": "UT"
  },
  {
    "city": "oakley",
    "state_code": "UT",
    "placeMasterId": "P02500000FsoGtUicSy7EvMAjZid8zA8z4LM0JL1",
    "placeName": "oakley",
    "state": "UT"
  },
  {
    "city": "wallsburg",
    "state_code": "UT",
    "placeMasterId": "P02500000FsoGu46WsYQNfl9Qmy0od7UWhcce58W",
    "placeName": "wallsburg",
    "state": "UT"
  },
  {
    "city": "salt lake city",
    "state_code": "UT",
    "placeMasterId": "P02500000FsoGtmPZflGoIYf5BLJyo8m8TJqdpCK",
    "placeName": "salt lake city",
    "state": "UT"
  },
  {
    "city": "newton",
    "state_code": "UT",
    "placeMasterId": "P02500000FsoGtLs8rZXSEkvYluHj4fohJ26PY2B",
    "placeName": "newton",
    "state": "UT"
  },
  {
    "city": "emery",
    "state_code": "UT",
    "placeMasterId": "P02500000FsoGsddkqaeWnkhgkqYdWDxjlJzeAVG",
    "placeName": "emery",
    "state": "UT"
  },
  {
    "city": "goshen",
    "state_code": "UT",
    "placeMasterId": "P02500000FsoGsmUERzEJULwrYeu3QiP8t90kRHG",
    "placeName": "goshen",
    "state": "UT"
  },
  {
    "city": "mayfield",
    "state_code": "UT",
    "placeMasterId": "P02500000FsoGtD1fGAxfY9gNy5wJABRXJgXxXMV",
    "placeName": "mayfield",
    "state": "UT"
  },
  {
    "city": "sigurd",
    "state_code": "UT",
    "placeMasterId": "P02500000FsoGtmPZflGoIYf5BLJyo8oLS6IRgnr",
    "placeName": "sigurd",
    "state": "UT"
  },
  {
    "city": "richfield",
    "state_code": "UT",
    "placeMasterId": "P02500000FsoGtdZ64Mh1bxPuNWyYteYQbAuHk5O",
    "placeName": "richfield",
    "state": "UT"
  },
  {
    "city": "lyman",
    "state_code": "UT",
    "placeMasterId": "P02500000FsoGtD1fGAxfY9gNy5wJABPc5ED4dyG",
    "placeName": "lyman",
    "state": "UT"
  },
  {
    "city": "monroe",
    "state_code": "UT",
    "placeMasterId": "P02500000FsoGtLs8rZXSEkvYluHj4fjmUmvhnaW",
    "placeName": "monroe",
    "state": "UT"
  },
  {
    "city": "santa clara",
    "state_code": "UT",
    "placeMasterId": "P02500000FsoGtdZ64Mh1bxPuNWyYteaTLfjVhvJ",
    "placeName": "santa clara",
    "state": "UT"
  },
  {
    "city": "phoenix",
    "state_code": "AZ",
    "placeMasterId": "P02500000FsoEZWgqrzjtdEDuvO4SetJca76kZR3",
    "placeName": "phoenix",
    "state": "AZ"
  },
  {
    "city": "hayden",
    "state_code": "AZ",
    "placeMasterId": "P02500000FsoEYxIwSPQkspFDi8gn0vn8cVf6j9m",
    "placeName": "hayden",
    "state": "AZ"
  },
  {
    "city": "scottsdale",
    "state_code": "AZ",
    "placeMasterId": "P02500000FsoEZoNo4mtT0QiGX0lITs2v218sukG",
    "placeName": "scottsdale",
    "state": "AZ"
  },
  {
    "city": "ehrenberg",
    "state_code": "AZ",
    "placeMasterId": "P02500000FsoEYfbzFcHBVcks6VzxBx87aesHK3z",
    "placeName": "ehrenberg",
    "state": "AZ"
  },
  {
    "city": "surprise",
    "state_code": "AZ",
    "placeMasterId": "P02500000FsoEZxEHgBTFh1xRKp6iOMSORrjKMSL",
    "placeName": "surprise",
    "state": "AZ"
  },
  {
    "city": "tucson",
    "state_code": "AZ",
    "placeMasterId": "P02500000FsoEa64lHa32NdCc8dS8IqpdZHyNtyf",
    "placeName": "tucson",
    "state": "AZ"
  },
  {
    "city": "fredonia",
    "state_code": "AZ",
    "placeMasterId": "P02500000FsoEYoSSr0qyCE02uKLN6RRKsYPVV6C",
    "placeName": "fredonia",
    "state": "AZ"
  },
  {
    "city": "tonalea",
    "state_code": "AZ",
    "placeMasterId": "P02500000FsoEaEvEsycp4ERmwRnYDLAAS3C8Suc",
    "placeName": "tonalea",
    "state": "AZ"
  },
  {
    "city": "peach springs",
    "state_code": "AZ",
    "placeMasterId": "P02500000FsoEZWgqrzjtdEDuvO4SetHnpCehi4P",
    "placeName": "peach springs",
    "state": "AZ"
  },
  {
    "city": "valentine",
    "state_code": "AZ",
    "placeMasterId": "P02500000FsoEaEvEsycp4ERmwRnYDLA4ptbEvsg",
    "placeName": "valentine",
    "state": "AZ"
  },
  {
    "city": "dolan springs",
    "state_code": "AZ",
    "placeMasterId": "P02500000FsoEYWlVeDhOp1VhIheXHSlNerCNM5i",
    "placeName": "dolan springs",
    "state": "AZ"
  },
  {
    "city": "edgewood",
    "state_code": "NM",
    "placeMasterId": "P02500000FsoFyhqaPCOhSGlNoX8oMCReSUzZwNt",
    "placeName": "edgewood",
    "state": "NM"
  },
  {
    "city": "eagle nest",
    "state_code": "NM",
    "placeMasterId": "P02500000FsoFyhqaPCOhSGlNoX8oMCOK56G7P71",
    "placeName": "eagle nest",
    "state": "NM"
  },
  {
    "city": "arrey",
    "state_code": "NM",
    "placeMasterId": "P02500000FsoFyHJ9b0fLOT1rP66YcjC0USAYF7J",
    "placeName": "arrey",
    "state": "NM"
  },
  {
    "city": "berino",
    "state_code": "NM",
    "placeMasterId": "P02500000FsoFyHJ9b0fLOT1rP66YcjHd6YhBsjS",
    "placeName": "berino",
    "state": "NM"
  },
  {
    "city": "hachita",
    "state_code": "NM",
    "placeMasterId": "P02500000FsoFyzXXbzYGpTFjQ9peBBDKh3xN04c",
    "placeName": "hachita",
    "state": "NM"
  },
  {
    "city": "pinos altos",
    "state_code": "NM",
    "placeMasterId": "P02500000FsoFzzSsplaldfxx2qFZYbaJvgz1bfE",
    "placeName": "pinos altos",
    "state": "NM"
  },
  {
    "city": "alamogordo",
    "state_code": "NM",
    "placeMasterId": "P02500000FsoFyHJ9b0fLOT1rP66Ycj832XSEir2",
    "placeName": "alamogordo",
    "state": "NM"
  },
  {
    "city": "orogrande",
    "state_code": "NM",
    "placeMasterId": "P02500000FsoFzqcPEN0yx4imF1u9e7PfNPusRYA",
    "placeName": "orogrande",
    "state": "NM"
  },
  {
    "city": "north las vegas",
    "state_code": "NV",
    "placeMasterId": "P02500000FsoFuZIjuhevWqfKVz7gvzZ3kBq8jkB",
    "placeName": "north las vegas",
    "state": "NV"
  },
  {
    "city": "reno",
    "state_code": "NV",
    "placeMasterId": "P02500000FsoFuZIjuhevWqfKVz7gvzemDKMzraO",
    "placeName": "reno",
    "state": "NV"
  },
  {
    "city": "carlin",
    "state_code": "NV",
    "placeMasterId": "P02500000FsoFu8lJ6VvZT2vo6Y5RCWVjqzrIWcb",
    "placeName": "carlin",
    "state": "NV"
  },
  {
    "city": "chicopee",
    "state_code": "MA",
    "placeMasterId": "P02500000FsoFWJPZNJXQij3hvwOe2iQ5MICNfya",
    "placeName": "chicopee",
    "state": "MA"
  },
  {
    "city": "south hadley",
    "state_code": "MA",
    "placeMasterId": "P02500000FsoHeRBhuO0ayzh3tsHdkKE6dIWS0OC",
    "placeName": "south hadley",
    "state": "MA"
  },
  {
    "city": "williamsburg",
    "state_code": "MA",
    "placeMasterId": "P02500000FsoHea2BVmaNfawEhgd3eohjvKAhERw",
    "placeName": "williamsburg",
    "state": "MA"
  },
  {
    "city": "middlefield",
    "state_code": "MA",
    "placeMasterId": "P02500000FsoHe0eH6CHEvBxXURFO0rDebaVUeXu",
    "placeName": "middlefield",
    "state": "MA"
  },
  {
    "city": "williamstown",
    "state_code": "MA",
    "placeMasterId": "P02500000FsoHAtys3KX2ke1zamm88vXNM5hjWlW",
    "placeName": "williamstown",
    "state": "MA"
  },
  {
    "city": "worcester",
    "state_code": "MA",
    "placeMasterId": "P02500000FsoFX1dxOIQM9jHZx07jbAFLDi9kkRa",
    "placeName": "worcester",
    "state": "MA"
  },
  {
    "city": "acton",
    "state_code": "MA",
    "placeMasterId": "P02500000FsoHdIPt5DOJUBjfTNWISPOsdZUKt9H",
    "placeName": "acton",
    "state": "MA"
  },
  {
    "city": "concord",
    "state_code": "MA",
    "placeMasterId": "P02500000FsoHda6qI0XsrOE150D8HO1EoPQag8w",
    "placeName": "concord",
    "state": "MA"
  },
  {
    "city": "natick",
    "state_code": "MA",
    "placeMasterId": "P02500000FsoHe0eH6CHEvBxXURFO0rE4Q0gP52M",
    "placeName": "natick",
    "state": "MA"
  },
  {
    "city": "sudbury",
    "state_code": "MA",
    "placeMasterId": "P02500000FsoHeRBhuO0ayzh3tsHdkKEm7dxW6ov",
    "placeName": "sudbury",
    "state": "MA"
  },
  {
    "city": "georgetown",
    "state_code": "MA",
    "placeMasterId": "P02500000FsoHdixJtP7fXzTBsoYYBsSLaGqhrLA",
    "placeName": "georgetown",
    "state": "MA"
  },
  {
    "city": "lowell",
    "state_code": "MA",
    "placeMasterId": "P02500000FsoFWb6Wa6h05vY3XZ5Trh8C13Bjmyh",
    "placeName": "lowell",
    "state": "MA"
  },
  {
    "city": "ipswich",
    "state_code": "MA",
    "placeMasterId": "P02500000FsoHAtys3KX2ke1zamm88vLtwX0s8Ga",
    "placeName": "ipswich",
    "state": "MA"
  },
  {
    "city": "boston",
    "state_code": "MA",
    "placeMasterId": "P02500000FsoFWJPZNJXQij3hvwOe2iNmqEqJmO9",
    "placeName": "boston",
    "state": "MA"
  },
  {
    "city": "lexington",
    "state_code": "MA",
    "placeMasterId": "P02500000FsoHBBfpG7gc7qWLCPSxxu6bc9YL7Fc",
    "placeName": "lexington",
    "state": "MA"
  },
  {
    "city": "north falmouth",
    "state_code": "MA",
    "placeMasterId": "P02500000FsoFWb6Wa6h05vY3XZ5TrhGFxEC00BD",
    "placeName": "north falmouth",
    "state": "MA"
  },
  {
    "city": "west wareham",
    "state_code": "MA",
    "placeMasterId": "P02500000FsoFX1dxOIQM9jHZx07jbACiRhUrXnV",
    "placeName": "west wareham",
    "state": "MA"
  },
  {
    "city": "provincetown",
    "state_code": "MA",
    "placeMasterId": "P02500000FsoHAl8ORvxG42momyQiER6jBTPBnS7",
    "placeName": "provincetown",
    "state": "MA"
  },
  {
    "city": "west dennis",
    "state_code": "MA",
    "placeMasterId": "P02500000FsoFWsnTmtqZT82P9BmJgftW4cUMZk9",
    "placeName": "west dennis",
    "state": "MA"
  },
  {
    "city": "rochester",
    "state_code": "MA",
    "placeMasterId": "P02500000FsoHeILEIzQoIORt63wDppuLmcVQsyL",
    "placeName": "rochester",
    "state": "MA"
  },
  {
    "city": "greenfield",
    "state_code": "NH",
    "placeMasterId": "P02500000FsoIBgOxRkUZ4xif64m12Sm2OVp3kFg",
    "placeName": "greenfield",
    "state": "NH"
  },
  {
    "city": "new hampton",
    "state_code": "NH",
    "placeMasterId": "P02500000FsoIBpFR394LlYxptt7QwxKYXmrpzUT",
    "placeName": "new hampton",
    "state": "NH"
  },
  {
    "city": "new london",
    "state_code": "NH",
    "placeMasterId": "P02500000FsoIBpFR394LlYxptt7QwxFowByqEew",
    "placeName": "new london",
    "state": "NH"
  },
  {
    "city": "wilmot",
    "state_code": "NH",
    "placeMasterId": "P02500000FsoICOdLSjNUVxwX78V6aucttiZhGM5",
    "placeName": "wilmot",
    "state": "NH"
  },
  {
    "city": "freedom",
    "state_code": "NH",
    "placeMasterId": "P02500000FsoIBXYTqLumOMTUIGQb7yZAVjj661B",
    "placeName": "freedom",
    "state": "NH"
  },
  {
    "city": "north berwick",
    "state_code": "ME",
    "placeMasterId": "P02500000FsoHAl8ORvxG42momyQiER6CluJtlLP",
    "placeName": "north berwick",
    "state": "ME"
  },
  {
    "city": "york harbor",
    "state_code": "ME",
    "placeMasterId": "P02500000FsoFTAn46aq9bVfsG4nRzwHLO8Op7Pr",
    "placeName": "york harbor",
    "state": "ME"
  },
  {
    "city": "oxford",
    "state_code": "ME",
    "placeMasterId": "P02500000FsoHATRRF8nggqITBLjsPSRxGpk4NTT",
    "placeName": "oxford",
    "state": "ME"
  },
  {
    "city": "wilton",
    "state_code": "ME",
    "placeMasterId": "P02500000FsoHATRRF8nggqITBLjsPSDPr1ZjpmL",
    "placeName": "wilton",
    "state": "ME"
  },
  {
    "city": "randolph",
    "state_code": "ME",
    "placeMasterId": "P02500000FsoHATRRF8nggqITBLjsPSFjBl7fouc",
    "placeName": "randolph",
    "state": "ME"
  },
  {
    "city": "greenbush",
    "state_code": "ME",
    "placeMasterId": "P02500000FsoHfR738A35nCPHWYhZ7kqJN3CGE3Q",
    "placeName": "greenbush",
    "state": "ME"
  },
  {
    "city": "east millinocket",
    "state_code": "ME",
    "placeMasterId": "P02500000FsoHATRRF8nggqITBLjsPSRacaMdbJY",
    "placeName": "east millinocket",
    "state": "ME"
  },
  {
    "city": "hampden",
    "state_code": "ME",
    "placeMasterId": "P02500000FsoHAcHuqXNTNRXdzA5IJwbjkg9bVfq",
    "placeName": "hampden",
    "state": "ME"
  },
  {
    "city": "milford",
    "state_code": "ME",
    "placeMasterId": "P02500000FsoHAcHuqXNTNRXdzA5IJwgTO4LrHWc",
    "placeName": "milford",
    "state": "ME"
  },
  {
    "city": "sebec",
    "state_code": "ME",
    "placeMasterId": "P02500000FsoHgIBukXVnunsKLQm4ahA4Dj1z7e9",
    "placeName": "sebec",
    "state": "ME"
  },
  {
    "city": "boothbay",
    "state_code": "ME",
    "placeMasterId": "P02500000FsoHeisf7BAAMCBPVUyTZJ7yToPYGsN",
    "placeName": "boothbay",
    "state": "ME"
  },
  {
    "city": "nobleboro",
    "state_code": "ME",
    "placeMasterId": "P02500000FsoHg0UxXkMEXbNyjo5EliQKSsqWMnR",
    "placeName": "nobleboro",
    "state": "ME"
  },
  {
    "city": "sullivan",
    "state_code": "ME",
    "placeMasterId": "P02500000FsoHgR2OLw5abP7V9F7UVBa5Zdw1OPN",
    "placeName": "sullivan",
    "state": "ME"
  },
  {
    "city": "monhegan",
    "state_code": "ME",
    "placeMasterId": "P02500000FsoHATRRF8nggqITBLjsPSGRlasDUaA",
    "placeName": "monhegan",
    "state": "ME"
  },
  {
    "city": "wells river",
    "state_code": "VT",
    "placeMasterId": "P02500000FsoGuUdxgk9jjYsxCP34Maoiodob9Kr",
    "placeName": "wells river",
    "state": "VT"
  },
  {
    "city": "grafton",
    "state_code": "VT",
    "placeMasterId": "P02500000FsoIeeDstDeyYuP2ButqzuA9U85J2AE",
    "placeName": "grafton",
    "state": "VT"
  },
  {
    "city": "townshend",
    "state_code": "VT",
    "placeMasterId": "P02500000FsoIfDbnIny7JJNjPAHWdrhSYeVlzKq",
    "placeName": "townshend",
    "state": "VT"
  },
  {
    "city": "whitingham",
    "state_code": "VT",
    "placeMasterId": "P02500000FsoIfMSGuCXtzucuCycwYM3yTQ3J8tb",
    "placeName": "whitingham",
    "state": "VT"
  },
  {
    "city": "worcester",
    "state_code": "VT",
    "placeMasterId": "P02500000FsoIfVIkVb7ggVs50myMSqOIuJLg0A5",
    "placeName": "worcester",
    "state": "VT"
  },
  {
    "city": "beecher falls",
    "state_code": "VT",
    "placeMasterId": "P02500000FsoGuCx0Tx0AMMObamMEXc7H8ZWnNzM",
    "placeName": "beecher falls",
    "state": "VT"
  },
  {
    "city": "guildhall",
    "state_code": "VT",
    "placeMasterId": "P02500000FsoIeeDstDeyYuP2ButqzuBKTLOoZCz",
    "placeName": "guildhall",
    "state": "VT"
  },
  {
    "city": "bloomfield",
    "state_code": "CT",
    "placeMasterId": "P02500000FsoHGBIXMzt6As5RJpYar3IdOf1f6jf",
    "placeName": "bloomfield",
    "state": "CT"
  },
  {
    "city": "norfolk",
    "state_code": "CT",
    "placeMasterId": "P02500000FsoHGkgRmaCEvH48X4wGV0c2hSrADt6",
    "placeName": "norfolk",
    "state": "CT"
  },
  {
    "city": "barkhamsted",
    "state_code": "CT",
    "placeMasterId": "P02500000FsoHGK90yOSsrTKc7du0lXSVMSeNwlD",
    "placeName": "barkhamsted",
    "state": "CT"
  },
  {
    "city": "windsor locks",
    "state_code": "CT",
    "placeMasterId": "P02500000FsoH9u3WpYUXwRJly6MClUnonpx2991",
    "placeName": "windsor locks",
    "state": "CT"
  },
  {
    "city": "east hartford",
    "state_code": "CT",
    "placeMasterId": "P02500000FsoEp4wtcCeUWhtuUtj0yHoueQFQ7UA",
    "placeName": "east hartford",
    "state": "CT"
  },
  {
    "city": "chaplin",
    "state_code": "CT",
    "placeMasterId": "P02500000FsoHGK90yOSsrTKc7du0lXVZgzcsnrw",
    "placeName": "chaplin",
    "state": "CT"
  },
  {
    "city": "woodstock",
    "state_code": "CT",
    "placeMasterId": "P02500000FsoHH2NOzNLoITYU8hd6JzOCexUnew1",
    "placeName": "woodstock",
    "state": "CT"
  },
  {
    "city": "montville",
    "state_code": "CT",
    "placeMasterId": "P02500000FsoHGbpyBBcSEfoxjGaqaWL7Fsc260y",
    "placeName": "montville",
    "state": "CT"
  },
  {
    "city": "new haven",
    "state_code": "CT",
    "placeMasterId": "P02500000FsoEpMdqozo3tuOG6WPqnGYhHDltz2z",
    "placeName": "new haven",
    "state": "CT"
  },
  {
    "city": "newark",
    "state_code": "NJ",
    "placeMasterId": "P02500000FsoFwqqNZ2tUWSa7MyeNVpQgYNosLBh",
    "placeName": "newark",
    "state": "NJ"
  },
  {
    "city": "jersey city",
    "state_code": "NJ",
    "placeMasterId": "P02500000FsoFwQIwkrA8SeqaxXc7mMMNxqPJn2t",
    "placeName": "jersey city",
    "state": "NJ"
  },
  {
    "city": "jersey city",
    "state_code": "NJ",
    "placeMasterId": "P02500000FsoFwQIwkrA8SeqaxXc7mMMNxqPJn2t",
    "placeName": "jersey city",
    "state": "NJ"
  },
  {
    "city": "vernon",
    "state_code": "NJ",
    "placeMasterId": "P02500000FsoIDXPAHtzm0ltvXdGRsphSWXwj2Pj",
    "placeName": "vernon",
    "state": "NJ"
  },
  {
    "city": "totowa",
    "state_code": "NJ",
    "placeMasterId": "P02500000FsoFxqlimovzKfIKzf4ItG9HblKX2z0",
    "placeName": "totowa",
    "state": "NJ"
  },
  {
    "city": "colts neck",
    "state_code": "NJ",
    "placeMasterId": "P02500000FsoICXTp47xHCZBhuwqWVP4ubB89jXX",
    "placeName": "colts neck",
    "state": "NJ"
  },
  {
    "city": "spring lake",
    "state_code": "NJ",
    "placeMasterId": "P02500000FsoFxhvFBQMCe43ABqisyloTDBdHpRu",
    "placeName": "spring lake",
    "state": "NJ"
  },
  {
    "city": "long valley",
    "state_code": "NJ",
    "placeMasterId": "P02500000FsoFwhztxeJhprKwZAIxbL3gvvXqxsW",
    "placeName": "long valley",
    "state": "NJ"
  },
  {
    "city": "sparta",
    "state_code": "NJ",
    "placeMasterId": "P02500000FsoIDXPAHtzm0ltvXdGRspZuYg5rMVF",
    "placeName": "sparta",
    "state": "NJ"
  },
  {
    "city": "lawnside",
    "state_code": "NJ",
    "placeMasterId": "P02500000FsoFwZ9QMFjv9G5llLxXgqfoTFowX3d",
    "placeName": "lawnside",
    "state": "NJ"
  },
  {
    "city": "mantua",
    "state_code": "NJ",
    "placeMasterId": "P02500000FsoID6rjTiGPwyAP8CEC9MU6eqCObON",
    "placeName": "mantua",
    "state": "NJ"
  },
  {
    "city": "stratford",
    "state_code": "NJ",
    "placeMasterId": "P02500000FsoFxhvFBQMCe43ABqisylnKCyNCcr2",
    "placeName": "stratford",
    "state": "NJ"
  },
  {
    "city": "camden",
    "state_code": "NJ",
    "placeMasterId": "P02500000FsoFvZE58ThQL3NY8fXcJQ9WqxkSIUJ",
    "placeName": "camden",
    "state": "NJ"
  },
  {
    "city": "jackson",
    "state_code": "NJ",
    "placeMasterId": "P02500000FsoICy1FsJgdGMvEKNsmEs9MzpyZ5VF",
    "placeName": "jackson",
    "state": "NJ"
  },
  {
    "city": "plainsboro",
    "state_code": "NJ",
    "placeMasterId": "P02500000FsoIDFiD56qCdZPZw0Zc3qvf8CkNExf",
    "placeName": "plainsboro",
    "state": "NJ"
  },
  {
    "city": "trenton",
    "state_code": "NJ",
    "placeMasterId": "P02500000FsoFxqlimovzKfIKzf4ItG76ZSi5TQc",
    "placeName": "trenton",
    "state": "NJ"
  },
  {
    "city": "toms river",
    "state_code": "NJ",
    "placeMasterId": "P02500000FsoHBl3jfhzksFV2PeqdbrjnDDuBoT5",
    "placeName": "toms river",
    "state": "NJ"
  },
  {
    "city": "iselin",
    "state_code": "NJ",
    "placeMasterId": "P02500000FsoFwQIwkrA8SeqaxXc7mMGNGpSqCX0",
    "placeName": "iselin",
    "state": "NJ"
  },
  {
    "city": "highland park",
    "state_code": "NJ",
    "placeMasterId": "P02500000FsoFwHST9SaLm3bQ9jGhrrz4owhf5vm",
    "placeName": "highland park",
    "state": "NJ"
  },
  {
    "city": "new york",
    "state_code": "NY",
    "placeMasterId": "P02500000FsoG3hTIW4bBVIKTvxERFLPbpMNP8u9",
    "placeName": "new york",
    "state": "NY"
  },
  {
    "city": "new york",
    "state_code": "NY",
    "placeMasterId": "P02500000FsoG3hTIW4bBVIKTvxERFLPbpMNP8u9",
    "placeName": "new york",
    "state": "NY"
  },
  {
    "city": "new york",
    "state_code": "NY",
    "placeMasterId": "P02500000FsoG3hTIW4bBVIKTvxERFLPbpMNP8u9",
    "placeName": "new york",
    "state": "NY"
  },
  {
    "city": "new york",
    "state_code": "NY",
    "placeMasterId": "P02500000FsoG3hTIW4bBVIKTvxERFLPbpMNP8u9",
    "placeName": "new york",
    "state": "NY"
  },
  {
    "city": "buchanan",
    "state_code": "NY",
    "placeMasterId": "P02500000FsoG1H5BGKmpp5AWH9MKl0vcR2qWzqt",
    "placeName": "buchanan",
    "state": "NY"
  },
  {
    "city": "irvington",
    "state_code": "NY",
    "placeMasterId": "P02500000FsoG2zEuV5iG4I6butVLgtO7m77bs3e",
    "placeName": "irvington",
    "state": "NY"
  },
  {
    "city": "valley cottage",
    "state_code": "NY",
    "placeMasterId": "P02500000FsoG5Pd1kpWbkVGZZhNSBDnFATFWOja",
    "placeName": "valley cottage",
    "state": "NY"
  },
  {
    "city": "west point",
    "state_code": "NY",
    "placeMasterId": "P02500000FsoG5hJyxcgB7hkvBK4I0CaLLalyU0b",
    "placeName": "west point",
    "state": "NY"
  },
  {
    "city": "brooklyn",
    "state_code": "NY",
    "placeMasterId": "P02500000FsoHCc8bI5SSzqy5EWv94nnzJKQNSS5",
    "placeName": "brooklyn",
    "state": "NY"
  },
  {
    "city": "wyandanch",
    "state_code": "NY",
    "placeMasterId": "P02500000FsoG5qASZ1FxoJ05z8Phugn8saDrIqY",
    "placeName": "wyandanch",
    "state": "NY"
  },
  {
    "city": "hampton bays",
    "state_code": "NY",
    "placeMasterId": "P02500000FsoG2YhTgtyu0UN5VST5xQL0ewH4s8U",
    "placeName": "hampton bays",
    "state": "NY"
  },
  {
    "city": "stephentown",
    "state_code": "NY",
    "placeMasterId": "P02500000FsoIGos9A1GpoaWw1JD3q6GTdxxNEtz",
    "placeName": "stephentown",
    "state": "NY"
  },
  {
    "city": "valley falls",
    "state_code": "NY",
    "placeMasterId": "P02500000FsoG5Pd1kpWbkVGZZhNSBDkUXZLMh68",
    "placeName": "valley falls",
    "state": "NY"
  },
  {
    "city": "accord",
    "state_code": "NY",
    "placeMasterId": "P02500000FsoG0hhGqkTh4gBp3tyf73XX7TbN1o2",
    "placeName": "accord",
    "state": "NY"
  },
  {
    "city": "shokan",
    "state_code": "NY",
    "placeMasterId": "P02500000FsoG4qF7LFDT06HsMRzmXGN3RUDGJCy",
    "placeName": "shokan",
    "state": "NY"
  },
  {
    "city": "woodstock",
    "state_code": "NY",
    "placeMasterId": "P02500000FsoHDc3wVrUxo3gIrDL4SESjhzsP3DB",
    "placeName": "woodstock",
    "state": "NY"
  },
  {
    "city": "chittenango",
    "state_code": "NY",
    "placeMasterId": "P02500000FsoG1PverjMcVgPh4xhkfVREUWQfEsy",
    "placeName": "chittenango",
    "state": "NY"
  },
  {
    "city": "freeville",
    "state_code": "NY",
    "placeMasterId": "P02500000FsoG2H0WU6pKdHsjtpmG8RfTpL94cvW",
    "placeName": "freeville",
    "state": "NY"
  },
  {
    "city": "hannibal",
    "state_code": "NY",
    "placeMasterId": "P02500000FsoHD2g26HBp3ehbdxxOoGvkTqcBNhp",
    "placeName": "hannibal",
    "state": "NY"
  },
  {
    "city": "manlius",
    "state_code": "NY",
    "placeMasterId": "P02500000FsoHCtpYUsc2N3SQq9bytmdfd0Rv2UT",
    "placeName": "manlius",
    "state": "NY"
  },
  {
    "city": "clayville",
    "state_code": "NY",
    "placeMasterId": "P02500000FsoG1Ym8T7wPCHersm3AZzidQAuo3VI",
    "placeName": "clayville",
    "state": "NY"
  },
  {
    "city": "poland",
    "state_code": "NY",
    "placeMasterId": "P02500000FsoHBtuDH6ZXYqkDDTC3WM45ebirz8K",
    "placeName": "poland",
    "state": "NY"
  },
  {
    "city": "westford",
    "state_code": "NY",
    "placeMasterId": "P02500000FsoIHFPZyD0BsOGSQkFJZZIu7y8msUj",
    "placeName": "westford",
    "state": "NY"
  },
  {
    "city": "depew",
    "state_code": "NY",
    "placeMasterId": "P02500000FsoG1qT5fv5yZU9DUOk0OyTqwAv5bde",
    "placeName": "depew",
    "state": "NY"
  },
  {
    "city": "farnham",
    "state_code": "NY",
    "placeMasterId": "P02500000FsoG28A2siFXwgdZ61QqDxHT6eaiTh0",
    "placeName": "farnham",
    "state": "NY"
  },
  {
    "city": "gainesville",
    "state_code": "NY",
    "placeMasterId": "P02500000FsoHDkuQ7G4kUevTf1gUMikrBBb9EfX",
    "placeName": "gainesville",
    "state": "NY"
  },
  {
    "city": "north collins",
    "state_code": "NY",
    "placeMasterId": "P02500000FsoHCKRe5IItceTjcuEJFpACuFF0EMA",
    "placeName": "north collins",
    "state": "NY"
  },
  {
    "city": "strykersville",
    "state_code": "NY",
    "placeMasterId": "P02500000FsoG57w4Y2N2NImDy4gcMF1n99XjXqC",
    "placeName": "strykersville",
    "state": "NY"
  },
  {
    "city": "churchville",
    "state_code": "NY",
    "placeMasterId": "P02500000FsoG1Ym8T7wPCHersm3AZzk3YTCkTVt",
    "placeName": "churchville",
    "state": "NY"
  },
  {
    "city": "north rose",
    "state_code": "NY",
    "placeMasterId": "P02500000FsoG3zAFirkksUopXZvH4K5OCKvP3ez",
    "placeName": "north rose",
    "state": "NY"
  },
  {
    "city": "palmyra",
    "state_code": "NY",
    "placeMasterId": "P02500000FsoHDkuQ7G4kUevTf1gUMinVvq6T2Tc",
    "placeName": "palmyra",
    "state": "NY"
  },
  {
    "city": "rochester",
    "state_code": "NY",
    "placeMasterId": "P02500000FsoG4YYA8S3tctnWkpIwiHXc7FWLpT6",
    "placeName": "rochester",
    "state": "NY"
  },
  {
    "city": "rochester",
    "state_code": "NY",
    "placeMasterId": "P02500000FsoG4YYA8S3tctnWkpIwiHXc7FWLpT6",
    "placeName": "rochester",
    "state": "NY"
  },
  {
    "city": "ellicottville",
    "state_code": "NY",
    "placeMasterId": "P02500000FsoHBtuDH6ZXYqkDDTC3WLwC0pkpbWH",
    "placeName": "ellicottville",
    "state": "NY"
  },
  {
    "city": "ellington",
    "state_code": "NY",
    "placeMasterId": "P02500000FsoIEgAz74c3VZrJy81nAkfU1YzymhH",
    "placeName": "ellington",
    "state": "NY"
  },
  {
    "city": "westfield",
    "state_code": "NY",
    "placeMasterId": "P02500000FsoHC2kgsV9KFRzO1HXTQqMQoszyCJ6",
    "placeName": "westfield",
    "state": "NY"
  },
  {
    "city": "scio",
    "state_code": "NY",
    "placeMasterId": "P02500000FsoIGg1fYch37zHlDUrdvbphSfn9ZrJ",
    "placeName": "scio",
    "state": "NY"
  },
  {
    "city": "trumansburg",
    "state_code": "NY",
    "placeMasterId": "P02500000FsoG5GmY9Qwp3u1Olt22GjPpMqHVfCf",
    "placeName": "trumansburg",
    "state": "NY"
  },
  {
    "city": "elmira",
    "state_code": "NY",
    "placeMasterId": "P02500000FsoG28A2siFXwgdZ61QqDxAMojeC91P",
    "placeName": "elmira",
    "state": "NY"
  },
  {
    "city": "belle vernon",
    "state_code": "PA",
    "placeMasterId": "P02500000FsoGQxR7pggBVDDstJXYlBmfOYiXtQI",
    "placeName": "belle vernon",
    "state": "PA"
  },
  {
    "city": "bulger",
    "state_code": "PA",
    "placeMasterId": "P02500000FsoGRffVqfZ6wDRkuNGeJdfWJcYSBWA",
    "placeName": "bulger",
    "state": "PA"
  },
  {
    "city": "tarentum",
    "state_code": "PA",
    "placeMasterId": "P02500000FsoGZWDm1TJIjFuL62GdQaBxkA4Hc6k",
    "placeName": "tarentum",
    "state": "PA"
  },
  {
    "city": "verona",
    "state_code": "PA",
    "placeMasterId": "P02500000FsoGZwlCpf2en3drVTItA3NCA3v7s2X",
    "placeName": "verona",
    "state": "PA"
  },
  {
    "city": "pittsburgh",
    "state_code": "PA",
    "placeMasterId": "P02500000FsoGXfDZBJo5nRj4eTmCaDENhHWAB15",
    "placeName": "pittsburgh",
    "state": "PA"
  },
  {
    "city": "pittsburgh",
    "state_code": "PA",
    "placeMasterId": "P02500000FsoGXfDZBJo5nRj4eTmCaDENhHWAB15",
    "placeName": "pittsburgh",
    "state": "PA"
  },
  {
    "city": "millsboro",
    "state_code": "PA",
    "placeMasterId": "P02500000FsoGWEkn9M2EvRHKcMK1TJZikebXCHx",
    "placeName": "millsboro",
    "state": "PA"
  },
  {
    "city": "markleysburg",
    "state_code": "PA",
    "placeMasterId": "P02500000FsoGVx3pwYsfYEmz0jdBeKj365sFFKD",
    "placeName": "markleysburg",
    "state": "PA"
  },
  {
    "city": "bradenville",
    "state_code": "PA",
    "placeMasterId": "P02500000FsoGRF852TpksPiEUwEOaAijm03kkP9",
    "placeName": "bradenville",
    "state": "PA"
  },
  {
    "city": "everson",
    "state_code": "PA",
    "placeMasterId": "P02500000FsoGTEylU1ukUp8fkJ4FL1fyJ4UNR74",
    "placeName": "everson",
    "state": "PA"
  },
  {
    "city": "brookville",
    "state_code": "PA",
    "placeMasterId": "P02500000FsoGRWp2FGzKFcCa6YvEP9K05a86pJ3",
    "placeName": "brookville",
    "state": "PA"
  },
  {
    "city": "windber",
    "state_code": "PA",
    "placeMasterId": "P02500000FsoGaezaqdvaE3rjWX1yiV590Kmysp6",
    "placeName": "windber",
    "state": "PA"
  },
  {
    "city": "bruin",
    "state_code": "PA",
    "placeMasterId": "P02500000FsoGRWp2FGzKFcCa6YvEP9OYn8eOoTs",
    "placeName": "bruin",
    "state": "PA"
  },
  {
    "city": "clintonville",
    "state_code": "PA",
    "placeMasterId": "P02500000FsoGS6CwerIT01BHJoIu36iTsl2jUgV",
    "placeName": "clintonville",
    "state": "PA"
  },
  {
    "city": "edinboro",
    "state_code": "PA",
    "placeMasterId": "P02500000FsoGSxHoHElB7ceK8gNPW38AlFHleaM",
    "placeName": "edinboro",
    "state": "PA"
  },
  {
    "city": "kane",
    "state_code": "PA",
    "placeMasterId": "P02500000FsoGUx8UimqAk24lO3DGGuH2L92WIAW",
    "placeName": "kane",
    "state": "PA"
  },
  {
    "city": "arnot",
    "state_code": "PA",
    "placeMasterId": "P02500000FsoGQfkActWc80jXHgqiwDBubJ2aUv6",
    "placeName": "arnot",
    "state": "PA"
  },
  {
    "city": "duncannon",
    "state_code": "PA",
    "placeMasterId": "P02500000FsoGSfar4RbbkQ9yX3gZh4R8xwPVFbJ",
    "placeName": "duncannon",
    "state": "PA"
  },
  {
    "city": "jonestown",
    "state_code": "PA",
    "placeMasterId": "P02500000FsoGUx8UimqAk24lO3DGGuBuco6Dkah",
    "placeName": "jonestown",
    "state": "PA"
  },
  {
    "city": "richfield",
    "state_code": "PA",
    "placeMasterId": "P02500000FsoGY5kzzVXRrFSb3uoSJgOQxyixx1a",
    "placeName": "richfield",
    "state": "PA"
  },
  {
    "city": "fayetteville",
    "state_code": "PA",
    "placeMasterId": "P02500000FsoGTNpF5QUXBQNqY7PfFW963phWAFg",
    "placeName": "fayetteville",
    "state": "PA"
  },
  {
    "city": "bowmansville",
    "state_code": "PA",
    "placeMasterId": "P02500000FsoGRF852TpksPiEUwEOaAdSXlX0GP3",
    "placeName": "bowmansville",
    "state": "PA"
  },
  {
    "city": "leola",
    "state_code": "PA",
    "placeMasterId": "P02500000FsoGVNfvWyZWnpoHnUFW0NNO2yPfPbo",
    "placeName": "leola",
    "state": "PA"
  },
  {
    "city": "slatedale",
    "state_code": "PA",
    "placeMasterId": "P02500000FsoGYwprbt09yqvdsmsxmcdCHPETbct",
    "placeName": "slatedale",
    "state": "PA"
  },
  {
    "city": "freeland",
    "state_code": "PA",
    "placeMasterId": "P02500000FsoGTWfigp4Js1d1Lvl5A0cahKBhMlo",
    "placeName": "freeland",
    "state": "PA"
  },
  {
    "city": "harleigh",
    "state_code": "PA",
    "placeMasterId": "P02500000FsoGUEu6hnxFJ1qtMzUAiSJNpyDtSvG",
    "placeName": "harleigh",
    "state": "PA"
  },
  {
    "city": "sheppton",
    "state_code": "PA",
    "placeMasterId": "P02500000FsoGYnzO0UQNIFgT4yXXs8Ib0HB77D9",
    "placeName": "sheppton",
    "state": "PA"
  },
  {
    "city": "summit hill",
    "state_code": "PA",
    "placeMasterId": "P02500000FsoGZNNIQ4jW2efAIDvDW5spQiOPbxm",
    "placeName": "summit hill",
    "state": "PA"
  },
  {
    "city": "weatherly",
    "state_code": "PA",
    "placeMasterId": "P02500000FsoGaESA2SCEAG8D75ziz1vUqEDDVoV",
    "placeName": "weatherly",
    "state": "PA"
  },
  {
    "city": "lake winola",
    "state_code": "PA",
    "placeMasterId": "P02500000FsoGVEpRvZzk7EZ6zfu65sslGcCI9jp",
    "placeName": "lake winola",
    "state": "PA"
  },
  {
    "city": "sayre",
    "state_code": "PA",
    "placeMasterId": "P02500000FsoGYWIQnhGnv3C7TLqi39aKdPdVWw7",
    "placeName": "sayre",
    "state": "PA"
  },
  {
    "city": "sellersville",
    "state_code": "PA",
    "placeMasterId": "P02500000FsoGYWIQnhGnv3C7TLqi39cCiUqRFSw",
    "placeName": "sellersville",
    "state": "PA"
  },
  {
    "city": "sharon hill",
    "state_code": "PA",
    "placeMasterId": "P02500000FsoGYnzO0UQNIFgT4yXXs8FgGzXWLsR",
    "placeName": "sharon hill",
    "state": "PA"
  },
  {
    "city": "philadelphia",
    "state_code": "PA",
    "placeMasterId": "P02500000FsoGXWN5ZvEJ6qTtqfQmfiyVODy6MPW",
    "placeName": "philadelphia",
    "state": "PA"
  },
  {
    "city": "philadelphia",
    "state_code": "PA",
    "placeMasterId": "P02500000FsoGXWN5ZvEJ6qTtqfQmfiyVODy6MPW",
    "placeName": "philadelphia",
    "state": "PA"
  },
  {
    "city": "west chester",
    "state_code": "PA",
    "placeMasterId": "P02500000FsoGaESA2SCEAG8D75ziz1ychKV4AcT",
    "placeName": "west chester",
    "state": "PA"
  },
  {
    "city": "west grove",
    "state_code": "PA",
    "placeMasterId": "P02500000FsoGaESA2SCEAG8D75ziz27fNHioHHz",
    "placeName": "west grove",
    "state": "PA"
  },
  {
    "city": "conshohocken",
    "state_code": "PA",
    "placeMasterId": "P02500000FsoGS6CwerIT01BHJoIu36tYNdlMeff",
    "placeName": "conshohocken",
    "state": "PA"
  },
  {
    "city": "bowers",
    "state_code": "PA",
    "placeMasterId": "P02500000FsoGRF852TpksPiEUwEOaAcmS7ifnqV",
    "placeName": "bowers",
    "state": "PA"
  },
  {
    "city": "morgantown",
    "state_code": "PA",
    "placeMasterId": "P02500000FsoGWNbGkkc1c2WVQAfRNo5CIao3M1h",
    "placeName": "morgantown",
    "state": "PA"
  },
  {
    "city": "robesonia",
    "state_code": "PA",
    "placeMasterId": "P02500000FsoGYEbTau7EXqhlrj9sEAfrCVwM89g",
    "placeName": "robesonia",
    "state": "PA"
  },
  {
    "city": "dover",
    "state_code": "DE",
    "placeMasterId": "P02500000FsoEpeKo1mxdH6sbi96gcFKShAtLlKe",
    "placeName": "dover",
    "state": "DE"
  },
  {
    "city": "greenwood",
    "state_code": "DE",
    "placeMasterId": "P02500000FsoEpnBHdBXPxi7mVxS6WjdfR4IpBgp",
    "placeName": "greenwood",
    "state": "DE"
  },
  {
    "city": "purcellville",
    "state_code": "VA",
    "placeMasterId": "P02500000FsoGx3sYXsXs6NI5f1GalPVKWOVy9uq",
    "placeName": "purcellville",
    "state": "VA"
  },
  {
    "city": "washington",
    "state_code": "DC",
    "placeMasterId": "P02500000FsoEq4sEpygzKuc87a8wLiQYg142PzN",
    "placeName": "washington",
    "state": "DC"
  },
  {
    "city": "aquasco",
    "state_code": "MD",
    "placeMasterId": "P02500000FsoFTJdXhzPwI6v33t8ruQWXGbmUSTI",
    "placeName": "aquasco",
    "state": "MD"
  },
  {
    "city": "brookeville",
    "state_code": "MD",
    "placeMasterId": "P02500000FsoFTbKUumZVfJPOfVphjPKhqCcqUOT",
    "placeName": "brookeville",
    "state": "MD"
  },
  {
    "city": "columbia",
    "state_code": "MD",
    "placeMasterId": "P02500000FsoFTt1S7Zj52VtkH8WXYOEwCcMwnjR",
    "placeName": "columbia",
    "state": "MD"
  },
  {
    "city": "glen burnie",
    "state_code": "MD",
    "placeMasterId": "P02500000FsoFUbFq8Yc0TW7cICFd6pvRTfjAhlK",
    "placeName": "glen burnie",
    "state": "MD"
  },
  {
    "city": "kingsville",
    "state_code": "MD",
    "placeMasterId": "P02500000FsoFUswnLLlZqibxtowSvodhARxYxFN",
    "placeName": "kingsville",
    "state": "MD"
  },
  {
    "city": "owings mills",
    "state_code": "MD",
    "placeMasterId": "P02500000FsoFVJUE9XUvuWLUJFyifHvY22L8ENX",
    "placeName": "owings mills",
    "state": "MD"
  },
  {
    "city": "baltimore",
    "state_code": "MD",
    "placeMasterId": "P02500000FsoFTSU1JNziyiADrhUHous91WaBH4V",
    "placeName": "baltimore",
    "state": "MD"
  },
  {
    "city": "towson",
    "state_code": "MD",
    "placeMasterId": "P02500000FsoFWAZ5luxe27oX883E8Dy2HHt1OSy",
    "placeName": "towson",
    "state": "MD"
  },
  {
    "city": "ellerslie",
    "state_code": "MD",
    "placeMasterId": "P02500000FsoFUAiPKMsePiO5slDNNMt7zsv5HIT",
    "placeName": "ellerslie",
    "state": "MD"
  },
  {
    "city": "luke",
    "state_code": "MD",
    "placeMasterId": "P02500000FsoFUswnLLlZqibxtowSvokfgXGQJ3d",
    "placeName": "luke",
    "state": "MD"
  },
  {
    "city": "culpeper",
    "state_code": "VA",
    "placeMasterId": "P02500000FsoGvLipJ7cRrAM01H7ZpX3L9GcvPX1",
    "placeName": "culpeper",
    "state": "VA"
  },
  {
    "city": "glen allen",
    "state_code": "VA",
    "placeMasterId": "P02500000FsoGvmGG7JLnuy5WQi9pZ0CYIR1YWQk",
    "placeName": "glen allen",
    "state": "VA"
  },
  {
    "city": "hallwood",
    "state_code": "VA",
    "placeMasterId": "P02500000FsoGvv6jihvabZKhEWVFTURhZHXvUag",
    "placeName": "hallwood",
    "state": "VA"
  },
  {
    "city": "christiansburg",
    "state_code": "VA",
    "placeMasterId": "P02500000FsoGv41s6KSsTxrePeQk0YITwGycQaF",
    "placeName": "christiansburg",
    "state": "VA"
  },
  {
    "city": "floyd",
    "state_code": "VA",
    "placeMasterId": "P02500000FsoGvmGG7JLnuy5WQi9pYzxkHMZw5ul",
    "placeName": "floyd",
    "state": "VA"
  },
  {
    "city": "marion",
    "state_code": "VA",
    "placeMasterId": "P02500000FsoGwdL7jgoW2ZYZFaEL1wKAlwiBopS",
    "placeName": "marion",
    "state": "VA"
  },
  {
    "city": "glasgow",
    "state_code": "VA",
    "placeMasterId": "P02500000FsoGvmGG7JLnuy5WQi9pZ0DIS20ndup",
    "placeName": "glasgow",
    "state": "VA"
  },
  {
    "city": "raysal",
    "state_code": "WV",
    "placeMasterId": "P02500000FsoH3coWI75zi0Y6cN9ofwX2qZVEOTq",
    "placeName": "raysal",
    "state": "WV"
  },
  {
    "city": "white sulphur springs",
    "state_code": "WV",
    "placeMasterId": "P02500000FsoH4CCQhhP8SPWnpcXUJtw8epiL7Sk",
    "placeName": "white sulphur springs",
    "state": "WV"
  },
  {
    "city": "clendenin",
    "state_code": "WV",
    "placeMasterId": "P02500000FsoH2LCDrXtvWbLXO433TXHfH7DcGF3",
    "placeName": "clendenin",
    "state": "WV"
  },
  {
    "city": "great cacapon",
    "state_code": "WV",
    "placeMasterId": "P02500000FsoH2ljefjdHaP53nV5JD0KAbjOpD7P",
    "placeName": "great cacapon",
    "state": "WV"
  },
  {
    "city": "glen jean",
    "state_code": "WV",
    "placeMasterId": "P02500000FsoH2ljefjdHaP53nV5JD0IVWSgQVTU",
    "placeName": "glen jean",
    "state": "WV"
  },
  {
    "city": "rainelle",
    "state_code": "WV",
    "placeMasterId": "P02500000FsoH3coWI75zi0Y6cN9ofwWEkY2URu2",
    "placeName": "rainelle",
    "state": "WV"
  },
  {
    "city": "beech bottom",
    "state_code": "WV",
    "placeMasterId": "P02500000FsoH1uen3MAZSnc0yd0nk46g3OEjeFa",
    "placeName": "beech bottom",
    "state": "WV"
  },
  {
    "city": "sistersville",
    "state_code": "WV",
    "placeMasterId": "P02500000FsoH3uVTUuFZ5D2SDzqeUv8pONxDqWq",
    "placeName": "sistersville",
    "state": "WV"
  },
  {
    "city": "elkins",
    "state_code": "WV",
    "placeMasterId": "P02500000FsoH2U2hSwTiDCaiBsOTO1WeGxBdHil",
    "placeName": "elkins",
    "state": "WV"
  },
  {
    "city": "junior",
    "state_code": "WV",
    "placeMasterId": "P02500000FsoH33QbsWmqxbZPP7m91yzfYO2GxqU",
    "placeName": "junior",
    "state": "WV"
  },
  {
    "city": "west milford",
    "state_code": "WV",
    "placeMasterId": "P02500000FsoH4CCQhhP8SPWnpcXUJttMX17cbKx",
    "placeName": "west milford",
    "state": "WV"
  },
  {
    "city": "sanford",
    "state_code": "NC",
    "placeMasterId": "P02500000FsoG9GTv2X6oIisHGchjmRnsZbTitc8",
    "placeName": "sanford",
    "state": "NC"
  },
  {
    "city": "raleigh",
    "state_code": "NC",
    "placeMasterId": "P02500000FsoG8ymxpjxEvWNvf00txSyEKZeGT37",
    "placeName": "raleigh",
    "state": "NC"
  },
  {
    "city": "durham",
    "state_code": "NC",
    "placeMasterId": "P02500000FsoG6q5nmnIScViJbopdI7bFzX5TYCc",
    "placeName": "durham",
    "state": "NC"
  },
  {
    "city": "conetoe",
    "state_code": "NC",
    "placeMasterId": "P02500000FsoG6hFKBOifvuT8o0UDNd4UuWwwdh8",
    "placeName": "conetoe",
    "state": "NC"
  },
  {
    "city": "farmville",
    "state_code": "NC",
    "placeMasterId": "P02500000FsoG77mkzaS1ziCfDRWT76Hhy0zVPEG",
    "placeName": "farmville",
    "state": "NC"
  },
  {
    "city": "oak city",
    "state_code": "NC",
    "placeMasterId": "P02500000FsoG8YFX1YDsriePFYyeE009q3RDdf6",
    "placeName": "oak city",
    "state": "NC"
  },
  {
    "city": "walstonburg",
    "state_code": "NC",
    "placeMasterId": "P02500000FsoG9prpS7Px37qyTs5PQPMN5Bf1tqB",
    "placeName": "walstonburg",
    "state": "NC"
  },
  {
    "city": "wanchese",
    "state_code": "NC",
    "placeMasterId": "P02500000FsoG9prpS7Px37qyTs5PQPNj0Ro1SQR",
    "placeName": "wanchese",
    "state": "NC"
  },
  {
    "city": "gastonia",
    "state_code": "NC",
    "placeMasterId": "P02500000FsoG7GdEaz1ogJRq1Frt1aav0WaiPIh",
    "placeName": "gastonia",
    "state": "NC"
  },
  {
    "city": "granite quarry",
    "state_code": "NC",
    "placeMasterId": "P02500000FsoG7PTiCNbbMuh0p4DIw55r77cWKES",
    "placeName": "granite quarry",
    "state": "NC"
  },
  {
    "city": "charlotte",
    "state_code": "NC",
    "placeMasterId": "P02500000FsoG6YOqa08tFJDy0C8nT8qHEOhlkFv",
    "placeName": "charlotte",
    "state": "NC"
  },
  {
    "city": "calypso",
    "state_code": "NC",
    "placeMasterId": "P02500000FsoG6PYMybZ6YhynCNnNYeKNJQ0Cer0",
    "placeName": "calypso",
    "state": "NC"
  },
  {
    "city": "dublin",
    "state_code": "NC",
    "placeMasterId": "P02500000FsoG6q5nmnIScViJbopdI7UdsZDq6od",
    "placeName": "dublin",
    "state": "NC"
  },
  {
    "city": "hope mills",
    "state_code": "NC",
    "placeMasterId": "P02500000FsoG7YKBnmBO3VwBcsYiqZPw9RQwCyQ",
    "placeName": "hope mills",
    "state": "NC"
  },
  {
    "city": "north wilkesboro",
    "state_code": "NC",
    "placeMasterId": "P02500000FsoG8h60cwnfYJta3NK48UC3w4E6for",
    "placeName": "north wilkesboro",
    "state": "NC"
  },
  {
    "city": "wilkesboro",
    "state_code": "NC",
    "placeMasterId": "P02500000FsoG9yiJ3Vzjjj69HgQpKtlZoDJWHSc",
    "placeName": "wilkesboro",
    "state": "NC"
  },
  {
    "city": "dillsboro",
    "state_code": "NC",
    "placeMasterId": "P02500000FsoG6q5nmnIScViJbopdI7WxGmeCYMY",
    "placeName": "dillsboro",
    "state": "NC"
  },
  {
    "city": "lake lure",
    "state_code": "NC",
    "placeMasterId": "P02500000FsoG7q190ZKxQiQXEVFYfYBskkrLfQS",
    "placeName": "lake lure",
    "state": "NC"
  },
  {
    "city": "old fort",
    "state_code": "NC",
    "placeMasterId": "P02500000FsoG8YFX1YDsriePFYyeE007YhnIto0",
    "placeName": "old fort",
    "state": "NC"
  },
  {
    "city": "rowesville",
    "state_code": "SC",
    "placeMasterId": "P02500000FsoGcngktaaMX4XLZiDFNqqqnWAYbCi",
    "placeName": "rowesville",
    "state": "SC"
  },
  {
    "city": "wedgefield",
    "state_code": "SC",
    "placeMasterId": "P02500000FsoGdN4fJAtVHTW2mxav1o9atF9PZOz",
    "placeName": "wedgefield",
    "state": "SC"
  },
  {
    "city": "boiling springs",
    "state_code": "SC",
    "placeMasterId": "P02500000FsoGbENVGEEiySqQjmPeMScUj2A7ANZ",
    "placeName": "boiling springs",
    "state": "SC"
  },
  {
    "city": "enoree",
    "state_code": "SC",
    "placeMasterId": "P02500000FsoGbeuw4Py52GZx9DRu5vlCwunG9BM",
    "placeName": "enoree",
    "state": "SC"
  },
  {
    "city": "waterloo",
    "state_code": "SC",
    "placeMasterId": "P02500000FsoGdN4fJAtVHTW2mxav1o6lFkFNvpW",
    "placeName": "waterloo",
    "state": "SC"
  },
  {
    "city": "hanahan",
    "state_code": "SC",
    "placeMasterId": "P02500000FsoGbwbtHD7ePT4Ikq8juuMUFFxweyl",
    "placeName": "hanahan",
    "state": "SC"
  },
  {
    "city": "north charleston",
    "state_code": "SC",
    "placeMasterId": "P02500000FsoGceqHIC0ZqTIAltrpTMFVDv5U8wH",
    "placeName": "north charleston",
    "state": "SC"
  },
  {
    "city": "harleyville",
    "state_code": "SC",
    "placeMasterId": "P02500000FsoGbwbtHD7ePT4Ikq8juuQBIWiX4T7",
    "placeName": "harleyville",
    "state": "SC"
  },
  {
    "city": "jacksonboro",
    "state_code": "SC",
    "placeMasterId": "P02500000FsoGc5SMsbhR64JTYeU9pOhone9DH1e",
    "placeName": "jacksonboro",
    "state": "SC"
  },
  {
    "city": "little river",
    "state_code": "SC",
    "placeMasterId": "P02500000FsoGcEIqU0HDmfYeMSpZjtDI1XnJioQ",
    "placeName": "little river",
    "state": "SC"
  },
  {
    "city": "mccoll",
    "state_code": "SC",
    "placeMasterId": "P02500000FsoGcN9K5Or0TGnpAHAzeNThFGlEniW",
    "placeName": "mccoll",
    "state": "SC"
  },
  {
    "city": "north myrtle beach",
    "state_code": "SC",
    "placeMasterId": "P02500000FsoGcVzngnQn9s2zy5WPYrzEcdZGbMV",
    "placeName": "north myrtle beach",
    "state": "SC"
  },
  {
    "city": "greenville",
    "state_code": "SC",
    "placeMasterId": "P02500000FsoGbwbtHD7ePT4Ikq8juuKkVY6QuEs",
    "placeName": "greenville",
    "state": "SC"
  },
  {
    "city": "donalds",
    "state_code": "SC",
    "placeMasterId": "P02500000FsoGbeuw4Py52GZx9DRu5vc5NA6b2lv",
    "placeName": "donalds",
    "state": "SC"
  },
  {
    "city": "due west",
    "state_code": "SC",
    "placeMasterId": "P02500000FsoGbW4ST1OILfKmLP6UBRNVLEOt7nW",
    "placeName": "due west",
    "state": "SC"
  },
  {
    "city": "newry",
    "state_code": "SC",
    "placeMasterId": "P02500000FsoGcVzngnQn9s2zy5WPYrt2kpSHIme",
    "placeName": "newry",
    "state": "SC"
  },
  {
    "city": "ninety six",
    "state_code": "SC",
    "placeMasterId": "P02500000FsoGcVzngnQn9s2zy5WPYs155siwnZ9",
    "placeName": "ninety six",
    "state": "SC"
  },
  {
    "city": "seneca",
    "state_code": "SC",
    "placeMasterId": "P02500000FsoGd5Ni6NjvuH1hBKu5CpJqrpvbTCN",
    "placeName": "seneca",
    "state": "SC"
  },
  {
    "city": "travelers rest",
    "state_code": "SC",
    "placeMasterId": "P02500000FsoGdEEBhmJiasGrz9FV7JfIpKSzvqG",
    "placeName": "travelers rest",
    "state": "SC"
  },
  {
    "city": "hickory grove",
    "state_code": "SC",
    "placeMasterId": "P02500000FsoGbwbtHD7ePT4Ikq8juuUHaT3MosP",
    "placeName": "hickory grove",
    "state": "SC"
  },
  {
    "city": "marietta",
    "state_code": "GA",
    "placeMasterId": "P02500000FsoExM2abC82NY615zlFohL9dHDdiW0",
    "placeName": "marietta",
    "state": "GA"
  },
  {
    "city": "norcross",
    "state_code": "GA",
    "placeMasterId": "P02500000FsoExdjXnzHbkkaMhcS5dg6Mt90Tkgb",
    "placeName": "norcross",
    "state": "GA"
  },
  {
    "city": "carrollton",
    "state_code": "GA",
    "placeMasterId": "P02500000FsoEvmjKxpmOowP6G3xenJH5N5eI92J",
    "placeName": "carrollton",
    "state": "GA"
  },
  {
    "city": "concord",
    "state_code": "GA",
    "placeMasterId": "P02500000FsoEw4QIAcvyC8tRrgeUcI0Ks7AgzlH",
    "placeName": "concord",
    "state": "GA"
  },
  {
    "city": "griffin",
    "state_code": "GA",
    "placeMasterId": "P02500000FsoEwvV9n0OgJkMUgYj05EC1RbEbUFd",
    "placeName": "griffin",
    "state": "GA"
  },
  {
    "city": "morrow",
    "state_code": "GA",
    "placeMasterId": "P02500000FsoExdjXnzHbkkaMhcS5dg5CJBofwT6",
    "placeName": "morrow",
    "state": "GA"
  },
  {
    "city": "sunny side",
    "state_code": "GA",
    "placeMasterId": "P02500000FsoEyLxvoyAXBkoEigBBC7yMN9LU9mX",
    "placeName": "sunny side",
    "state": "GA"
  },
  {
    "city": "williamson",
    "state_code": "GA",
    "placeMasterId": "P02500000FsoEyvLqEYTfw9mvvvYqq5RSOWF2hoh",
    "placeName": "williamson",
    "state": "GA"
  },
  {
    "city": "atlanta",
    "state_code": "GA",
    "placeMasterId": "P02500000FsoEvV2Nl2cpRjukeRGoyKXsQZ9lvPs",
    "placeName": "atlanta",
    "state": "GA"
  },
  {
    "city": "manassas",
    "state_code": "GA",
    "placeMasterId": "P02500000FsoExUt4Cahp49LBto6fjBgvJBOe62T",
    "placeName": "manassas",
    "state": "GA"
  },
  {
    "city": "soperton",
    "state_code": "GA",
    "placeMasterId": "P02500000FsoEyLxvoyAXBkoEigBBC7xGTTT9Z6t",
    "placeName": "soperton",
    "state": "GA"
  },
  {
    "city": "gainesville",
    "state_code": "GA",
    "placeMasterId": "P02500000FsoEwmegBbotd97JskNaAjp2WK40aam",
    "placeName": "gainesville",
    "state": "GA"
  },
  {
    "city": "bowman",
    "state_code": "GA",
    "placeMasterId": "P02500000FsoEvmjKxpmOowP6G3xenJDpcUb62fm",
    "placeName": "bowman",
    "state": "GA"
  },
  {
    "city": "carlton",
    "state_code": "GA",
    "placeMasterId": "P02500000FsoEvmjKxpmOowP6G3xenJFBBN9Svtj",
    "placeName": "carlton",
    "state": "GA"
  },
  {
    "city": "hartwell",
    "state_code": "GA",
    "placeMasterId": "P02500000FsoEwvV9n0OgJkMUgYj05EFcqlLOvtN",
    "placeName": "hartwell",
    "state": "GA"
  },
  {
    "city": "chester",
    "state_code": "GA",
    "placeMasterId": "P02500000FsoEw4QIAcvyC8tRrgeUcHxaU9WU9jn",
    "placeName": "chester",
    "state": "GA"
  },
  {
    "city": "dexter",
    "state_code": "GA",
    "placeMasterId": "P02500000FsoEwM7FNQ5XZLNnTJLKRGj9kHGBB9d",
    "placeName": "dexter",
    "state": "GA"
  },
  {
    "city": "dublin",
    "state_code": "GA",
    "placeMasterId": "P02500000FsoEwM7FNQ5XZLNnTJLKRGliEG06yRS",
    "placeName": "dublin",
    "state": "GA"
  },
  {
    "city": "fort valley",
    "state_code": "GA",
    "placeMasterId": "P02500000FsoEwmegBbotd97JskNaAjpcMxBl6th",
    "placeName": "fort valley",
    "state": "GA"
  },
  {
    "city": "kite",
    "state_code": "GA",
    "placeMasterId": "P02500000FsoEx4LdOOyT0LbfUN4PziZkeNwjZEp",
    "placeName": "kite",
    "state": "GA"
  },
  {
    "city": "milledgeville",
    "state_code": "GA",
    "placeMasterId": "P02500000FsoExUt4Cahp49LBto6fjBi7ccHOHR9",
    "placeName": "milledgeville",
    "state": "GA"
  },
  {
    "city": "rochelle",
    "state_code": "GA",
    "placeMasterId": "P02500000FsoEyD7SDZakV9Z3urplHdXTQ6tbVP8",
    "placeName": "rochelle",
    "state": "GA"
  },
  {
    "city": "guyton",
    "state_code": "GA",
    "placeMasterId": "P02500000FsoEwvV9n0OgJkMUgYj05ECfT5oBrn2",
    "placeName": "guyton",
    "state": "GA"
  },
  {
    "city": "savannah",
    "state_code": "GA",
    "placeMasterId": "P02500000FsoEyD7SDZakV9Z3urplHdbJAuUvfKW",
    "placeName": "savannah",
    "state": "GA"
  },
  {
    "city": "waycross",
    "state_code": "GA",
    "placeMasterId": "P02500000FsoEyvLqEYTfw9mvvvYqq5QDeCD74Hz",
    "placeName": "waycross",
    "state": "GA"
  },
  {
    "city": "argyle",
    "state_code": "GA",
    "placeMasterId": "P02500000FsoEvV2Nl2cpRjukeRGoyKUpVGSneUm",
    "placeName": "argyle",
    "state": "GA"
  },
  {
    "city": "junction city",
    "state_code": "GA",
    "placeMasterId": "P02500000FsoEx4LdOOyT0LbfUN4PzidqACpLFWu",
    "placeName": "junction city",
    "state": "GA"
  },
  {
    "city": "callahan",
    "state_code": "FL",
    "placeMasterId": "P02500000FsoEqVPfeAQLOiLeX1BC5BWq28yJqo4",
    "placeName": "callahan",
    "state": "FL"
  },
  {
    "city": "green cove springs",
    "state_code": "FL",
    "placeMasterId": "P02500000FsoErn1y4jcPa7YDlKHxHapeAYrNwn4",
    "placeName": "green cove springs",
    "state": "FL"
  },
  {
    "city": "palm coast",
    "state_code": "FL",
    "placeMasterId": "P02500000FsoEtVBhJUXppKUJP4QyDTKgPoITjvC",
    "placeName": "palm coast",
    "state": "FL"
  },
  {
    "city": "pierson",
    "state_code": "FL",
    "placeMasterId": "P02500000FsoEte2Aut7cVvjUCsmO7xhGYapW2jV",
    "placeName": "pierson",
    "state": "FL"
  },
  {
    "city": "jacksonville",
    "state_code": "FL",
    "placeMasterId": "P02500000FsoEs4ivHWlyxK2ZMwyn6Zc9nJdRTGT",
    "placeName": "jacksonville",
    "state": "FL"
  },
  {
    "city": "midway",
    "state_code": "FL",
    "placeMasterId": "P02500000FsoEt4eGVIoTlWkmzdOiU0BtIGIrCM6",
    "placeName": "midway",
    "state": "FL"
  },
  {
    "city": "sopchoppy",
    "state_code": "FL",
    "placeMasterId": "P02500000FsoEuMGYvs0XwvxMDwVTgPYBpx7aLSv",
    "placeName": "sopchoppy",
    "state": "FL"
  },
  {
    "city": "pensacola",
    "state_code": "FL",
    "placeMasterId": "P02500000FsoEte2Aut7cVvjUCsmO7xi1ABLGBK0",
    "placeName": "pensacola",
    "state": "FL"
  },
  {
    "city": "gulf breeze",
    "state_code": "FL",
    "placeMasterId": "P02500000FsoErn1y4jcPa7YDlKHxHaqI1oZglAl",
    "placeName": "gulf breeze",
    "state": "FL"
  },
  {
    "city": "alachua",
    "state_code": "FL",
    "placeMasterId": "P02500000FsoEq4sEpygzKuc87a8wLiMhjd5so4A",
    "placeName": "alachua",
    "state": "FL"
  },
  {
    "city": "orlando",
    "state_code": "FL",
    "placeMasterId": "P02500000FsoEtVBhJUXppKUJP4QyDTHMDbz9uFq",
    "placeName": "orlando",
    "state": "FL"
  },
  {
    "city": "melbourne",
    "state_code": "FL",
    "placeMasterId": "P02500000FsoEsvnmtuEh4vVcBp3IZVpfHG8GKti",
    "placeName": "melbourne",
    "state": "FL"
  },
  {
    "city": "sebastian",
    "state_code": "FL",
    "placeMasterId": "P02500000FsoEuMGYvs0XwvxMDwVTgPVya02UkpA",
    "placeName": "sebastian",
    "state": "FL"
  },
  {
    "city": "wabasso",
    "state_code": "FL",
    "placeMasterId": "P02500000FsoEuveTLSJghKw3RBt9KN0Knqmhf1m",
    "placeName": "wabasso",
    "state": "FL"
  },
  {
    "city": "hialeah",
    "state_code": "FL",
    "placeMasterId": "P02500000FsoErvsRg8CCGinOZ8dNC5CWcpArNmA",
    "placeName": "hialeah",
    "state": "FL"
  },
  {
    "city": "hollywood",
    "state_code": "FL",
    "placeMasterId": "P02500000FsoErvsRg8CCGinOZ8dNC5DYkbxOTEU",
    "placeName": "hollywood",
    "state": "FL"
  },
  {
    "city": "miami",
    "state_code": "FL",
    "placeMasterId": "P02500000FsoEsvnmtuEh4vVcBp3IZVnnnRh03zn",
    "placeName": "miami",
    "state": "FL"
  },
  {
    "city": "miami",
    "state_code": "FL",
    "placeMasterId": "P02500000FsoEsvnmtuEh4vVcBp3IZVnnnRh03zn",
    "placeName": "miami",
    "state": "FL"
  },
  {
    "city": "fort lauderdale",
    "state_code": "FL",
    "placeMasterId": "P02500000FsoErVL0rwSqCv3s9hb7Sc4XvAWhbEe",
    "placeName": "fort lauderdale",
    "state": "FL"
  },
  {
    "city": "fort lauderdale",
    "state_code": "FL",
    "placeMasterId": "P02500000FsoErVL0rwSqCv3s9hb7Sc4XvAWhbEe",
    "placeName": "fort lauderdale",
    "state": "FL"
  },
  {
    "city": "west palm beach",
    "state_code": "FL",
    "placeMasterId": "P02500000FsoEuveTLSJghKw3RBt9KN3fVhs2PCt",
    "placeName": "west palm beach",
    "state": "FL"
  },
  {
    "city": "boynton beach",
    "state_code": "FL",
    "placeMasterId": "P02500000FsoEqVPfeAQLOiLeX1BC5BTmvRaDTr1",
    "placeName": "boynton beach",
    "state": "FL"
  },
  {
    "city": "jupiter",
    "state_code": "FL",
    "placeMasterId": "P02500000FsoEsDZOsvLldvHkAlKD13x1mDkXZSB",
    "placeName": "jupiter",
    "state": "FL"
  },
  {
    "city": "lutz",
    "state_code": "FL",
    "placeMasterId": "P02500000FsoEsmxJIVeuOKGRO0hsf1SfA84faQT",
    "placeName": "lutz",
    "state": "FL"
  },
  {
    "city": "san antonio",
    "state_code": "FL",
    "placeMasterId": "P02500000FsoEu4Zbj4qyZjT0cJodrQqMdeIexgH",
    "placeName": "san antonio",
    "state": "FL"
  },
  {
    "city": "seminole",
    "state_code": "FL",
    "placeMasterId": "P02500000FsoEuMGYvs0XwvxMDwVTgPW67Y97LNp",
    "placeName": "seminole",
    "state": "FL"
  },
  {
    "city": "largo",
    "state_code": "FL",
    "placeMasterId": "P02500000FsoEsVGM5iVL17m5mO12q2kFNogYZCe",
    "placeName": "largo",
    "state": "FL"
  },
  {
    "city": "avon park",
    "state_code": "FL",
    "placeMasterId": "P02500000FsoEq4sEpygzKuc87a8wLiP9JBv27n8",
    "placeName": "avon park",
    "state": "FL"
  },
  {
    "city": "dundee",
    "state_code": "FL",
    "placeMasterId": "P02500000FsoEr4na3kjU97KLkGYrj909ynVDwFr",
    "placeName": "dundee",
    "state": "FL"
  },
  {
    "city": "winter haven",
    "state_code": "FL",
    "placeMasterId": "P02500000FsoEvDLQYFTG4XQP2oZz9LmixoLukSO",
    "placeName": "winter haven",
    "state": "FL"
  },
  {
    "city": "fort myers",
    "state_code": "FL",
    "placeMasterId": "P02500000FsoErMUXGXt3WJohLtFhY7lIEW7YWt0",
    "placeName": "fort myers",
    "state": "FL"
  },
  {
    "city": "lehigh acres",
    "state_code": "FL",
    "placeMasterId": "P02500000FsoEse6ph757hj1GaCMSkX4VLtFhXwj",
    "placeName": "lehigh acres",
    "state": "FL"
  },
  {
    "city": "sarasota",
    "state_code": "FL",
    "placeMasterId": "P02500000FsoEu4Zbj4qyZjT0cJodrQpDdnRoRQk",
    "placeName": "sarasota",
    "state": "FL"
  },
  {
    "city": "spring hill",
    "state_code": "FL",
    "placeMasterId": "P02500000FsoEuV72XGaKdXCX1kqtattjqNbN4Jx",
    "placeName": "spring hill",
    "state": "FL"
  },
  {
    "city": "leesburg",
    "state_code": "FL",
    "placeMasterId": "P02500000FsoEse6ph757hj1GaCMSkX3MQvznHB8",
    "placeName": "leesburg",
    "state": "FL"
  },
  {
    "city": "bessemer",
    "state_code": "AL",
    "placeMasterId": "P02500000FsoESouPWMbzKzijADpopru0pTZcaZe",
    "placeName": "bessemer",
    "state": "AL"
  },
  {
    "city": "chelsea",
    "state_code": "AL",
    "placeMasterId": "P02500000FsoET6bMj9lYiCD4lqWeeqZbt4uQ8bX",
    "placeName": "chelsea",
    "state": "AL"
  },
  {
    "city": "oneonta",
    "state_code": "AL",
    "placeMasterId": "P02500000FsoEUxbZZJGle0OLDP15VDP2oAk5KHT",
    "placeName": "oneonta",
    "state": "AL"
  },
  {
    "city": "vincent",
    "state_code": "AL",
    "placeMasterId": "P02500000FsoEVogRBgjTlbrO2H5ay9ehvdVl7O8",
    "placeName": "vincent",
    "state": "AL"
  },
  {
    "city": "birmingham",
    "state_code": "AL",
    "placeMasterId": "P02500000FsoESouPWMbzKzijADpoprrGKsxshig",
    "placeName": "birmingham",
    "state": "AL"
  },
  {
    "city": "birmingham",
    "state_code": "AL",
    "placeMasterId": "P02500000FsoESouPWMbzKzijADpoprrGKsxshig",
    "placeName": "birmingham",
    "state": "AL"
  },
  {
    "city": "coker",
    "state_code": "AL",
    "placeMasterId": "P02500000FsoET6bMj9lYiCD4lqWeeqacvygx8ND",
    "placeName": "coker",
    "state": "AL"
  },
  {
    "city": "addison",
    "state_code": "AL",
    "placeMasterId": "P02500000FsoESg3vuy2CeOTYMPUOvNUGrkRl0y7",
    "placeName": "addison",
    "state": "AL"
  },
  {
    "city": "waterloo",
    "state_code": "AL",
    "placeMasterId": "P02500000FsoEVogRBgjTlbrO2H5ay9eVBu1B59C",
    "placeName": "waterloo",
    "state": "AL"
  },
  {
    "city": "scottsboro",
    "state_code": "AL",
    "placeMasterId": "P02500000FsoEVO90NV07ho7rcq3LEgXUoQTm9va",
    "placeName": "scottsboro",
    "state": "AL"
  },
  {
    "city": "gadsden",
    "state_code": "AL",
    "placeMasterId": "P02500000FsoETfzH8k4hSbBlz5uKIo6YFvxq7aX",
    "placeName": "gadsden",
    "state": "AL"
  },
  {
    "city": "rainsville",
    "state_code": "AL",
    "placeMasterId": "P02500000FsoEV6S3AhqYKbdW1DMVPhmM2lDtE96",
    "placeName": "rainsville",
    "state": "AL"
  },
  {
    "city": "valley head",
    "state_code": "AL",
    "placeMasterId": "P02500000FsoEVfpxaI9h50cDESkB3fI5M1NUeXF",
    "placeName": "valley head",
    "state": "AL"
  },
  {
    "city": "anniston",
    "state_code": "AL",
    "placeMasterId": "P02500000FsoESg3vuy2CeOTYMPUOvNVPm3E4hRx",
    "placeName": "anniston",
    "state": "AL"
  },
  {
    "city": "anniston",
    "state_code": "AL",
    "placeMasterId": "P02500000FsoESg3vuy2CeOTYMPUOvNVPm3E4hRx",
    "placeName": "anniston",
    "state": "AL"
  },
  {
    "city": "heflin",
    "state_code": "AL",
    "placeMasterId": "P02500000FsoETxgELXEGpng7aibA7moVWdP0NZd",
    "placeName": "heflin",
    "state": "AL"
  },
  {
    "city": "woodland",
    "state_code": "AL",
    "placeMasterId": "P02500000FsoEVxWun5JGSD6Yq5R0se0wX57ULsF",
    "placeName": "woodland",
    "state": "AL"
  },
  {
    "city": "bayou la batre",
    "state_code": "AL",
    "placeMasterId": "P02500000FsoESouPWMbzKzijADpoprrcqOTS7xc",
    "placeName": "bayou la batre",
    "state": "AL"
  },
  {
    "city": "smiths station",
    "state_code": "AL",
    "placeMasterId": "P02500000FsoEVWzTytZuOPN2QeOl9Asq3qDGVWG",
    "placeName": "smiths station",
    "state": "AL"
  },
  {
    "city": "franklin",
    "state_code": "TN",
    "placeMasterId": "P02500000FsoGgeXeBIAZ5I93GdXWz4bcRW7fCRp",
    "placeName": "franklin",
    "state": "TN"
  },
  {
    "city": "linden",
    "state_code": "TN",
    "placeMasterId": "P02500000FsoGh554zTtv95sZg4ZmiXjl5gTGvqa",
    "placeName": "linden",
    "state": "TN"
  },
  {
    "city": "smyrna",
    "state_code": "TN",
    "placeMasterId": "P02500000FsoGhnJT0Smqa66Rh8IsGzddOWom7pw",
    "placeName": "smyrna",
    "state": "TN"
  },
  {
    "city": "nashville",
    "state_code": "TN",
    "placeMasterId": "P02500000FsoGhMm2CH3UWIMvHhGcXWZ0CJVUMa1",
    "placeName": "nashville",
    "state": "TN"
  },
  {
    "city": "fayetteville",
    "state_code": "TN",
    "placeMasterId": "P02500000FsoGgVhAZtamOgtsSpC74aJ4MCktgil",
    "placeName": "fayetteville",
    "state": "TN"
  },
  {
    "city": "hillsboro",
    "state_code": "TN",
    "placeMasterId": "P02500000FsoGgnO7mgkLltOE4RswtYzoMMvT1eI",
    "placeName": "hillsboro",
    "state": "TN"
  },
  {
    "city": "winchester",
    "state_code": "TN",
    "placeMasterId": "P02500000FsoGiDqtoeWCdtpy6ZL80SrGmHH46U3",
    "placeName": "winchester",
    "state": "TN"
  },
  {
    "city": "chattanooga",
    "state_code": "TN",
    "placeMasterId": "P02500000FsoGg59jlhrQKtAM3O9rL7CHHcMaKbF",
    "placeName": "chattanooga",
    "state": "TN"
  },
  {
    "city": "bulls gap",
    "state_code": "TN",
    "placeMasterId": "P02500000FsoGfwJGAJHdeHvBFZoRQd4c4fgl0nc",
    "placeName": "bulls gap",
    "state": "TN"
  },
  {
    "city": "harrogate",
    "state_code": "TN",
    "placeMasterId": "P02500000FsoGgnO7mgkLltOE4RswtYxEOntghUD",
    "placeName": "harrogate",
    "state": "TN"
  },
  {
    "city": "loudon",
    "state_code": "TN",
    "placeMasterId": "P02500000FsoGh554zTtv95sZg4ZmiXlX6Sogwny",
    "placeName": "loudon",
    "state": "TN"
  },
  {
    "city": "philadelphia",
    "state_code": "TN",
    "placeMasterId": "P02500000FsoGhVcVnfdHCtc65Vc2S10RmWbk61F",
    "placeName": "philadelphia",
    "state": "TN"
  },
  {
    "city": "knoxville",
    "state_code": "TN",
    "placeMasterId": "P02500000FsoGgwEbO5K8SUdOsGEMo3NrnN3KYab",
    "placeName": "knoxville",
    "state": "TN"
  },
  {
    "city": "farragut",
    "state_code": "TN",
    "placeMasterId": "P02500000FsoGgVhAZtamOgtsSpC74aEFp8ib7Ao",
    "placeName": "farragut",
    "state": "TN"
  },
  {
    "city": "saulsbury",
    "state_code": "TN",
    "placeMasterId": "P02500000FsoGhnJT0Smqa66Rh8IsGzcwHDO9tGt",
    "placeName": "saulsbury",
    "state": "TN"
  },
  {
    "city": "hollow rock",
    "state_code": "TN",
    "placeMasterId": "P02500000FsoGgnO7mgkLltOE4RswtYxBdBYlRdx",
    "placeName": "hollow rock",
    "state": "TN"
  },
  {
    "city": "hohenwald",
    "state_code": "TN",
    "placeMasterId": "P02500000FsoGgnO7mgkLltOE4RswtZ4cbwREmSg",
    "placeName": "hohenwald",
    "state": "TN"
  },
  {
    "city": "southaven",
    "state_code": "MS",
    "placeMasterId": "P02500000FsoFi9fCRDRbkaNAcL4KfNJ5vjfpIXn",
    "placeName": "southaven",
    "state": "MS"
  },
  {
    "city": "southaven",
    "state_code": "MS",
    "placeMasterId": "P02500000FsoFi9fCRDRbkaNAcL4KfNJ5vjfpIXn",
    "placeName": "southaven",
    "state": "MS"
  },
  {
    "city": "greenville",
    "state_code": "MS",
    "placeMasterId": "P02500000FsoFhIaKopytcyu7nSzpCQxhzRLZYEG",
    "placeName": "greenville",
    "state": "MS"
  },
  {
    "city": "nettleton",
    "state_code": "MS",
    "placeMasterId": "P02500000FsoFhj7ld1iFgmdeCu24vu7kJELs4bU",
    "placeName": "nettleton",
    "state": "MS"
  },
  {
    "city": "okolona",
    "state_code": "MS",
    "placeMasterId": "P02500000FsoFhryFEQI2NNsp0iNUqOaIAr2N6qs",
    "placeName": "okolona",
    "state": "MS"
  },
  {
    "city": "plantersville",
    "state_code": "MS",
    "placeMasterId": "P02500000FsoFi0oiporp3z7zoWiukskg0xjC2ag",
    "placeName": "plantersville",
    "state": "MS"
  },
  {
    "city": "louin",
    "state_code": "MS",
    "placeMasterId": "P02500000FsoFhaHI1d8T0BOTP5gf1PeO3e93lb6",
    "placeName": "louin",
    "state": "MS"
  },
  {
    "city": "louisville",
    "state_code": "MS",
    "placeMasterId": "P02500000FsoFhaHI1d8T0BOTP5gf1PgWgpo618q",
    "placeName": "louisville",
    "state": "MS"
  },
  {
    "city": "biloxi",
    "state_code": "MS",
    "placeMasterId": "P02500000FsoFgaLwnr5yBygFmPGjdzA8ATHpH98",
    "placeName": "biloxi",
    "state": "MS"
  },
  {
    "city": "ocean springs",
    "state_code": "MS",
    "placeMasterId": "P02500000FsoFhryFEQI2NNsp0iNUqOSR74QZHc9",
    "placeName": "ocean springs",
    "state": "MS"
  },
  {
    "city": "centreville",
    "state_code": "MS",
    "placeMasterId": "P02500000FsoFgs2u0eFXZBAbO1xZSxneuJJ2Ckw",
    "placeName": "centreville",
    "state": "MS"
  },
  {
    "city": "eupora",
    "state_code": "MS",
    "placeMasterId": "P02500000FsoFh0tNc2pKFmPmBqIzNSH3wjYiCNU",
    "placeName": "eupora",
    "state": "MS"
  },
  {
    "city": "midway",
    "state_code": "KY",
    "placeMasterId": "P02500000FsoFP2FDc66Ng5ZoxWmKZjM3b2c6D1S",
    "placeName": "midway",
    "state": "KY"
  },
  {
    "city": "morehead",
    "state_code": "KY",
    "placeMasterId": "P02500000FsoFP2FDc66Ng5ZoxWmKZjPE5zjBYSq",
    "placeName": "morehead",
    "state": "KY"
  },
  {
    "city": "west liberty",
    "state_code": "KY",
    "placeMasterId": "P02500000FsoFQ2AYps8sUII2aDCFxA1KdK4U5j0",
    "placeName": "west liberty",
    "state": "KY"
  },
  {
    "city": "mcroberts",
    "state_code": "KY",
    "placeMasterId": "P02500000FsoFOkYGPIwoIt5TLu5UkkmVItvdWiy",
    "placeName": "mcroberts",
    "state": "KY"
  },
  {
    "city": "fulton",
    "state_code": "KY",
    "placeMasterId": "P02500000FsoFO2JsOK3srsrbKqMPCIok1qgK5n1",
    "placeName": "fulton",
    "state": "KY"
  },
  {
    "city": "hardin",
    "state_code": "KY",
    "placeMasterId": "P02500000FsoFOK0pb7DSF5LwwT3F1HUiYmjeuiQ",
    "placeName": "hardin",
    "state": "KY"
  },
  {
    "city": "hickman",
    "state_code": "KY",
    "placeMasterId": "P02500000FsoFOK0pb7DSF5LwwT3F1HWbfDl6pFQ",
    "placeName": "hickman",
    "state": "KY"
  },
  {
    "city": "murray",
    "state_code": "KY",
    "placeMasterId": "P02500000FsoFP2FDc66Ng5ZoxWmKZjTnUe6WCrT",
    "placeName": "murray",
    "state": "KY"
  },
  {
    "city": "edmonton",
    "state_code": "KY",
    "placeMasterId": "P02500000FsoFNkcvBWuJUgNFjDfZNK7M40zMJXG",
    "placeName": "edmonton",
    "state": "KY"
  },
  {
    "city": "glasgow",
    "state_code": "KY",
    "placeMasterId": "P02500000FsoFOBALzidfYU6m8ehp6n8ZarIgnzI",
    "placeName": "glasgow",
    "state": "KY"
  },
  {
    "city": "livermore",
    "state_code": "KY",
    "placeMasterId": "P02500000FsoFOkYGPIwoIt5TLu5UkkirwV1BWMN",
    "placeName": "livermore",
    "state": "KY"
  },
  {
    "city": "providence",
    "state_code": "KY",
    "placeMasterId": "P02500000FsoFPSmeQHpjjtJLMxoaJCTkVifCFxZ",
    "placeName": "providence",
    "state": "KY"
  },
  {
    "city": "burkesville",
    "state_code": "KY",
    "placeMasterId": "P02500000FsoFNSvxyjkk7Tsu7ayjYLGWycjCEVY",
    "placeName": "burkesville",
    "state": "KY"
  },
  {
    "city": "ashville",
    "state_code": "OH",
    "placeMasterId": "P02500000FsoGCgnNW2xen8kSY6zleCoEydXe8X5",
    "placeName": "ashville",
    "state": "OH"
  },
  {
    "city": "haydenville",
    "state_code": "OH",
    "placeMasterId": "P02500000FsoGFG1yNBLn9x9b0jDI31Sf5KWJczX",
    "placeName": "haydenville",
    "state": "OH"
  },
  {
    "city": "columbus",
    "state_code": "OH",
    "placeMasterId": "P02500000FsoGDyPfwc9iyXx1mQ6Wqc0NMzPNh3d",
    "placeName": "columbus",
    "state": "OH"
  },
  {
    "city": "green camp",
    "state_code": "OH",
    "placeMasterId": "P02500000FsoGEyL1AOCDmkfFP6WSE2fbnxhijhT",
    "placeName": "green camp",
    "state": "OH"
  },
  {
    "city": "morral",
    "state_code": "OH",
    "placeMasterId": "P02500000FsoGGgUkP97e1xbL2qfT9vEN6Ur8Q6M",
    "placeName": "morral",
    "state": "OH"
  },
  {
    "city": "williston",
    "state_code": "OH",
    "placeMasterId": "P02500000FsoGJXQIT4fLlyUp75ZpNiZ5TE168nz",
    "placeName": "williston",
    "state": "OH"
  },
  {
    "city": "maumee",
    "state_code": "OH",
    "placeMasterId": "P02500000FsoGGOnnCLy4el6zRDydKwJRUdp1BKP",
    "placeName": "maumee",
    "state": "OH"
  },
  {
    "city": "toledo",
    "state_code": "OH",
    "placeMasterId": "P02500000FsoGIpBuS5mQKyGx61qjpGheGoHOM1s",
    "placeName": "toledo",
    "state": "OH"
  },
  {
    "city": "toledo",
    "state_code": "OH",
    "placeMasterId": "P02500000FsoGIpBuS5mQKyGx61qjpGheGoHOM1s",
    "placeName": "toledo",
    "state": "OH"
  },
  {
    "city": "stafford",
    "state_code": "OH",
    "placeMasterId": "P02500000FsoGIXUxFIcqxlmbUP9u0I2LJXo1r5P",
    "placeName": "stafford",
    "state": "OH"
  },
  {
    "city": "lansing",
    "state_code": "OH",
    "placeMasterId": "P02500000FsoGFyGMOAEiaxNT1mwNbTBIhFV4wVP",
    "placeName": "lansing",
    "state": "OH"
  },
  {
    "city": "avon",
    "state_code": "OH",
    "placeMasterId": "P02500000FsoGCpdr7RXRTjzdLvLBYhClLG6Hfip",
    "placeName": "avon",
    "state": "OH"
  },
  {
    "city": "gates mills",
    "state_code": "OH",
    "placeMasterId": "P02500000FsoGEpUXYzcR69Q4bIB2JYNGif144Vf",
    "placeName": "gates mills",
    "state": "OH"
  },
  {
    "city": "sheffield lake",
    "state_code": "OH",
    "placeMasterId": "P02500000FsoGIXUxFIcqxlmbUP9u0HpM6cKFU7e",
    "placeName": "sheffield lake",
    "state": "OH"
  },
  {
    "city": "barberton",
    "state_code": "OH",
    "placeMasterId": "P02500000FsoGCpdr7RXRTjzdLvLBYh1Sq8n4sp3",
    "placeName": "barberton",
    "state": "OH"
  },
  {
    "city": "hudson",
    "state_code": "OH",
    "placeMasterId": "P02500000FsoGFXivZyVMX9dwcLu7s04nS12HmaA",
    "placeName": "hudson",
    "state": "OH"
  },
  {
    "city": "kent",
    "state_code": "OH",
    "placeMasterId": "P02500000FsoGFgZPBN59Dkt7QAFXmUXnKQZyDmw",
    "placeName": "kent",
    "state": "OH"
  },
  {
    "city": "sterling",
    "state_code": "OH",
    "placeMasterId": "P02500000FsoGIgLQqhCdeN1mIDVJumDy3aGqK0X",
    "placeName": "sterling",
    "state": "OH"
  },
  {
    "city": "akron",
    "state_code": "OH",
    "placeMasterId": "P02500000FsoGCXwtueNs6XVHkIeLjiMh8uljxTa",
    "placeName": "akron",
    "state": "OH"
  },
  {
    "city": "youngstown",
    "state_code": "OH",
    "placeMasterId": "P02500000FsoGJgGm4TF8SZjzutvFICtONAHpkmb",
    "placeName": "youngstown",
    "state": "OH"
  },
  {
    "city": "youngstown",
    "state_code": "OH",
    "placeMasterId": "P02500000FsoGJgGm4TF8SZjzutvFICtONAHpkmb",
    "placeName": "youngstown",
    "state": "OH"
  },
  {
    "city": "beach city",
    "state_code": "OH",
    "placeMasterId": "P02500000FsoGCpdr7RXRTjzdLvLBYh9BHwE46j7",
    "placeName": "beach city",
    "state": "OH"
  },
  {
    "city": "east sparta",
    "state_code": "OH",
    "placeMasterId": "P02500000FsoGEOx6knt52LgYBr8ma587VjOEKQ2",
    "placeName": "east sparta",
    "state": "OH"
  },
  {
    "city": "gnadenhutten",
    "state_code": "OH",
    "placeMasterId": "P02500000FsoGEyL1AOCDmkfFP6WSE2c37VkFgAm",
    "placeName": "gnadenhutten",
    "state": "OH"
  },
  {
    "city": "canton",
    "state_code": "OH",
    "placeMasterId": "P02500000FsoGDXsF8QQMukDVMz4H790las5R4Gr",
    "placeName": "canton",
    "state": "OH"
  },
  {
    "city": "ashland",
    "state_code": "OH",
    "placeMasterId": "P02500000FsoGCpdr7RXRTjzdLvLBYh76sQiLnBf",
    "placeName": "ashland",
    "state": "OH"
  },
  {
    "city": "kansas",
    "state_code": "OH",
    "placeMasterId": "P02500000FsoGFXivZyVMX9dwcLu7s0F8IENw7Mg",
    "placeName": "kansas",
    "state": "OH"
  },
  {
    "city": "new washington",
    "state_code": "OH",
    "placeMasterId": "P02500000FsoGH72BDKr05lKrSHhitO9RFPGL8bW",
    "placeName": "new washington",
    "state": "OH"
  },
  {
    "city": "norwalk",
    "state_code": "OH",
    "placeMasterId": "P02500000FsoGHFseojQmmMa2G638nsf9NrkQIuF",
    "placeName": "norwalk",
    "state": "OH"
  },
  {
    "city": "sycamore",
    "state_code": "OH",
    "placeMasterId": "P02500000FsoGIpBuS5mQKyGx61qjpGiaFvGgi1v",
    "placeName": "sycamore",
    "state": "OH"
  },
  {
    "city": "mansfield",
    "state_code": "OH",
    "placeMasterId": "P02500000FsoGGFxJaxOHy9rodPdDQRzT3egLih6",
    "placeName": "mansfield",
    "state": "OH"
  },
  {
    "city": "waynesville",
    "state_code": "OH",
    "placeMasterId": "P02500000FsoGJFjLGHVmOm0TVSszYjuBe5CqCsQ",
    "placeName": "waynesville",
    "state": "OH"
  },
  {
    "city": "mowrystown",
    "state_code": "OH",
    "placeMasterId": "P02500000FsoGGpLE0XhQiYqVqf0t4PWSBenF1Vy",
    "placeName": "mowrystown",
    "state": "OH"
  },
  {
    "city": "cincinnati",
    "state_code": "OH",
    "placeMasterId": "P02500000FsoGDpZCLDZwHwhqybl6w7e8Lps6H4x",
    "placeName": "cincinnati",
    "state": "OH"
  },
  {
    "city": "bradford",
    "state_code": "OH",
    "placeMasterId": "P02500000FsoGDGBHvdGnXXj9lMNRIA8pH6pZ5Gf",
    "placeName": "bradford",
    "state": "OH"
  },
  {
    "city": "enon",
    "state_code": "OH",
    "placeMasterId": "P02500000FsoGEXnaMCSriwvizfUCUZS834eqc8t",
    "placeName": "enon",
    "state": "OH"
  },
  {
    "city": "dayton",
    "state_code": "OH",
    "placeMasterId": "P02500000FsoGE7G9Y0jVf9CCaERwl6OdIDcWstb",
    "placeName": "dayton",
    "state": "OH"
  },
  {
    "city": "coalton",
    "state_code": "OH",
    "placeMasterId": "P02500000FsoGDpZCLDZwHwhqybl6w7q20NS3KqV",
    "placeName": "coalton",
    "state": "OH"
  },
  {
    "city": "lucasville",
    "state_code": "OH",
    "placeMasterId": "P02500000FsoGG76pzYoVHYcdpbHnVxigOqCV6YV",
    "placeName": "lucasville",
    "state": "OH"
  },
  {
    "city": "lowell",
    "state_code": "OH",
    "placeMasterId": "P02500000FsoGG76pzYoVHYcdpbHnVxWVNex0zpQ",
    "placeName": "lowell",
    "state": "OH"
  },
  {
    "city": "antwerp",
    "state_code": "OH",
    "placeMasterId": "P02500000FsoGCgnNW2xen8kSY6zleCiyWHN7eaM",
    "placeName": "antwerp",
    "state": "OH"
  },
  {
    "city": "jenera",
    "state_code": "OH",
    "placeMasterId": "P02500000FsoGFXivZyVMX9dwcLu7s0EnjYyYsTE",
    "placeName": "jenera",
    "state": "OH"
  },
  {
    "city": "haviland",
    "state_code": "OH",
    "placeMasterId": "P02500000FsoGFG1yNBLn9x9b0jDI31Ki75WxthF",
    "placeName": "haviland",
    "state": "OH"
  },
  {
    "city": "beech grove",
    "state_code": "IN",
    "placeMasterId": "P02500000FsoF9CIDf62DPPPTmOQwRM82Z7l4dX2",
    "placeName": "beech grove",
    "state": "IN"
  },
  {
    "city": "fairland",
    "state_code": "IN",
    "placeMasterId": "P02500000FsoFA3N5HTUvX0sWbGVRuIQVImdOiuQ",
    "placeName": "fairland",
    "state": "IN"
  },
  {
    "city": "fillmore",
    "state_code": "IN",
    "placeMasterId": "P02500000FsoFA3N5HTUvX0sWbGVRuIPfB0XeQ6o",
    "placeName": "fillmore",
    "state": "IN"
  },
  {
    "city": "manilla",
    "state_code": "IN",
    "placeMasterId": "P02500000FsoFB3IQVFXQLDakDwvNHixgCDYWvbt",
    "placeName": "manilla",
    "state": "IN"
  },
  {
    "city": "monrovia",
    "state_code": "IN",
    "placeMasterId": "P02500000FsoFBC8u6e7D1opv1lGnCDOJbFilOyn",
    "placeName": "monrovia",
    "state": "IN"
  },
  {
    "city": "waldron",
    "state_code": "IN",
    "placeMasterId": "P02500000FsoFCcbg8bt3tpHf3siyJ77LV7qImPv",
    "placeName": "waldron",
    "state": "IN"
  },
  {
    "city": "dyer",
    "state_code": "IN",
    "placeMasterId": "P02500000FsoF9uWbg4v8qPdLnSA1znzFc2slIdJ",
    "placeName": "dyer",
    "state": "IN"
  },
  {
    "city": "wanatah",
    "state_code": "IN",
    "placeMasterId": "P02500000FsoFCcbg8bt3tpHf3siyJ75MIrhWrHe",
    "placeName": "wanatah",
    "state": "IN"
  },
  {
    "city": "syracuse",
    "state_code": "IN",
    "placeMasterId": "P02500000FsoFCKuivojUWcnJSG28U8OHyaLeQgq",
    "placeName": "syracuse",
    "state": "IN"
  },
  {
    "city": "wakarusa",
    "state_code": "IN",
    "placeMasterId": "P02500000FsoFCcbg8bt3tpHf3siyJ75qMROj5DF",
    "placeName": "wakarusa",
    "state": "IN"
  },
  {
    "city": "fort wayne",
    "state_code": "IN",
    "placeMasterId": "P02500000FsoFACDYss4iDc7hP4qromiuPZZ994H",
    "placeName": "fort wayne",
    "state": "IN"
  },
  {
    "city": "logansport",
    "state_code": "IN",
    "placeMasterId": "P02500000FsoFB3IQVFXQLDakDwvNHixfOOVelKC",
    "placeName": "logansport",
    "state": "IN"
  },
  {
    "city": "star city",
    "state_code": "IN",
    "placeMasterId": "P02500000FsoFCKuivojUWcnJSG28U8KW9vkDj5V",
    "placeName": "star city",
    "state": "IN"
  },
  {
    "city": "elizabeth",
    "state_code": "IN",
    "placeMasterId": "P02500000FsoFA3N5HTUvX0sWbGVRuIO1qWDfF67",
    "placeName": "elizabeth",
    "state": "IN"
  },
  {
    "city": "palmyra",
    "state_code": "IN",
    "placeMasterId": "P02500000FsoFBlWoWEQLmDocF0eSqAoWdhnlli5",
    "placeName": "palmyra",
    "state": "IN"
  },
  {
    "city": "hartsville",
    "state_code": "IN",
    "placeMasterId": "P02500000FsoFATuW5fEHaoc30hXhdlWjeAN9mVm",
    "placeName": "hartsville",
    "state": "IN"
  },
  {
    "city": "bloomington",
    "state_code": "IN",
    "placeMasterId": "P02500000FsoF9CIDf62DPPPTmOQwRMAEdPDRnqu",
    "placeName": "bloomington",
    "state": "IN"
  },
  {
    "city": "cynthiana",
    "state_code": "IN",
    "placeMasterId": "P02500000FsoF9lg84gLM9oOAzdoc5Jc2pmW4PnW",
    "placeName": "cynthiana",
    "state": "IN"
  },
  {
    "city": "clay city",
    "state_code": "IN",
    "placeMasterId": "P02500000FsoF9cpeTHlZTD90BpTCApGnPt2EnrS",
    "placeName": "clay city",
    "state": "IN"
  },
  {
    "city": "dana",
    "state_code": "IN",
    "placeMasterId": "P02500000FsoF9lg84gLM9oOAzdoc5Jg6LxXDNoZ",
    "placeName": "dana",
    "state": "IN"
  },
  {
    "city": "farmersburg",
    "state_code": "IN",
    "placeMasterId": "P02500000FsoFA3N5HTUvX0sWbGVRuIPmGUO7WDv",
    "placeName": "farmersburg",
    "state": "IN"
  },
  {
    "city": "rockville",
    "state_code": "IN",
    "placeMasterId": "P02500000FsoFC3Dlj1Zv9QIxqdLIf9YYpXaSWi9",
    "placeName": "rockville",
    "state": "IN"
  },
  {
    "city": "boswell",
    "state_code": "IN",
    "placeMasterId": "P02500000FsoF9L8hGUc060eeaCmMLqVgB1Fuu7B",
    "placeName": "boswell",
    "state": "IN"
  },
  {
    "city": "waynetown",
    "state_code": "IN",
    "placeMasterId": "P02500000FsoFClS9k0SqaQWprh4ODbPhU1GzHmQ",
    "placeName": "waynetown",
    "state": "IN"
  },
  {
    "city": "center line",
    "state_code": "MI",
    "placeMasterId": "P02500000FsoFXsip0ft4HKkclsCF46Qlht5PjvL",
    "placeName": "center line",
    "state": "MI"
  },
  {
    "city": "new haven",
    "state_code": "MI",
    "placeMasterId": "P02500000FsoFZjj1qpOHD8vtDQgfuTLWJwr8RbO",
    "placeName": "new haven",
    "state": "MI"
  },
  {
    "city": "yale",
    "state_code": "MI",
    "placeMasterId": "P02500000FsoFb1LKHOaLOY8SRjnR6siA1LDor3y",
    "placeName": "yale",
    "state": "MI"
  },
  {
    "city": "ann arbor",
    "state_code": "MI",
    "placeMasterId": "P02500000FsoFX1dxOIQM9jHZx07jbAPjgnqdjRL",
    "placeName": "ann arbor",
    "state": "MI"
  },
  {
    "city": "dearborn",
    "state_code": "MI",
    "placeMasterId": "P02500000FsoFY1ZIc4SqxvznZgXeyaqr2imSlK7",
    "placeName": "dearborn",
    "state": "MI"
  },
  {
    "city": "bloomfield hills",
    "state_code": "MI",
    "placeMasterId": "P02500000FsoFXSBOCU9iDX16MR9zKdIjj5UjP4e",
    "placeName": "bloomfield hills",
    "state": "MI"
  },
  {
    "city": "utica",
    "state_code": "MI",
    "placeMasterId": "P02500000FsoFajeN4bQm1Le6q76bHu2YEjsXOtB",
    "placeName": "utica",
    "state": "MI"
  },
  {
    "city": "lake orion",
    "state_code": "MI",
    "placeMasterId": "P02500000FsoFZAL7RF58SjxC0BJ0GVnCoRIiqbf",
    "placeName": "lake orion",
    "state": "MI"
  },
  {
    "city": "bad axe",
    "state_code": "MI",
    "placeMasterId": "P02500000FsoFXAUQzh08qKWkkoT9VecjYhomQGk",
    "placeName": "bad axe",
    "state": "MI"
  },
  {
    "city": "byron",
    "state_code": "MI",
    "placeMasterId": "P02500000FsoFXb1rnsjUu8GHAFVPF7ijVma9Rw5",
    "placeName": "byron",
    "state": "MI"
  },
  {
    "city": "holly",
    "state_code": "MI",
    "placeMasterId": "P02500000FsoFYjngd3LmOwDfakGkX2mkQErH424",
    "placeName": "holly",
    "state": "MI"
  },
  {
    "city": "lapeer",
    "state_code": "MI",
    "placeMasterId": "P02500000FsoFZAL7RF58SjxC0BJ0GVv3wqjhKBe",
    "placeName": "lapeer",
    "state": "MI"
  },
  {
    "city": "saginaw",
    "state_code": "MI",
    "placeMasterId": "P02500000FsoFaRxProHCe99lEUPlSv76nEZg8RV",
    "placeName": "saginaw",
    "state": "MI"
  },
  {
    "city": "clare",
    "state_code": "MI",
    "placeMasterId": "P02500000FsoFXjsLPHJHajVRy3qp9cDjMyperQu",
    "placeName": "clare",
    "state": "MI"
  },
  {
    "city": "comins",
    "state_code": "MI",
    "placeMasterId": "P02500000FsoHiQt4nUAaDoXwObxLG2oFxUXEkv8",
    "placeName": "comins",
    "state": "MI"
  },
  {
    "city": "roscommon",
    "state_code": "MI",
    "placeMasterId": "P02500000FsoFaJ6wGPhPxXuaQg4LYQosFbFgpYG",
    "placeName": "roscommon",
    "state": "MI"
  },
  {
    "city": "akron",
    "state_code": "MI",
    "placeMasterId": "P02500000FsoFX1dxOIQM9jHZx07jbAODP6xWcII",
    "placeName": "akron",
    "state": "MI"
  },
  {
    "city": "millington",
    "state_code": "MI",
    "placeMasterId": "P02500000FsoFZasYFQoUWXgiPcLFzysJlXMWfkf",
    "placeName": "millington",
    "state": "MI"
  },
  {
    "city": "belding",
    "state_code": "MI",
    "placeMasterId": "P02500000FsoFXJKub5ZvWvlvYcoZQ91vYgvwc2V",
    "placeName": "belding",
    "state": "MI"
  },
  {
    "city": "carson city",
    "state_code": "MI",
    "placeMasterId": "P02500000FsoFXjsLPHJHajVRy3qp9c1gRuEx4H0",
    "placeName": "carson city",
    "state": "MI"
  },
  {
    "city": "kalamazoo",
    "state_code": "MI",
    "placeMasterId": "P02500000FsoFZ1UdpqVLm8i1CMxaM1Y4EtACkYj",
    "placeName": "kalamazoo",
    "state": "MI"
  },
  {
    "city": "plainwell",
    "state_code": "MI",
    "placeMasterId": "P02500000FsoFaAGSf17dGwfPcrivdwJk7tNfOYO",
    "placeName": "plainwell",
    "state": "MI"
  },
  {
    "city": "new troy",
    "state_code": "MI",
    "placeMasterId": "P02500000FsoFZjj1qpOHD8vtDQgfuTOGtNeWLst",
    "placeName": "new troy",
    "state": "MI"
  },
  {
    "city": "parma",
    "state_code": "MI",
    "placeMasterId": "P02500000FsoFa1Pz3cXqaLQEp3NVjRwnW5b2jMl",
    "placeName": "parma",
    "state": "MI"
  },
  {
    "city": "allendale",
    "state_code": "MI",
    "placeMasterId": "P02500000FsoFX1dxOIQM9jHZx07jbAIzAfawDL0",
    "placeName": "allendale",
    "state": "MI"
  },
  {
    "city": "bellaire",
    "state_code": "MI",
    "placeMasterId": "P02500000FsoFXJKub5ZvWvlvYcoZQ95Aps5Svhk",
    "placeName": "bellaire",
    "state": "MI"
  },
  {
    "city": "central lake",
    "state_code": "MI",
    "placeMasterId": "P02500000FsoFXjsLPHJHajVRy3qp9c9NfKGL6mp",
    "placeName": "central lake",
    "state": "MI"
  },
  {
    "city": "chase",
    "state_code": "MI",
    "placeMasterId": "P02500000FsoHi9C7ah10qc3amzGVR3zfLWY2WxW",
    "placeName": "chase",
    "state": "MI"
  },
  {
    "city": "maple city",
    "state_code": "MI",
    "placeMasterId": "P02500000FsoFZJBb2dev9LCMnzeQB0KS6wsR07m",
    "placeName": "maple city",
    "state": "MI"
  },
  {
    "city": "merritt",
    "state_code": "MI",
    "placeMasterId": "P02500000FsoHlZVa4CrrL1vm4TYXIoqSu3GzYQc",
    "placeName": "merritt",
    "state": "MI"
  },
  {
    "city": "hubbard lake",
    "state_code": "MI",
    "placeMasterId": "P02500000FsoFYseAERvZ5XSqOYcARX0ohiDJJc0",
    "placeName": "hubbard lake",
    "state": "MI"
  },
  {
    "city": "hulbert",
    "state_code": "MI",
    "placeMasterId": "P02500000FsoHkQjlF2FZqDyNdynC0tqgOsrzEkT",
    "placeName": "hulbert",
    "state": "MI"
  },
  {
    "city": "big bay",
    "state_code": "MI",
    "placeMasterId": "P02500000FsoFXSBOCU9iDX16MR9zKdRkiZMjJb3",
    "placeName": "big bay",
    "state": "MI"
  },
  {
    "city": "dollar bay",
    "state_code": "MI",
    "placeMasterId": "P02500000FsoFYAPmDT2deXEyNUt4t5FLnHKh5z8",
    "placeName": "dollar bay",
    "state": "MI"
  },
  {
    "city": "dows",
    "state_code": "IA",
    "placeMasterId": "P02500000FsoFETbsylOGpdSvVRDP9TslJy3WJNe",
    "placeName": "dows",
    "state": "IA"
  },
  {
    "city": "harvey",
    "state_code": "IA",
    "placeMasterId": "P02500000FsoFFKgkb8qyxEvyKJHucQ9AVJQXCwV",
    "placeName": "harvey",
    "state": "IA"
  },
  {
    "city": "hubbard",
    "state_code": "IA",
    "placeMasterId": "P02500000FsoFFcNhnw0YKRQJvvykROqeKmPzo2i",
    "placeName": "hubbard",
    "state": "IA"
  },
  {
    "city": "kamrar",
    "state_code": "IA",
    "placeMasterId": "P02500000FsoFFlEBPKaL12fUjkKALtFPCIGcSrx",
    "placeName": "kamrar",
    "state": "IA"
  },
  {
    "city": "marshalltown",
    "state_code": "IA",
    "placeMasterId": "P02500000FsoFGTSZQJTGS2tMko3FuL6yYppJsWJ",
    "placeName": "marshalltown",
    "state": "IA"
  },
  {
    "city": "nevada",
    "state_code": "IA",
    "placeMasterId": "P02500000FsoFGu00EVCcVqctAF5VdoBN6xSJCx2",
    "placeName": "nevada",
    "state": "IA"
  },
  {
    "city": "weldon",
    "state_code": "IA",
    "placeMasterId": "P02500000FsoFIl0D4ehpReo9bnZwUB37l2KZ4qy",
    "placeName": "weldon",
    "state": "IA"
  },
  {
    "city": "what cheer",
    "state_code": "IA",
    "placeMasterId": "P02500000FsoFIl0D4ehpReo9bnZwUB7McWKpeQA",
    "placeName": "what cheer",
    "state": "IA"
  },
  {
    "city": "rowan",
    "state_code": "IA",
    "placeMasterId": "P02500000FsoFHl4rqsfKdS5vz7A16kRrgmu4FCr",
    "placeName": "rowan",
    "state": "IA"
  },
  {
    "city": "palmer",
    "state_code": "IA",
    "placeMasterId": "P02500000FsoFHBgxRIMBt37ElrmLSmvPZ7WbBpV",
    "placeName": "palmer",
    "state": "IA"
  },
  {
    "city": "rembrandt",
    "state_code": "IA",
    "placeMasterId": "P02500000FsoFHcEOFU5XwqqlBIobCG3sz1F8TQf",
    "placeName": "rembrandt",
    "state": "IA"
  },
  {
    "city": "reinbeck",
    "state_code": "IA",
    "placeMasterId": "P02500000FsoFHcEOFU5XwqqlBIobCG3XCZ7Ueyi",
    "placeName": "reinbeck",
    "state": "IA"
  },
  {
    "city": "anthon",
    "state_code": "IA",
    "placeMasterId": "P02500000FsoFDBzaYCCCeEGMH86dx4YTRANpx4G",
    "placeName": "anthon",
    "state": "IA"
  },
  {
    "city": "marcus",
    "state_code": "IA",
    "placeMasterId": "P02500000FsoFGTSZQJTGS2tMko3FuL44ZhvDAED",
    "placeName": "marcus",
    "state": "IA"
  },
  {
    "city": "remsen",
    "state_code": "IA",
    "placeMasterId": "P02500000FsoFHcEOFU5XwqqlBIobCG3j6mbiC6Y",
    "placeName": "remsen",
    "state": "IA"
  },
  {
    "city": "archer",
    "state_code": "IA",
    "placeMasterId": "P02500000FsoFDBzaYCCCeEGMH86dx4Xa660CVTT",
    "placeName": "archer",
    "state": "IA"
  },
  {
    "city": "doon",
    "state_code": "IA",
    "placeMasterId": "P02500000FsoFEKlPNMoU92DkhcrzEzYo6j10zUg",
    "placeName": "doon",
    "state": "IA"
  },
  {
    "city": "spencer",
    "state_code": "IA",
    "placeMasterId": "P02500000FsoFIBcIf4OghFpSOYCGqDYlptlE6yX",
    "placeName": "spencer",
    "state": "IA"
  },
  {
    "city": "coin",
    "state_code": "IA",
    "placeMasterId": "P02500000FsoFE34SAZeulpjP60B9Q0oJtG2Iy84",
    "placeName": "coin",
    "state": "IA"
  },
  {
    "city": "delmar",
    "state_code": "IA",
    "placeMasterId": "P02500000FsoFEKlPNMoU92DkhcrzEzVoZ7IFVZJ",
    "placeName": "delmar",
    "state": "IA"
  },
  {
    "city": "durango",
    "state_code": "IA",
    "placeMasterId": "P02500000FsoFEcSMa9y3WEi6JFYp3yFOVaeoBf3",
    "placeName": "durango",
    "state": "IA"
  },
  {
    "city": "amana",
    "state_code": "IA",
    "placeMasterId": "P02500000FsoFDBzaYCCCeEGMH86dx4WkhlGh3Hn",
    "placeName": "amana",
    "state": "IA"
  },
  {
    "city": "keosauqua",
    "state_code": "IA",
    "placeMasterId": "P02500000FsoFFlEBPKaL12fUjkKALtGAFmmTgBh",
    "placeName": "keosauqua",
    "state": "IA"
  },
  {
    "city": "dixon",
    "state_code": "IA",
    "placeMasterId": "P02500000FsoFETbsylOGpdSvVRDP9TssxtmYyjW",
    "placeName": "dixon",
    "state": "IA"
  },
  {
    "city": "eldridge",
    "state_code": "IA",
    "placeMasterId": "P02500000FsoFEcSMa9y3WEi6JFYp3yJb60rv42q",
    "placeName": "eldridge",
    "state": "IA"
  },
  {
    "city": "clyman",
    "state_code": "WI",
    "placeMasterId": "P02500000FsoHEbzHjdXScGOWTtkzpf73CVC7HjR",
    "placeName": "clyman",
    "state": "WI"
  },
  {
    "city": "fredonia",
    "state_code": "WI",
    "placeMasterId": "P02500000FsoHFT49M10AjrrZIlpVIbJ9VMI0eq8",
    "placeName": "fredonia",
    "state": "WI"
  },
  {
    "city": "muskego",
    "state_code": "WI",
    "placeMasterId": "P02500000FsoH6uHVAEN3VpB7636QdD6wp3DsGBp",
    "placeName": "muskego",
    "state": "WI"
  },
  {
    "city": "walworth",
    "state_code": "WI",
    "placeMasterId": "P02500000FsoHG2S3lbJJUGqGW1DAwYizuZrJe3K",
    "placeName": "walworth",
    "state": "WI"
  },
  {
    "city": "milwaukee",
    "state_code": "WI",
    "placeMasterId": "P02500000FsoH6lR1YpnGpDvwIEl0iig1pZrPtxd",
    "placeName": "milwaukee",
    "state": "WI"
  },
  {
    "city": "milwaukee",
    "state_code": "WI",
    "placeMasterId": "P02500000FsoH6lR1YpnGpDvwIEl0iig1pZrPtxd",
    "placeName": "milwaukee",
    "state": "WI"
  },
  {
    "city": "milwaukee",
    "state_code": "WI",
    "placeMasterId": "P02500000FsoH6lR1YpnGpDvwIEl0iig1pZrPtxd",
    "placeName": "milwaukee",
    "state": "WI"
  },
  {
    "city": "milwaukee",
    "state_code": "WI",
    "placeMasterId": "P02500000FsoH6lR1YpnGpDvwIEl0iig1pZrPtxd",
    "placeName": "milwaukee",
    "state": "WI"
  },
  {
    "city": "racine",
    "state_code": "WI",
    "placeMasterId": "P02500000FsoH7cVtBDFywpOz76pWBemPplBbDcJ",
    "placeName": "racine",
    "state": "WI"
  },
  {
    "city": "mazomanie",
    "state_code": "WI",
    "placeMasterId": "P02500000FsoHET8o8Exfvf9Lg5PZvAkdpXpqoxJ",
    "placeName": "mazomanie",
    "state": "WI"
  },
  {
    "city": "reeseville",
    "state_code": "WI",
    "placeMasterId": "P02500000FsoH7cVtBDFywpOz76pWBer4PBKSxuK",
    "placeName": "reeseville",
    "state": "WI"
  },
  {
    "city": "benton",
    "state_code": "WI",
    "placeMasterId": "P02500000FsoHF2WiXpGog482tKnFZ8JvQXQtYnW",
    "placeName": "benton",
    "state": "WI"
  },
  {
    "city": "cassville",
    "state_code": "WI",
    "placeMasterId": "P02500000FsoHEkplL27FIrdhHi6Pk9TbOQ6iC2X",
    "placeName": "cassville",
    "state": "WI"
  },
  {
    "city": "cuba city",
    "state_code": "WI",
    "placeMasterId": "P02500000FsoH5C7lvTRdGcF1SIxPhKbn5QI6FJ2",
    "placeName": "cuba city",
    "state": "WI"
  },
  {
    "city": "randolph",
    "state_code": "WI",
    "placeMasterId": "P02500000FsoHET8o8Exfvf9Lg5PZvAiyJ4QlOst",
    "placeName": "randolph",
    "state": "WI"
  },
  {
    "city": "wyocena",
    "state_code": "WI",
    "placeMasterId": "P02500000FsoHET8o8Exfvf9Lg5PZvAkavzLtdfy",
    "placeName": "wyocena",
    "state": "WI"
  },
  {
    "city": "algoma",
    "state_code": "WI",
    "placeMasterId": "P02500000FsoH4CCQhhP8SPWnpcXUJu3b1AoMGYt",
    "placeName": "algoma",
    "state": "WI"
  },
  {
    "city": "whitelaw",
    "state_code": "WI",
    "placeMasterId": "P02500000FsoH8Taknaih4Qs1vyu1eb70Ln8rgJQ",
    "placeName": "whitelaw",
    "state": "WI"
  },
  {
    "city": "green bay",
    "state_code": "WI",
    "placeMasterId": "P02500000FsoH5lVgL3km11DifYL5LIC2lNuCuF7",
    "placeName": "green bay",
    "state": "WI"
  },
  {
    "city": "milladore",
    "state_code": "WI",
    "placeMasterId": "P02500000FsoHGBIXMzt6As5RJpYar3HNFKBnMZE",
    "placeName": "milladore",
    "state": "WI"
  },
  {
    "city": "tigerton",
    "state_code": "WI",
    "placeMasterId": "P02500000FsoH8BtnanZ7hENgKMDBpcIpTGY8zau",
    "placeName": "tigerton",
    "state": "WI"
  },
  {
    "city": "eagle river",
    "state_code": "WI",
    "placeMasterId": "P02500000FsoH5Toj8GbCdojN3veFWJE625zVicE",
    "placeName": "eagle river",
    "state": "WI"
  },
  {
    "city": "phillips",
    "state_code": "WI",
    "placeMasterId": "P02500000FsoH7KovyQ6PZcudVU8gMgDL4g1FIC0",
    "placeName": "phillips",
    "state": "WI"
  },
  {
    "city": "saxon",
    "state_code": "WI",
    "placeMasterId": "P02500000FsoIjvXYCt11z8STuxgJi1snjtIBGPe",
    "placeName": "saxon",
    "state": "WI"
  },
  {
    "city": "wabeno",
    "state_code": "WI",
    "placeMasterId": "P02500000FsoIkdlwDrtxQ8gLw1PPGTn7sEOOpsm",
    "placeName": "wabeno",
    "state": "WI"
  },
  {
    "city": "stoddard",
    "state_code": "WI",
    "placeMasterId": "P02500000FsoH833JzOzL0d8VWXrlv7zJynSV34K",
    "placeName": "stoddard",
    "state": "WI"
  },
  {
    "city": "cadott",
    "state_code": "WI",
    "placeMasterId": "P02500000FsoH4uQoigI3tPkfqgGZsLk1I6rRxE6",
    "placeName": "cadott",
    "state": "WI"
  },
  {
    "city": "cornucopia",
    "state_code": "WI",
    "placeMasterId": "P02500000FsoH5C7lvTRdGcF1SIxPhKZaz8SkVac",
    "placeName": "cornucopia",
    "state": "WI"
  },
  {
    "city": "cumberland",
    "state_code": "WI",
    "placeMasterId": "P02500000FsoH5KyFWs1PxDUCG7IpbopVwpLnwdO",
    "placeName": "cumberland",
    "state": "WI"
  },
  {
    "city": "grantsburg",
    "state_code": "WI",
    "placeMasterId": "P02500000FsoHEKIKWqNtF3uAsH4A0gOpN7BAbhR",
    "placeName": "grantsburg",
    "state": "WI"
  },
  {
    "city": "omro",
    "state_code": "WI",
    "placeMasterId": "P02500000FsoH7KovyQ6PZcudVU8gMg1pYvHZ0ZS",
    "placeName": "omro",
    "state": "WI"
  },
  {
    "city": "cannon falls",
    "state_code": "MN",
    "placeMasterId": "P02500000FsoFbjZiINTGpYMKSnWWfKcpbGsXVjC",
    "placeName": "cannon falls",
    "state": "MN"
  },
  {
    "city": "welch",
    "state_code": "MN",
    "placeMasterId": "P02500000FsoHyz4SlT7fvUw9ao1owrmpSdd6bT4",
    "placeName": "welch",
    "state": "MN"
  },
  {
    "city": "arlington",
    "state_code": "MN",
    "placeMasterId": "P02500000FsoFbABnsnA859NdFY8r1N5QoXtjWga",
    "placeName": "arlington",
    "state": "MN"
  },
  {
    "city": "brownton",
    "state_code": "MN",
    "placeMasterId": "P02500000FsoFbjZiINTGpYMKSnWWfKYWigVCFLO",
    "placeName": "brownton",
    "state": "MN"
  },
  {
    "city": "gibbon",
    "state_code": "MN",
    "placeMasterId": "P02500000FsoFcsLX7Y5YKMJitIHrxFWObpFWIzn",
    "placeName": "gibbon",
    "state": "MN"
  },
  {
    "city": "kimball",
    "state_code": "MN",
    "placeMasterId": "P02500000FsoFdaZv8WyTlMXauM0xVhNhVSzz4lq",
    "placeName": "kimball",
    "state": "MN"
  },
  {
    "city": "minneapolis",
    "state_code": "MN",
    "placeMasterId": "P02500000FsoFeIoJ9VrPCMlSvPk349D9alJlgNT",
    "placeName": "minneapolis",
    "state": "MN"
  },
  {
    "city": "minneapolis",
    "state_code": "MN",
    "placeMasterId": "P02500000FsoFeIoJ9VrPCMlSvPk349D9alJlgNT",
    "placeName": "minneapolis",
    "state": "MN"
  },
  {
    "city": "tofte",
    "state_code": "MN",
    "placeMasterId": "P02500000FsoHyPgYLsoXB5xSNYe9IuIOhe4KO00",
    "placeName": "tofte",
    "state": "MN"
  },
  {
    "city": "cook",
    "state_code": "MN",
    "placeMasterId": "P02500000FsoFcA796ZCctM5qsEYmOnWmuNMnqIj",
    "placeName": "cook",
    "state": "MN"
  },
  {
    "city": "hibbing",
    "state_code": "MN",
    "placeMasterId": "P02500000FsoFdIsxvjouOA3FIjK7gibtqqcwpSq",
    "placeName": "hibbing",
    "state": "MN"
  },
  {
    "city": "dodge center",
    "state_code": "MN",
    "placeMasterId": "P02500000FsoFcIxchxmPZxL1g2uCJI9H7rCLxLV",
    "placeName": "dodge center",
    "state": "MN"
  },
  {
    "city": "winnebago",
    "state_code": "MN",
    "placeMasterId": "P02500000FsoFgRVTCSWBVNR4yavJjUjThmugy6K",
    "placeName": "winnebago",
    "state": "MN"
  },
  {
    "city": "wilmont",
    "state_code": "MN",
    "placeMasterId": "P02500000FsoFgIezb3wOomBuAmZtp0X7qf0d8xY",
    "placeName": "wilmont",
    "state": "MN"
  },
  {
    "city": "holdingford",
    "state_code": "MN",
    "placeMasterId": "P02500000FsoFdIsxvjouOA3FIjK7gijDMBS6GTr",
    "placeName": "holdingford",
    "state": "MN"
  },
  {
    "city": "long prairie",
    "state_code": "MN",
    "placeMasterId": "P02500000FsoFe17LwihppAH7Jn3DFAY2BKt9sqX",
    "placeName": "long prairie",
    "state": "MN"
  },
  {
    "city": "west union",
    "state_code": "MN",
    "placeMasterId": "P02500000FsoFgIezb3wOomBuAmZtp0PzcWNFlwE",
    "placeName": "west union",
    "state": "MN"
  },
  {
    "city": "aitkin",
    "state_code": "MN",
    "placeMasterId": "P02500000FsoFb1LKHOaLOY8SRjnR6sn9wbNkr97",
    "placeName": "aitkin",
    "state": "MN"
  },
  {
    "city": "pelican rapids",
    "state_code": "MN",
    "placeMasterId": "P02500000FsoFesCDZ6AXwlkA8f7ii6gIKGSdmw4",
    "placeName": "pelican rapids",
    "state": "MN"
  },
  {
    "city": "shelly",
    "state_code": "MN",
    "placeMasterId": "P02500000FsoFfaQba53TNly29iqoGYVgfZz2GKu",
    "placeName": "shelly",
    "state": "MN"
  },
  {
    "city": "wilton",
    "state_code": "MN",
    "placeMasterId": "P02500000FsoFgRVTCSWBVNR4yavJjUgLHj1FV24",
    "placeName": "wilton",
    "state": "MN"
  },
  {
    "city": "euclid",
    "state_code": "MN",
    "placeMasterId": "P02500000FsoHrQD9nSX3Vexv0lifeu7nubTqbVO",
    "placeName": "euclid",
    "state": "MN"
  },
  {
    "city": "oslo",
    "state_code": "MN",
    "placeMasterId": "P02500000FsoFejLjxhalGAUzKqmIncPTTyP3hkl",
    "placeName": "oslo",
    "state": "MN"
  },
  {
    "city": "tyndall",
    "state_code": "SD",
    "placeMasterId": "P02500000FsoGfVlpM7YHaUBeq8mBh9hlSWfXg2E",
    "placeName": "tyndall",
    "state": "SD"
  },
  {
    "city": "badger",
    "state_code": "SD",
    "placeMasterId": "P02500000FsoGdelcVy34eg0OOaHkqmugEDiVeqi",
    "placeName": "badger",
    "state": "SD"
  },
  {
    "city": "bristol",
    "state_code": "SD",
    "placeMasterId": "P02500000FsoGdelcVy34eg0OOaHkqn5DXnJvWFL",
    "placeName": "bristol",
    "state": "SD"
  },
  {
    "city": "claire city",
    "state_code": "SD",
    "placeMasterId": "P02500000FsoGdwSZilCe1sUk0CyaflYw13lmLQa",
    "placeName": "claire city",
    "state": "SD"
  },
  {
    "city": "clear lake",
    "state_code": "SD",
    "placeMasterId": "P02500000FsoGdwSZilCe1sUk0CyaflaW0ZnKIjD",
    "placeName": "clear lake",
    "state": "SD"
  },
  {
    "city": "yale",
    "state_code": "SD",
    "placeMasterId": "P02500000FsoGfnSmYuhqxgg0RlT1W8MJYyf0bi5",
    "placeName": "yale",
    "state": "SD"
  },
  {
    "city": "lower brule",
    "state_code": "SD",
    "placeMasterId": "P02500000FsoGeegxjk5ZSsic1GhgEDYJDVxrOo5",
    "placeName": "lower brule",
    "state": "SD"
  },
  {
    "city": "winner",
    "state_code": "SD",
    "placeMasterId": "P02500000FsoGfnSmYuhqxgg0RlT1W8MTydx5FPp",
    "placeName": "winner",
    "state": "SD"
  },
  {
    "city": "faith",
    "state_code": "SD",
    "placeMasterId": "P02500000FsoGeE9WvYMDP4z5bpfQUkHpkPdgJc4",
    "placeName": "faith",
    "state": "SD"
  },
  {
    "city": "kyle",
    "state_code": "SD",
    "placeMasterId": "P02500000FsoGeVqU8LVmmHTRDSMGJjGO6OEi7tU",
    "placeName": "kyle",
    "state": "SD"
  },
  {
    "city": "fairmount",
    "state_code": "ND",
    "placeMasterId": "P02500000FsoGApnAftSRrKZC6YVKnpveMASYvaN",
    "placeName": "fairmount",
    "state": "ND"
  },
  {
    "city": "leonard",
    "state_code": "ND",
    "placeMasterId": "P02500000FsoGBY1YgsLNIKn47cEQMHcQeWTCw7O",
    "placeName": "leonard",
    "state": "ND"
  },
  {
    "city": "rutland",
    "state_code": "ND",
    "placeMasterId": "P02500000FsoGC7PT6SeW2jllKrc60FACNjHCumk",
    "placeName": "rutland",
    "state": "ND"
  },
  {
    "city": "inkster",
    "state_code": "ND",
    "placeMasterId": "P02500000FsoGBPB55TlabjXtJnt0RnFikgdQw9m",
    "placeName": "inkster",
    "state": "ND"
  },
  {
    "city": "niagara",
    "state_code": "ND",
    "placeMasterId": "P02500000FsoGBpiVtfUwfXHPjEvGBGUmpvCAwym",
    "placeName": "niagara",
    "state": "ND"
  },
  {
    "city": "ashley",
    "state_code": "ND",
    "placeMasterId": "P02500000FsoGAGPGGJ9J6vaUtJ7f9sLoR4KdCvo",
    "placeName": "ashley",
    "state": "ND"
  },
  {
    "city": "berlin",
    "state_code": "ND",
    "placeMasterId": "P02500000FsoGAGPGGJ9J6vaUtJ7f9sSDx47E0Rn",
    "placeName": "berlin",
    "state": "ND"
  },
  {
    "city": "minot",
    "state_code": "ND",
    "placeMasterId": "P02500000FsoGBgs2IGv9yw2EvQZqGmEfZY09zCb",
    "placeName": "minot",
    "state": "ND"
  },
  {
    "city": "carpio",
    "state_code": "ND",
    "placeMasterId": "P02500000FsoGAY6DT6IsU84qUvoUyr1SZFjpRcl",
    "placeName": "carpio",
    "state": "ND"
  },
  {
    "city": "los angeles",
    "state_code": "CA",
    "placeMasterId": "P02500000FsoEiEJyfAwnXs9Xvv8xEm0Sp2kcekK",
    "placeName": "los angeles",
    "state": "CA"
  },
  {
    "city": "compton",
    "state_code": "CA",
    "placeMasterId": "P02500000FsoEfEXwzqpJ7G0t3rtB6UAwwwBo6w5",
    "placeName": "compton",
    "state": "CA"
  },
  {
    "city": "malibu",
    "state_code": "CA",
    "placeMasterId": "P02500000FsoEiW0vry6Mv4dtXXpn3kgLKxFR72p",
    "placeName": "malibu",
    "state": "CA"
  },
  {
    "city": "glendale",
    "state_code": "CA",
    "placeMasterId": "P02500000FsoEgf0j1ob9zGSd5zLMDNrwH2YihSi",
    "placeName": "glendale",
    "state": "CA"
  },
  {
    "city": "covina",
    "state_code": "CA",
    "placeMasterId": "P02500000FsoEfNOQbFP5nrG3rgEb0yY9hyiOQqA",
    "placeName": "covina",
    "state": "CA"
  },
  {
    "city": "la verne",
    "state_code": "CA",
    "placeMasterId": "P02500000FsoEhnmXqzDRU4Q1WU6hVIs9QMlEbbv",
    "placeName": "la verne",
    "state": "CA"
  },
  {
    "city": "diamond bar",
    "state_code": "CA",
    "placeMasterId": "P02500000FsoEfnvrPR8RrezaH7GqkRfZolxFWZJ",
    "placeName": "diamond bar",
    "state": "CA"
  },
  {
    "city": "pomona",
    "state_code": "CA",
    "placeMasterId": "P02500000FsoEjwThtvsDn55dZfHyAeOtTFhRIMY",
    "placeName": "pomona",
    "state": "CA"
  },
  {
    "city": "west covina",
    "state_code": "CA",
    "placeMasterId": "P02500000FsoEm5ArwsX065lFcqTEq00Z7l5wZ2O",
    "placeName": "west covina",
    "state": "CA"
  },
  {
    "city": "bonita",
    "state_code": "CA",
    "placeMasterId": "P02500000FsoEeNT5NTMazeXqEzofdXxnv8JJUjw",
    "placeName": "bonita",
    "state": "CA"
  },
  {
    "city": "san diego",
    "state_code": "CA",
    "placeMasterId": "P02500000FsoEkVrcJWBMXU4KmufdobvSE82FU0j",
    "placeName": "san diego",
    "state": "CA"
  },
  {
    "city": "san diego",
    "state_code": "CA",
    "placeMasterId": "P02500000FsoEkVrcJWBMXU4KmufdobvSE82FU0j",
    "placeName": "san diego",
    "state": "CA"
  },
  {
    "city": "twentynine palms",
    "state_code": "CA",
    "placeMasterId": "P02500000FsoElnTuk5NQitGu1DmP11F2m6msFDy",
    "placeName": "twentynine palms",
    "state": "CA"
  },
  {
    "city": "fort irwin",
    "state_code": "CA",
    "placeMasterId": "P02500000FsoEgWAFQQ1NIfDSIAzwItVgeomyZLz",
    "placeName": "fort irwin",
    "state": "CA"
  },
  {
    "city": "bloomington",
    "state_code": "CA",
    "placeMasterId": "P02500000FsoEeEcbm4moJ3IfRBTFj3adh09JFEB",
    "placeName": "bloomington",
    "state": "CA"
  },
  {
    "city": "riverside",
    "state_code": "CA",
    "placeMasterId": "P02500000FsoEkN18i7bZqsp9z6KDu7ViUSFSn4j",
    "placeName": "riverside",
    "state": "CA"
  },
  {
    "city": "riverside",
    "state_code": "CA",
    "placeMasterId": "P02500000FsoEkN18i7bZqsp9z6KDu7ViUSFSn4j",
    "placeName": "riverside",
    "state": "CA"
  },
  {
    "city": "ladera ranch",
    "state_code": "CA",
    "placeMasterId": "P02500000FsoEhew4FadenTAqiflHaoSnvHxluCi",
    "placeName": "ladera ranch",
    "state": "CA"
  },
  {
    "city": "corona",
    "state_code": "CA",
    "placeMasterId": "P02500000FsoEfEXwzqpJ7G0t3rtB6UBBq9RdoYT",
    "placeName": "corona",
    "state": "CA"
  },
  {
    "city": "huron",
    "state_code": "CA",
    "placeMasterId": "P02500000FsoEhEOdROuIjfRKJEj1rLONbSwxu1n",
    "placeName": "huron",
    "state": "CA"
  },
  {
    "city": "kernville",
    "state_code": "CA",
    "placeMasterId": "P02500000FsoEhW5aeC3s6rvfurPrgK6k4zzaRum",
    "placeName": "kernville",
    "state": "CA"
  },
  {
    "city": "new cuyama",
    "state_code": "CA",
    "placeMasterId": "P02500000FsoEj5OqHYPVfTcaknDShiC6jcaRWZt",
    "placeName": "new cuyama",
    "state": "CA"
  },
  {
    "city": "hayward",
    "state_code": "CA",
    "placeMasterId": "P02500000FsoEgwhgEbkjMSwyhc2C2Mfm4cwqsa7",
    "placeName": "hayward",
    "state": "CA"
  },
  {
    "city": "larkspur",
    "state_code": "CA",
    "placeMasterId": "P02500000FsoEhnmXqzDRU4Q1WU6hVIuPG0FCVxq",
    "placeName": "larkspur",
    "state": "CA"
  },
  {
    "city": "valley ford",
    "state_code": "CA",
    "placeMasterId": "P02500000FsoElwKOLTxDPUW4p27ovVajhChDC5N",
    "placeName": "valley ford",
    "state": "CA"
  },
  {
    "city": "aromas",
    "state_code": "CA",
    "placeMasterId": "P02500000FsoEdo5Axt3SFFZ91kQzzaU54Y4a0S5",
    "placeName": "aromas",
    "state": "CA"
  },
  {
    "city": "lockeford",
    "state_code": "CA",
    "placeMasterId": "P02500000FsoEiEJyfAwnXs9Xvv8xElvxeN0DWlD",
    "placeName": "lockeford",
    "state": "CA"
  },
  {
    "city": "west point",
    "state_code": "CA",
    "placeMasterId": "P02500000FsoEm5ArwsX065lFcqTEq01ZR8VVNPa",
    "placeName": "west point",
    "state": "CA"
  },
  {
    "city": "ceres",
    "state_code": "CA",
    "placeMasterId": "P02500000FsoEewqzn3fjk3WXSFCLHVQvqSRp7yJ",
    "placeName": "ceres",
    "state": "CA"
  },
  {
    "city": "modesto",
    "state_code": "CA",
    "placeMasterId": "P02500000FsoEierPTMg9bft4LMBCyF8jDoSNABl",
    "placeName": "modesto",
    "state": "CA"
  },
  {
    "city": "windsor",
    "state_code": "CA",
    "placeMasterId": "P02500000FsoEmE1LYH6mmh0QQeoekUP297rpVsK",
    "placeName": "windsor",
    "state": "CA"
  },
  {
    "city": "phillipsville",
    "state_code": "CA",
    "placeMasterId": "P02500000FsoEjemkh8iePsbHy2b8Lfgk519DWpx",
    "placeName": "phillipsville",
    "state": "CA"
  },
  {
    "city": "trinidad",
    "state_code": "CA",
    "placeMasterId": "P02500000FsoElnTuk5NQitGu1DmP11DPBdYwQxn",
    "placeName": "trinidad",
    "state": "CA"
  },
  {
    "city": "isleton",
    "state_code": "CA",
    "placeMasterId": "P02500000FsoEhEOdROuIjfRKJEj1rLNpuAhW6ya",
    "placeName": "isleton",
    "state": "CA"
  },
  {
    "city": "colfax",
    "state_code": "CA",
    "placeMasterId": "P02500000FsoEfNOQbFP5nrG3rgEb0yWFSjCKOnh",
    "placeName": "colfax",
    "state": "CA"
  },
  {
    "city": "soda springs",
    "state_code": "CA",
    "placeMasterId": "P02500000FsoEl5FWj6UVHt320A3JSZN09pt23Qb",
    "placeName": "soda springs",
    "state": "CA"
  },
  {
    "city": "belden",
    "state_code": "CA",
    "placeMasterId": "P02500000FsoEe5m8AgD1cS3UdN7poZDUgNh2czm",
    "placeName": "belden",
    "state": "CA"
  },
  {
    "city": "forest ranch",
    "state_code": "CA",
    "placeMasterId": "P02500000FsoEgWAFQQ1NIfDSIAzwItV58AUSDYw",
    "placeName": "forest ranch",
    "state": "CA"
  },
  {
    "city": "grass valley",
    "state_code": "CA",
    "placeMasterId": "P02500000FsoEgf0j1ob9zGSd5zLMDNwlOUWCE0V",
    "placeName": "grass valley",
    "state": "CA"
  },
  {
    "city": "yuba city",
    "state_code": "CA",
    "placeMasterId": "P02500000FsoEmMrp9fgZTIFbETA4eykDuwZtzus",
    "placeName": "yuba city",
    "state": "CA"
  },
  {
    "city": "herlong",
    "state_code": "CA",
    "placeMasterId": "P02500000FsoEgwhgEbkjMSwyhc2C2MeQAwMTYtv",
    "placeName": "herlong",
    "state": "CA"
  },
  {
    "city": "susanville",
    "state_code": "CA",
    "placeMasterId": "P02500000FsoElMwTvte4f5XNbmk9HY92PY6gMAG",
    "placeName": "susanville",
    "state": "CA"
  },
  {
    "city": "tulelake",
    "state_code": "CA",
    "placeMasterId": "P02500000FsoEledR8gne2I1jDPQz6WtgENc7NIi",
    "placeName": "tulelake",
    "state": "CA"
  },
  {
    "city": "kaaawa",
    "state_code": "HI",
    "placeMasterId": "P02500000FsoEzD2nRLdFJMHHXYFgf49jwtxC3gh",
    "placeName": "kaaawa",
    "state": "HI"
  },
  {
    "city": "pahala",
    "state_code": "HI",
    "placeMasterId": "P02500000FsoEzdaEFXMbNA0nwzHwOXHb3jUPqU7",
    "placeName": "pahala",
    "state": "HI"
  },
  {
    "city": "sandy",
    "state_code": "OR",
    "placeMasterId": "P02500000FsoGPxVmbudgh0VfGd7dNl9x1Yp9rQM",
    "placeName": "sandy",
    "state": "OR"
  },
  {
    "city": "wilsonville",
    "state_code": "OR",
    "placeMasterId": "P02500000FsoGQO3DQ6N2koFBg49t7EGITaZIOH7",
    "placeName": "wilsonville",
    "state": "OR"
  },
  {
    "city": "wheeler",
    "state_code": "OR",
    "placeMasterId": "P02500000FsoGQO3DQ6N2koFBg49t7EGVPRssK2P",
    "placeName": "wheeler",
    "state": "OR"
  },
  {
    "city": "portland",
    "state_code": "OR",
    "placeMasterId": "P02500000FsoGPfopP7U7Jo1Jf0QnYmTaqhg2Hwh",
    "placeName": "portland",
    "state": "OR"
  },
  {
    "city": "albany",
    "state_code": "OR",
    "placeMasterId": "P02500000FsoGO6VZll8TlCKOp4dCXOTzwZxUIzN",
    "placeName": "albany",
    "state": "OR"
  },
  {
    "city": "turner",
    "state_code": "OR",
    "placeMasterId": "P02500000FsoGQ6MGDJDTNbkq4RT3IFemJuOmAqG",
    "placeName": "turner",
    "state": "OR"
  },
  {
    "city": "stanfield",
    "state_code": "OR",
    "placeMasterId": "P02500000FsoGQ6MGDJDTNbkq4RT3IFWXiazSNVe",
    "placeName": "stanfield",
    "state": "OR"
  },
  {
    "city": "federal way",
    "state_code": "WA",
    "placeMasterId": "P02500000FsoGzCZiapCePNxhiCRrQl1d84jQKnI",
    "placeName": "federal way",
    "state": "WA"
  },
  {
    "city": "seattle",
    "state_code": "WA",
    "placeMasterId": "P02500000FsoH13ZvQyhrLC8y9kwIH7vOQ9mB44J",
    "placeName": "seattle",
    "state": "WA"
  },
  {
    "city": "everett",
    "state_code": "WA",
    "placeMasterId": "P02500000FsoGzCZiapCePNxhiCRrQkxQ6F7rW5O",
    "placeName": "everett",
    "state": "WA"
  },
  {
    "city": "everett",
    "state_code": "WA",
    "placeMasterId": "P02500000FsoGzCZiapCePNxhiCRrQkxQ6F7rW5O",
    "placeName": "everett",
    "state": "WA"
  },
  {
    "city": "port ludlow",
    "state_code": "WA",
    "placeMasterId": "P02500000FsoH0lsyEBYHxzecY8FSS98TGTP2Q3P",
    "placeName": "port ludlow",
    "state": "WA"
  },
  {
    "city": "atascadero",
    "state_code": "CA",
    "placeMasterId": "P02500000FsoEdwveZHdEvqoJpYmPu4o1wtJ2U1x",
    "placeName": "atascadero",
    "state": "CA"
  },
  {
    "city": "lompoc",
    "state_code": "CA",
    "placeMasterId": "P02500000FsoEi5TV3mN0rGuN86nXKHdUMIPUPDG",
    "placeName": "lompoc",
    "state": "CA"
  },
  {
    "city": "littlerock",
    "state_code": "CA",
    "placeMasterId": "P02500000FsoEi5TV3mN0rGuN86nXKHZVyd7MiMY",
    "placeName": "littlerock",
    "state": "CA"
  },
  {
    "city": "sanger",
    "state_code": "CA",
    "placeMasterId": "P02500000FsoEkei5uul9E5JVaj13j6GEheBbplK",
    "placeName": "sanger",
    "state": "CA"
  },
  {
    "city": "fresno",
    "state_code": "CA",
    "placeMasterId": "P02500000FsoEgf0j1ob9zGSd5zLMDNqyCZUrC3I",
    "placeName": "fresno",
    "state": "CA"
  },
  {
    "city": "salinas",
    "state_code": "CA",
    "placeMasterId": "P02500000FsoEkVrcJWBMXU4KmufdobvIsLSCpDQ",
    "placeName": "salinas",
    "state": "CA"
  },
  {
    "city": "portola valley",
    "state_code": "CA",
    "placeMasterId": "P02500000FsoEjwThtvsDn55dZfHyAeQwo7XXkP4",
    "placeName": "portola valley",
    "state": "CA"
  },
  {
    "city": "san francisco",
    "state_code": "CA",
    "placeMasterId": "P02500000FsoEkVrcJWBMXU4KmufdobtfKVREvsP",
    "placeName": "san francisco",
    "state": "CA"
  },
  {
    "city": "san francisco",
    "state_code": "CA",
    "placeMasterId": "P02500000FsoEkVrcJWBMXU4KmufdobtfKVREvsP",
    "placeName": "san francisco",
    "state": "CA"
  },
  {
    "city": "san francisco",
    "state_code": "CA",
    "placeMasterId": "P02500000FsoEkVrcJWBMXU4KmufdobtfKVREvsP",
    "placeName": "san francisco",
    "state": "CA"
  },
  {
    "city": "edmonds",
    "state_code": "WA",
    "placeMasterId": "P02500000FsoGz3jEzQcrimiWuO6RWGdWKAr4jbK",
    "placeName": "edmonds",
    "state": "WA"
  },
  {
    "city": "pacific",
    "state_code": "WA",
    "placeMasterId": "P02500000FsoH0d2UcmyVHOPRkJu2Xejxys3NgZK",
    "placeName": "pacific",
    "state": "WA"
  },
  {
    "city": "seattle",
    "state_code": "WA",
    "placeMasterId": "P02500000FsoH13ZvQyhrLC8y9kwIH7vOQ9mB44J",
    "placeName": "seattle",
    "state": "WA"
  },
  {
    "city": "bainbridge island",
    "state_code": "WA",
    "placeMasterId": "P02500000FsoGyLUqyRjwHmUetKNLxohjtbgx8fd",
    "placeName": "bainbridge island",
    "state": "WA"
  },
  {
    "city": "seattle",
    "state_code": "WA",
    "placeMasterId": "P02500000FsoH13ZvQyhrLC8y9kwIH7vOQ9mB44J",
    "placeName": "seattle",
    "state": "WA"
  },
  {
    "city": "sumas",
    "state_code": "WA",
    "placeMasterId": "P02500000FsoH1LGsdlrQiOdJlNd866cU0dU0fbT",
    "placeName": "sumas",
    "state": "WA"
  },
  {
    "city": "tacoma",
    "state_code": "WA",
    "placeMasterId": "P02500000FsoH1LGsdlrQiOdJlNd866Yu1WjXF5B",
    "placeName": "tacoma",
    "state": "WA"
  },
  {
    "city": "malone",
    "state_code": "WA",
    "placeMasterId": "P02500000FsoH03eaDCfMWzQkX4WMth78WWilJDN",
    "placeName": "malone",
    "state": "WA"
  },
  {
    "city": "long beach",
    "state_code": "WA",
    "placeMasterId": "P02500000FsoH03eaDCfMWzQkX4WMth8jzWyVmY3",
    "placeName": "long beach",
    "state": "WA"
  },
  {
    "city": "vancouver",
    "state_code": "WA",
    "placeMasterId": "P02500000FsoH1cxpqZ105b7fN0Jxv5AzaVoQseW",
    "placeName": "vancouver",
    "state": "WA"
  },
  {
    "city": "east wenatchee",
    "state_code": "WA",
    "placeMasterId": "P02500000FsoGz3jEzQcrimiWuO6RWGgdWYUEfkT",
    "placeName": "east wenatchee",
    "state": "WA"
  },
  {
    "city": "tonasket",
    "state_code": "WA",
    "placeMasterId": "P02500000FsoH1U7MFARDOzsUZByY0aoA8KVl0Kp",
    "placeName": "tonasket",
    "state": "WA"
  },
  {
    "city": "twisp",
    "state_code": "WA",
    "placeMasterId": "P02500000FsoH1U7MFARDOzsUZByY0aur3puzul8",
    "placeName": "twisp",
    "state": "WA"
  },
  {
    "city": "kittitas",
    "state_code": "WA",
    "placeMasterId": "P02500000FsoGzlxd0PVn9mwOvRpX4iTK0hdIUjP",
    "placeName": "kittitas",
    "state": "WA"
  },
  {
    "city": "coulee dam",
    "state_code": "WA",
    "placeMasterId": "P02500000FsoGyuslO2352BTM6Zl1bmA1GLbkKR9",
    "placeName": "coulee dam",
    "state": "WA"
  },
  {
    "city": "curlew",
    "state_code": "WA",
    "placeMasterId": "P02500000FsoGyuslO2352BTM6Zl1bmA8SZ092Gy",
    "placeName": "curlew",
    "state": "WA"
  },
  {
    "city": "elmer city",
    "state_code": "WA",
    "placeMasterId": "P02500000FsoGz3jEzQcrimiWuO6RWGjOzbZ5V1U",
    "placeName": "elmer city",
    "state": "WA"
  },
  {
    "city": "inchelium",
    "state_code": "WA",
    "placeMasterId": "P02500000FsoGzUGfncMDmaS3Jp8hFjnVq03Cbjo",
    "placeName": "inchelium",
    "state": "WA"
  },
  {
    "city": "republic",
    "state_code": "WA",
    "placeMasterId": "P02500000FsoH0ujRpa84eatnLwasMdQbNlRZ216",
    "placeName": "republic",
    "state": "WA"
  },
  {
    "city": "spokane",
    "state_code": "WA",
    "placeMasterId": "P02500000FsoH1CQP2NHe1nO8xZHiBcLVG93v2e9",
    "placeName": "spokane",
    "state": "WA"
  },
  {
    "city": "othello",
    "state_code": "WA",
    "placeMasterId": "P02500000FsoH0d2UcmyVHOPRkJu2XejSoL9xblW",
    "placeName": "othello",
    "state": "WA"
  },
  {
    "city": "waitsburg",
    "state_code": "WA",
    "placeMasterId": "P02500000FsoH1cxpqZ105b7fN0Jxv5EutwMZ5ZK",
    "placeName": "waitsburg",
    "state": "WA"
  },
  {
    "city": "anchor point",
    "state_code": "AK",
    "placeMasterId": "P02500000FsoEVxWun5JGSD6Yq5R0se4MmzY93Fd",
    "placeName": "anchor point",
    "state": "AK"
  },
  {
    "city": "copper center",
    "state_code": "AK",
    "placeMasterId": "P02500000FsoEWO4LbH2cW0q5FWTGc77yjSUmZJ1",
    "placeName": "copper center",
    "state": "AK"
  },
  {
    "city": "kipnuk",
    "state_code": "AK",
    "placeMasterId": "P02500000FsoEWxSG0rLlGPomSlqwG4b7vJeUpye",
    "placeName": "kipnuk",
    "state": "AK"
  },
  {
    "city": "ninilchik",
    "state_code": "AK",
    "placeMasterId": "P02500000FsoEXF9DDeVKdcJ84OXm53L9PYBkY2H",
    "placeName": "ninilchik",
    "state": "AK"
  },
  {
    "city": "pilot point",
    "state_code": "AK",
    "placeMasterId": "P02500000FsoEXNzgp357KDYIsCtBzXl36K9cK9u",
    "placeName": "pilot point",
    "state": "AK"
  },
  {
    "city": "yakutat",
    "state_code": "AK",
    "placeMasterId": "P02500000FsoEXxNbEdOG4cX05SGrdVE6uK6YOvM",
    "placeName": "yakutat",
    "state": "AK"
  },
  {
    "city": "elim",
    "state_code": "AK",
    "placeMasterId": "P02500000FsoEWWupCfcPCc5G3KogWbVRu2WjXid",
    "placeName": "elim",
    "state": "AK"
  },
  {
    "city": "healy",
    "state_code": "AK",
    "placeMasterId": "P02500000FsoEWflIo4CBtDKQr9A6R5sd0MBZvnM",
    "placeName": "healy",
    "state": "AK"
  },
  {
    "city": "newark",
    "state_code": "NJ",
    "placeMasterId": "P02500000FsoFwqqNZ2tUWSa7MyeNVpQgYNosLBh",
    "placeName": "newark",
    "state": "NJ"
  },
  {
    "city": "newark",
    "state_code": "NJ",
    "placeMasterId": "P02500000FsoFwqqNZ2tUWSa7MyeNVpQgYNosLBh",
    "placeName": "newark",
    "state": "NJ"
  },
  {
    "city": "paterson",
    "state_code": "NJ",
    "placeMasterId": "P02500000FsoFxHNoNEcqaGJdmPgdFIXGNmXiJXB",
    "placeName": "paterson",
    "state": "NJ"
  },
  {
    "city": "paterson",
    "state_code": "NJ",
    "placeMasterId": "P02500000FsoFxHNoNEcqaGJdmPgdFIXGNmXiJXB",
    "placeName": "paterson",
    "state": "NJ"
  },
  {
    "city": "paterson",
    "state_code": "NJ",
    "placeMasterId": "P02500000FsoFxHNoNEcqaGJdmPgdFIXGNmXiJXB",
    "placeName": "paterson",
    "state": "NJ"
  },
  {
    "city": "paramus",
    "state_code": "NJ",
    "placeMasterId": "P02500000FsoFx8XKlq33tf4SybLDKoEG8TdYCny",
    "placeName": "paramus",
    "state": "NJ"
  },
  {
    "city": "asbury park",
    "state_code": "NJ",
    "placeMasterId": "P02500000FsoFv8geKHy4HFe1jEVMZx57QENLVWA",
    "placeName": "asbury park",
    "state": "NJ"
  },
  {
    "city": "rockaway",
    "state_code": "NJ",
    "placeMasterId": "P02500000FsoIDOYggVPzKAekjov1yLGlqNueoGD",
    "placeName": "rockaway",
    "state": "NJ"
  },
  {
    "city": "berkeley heights",
    "state_code": "NJ",
    "placeMasterId": "P02500000FsoICOdLSjNUVxwX78V6auaBxPO5ZM9",
    "placeName": "berkeley heights",
    "state": "NJ"
  },
  {
    "city": "voorhees",
    "state_code": "NJ",
    "placeMasterId": "P02500000FsoFxzcCODVm1GXVnTPinkQDHZj0GY3",
    "placeName": "voorhees",
    "state": "NJ"
  },
  {
    "city": "camden",
    "state_code": "NJ",
    "placeMasterId": "P02500000FsoFvZE58ThQL3NY8fXcJQ9WqxkSIUJ",
    "placeName": "camden",
    "state": "NJ"
  },
  {
    "city": "port norris",
    "state_code": "NJ",
    "placeMasterId": "P02500000FsoFxQEHydCdGrYoaE239msX5x374w5",
    "placeName": "port norris",
    "state": "NJ"
  },
  {
    "city": "trenton",
    "state_code": "NJ",
    "placeMasterId": "P02500000FsoFxqlimovzKfIKzf4ItG76ZSi5TQc",
    "placeName": "trenton",
    "state": "NJ"
  },
  {
    "city": "kulm",
    "state_code": "ND",
    "placeMasterId": "P02500000FsoGBPB55TlabjXtJnt0RnMaLn81UcR",
    "placeName": "kulm",
    "state": "ND"
  },
  {
    "city": "center",
    "state_code": "ND",
    "placeMasterId": "P02500000FsoGAPFjrhj5nWpfh7T54Mw0rxeBN3w",
    "placeName": "center",
    "state": "ND"
  },
  {
    "city": "zap",
    "state_code": "ND",
    "placeMasterId": "P02500000FsoGCXwtueNs6XVHkIeLjiOjwhcPenP",
    "placeName": "zap",
    "state": "ND"
  },
  {
    "city": "hampden",
    "state_code": "MA",
    "placeMasterId": "P02500000FsoHdixJtP7fXzTBsoYYBsZwkGICWUr",
    "placeName": "hampden",
    "state": "MA"
  },
  {
    "city": "sunderland",
    "state_code": "MA",
    "placeMasterId": "P02500000FsoHeILEIzQoIORt63wDppzLPrYtP3D",
    "placeName": "sunderland",
    "state": "MA"
  },
  {
    "city": "warwick",
    "state_code": "MA",
    "placeMasterId": "P02500000FsoHeRBhuO0ayzh3tsHdkKPSS7B7nXh",
    "placeName": "warwick",
    "state": "MA"
  },
  {
    "city": "leominster",
    "state_code": "MA",
    "placeMasterId": "P02500000FsoFWSG2yi7DPKIsjkk3xCpd9rjDohe",
    "placeName": "leominster",
    "state": "MA"
  },
  {
    "city": "holland",
    "state_code": "MA",
    "placeMasterId": "P02500000FsoHB2pLej6pRFHAOb7Y3PmLHiezJUl",
    "placeName": "holland",
    "state": "MA"
  },
  {
    "city": "new braintree",
    "state_code": "MA",
    "placeMasterId": "P02500000FsoHe9Ukhar1bnCiIFanvLWU6uvJiAn",
    "placeName": "new braintree",
    "state": "MA"
  },
  {
    "city": "shrewsbury",
    "state_code": "MA",
    "placeMasterId": "P02500000FsoHeILEIzQoIORt63wDppzrMpudxqs",
    "placeName": "shrewsbury",
    "state": "MA"
  },
  {
    "city": "whitinsville",
    "state_code": "MA",
    "placeMasterId": "P02500000FsoFWsnTmtqZT82P9BmJgfx7w0OccXa",
    "placeName": "whitinsville",
    "state": "MA"
  },
  {
    "city": "lawrence",
    "state_code": "MA",
    "placeMasterId": "P02500000FsoFWb6Wa6h05vY3XZ5Trh6EWAiAZPK",
    "placeName": "lawrence",
    "state": "MA"
  },
  {
    "city": "north reading",
    "state_code": "MA",
    "placeMasterId": "P02500000FsoHe9Ukhar1bnCiIFanvLaZLKD3kZF",
    "placeName": "north reading",
    "state": "MA"
  },
  {
    "city": "rowley",
    "state_code": "MA",
    "placeMasterId": "P02500000FsoHAtys3KX2ke1zamm88vQOvgbPA1H",
    "placeName": "rowley",
    "state": "MA"
  },
  {
    "city": "hull",
    "state_code": "MA",
    "placeMasterId": "P02500000FsoHBKWIrWGOoRlW0DoNsOVDVsNKjNP",
    "placeName": "hull",
    "state": "MA"
  },
  {
    "city": "norfolk",
    "state_code": "MA",
    "placeMasterId": "P02500000FsoHe9Ukhar1bnCiIFanvLTwYLE3NBe",
    "placeName": "norfolk",
    "state": "MA"
  },
  {
    "city": "arlington",
    "state_code": "MA",
    "placeMasterId": "P02500000FsoHB2pLej6pRFHAOb7Y3PmrWfjWAxB",
    "placeName": "arlington",
    "state": "MA"
  },
  {
    "city": "seekonk",
    "state_code": "MA",
    "placeMasterId": "P02500000FsoHeILEIzQoIORt63wDppsFQoWplFs",
    "placeName": "seekonk",
    "state": "MA"
  },
  {
    "city": "barrington",
    "state_code": "RI",
    "placeMasterId": "P02500000FsoHDkuQ7G4kUevTf1gUMiyZppsFFeo",
    "placeName": "barrington",
    "state": "RI"
  },
  {
    "city": "east greenwich",
    "state_code": "RI",
    "placeMasterId": "P02500000FsoIZ5DGMl9LlTrErFQYSne2A3bTvSM",
    "placeName": "east greenwich",
    "state": "RI"
  },
  {
    "city": "exeter",
    "state_code": "RI",
    "placeMasterId": "P02500000FsoIZ5DGMl9LlTrErFQYSnfFfog8dJS",
    "placeName": "exeter",
    "state": "RI"
  },
  {
    "city": "central falls",
    "state_code": "RI",
    "placeMasterId": "P02500000FsoGanq4S2VMuf6uKLNOczaixNd2Nt7",
    "placeName": "central falls",
    "state": "RI"
  },
  {
    "city": "goffstown",
    "state_code": "NH",
    "placeMasterId": "P02500000FsoIBgOxRkUZ4xif64m12Snu9uCuZtn",
    "placeName": "goffstown",
    "state": "NH"
  },
  {
    "city": "nashua",
    "state_code": "NH",
    "placeMasterId": "P02500000FsoFuzqAitOHaeOqvQ9wfShffTuAHJR",
    "placeName": "nashua",
    "state": "NH"
  },
  {
    "city": "meredith",
    "state_code": "NH",
    "placeMasterId": "P02500000FsoHBcDG4JPyBeFrbqVDhNDkDxDqKtt",
    "placeName": "meredith",
    "state": "NH"
  },
  {
    "city": "hancock",
    "state_code": "NH",
    "placeMasterId": "P02500000FsoIBgOxRkUZ4xif64m12So4EAapVtA",
    "placeName": "hancock",
    "state": "NH"
  },
  {
    "city": "goshen",
    "state_code": "NH",
    "placeMasterId": "P02500000FsoIBgOxRkUZ4xif64m12SqTsajs3WG",
    "placeName": "goshen",
    "state": "NH"
  },
  {
    "city": "conway",
    "state_code": "NH",
    "placeMasterId": "P02500000FsoHBTMmSuqBV30go29nmszlckp8GkE",
    "placeName": "conway",
    "state": "NH"
  },
  {
    "city": "madbury",
    "state_code": "NH",
    "placeMasterId": "P02500000FsoIBpFR394LlYxptt7QwxAruk8E6UH",
    "placeName": "madbury",
    "state": "NH"
  },
  {
    "city": "hampstead",
    "state_code": "NH",
    "placeMasterId": "P02500000FsoIBgOxRkUZ4xif64m12SpXus8ZNrp",
    "placeName": "hampstead",
    "state": "NH"
  },
  {
    "city": "biddeford",
    "state_code": "ME",
    "placeMasterId": "P02500000FsoFT1waVCGMuuQhSGS25RuCPGmO083",
    "placeName": "biddeford",
    "state": "ME"
  },
  {
    "city": "porter",
    "state_code": "ME",
    "placeMasterId": "P02500000FsoHg9LR98w1ECd9XcQegCnEP2btxC5",
    "placeName": "porter",
    "state": "ME"
  },
  {
    "city": "raymond",
    "state_code": "ME",
    "placeMasterId": "P02500000FsoHgIBukXVnunsKLQm4ah42mfH3szd",
    "placeName": "raymond",
    "state": "ME"
  },
  {
    "city": "topsham",
    "state_code": "ME",
    "placeMasterId": "P02500000FsoHAcHuqXNTNRXdzA5IJweW77qOuew",
    "placeName": "topsham",
    "state": "ME"
  },
  {
    "city": "portland",
    "state_code": "ME",
    "placeMasterId": "P02500000FsoFTAn46aq9bVfsG4nRzw9NbsEpjyz",
    "placeName": "portland",
    "state": "ME"
  },
  {
    "city": "mexico",
    "state_code": "ME",
    "placeMasterId": "P02500000FsoHATRRF8nggqITBLjsPSObKsZxFE6",
    "placeName": "mexico",
    "state": "ME"
  },
  {
    "city": "wayne",
    "state_code": "ME",
    "placeMasterId": "P02500000FsoHgijLYjF9ybbqkroKKAFlKMvXgUF",
    "placeName": "wayne",
    "state": "ME"
  },
  {
    "city": "orient",
    "state_code": "ME",
    "placeMasterId": "P02500000FsoHg0UxXkMEXbNyjo5EliNF38gmYnC",
    "placeName": "orient",
    "state": "ME"
  },
  {
    "city": "orland",
    "state_code": "ME",
    "placeMasterId": "P02500000FsoHg9LR98w1ECd9XcQegCeBRUD79ch",
    "placeName": "orland",
    "state": "ME"
  },
  {
    "city": "bath",
    "state_code": "ME",
    "placeMasterId": "P02500000FsoFTAn46aq9bVfsG4nRzw8IEI4pvXM",
    "placeName": "bath",
    "state": "ME"
  },
  {
    "city": "southport",
    "state_code": "ME",
    "placeMasterId": "P02500000FsoHgR2OLw5abP7V9F7UVBWQ4HDmY0T",
    "placeName": "southport",
    "state": "ME"
  },
  {
    "city": "swans island",
    "state_code": "ME",
    "placeMasterId": "P02500000FsoHgR2OLw5abP7V9F7UVBXhgu6jTBF",
    "placeName": "swans island",
    "state": "ME"
  },
  {
    "city": "corinna",
    "state_code": "ME",
    "placeMasterId": "P02500000FsoHf0ZcJyJjjOfl77fJOHk1NjLTCNO",
    "placeName": "corinna",
    "state": "ME"
  },
  {
    "city": "oakland",
    "state_code": "ME",
    "placeMasterId": "P02500000FsoHAKaxdkDu0F3INXOSUxzlKxRx15A",
    "placeName": "oakland",
    "state": "ME"
  },
  {
    "city": "windsor",
    "state_code": "VT",
    "placeMasterId": "P02500000FsoIfVIkVb7ggVs50myMSqN07ywQcZa",
    "placeName": "windsor",
    "state": "VT"
  },
  {
    "city": "essex junction",
    "state_code": "VT",
    "placeMasterId": "P02500000FsoGuCx0Tx0AMMObamMEXc1y6PRCFGr",
    "placeName": "essex junction",
    "state": "VT"
  },
  {
    "city": "milton",
    "state_code": "VT",
    "placeMasterId": "P02500000FsoHDtktieeXBGAeSq1uHDFeB59sale",
    "placeName": "milton",
    "state": "VT"
  },
  {
    "city": "williamstown",
    "state_code": "VT",
    "placeMasterId": "P02500000FsoIfVIkVb7ggVs50myMSqLXoSdueSO",
    "placeName": "williamstown",
    "state": "VT"
  },
  {
    "city": "mount holly",
    "state_code": "VT",
    "placeMasterId": "P02500000FsoIevuq60oXw6tNnXagosuWpnjO5ub",
    "placeName": "mount holly",
    "state": "VT"
  },
  {
    "city": "salisbury",
    "state_code": "VT",
    "placeMasterId": "P02500000FsoIfDbnIny7JJNjPAHWdrbJtdSmech",
    "placeName": "salisbury",
    "state": "VT"
  },
  {
    "city": "morgan",
    "state_code": "VT",
    "placeMasterId": "P02500000FsoIevuq60oXw6tNnXagostWaJ3bWrt",
    "placeName": "morgan",
    "state": "VT"
  },
  {
    "city": "plainville",
    "state_code": "CT",
    "placeMasterId": "P02500000FsoHGkgRmaCEvH48X4wGV0hzqiL2wYX",
    "placeName": "plainville",
    "state": "CT"
  },
  {
    "city": "east hartford",
    "state_code": "CT",
    "placeMasterId": "P02500000FsoEp4wtcCeUWhtuUtj0yHoueQFQ7UA",
    "placeName": "east hartford",
    "state": "CT"
  },
  {
    "city": "north stonington",
    "state_code": "CT",
    "placeMasterId": "P02500000FsoHGbpyBBcSEfoxjGaqaWGOE4J64I4",
    "placeName": "north stonington",
    "state": "CT"
  },
  {
    "city": "branford",
    "state_code": "CT",
    "placeMasterId": "P02500000FsoHGK90yOSsrTKc7du0lXWpr4xR7ws",
    "placeName": "branford",
    "state": "CT"
  },
  {
    "city": "haddam",
    "state_code": "CT",
    "placeMasterId": "P02500000FsoHGSzUZn2fY4ZmvSFQg1uyOXCTch0",
    "placeName": "haddam",
    "state": "CT"
  },
  {
    "city": "new haven",
    "state_code": "CT",
    "placeMasterId": "P02500000FsoEpMdqozo3tuOG6WPqnGYhHDltz2z",
    "placeName": "new haven",
    "state": "CT"
  },
  {
    "city": "prospect",
    "state_code": "CT",
    "placeMasterId": "P02500000FsoHGkgRmaCEvH48X4wGV0axWAXOBrv",
    "placeName": "prospect",
    "state": "CT"
  },
  {
    "city": "wolcott",
    "state_code": "CT",
    "placeMasterId": "P02500000FsoHGtWvNym1bsJJKtHgPV7g4Uad3nG",
    "placeName": "wolcott",
    "state": "CT"
  },
  {
    "city": "terryville",
    "state_code": "CT",
    "placeMasterId": "P02500000FsoEpVUKQONqaVdQuKlGhkuKS6767RS",
    "placeName": "terryville",
    "state": "CT"
  },
  {
    "city": "east orange",
    "state_code": "NJ",
    "placeMasterId": "P02500000FsoFvqv2LGqziFrtkIES8OnN5sHm4Ly",
    "placeName": "east orange",
    "state": "NJ"
  },
  {
    "city": "colonia",
    "state_code": "NJ",
    "placeMasterId": "P02500000FsoFvZE58ThQL3NY8fXcJQHGboT6yJq",
    "placeName": "colonia",
    "state": "NJ"
  },
  {
    "city": "annandale",
    "state_code": "NJ",
    "placeMasterId": "P02500000FsoFv8geKHy4HFe1jEVMZwyLxys0oZK",
    "placeName": "annandale",
    "state": "NJ"
  },
  {
    "city": "hillsborough",
    "state_code": "NJ",
    "placeMasterId": "P02500000FsoICpAmGv6qZlg3WZXMKNr17El6CYd",
    "placeName": "hillsborough",
    "state": "NJ"
  },
  {
    "city": "somerset",
    "state_code": "NJ",
    "placeMasterId": "P02500000FsoFxhvFBQMCe43ABqisylhMbbngYFL",
    "placeName": "somerset",
    "state": "NJ"
  },
  {
    "city": "new brunswick",
    "state_code": "NJ",
    "placeMasterId": "P02500000FsoFwqqNZ2tUWSa7MyeNVpV0cnZqoEZ",
    "placeName": "new brunswick",
    "state": "NJ"
  },
  {
    "city": "new york",
    "state_code": "NY",
    "placeMasterId": "P02500000FsoG3hTIW4bBVIKTvxERFLPbpMNP8u9",
    "placeName": "new york",
    "state": "NY"
  },
  {
    "city": "new york",
    "state_code": "NY",
    "placeMasterId": "P02500000FsoG3hTIW4bBVIKTvxERFLPbpMNP8u9",
    "placeName": "new york",
    "state": "NY"
  },
  {
    "city": "new york",
    "state_code": "NY",
    "placeMasterId": "P02500000FsoG3hTIW4bBVIKTvxERFLPbpMNP8u9",
    "placeName": "new york",
    "state": "NY"
  },
  {
    "city": "new york",
    "state_code": "NY",
    "placeMasterId": "P02500000FsoG3hTIW4bBVIKTvxERFLPbpMNP8u9",
    "placeName": "new york",
    "state": "NY"
  },
  {
    "city": "new york",
    "state_code": "NY",
    "placeMasterId": "P02500000FsoG3hTIW4bBVIKTvxERFLPbpMNP8u9",
    "placeName": "new york",
    "state": "NY"
  },
  {
    "city": "staten island",
    "state_code": "NY",
    "placeMasterId": "P02500000FsoHDBWVhflbkFwmRmIoilOWW8CMZ4T",
    "placeName": "staten island",
    "state": "NY"
  },
  {
    "city": "ardsley",
    "state_code": "NY",
    "placeMasterId": "P02500000FsoG0qXkS93TlHQzriK51XvX23TLHRm",
    "placeName": "ardsley",
    "state": "NY"
  },
  {
    "city": "dobbs ferry",
    "state_code": "NY",
    "placeMasterId": "P02500000FsoG1hcc4WWBssu2gaOaUUCk11KfVI6",
    "placeName": "dobbs ferry",
    "state": "NY"
  },
  {
    "city": "mamaroneck",
    "state_code": "NY",
    "placeMasterId": "P02500000FsoHDc3wVrUxo3gIrDL4SEYBBBpOPJZ",
    "placeName": "mamaroneck",
    "state": "NY"
  },
  {
    "city": "pomona",
    "state_code": "NY",
    "placeMasterId": "P02500000FsoG4GrCveuKFhJB9Cc6tIpOJ3r9EII",
    "placeName": "pomona",
    "state": "NY"
  },
  {
    "city": "brooklyn",
    "state_code": "NY",
    "placeMasterId": "P02500000FsoHCc8bI5SSzqy5EWv94nnzJKQNSS5",
    "placeName": "brooklyn",
    "state": "NY"
  },
  {
    "city": "brooklyn",
    "state_code": "NY",
    "placeMasterId": "P02500000FsoHCc8bI5SSzqy5EWv94nnzJKQNSS5",
    "placeName": "brooklyn",
    "state": "NY"
  },
  {
    "city": "glen head",
    "state_code": "NY",
    "placeMasterId": "P02500000FsoG2Pr05VP7Jt7uhe7g2vv9fBZniqm",
    "placeName": "glen head",
    "state": "NY"
  },
  {
    "city": "glenwood landing",
    "state_code": "NY",
    "placeMasterId": "P02500000FsoG2Pr05VP7Jt7uhe7g2vxLQEvYLcN",
    "placeName": "glenwood landing",
    "state": "NY"
  },
  {
    "city": "mount sinai",
    "state_code": "NY",
    "placeMasterId": "P02500000FsoG3hTIW4bBVIKTvxERFLLMS3Y2izH",
    "placeName": "mount sinai",
    "state": "NY"
  },
  {
    "city": "cobleskill",
    "state_code": "NY",
    "placeMasterId": "P02500000FsoHDBWVhflbkFwmRmIoilWHUV0oT3a",
    "placeName": "cobleskill",
    "state": "NY"
  },
  {
    "city": "stottville",
    "state_code": "NY",
    "placeMasterId": "P02500000FsoG57w4Y2N2NImDy4gcMEyKD083Qq8",
    "placeName": "stottville",
    "state": "NY"
  },
  {
    "city": "high falls",
    "state_code": "NY",
    "placeMasterId": "P02500000FsoG2hXxIIYgh5cGJGoVrufvPSu0rFJ",
    "placeName": "high falls",
    "state": "NY"
  },
  {
    "city": "kerhonkson",
    "state_code": "NY",
    "placeMasterId": "P02500000FsoG2zEuV5iG4I6butVLgtSfypi2ku6",
    "placeName": "kerhonkson",
    "state": "NY"
  },
  {
    "city": "roscoe",
    "state_code": "NY",
    "placeMasterId": "P02500000FsoG4YYA8S3tctnWkpIwiHVFml1vT2X",
    "placeName": "roscoe",
    "state": "NY"
  },
  {
    "city": "wurtsboro",
    "state_code": "NY",
    "placeMasterId": "P02500000FsoG5hJyxcgB7hkvBK4I0Cc9OJpKIjo",
    "placeName": "wurtsboro",
    "state": "NY"
  },
  {
    "city": "keeseville",
    "state_code": "NY",
    "placeMasterId": "P02500000FsoG385O6UI2ktLmihqlbNmjpVfvlXW",
    "placeName": "keeseville",
    "state": "NY"
  },
  {
    "city": "baldwinsville",
    "state_code": "NY",
    "placeMasterId": "P02500000FsoG0zOE3XdGRsgAfWfUw2A5PGScNEb",
    "placeName": "baldwinsville",
    "state": "NY"
  },
  {
    "city": "constantia",
    "state_code": "NY",
    "placeMasterId": "P02500000FsoHD2g26HBp3ehbdxxOoGtIQO0Ik7B",
    "placeName": "constantia",
    "state": "NY"
  },
  {
    "city": "fabius",
    "state_code": "NY",
    "placeMasterId": "P02500000FsoHCtpYUsc2N3SQq9bytmamEyP3lHG",
    "placeName": "fabius",
    "state": "NY"
  },
  {
    "city": "minetto",
    "state_code": "NY",
    "placeMasterId": "P02500000FsoHD2g26HBp3ehbdxxOoH5R248GfZV",
    "placeName": "minetto",
    "state": "NY"
  },
  {
    "city": "parish",
    "state_code": "NY",
    "placeMasterId": "P02500000FsoHD2g26HBp3ehbdxxOoGxK6kFeftD",
    "placeName": "parish",
    "state": "NY"
  },
  {
    "city": "west monroe",
    "state_code": "NY",
    "placeMasterId": "P02500000FsoIHFPZyD0BsOGSQkFJZZFJRJLS35Q",
    "placeName": "west monroe",
    "state": "NY"
  },
  {
    "city": "constableville",
    "state_code": "NY",
    "placeMasterId": "P02500000FsoG1Ym8T7wPCHersm3AZzhMpwsHRGO",
    "placeName": "constableville",
    "state": "NY"
  },
  {
    "city": "greig",
    "state_code": "NY",
    "placeMasterId": "P02500000FsoIExrwJrlcsmLfZkiczjPxD9a8vaw",
    "placeName": "greig",
    "state": "NY"
  },
  {
    "city": "munnsville",
    "state_code": "NY",
    "placeMasterId": "P02500000FsoG3hTIW4bBVIKTvxERFLIezPNJrPF",
    "placeName": "munnsville",
    "state": "NY"
  },
  {
    "city": "plessis",
    "state_code": "NY",
    "placeMasterId": "P02500000FsoG4GrCveuKFhJB9Cc6tIqB6bEgEBZ",
    "placeName": "plessis",
    "state": "NY"
  },
  {
    "city": "rensselaer falls",
    "state_code": "NY",
    "placeMasterId": "P02500000FsoG4YYA8S3tctnWkpIwiHRFwDzof8B",
    "placeName": "rensselaer falls",
    "state": "NY"
  },
  {
    "city": "oxford",
    "state_code": "NY",
    "placeMasterId": "P02500000FsoHC2kgsV9KFRzO1HXTQqSfnJAY81J",
    "placeName": "oxford",
    "state": "NY"
  },
  {
    "city": "sardinia",
    "state_code": "NY",
    "placeMasterId": "P02500000FsoIGXBBxE7GRO2aPgWE17WEeCt4CeU",
    "placeName": "sardinia",
    "state": "NY"
  },
  {
    "city": "wilson",
    "state_code": "NY",
    "placeMasterId": "P02500000FsoHCkz4tU2FgSDG2LGYzIJRr1rIr8Z",
    "placeName": "wilson",
    "state": "NY"
  },
  {
    "city": "buffalo",
    "state_code": "NY",
    "placeMasterId": "P02500000FsoG1H5BGKmpp5AWH9MKl12AT3E2vOM",
    "placeName": "buffalo",
    "state": "NY"
  },
  {
    "city": "hilton",
    "state_code": "NY",
    "placeMasterId": "P02500000FsoG2hXxIIYgh5cGJGoVrulG2EVERLQ",
    "placeName": "hilton",
    "state": "NY"
  },
  {
    "city": "shortsville",
    "state_code": "NY",
    "placeMasterId": "P02500000FsoG4qF7LFDT06HsMRzmXGMnMR39js5",
    "placeName": "shortsville",
    "state": "NY"
  },
  {
    "city": "rochester",
    "state_code": "NY",
    "placeMasterId": "P02500000FsoG4YYA8S3tctnWkpIwiHXc7FWLpT6",
    "placeName": "rochester",
    "state": "NY"
  },
  {
    "city": "caneadea",
    "state_code": "NY",
    "placeMasterId": "P02500000FsoIE6n4hUIulAsckse7WnDbCz8j4Ki",
    "placeName": "caneadea",
    "state": "NY"
  },
  {
    "city": "celoron",
    "state_code": "NY",
    "placeMasterId": "P02500000FsoG1PverjMcVgPh4xhkfVULz2aqvvv",
    "placeName": "celoron",
    "state": "NY"
  },
  {
    "city": "clymer",
    "state_code": "NY",
    "placeMasterId": "P02500000FsoIEOU1uHSU8NMyMVKxLlsFm7PQyK8",
    "placeName": "clymer",
    "state": "NY"
  },
  {
    "city": "friendship",
    "state_code": "NY",
    "placeMasterId": "P02500000FsoHBtuDH6ZXYqkDDTC3WLyZVwYF1Nk",
    "placeName": "friendship",
    "state": "NY"
  },
  {
    "city": "olean",
    "state_code": "NY",
    "placeMasterId": "P02500000FsoG480jKGKXZ640LOGgyoSpeeUmXmA",
    "placeName": "olean",
    "state": "NY"
  },
  {
    "city": "panama",
    "state_code": "NY",
    "placeMasterId": "P02500000FsoG4GrCveuKFhJB9Cc6tIhu4OsivpQ",
    "placeName": "panama",
    "state": "NY"
  },
  {
    "city": "prattsburgh",
    "state_code": "NY",
    "placeMasterId": "P02500000FsoIGOKiLpXTkmnPbsAo6d6TCrOZZcU",
    "placeName": "prattsburgh",
    "state": "NY"
  },
  {
    "city": "monongahela",
    "state_code": "PA",
    "placeMasterId": "P02500000FsoGWEkn9M2EvRHKcMK1TJd2AfEBPR0",
    "placeName": "monongahela",
    "state": "PA"
  },
  {
    "city": "oakdale",
    "state_code": "PA",
    "placeMasterId": "P02500000FsoGX5peljUx32kNREOWwFrvxSn6Z1B",
    "placeName": "oakdale",
    "state": "PA"
  },
  {
    "city": "pittsburgh",
    "state_code": "PA",
    "placeMasterId": "P02500000FsoGXfDZBJo5nRj4eTmCaDENhHWAB15",
    "placeName": "pittsburgh",
    "state": "PA"
  },
  {
    "city": "avella",
    "state_code": "PA",
    "placeMasterId": "P02500000FsoGQoaeEI6Oobyi5VC8qhPNwcMqLI3",
    "placeName": "avella",
    "state": "PA"
  },
  {
    "city": "california",
    "state_code": "PA",
    "placeMasterId": "P02500000FsoGRffVqfZ6wDRkuNGeJdhQmGDJ1tw",
    "placeName": "california",
    "state": "PA"
  },
  {
    "city": "elco",
    "state_code": "PA",
    "placeMasterId": "P02500000FsoGSxHoHElB7ceK8gNPW37xoRYvzSU",
    "placeName": "elco",
    "state": "PA"
  },
  {
    "city": "fayette city",
    "state_code": "PA",
    "placeMasterId": "P02500000FsoGTNpF5QUXBQNqY7PfFW94vzS5OgZ",
    "placeName": "fayette city",
    "state": "PA"
  },
  {
    "city": "yukon",
    "state_code": "PA",
    "placeMasterId": "P02500000FsoGawgY3R59bGM589ioXTq9xhmeGY5",
    "placeName": "yukon",
    "state": "PA"
  },
  {
    "city": "northern cambria",
    "state_code": "PA",
    "placeMasterId": "P02500000FsoGWwzBAKvAMRVCdQ371lXnxbyWHAY",
    "placeName": "northern cambria",
    "state": "PA"
  },
  {
    "city": "central city",
    "state_code": "PA",
    "placeMasterId": "P02500000FsoGRffVqfZ6wDRkuNGeJdqnqIyfG3n",
    "placeName": "central city",
    "state": "PA"
  },
  {
    "city": "mars",
    "state_code": "PA",
    "placeMasterId": "P02500000FsoGVx3pwYsfYEmz0jdBeKsGElYpEtM",
    "placeName": "mars",
    "state": "PA"
  },
  {
    "city": "marienville",
    "state_code": "PA",
    "placeMasterId": "P02500000FsoGVoDMLAIsrdXoCvHljqZj50IAJ9J",
    "placeName": "marienville",
    "state": "PA"
  },
  {
    "city": "bear lake",
    "state_code": "PA",
    "placeMasterId": "P02500000FsoGQxR7pggBVDDstJXYlBnXiUBDhFt",
    "placeName": "bear lake",
    "state": "PA"
  },
  {
    "city": "ramey",
    "state_code": "PA",
    "placeMasterId": "P02500000FsoGXwuWO6xfAeDQG6T2PCBZQBFdiba",
    "placeName": "ramey",
    "state": "PA"
  },
  {
    "city": "clarence",
    "state_code": "PA",
    "placeMasterId": "P02500000FsoGRxMT3SigJPw6VzxU8cbo90xrgVR",
    "placeName": "clarence",
    "state": "PA"
  },
  {
    "city": "curwensville",
    "state_code": "PA",
    "placeMasterId": "P02500000FsoGSNttreS2NDfcvQzjs5ipc6zZAut",
    "placeName": "curwensville",
    "state": "PA"
  },
  {
    "city": "wallaceton",
    "state_code": "PA",
    "placeMasterId": "P02500000FsoGa5bgR3cRTet2JHeJ4XZGwA54psj",
    "placeName": "wallaceton",
    "state": "PA"
  },
  {
    "city": "elizabethville",
    "state_code": "PA",
    "placeMasterId": "P02500000FsoGT68HsdKxoDtUwUipQXNqCXhnte8",
    "placeName": "elizabethville",
    "state": "PA"
  },
  {
    "city": "mcveytown",
    "state_code": "PA",
    "placeMasterId": "P02500000FsoGVfMsjlj6B2IdP6wLpMEU9xymP6C",
    "placeName": "mcveytown",
    "state": "PA"
  },
  {
    "city": "shirleysburg",
    "state_code": "PA",
    "placeMasterId": "P02500000FsoGYwprbt09yqvdsmsxmcYQXjPR45B",
    "placeName": "shirleysburg",
    "state": "PA"
  },
  {
    "city": "lewisberry",
    "state_code": "PA",
    "placeMasterId": "P02500000FsoGVWWP8N9JUR3SbIavurbwuFS1uIb",
    "placeName": "lewisberry",
    "state": "PA"
  },
  {
    "city": "stewartstown",
    "state_code": "PA",
    "placeMasterId": "P02500000FsoGZEWoog9jM3PzUPZnbbOPzlvx61y",
    "placeName": "stewartstown",
    "state": "PA"
  },
  {
    "city": "laurelton",
    "state_code": "PA",
    "placeMasterId": "P02500000FsoGVEpRvZzk7EZ6zfu65t136dnpZ7R",
    "placeName": "laurelton",
    "state": "PA"
  },
  {
    "city": "locustdale",
    "state_code": "PA",
    "placeMasterId": "P02500000FsoGVWWP8N9JUR3SbIavurrdIAzFwFT",
    "placeName": "locustdale",
    "state": "PA"
  },
  {
    "city": "mahanoy city",
    "state_code": "PA",
    "placeMasterId": "P02500000FsoGVoDMLAIsrdXoCvHljqOH5toAb1v",
    "placeName": "mahanoy city",
    "state": "PA"
  },
  {
    "city": "easton",
    "state_code": "PA",
    "placeMasterId": "P02500000FsoGSoRKfqBOR1P9Ks1zbYqZA8MyzjS",
    "placeName": "easton",
    "state": "PA"
  },
  {
    "city": "stockertown",
    "state_code": "PA",
    "placeMasterId": "P02500000FsoGZEWoog9jM3PzUPZnbbSXrs949eR",
    "placeName": "stockertown",
    "state": "PA"
  },
  {
    "city": "oneida",
    "state_code": "PA",
    "placeMasterId": "P02500000FsoGXEg8N84jjdzYF2jwqkEcj2bJxwG",
    "placeName": "oneida",
    "state": "PA"
  },
  {
    "city": "white mills",
    "state_code": "PA",
    "placeMasterId": "P02500000FsoGaW97FFLnXScYiigYo0hSd6K7ZNc",
    "placeName": "white mills",
    "state": "PA"
  },
  {
    "city": "folsom",
    "state_code": "PA",
    "placeMasterId": "P02500000FsoGTNpF5QUXBQNqY7PfFWF6o5YFsNp",
    "placeName": "folsom",
    "state": "PA"
  },
  {
    "city": "marcus hook",
    "state_code": "PA",
    "placeMasterId": "P02500000FsoGVoDMLAIsrdXoCvHljqVFFWpzcdt",
    "placeName": "marcus hook",
    "state": "PA"
  },
  {
    "city": "swarthmore",
    "state_code": "PA",
    "placeMasterId": "P02500000FsoGZWDm1TJIjFuL62GdQa50qTJDB5f",
    "placeName": "swarthmore",
    "state": "PA"
  },
  {
    "city": "philadelphia",
    "state_code": "PA",
    "placeMasterId": "P02500000FsoGXWN5ZvEJ6qTtqfQmfiyVODy6MPW",
    "placeName": "philadelphia",
    "state": "PA"
  },
  {
    "city": "lincoln university",
    "state_code": "PA",
    "placeMasterId": "P02500000FsoGVWWP8N9JUR3SbIavurg8Za71bH8",
    "placeName": "lincoln university",
    "state": "PA"
  },
  {
    "city": "temple",
    "state_code": "PA",
    "placeMasterId": "P02500000FsoGZWDm1TJIjFuL62GdQaFiobS9zUP",
    "placeName": "temple",
    "state": "PA"
  },
  {
    "city": "reading",
    "state_code": "PA",
    "placeMasterId": "P02500000FsoGY5kzzVXRrFSb3uoSJgIQftycIhP",
    "placeName": "reading",
    "state": "PA"
  },
  {
    "city": "bear",
    "state_code": "DE",
    "placeMasterId": "P02500000FsoEpeKo1mxdH6sbi96gcFJtlKHg2Hw",
    "placeName": "bear",
    "state": "DE"
  },
  {
    "city": "wilmington",
    "state_code": "DE",
    "placeMasterId": "P02500000FsoEq4sEpygzKuc87a8wLiOkGKX6CVd",
    "placeName": "wilmington",
    "state": "DE"
  },
  {
    "city": "milton",
    "state_code": "DE",
    "placeMasterId": "P02500000FsoEpnBHdBXPxi7mVxS6Wjhr0sraUJH",
    "placeName": "milton",
    "state": "DE"
  },
  {
    "city": "selbyville",
    "state_code": "DE",
    "placeMasterId": "P02500000FsoEpw1lEa7CeJMxJlnWRE3ZLz393ph",
    "placeName": "selbyville",
    "state": "DE"
  },
  {
    "city": "smyrna",
    "state_code": "DE",
    "placeMasterId": "P02500000FsoEq4sEpygzKuc87a8wLiNillgacY6",
    "placeName": "smyrna",
    "state": "DE"
  },
  {
    "city": "washington",
    "state_code": "DC",
    "placeMasterId": "P02500000FsoEq4sEpygzKuc87a8wLiQYg142PzN",
    "placeName": "washington",
    "state": "DC"
  },
  {
    "city": "sterling",
    "state_code": "VA",
    "placeMasterId": "P02500000FsoGxdGSxSr0qmGmsGeGPMyqFJJDJp5",
    "placeName": "sterling",
    "state": "VA"
  },
  {
    "city": "washington",
    "state_code": "DC",
    "placeMasterId": "P02500000FsoEq4sEpygzKuc87a8wLiQYg142PzN",
    "placeName": "washington",
    "state": "DC"
  },
  {
    "city": "lexington park",
    "state_code": "MD",
    "placeMasterId": "P02500000FsoFUswnLLlZqibxtowSvogB3FyhvJI",
    "placeName": "lexington park",
    "state": "MD"
  },
  {
    "city": "shady side",
    "state_code": "MD",
    "placeMasterId": "P02500000FsoFVss8Z7o4evKBWVMOJFBLA6OyPVn",
    "placeName": "shady side",
    "state": "MD"
  },
  {
    "city": "hyattsville",
    "state_code": "MD",
    "placeMasterId": "P02500000FsoFUk6JjxBnA7Mn60b31KN4Wj0BAWZ",
    "placeName": "hyattsville",
    "state": "MD"
  },
  {
    "city": "bethesda",
    "state_code": "MD",
    "placeMasterId": "P02500000FsoFTSU1JNziyiADrhUHov1PtuCMBne",
    "placeName": "bethesda",
    "state": "MD"
  },
  {
    "city": "baltimore",
    "state_code": "MD",
    "placeMasterId": "P02500000FsoFTSU1JNziyiADrhUHous91WaBH4V",
    "placeName": "baltimore",
    "state": "MD"
  },
  {
    "city": "kitzmiller",
    "state_code": "MD",
    "placeMasterId": "P02500000FsoFUk6JjxBnA7Mn60b31KKeYXDgxng",
    "placeName": "kitzmiller",
    "state": "MD"
  },
  {
    "city": "oakland",
    "state_code": "MD",
    "placeMasterId": "P02500000FsoFVJUE9XUvuWLUJFyifHzciMbEqf7",
    "placeName": "oakland",
    "state": "MD"
  },
  {
    "city": "fort belvoir",
    "state_code": "VA",
    "placeMasterId": "P02500000FsoGvmGG7JLnuy5WQi9pZ05BBQ5ZMY0",
    "placeName": "fort belvoir",
    "state": "VA"
  },
  {
    "city": "arlington",
    "state_code": "VA",
    "placeMasterId": "P02500000FsoGudURI8jWQA880DOUH59WbK2sySL",
    "placeName": "arlington",
    "state": "VA"
  },
  {
    "city": "alexandria",
    "state_code": "VA",
    "placeMasterId": "P02500000FsoGuUdxgk9jjYsxCP34MaiKDaDtr2h",
    "placeName": "alexandria",
    "state": "VA"
  },
  {
    "city": "harrisonburg",
    "state_code": "VA",
    "placeMasterId": "P02500000FsoGvv6jihvabZKhEWVFTUZYDMgC9QZ",
    "placeName": "harrisonburg",
    "state": "VA"
  },
  {
    "city": "free union",
    "state_code": "VA",
    "placeMasterId": "P02500000FsoGvmGG7JLnuy5WQi9pZ00ofWxi9zP",
    "placeName": "free union",
    "state": "VA"
  },
  {
    "city": "onley",
    "state_code": "VA",
    "placeMasterId": "P02500000FsoGx3sYXsXs6NI5f1GalPNUSKy6X71",
    "placeName": "onley",
    "state": "VA"
  },
  {
    "city": "roanoke",
    "state_code": "VA",
    "placeMasterId": "P02500000FsoGxLZVkfhRTZmRGdxQaO4ZAL3W16u",
    "placeName": "roanoke",
    "state": "VA"
  },
  {
    "city": "troutville",
    "state_code": "VA",
    "placeMasterId": "P02500000FsoGxuxQAG0aDyl8TtL6ELb0kDJkasX",
    "placeName": "troutville",
    "state": "VA"
  },
  {
    "city": "bland",
    "state_code": "VA",
    "placeMasterId": "P02500000FsoGumKutXJJ6lNIo1juBZZM4r7p1yp",
    "placeName": "bland",
    "state": "VA"
  },
  {
    "city": "buena vista",
    "state_code": "VA",
    "placeMasterId": "P02500000FsoGuvBOUvt5nMcTbq5K63wJNdevX6O",
    "placeName": "buena vista",
    "state": "VA"
  },
  {
    "city": "verona",
    "state_code": "VA",
    "placeMasterId": "P02500000FsoGxuxQAG0aDyl8TtL6ELewXPzIFPf",
    "placeName": "verona",
    "state": "VA"
  },
  {
    "city": "clover",
    "state_code": "VA",
    "placeMasterId": "P02500000FsoGvLipJ7cRrAM01H7ZpWt2RuzJmak",
    "placeName": "clover",
    "state": "VA"
  },
  {
    "city": "green bank",
    "state_code": "WV",
    "placeMasterId": "P02500000FsoH2ljefjdHaP53nV5JD0PmE9WLGWj",
    "placeName": "green bank",
    "state": "WV"
  },
  {
    "city": "cedar grove",
    "state_code": "WV",
    "placeMasterId": "P02500000FsoH2CLkG9K8q06MaFhdZ2pwUtxjpvt",
    "placeName": "cedar grove",
    "state": "WV"
  },
  {
    "city": "kimberly",
    "state_code": "WV",
    "placeMasterId": "P02500000FsoH33QbsWmqxbZPP7m91yzITquYScU",
    "placeName": "kimberly",
    "state": "WV"
  },
  {
    "city": "madison",
    "state_code": "WV",
    "placeMasterId": "P02500000FsoH3CH5TvMdeCoaCw7YwTKv0GaMvFS",
    "placeName": "madison",
    "state": "WV"
  },
  {
    "city": "powellton",
    "state_code": "WV",
    "placeMasterId": "P02500000FsoH3coWI75zi0Y6cN9ofwO6Gv5ftvv",
    "placeName": "powellton",
    "state": "WV"
  },
  {
    "city": "racine",
    "state_code": "WV",
    "placeMasterId": "P02500000FsoH3coWI75zi0Y6cN9ofwXsb0NfRlG",
    "placeName": "racine",
    "state": "WV"
  },
  {
    "city": "ripley",
    "state_code": "WV",
    "placeMasterId": "P02500000FsoH3coWI75zi0Y6cN9ofwdZWJjCswd",
    "placeName": "ripley",
    "state": "WV"
  },
  {
    "city": "charleston",
    "state_code": "WV",
    "placeMasterId": "P02500000FsoH2LCDrXtvWbLXO433TXAEFw0vAwR",
    "placeName": "charleston",
    "state": "WV"
  },
  {
    "city": "south charleston",
    "state_code": "WV",
    "placeMasterId": "P02500000FsoH3uVTUuFZ5D2SDzqeUvAGepDb9WM",
    "placeName": "south charleston",
    "state": "WV"
  },
  {
    "city": "bethany",
    "state_code": "WV",
    "placeMasterId": "P02500000FsoH23VGekkM9OrBmRMDeYJNGyUVVVY",
    "placeName": "bethany",
    "state": "WV"
  },
  {
    "city": "cameron",
    "state_code": "WV",
    "placeMasterId": "P02500000FsoH2CLkG9K8q06MaFhdZ2vKISKzaZD",
    "placeName": "cameron",
    "state": "WV"
  },
  {
    "city": "elizabeth",
    "state_code": "WV",
    "placeMasterId": "P02500000FsoH2ctB4L3UtnpszgjtIVnxqdVnCm2",
    "placeName": "elizabeth",
    "state": "WV"
  },
  {
    "city": "grantsville",
    "state_code": "WV",
    "placeMasterId": "P02500000FsoH2ljefjdHaP53nV5JD0Ig3mA7bzE",
    "placeName": "grantsville",
    "state": "WV"
  },
  {
    "city": "philippi",
    "state_code": "WV",
    "placeMasterId": "P02500000FsoH3Ty2giWD1PIvoYoOlSDpiKIqoMQ",
    "placeName": "philippi",
    "state": "WV"
  },
  {
    "city": "rivesville",
    "state_code": "WV",
    "placeMasterId": "P02500000FsoH3leztVfmObnHQBVEaQlsrjvORX1",
    "placeName": "rivesville",
    "state": "WV"
  },
  {
    "city": "mayodan",
    "state_code": "NC",
    "placeMasterId": "P02500000FsoG8GYZol4JUWA3dwHoP17GarwPxXy",
    "placeName": "mayodan",
    "state": "NC"
  },
  {
    "city": "burlington",
    "state_code": "NC",
    "placeMasterId": "P02500000FsoG6PYMybZ6YhynCNnNYeOHStV3hyY",
    "placeName": "burlington",
    "state": "NC"
  },
  {
    "city": "oak ridge",
    "state_code": "NC",
    "placeMasterId": "P02500000FsoG8YFX1YDsriePFYyeDzvqgs2gaIV",
    "placeName": "oak ridge",
    "state": "NC"
  },
  {
    "city": "carrboro",
    "state_code": "NC",
    "placeMasterId": "P02500000FsoG6PYMybZ6YhynCNnNYeQrByw39jc",
    "placeName": "carrboro",
    "state": "NC"
  },
  {
    "city": "garner",
    "state_code": "NC",
    "placeMasterId": "P02500000FsoG7PTiCNbbMuh0p4DIw4tbtk5lMPk",
    "placeName": "garner",
    "state": "NC"
  },
  {
    "city": "south mills",
    "state_code": "NC",
    "placeMasterId": "P02500000FsoG9PKOdvgazK7S4R39gw5kNzmc4lV",
    "placeName": "south mills",
    "state": "NC"
  },
  {
    "city": "indian trail",
    "state_code": "NC",
    "placeMasterId": "P02500000FsoG7hAfPAlAk7BMQgu8l3btCxbnoQF",
    "placeName": "indian trail",
    "state": "NC"
  },
  {
    "city": "lattimore",
    "state_code": "NC",
    "placeMasterId": "P02500000FsoG7yrcbxuk7Jfi2Jaya2Oj5yhSa4H",
    "placeName": "lattimore",
    "state": "NC"
  },
  {
    "city": "morven",
    "state_code": "NC",
    "placeMasterId": "P02500000FsoG8PP3Q9e6B7PERkdEJVZ2RZk0xwL",
    "placeName": "morven",
    "state": "NC"
  },
  {
    "city": "charlotte",
    "state_code": "NC",
    "placeMasterId": "P02500000FsoG6YOqa08tFJDy0C8nT8qHEOhlkFv",
    "placeName": "charlotte",
    "state": "NC"
  },
  {
    "city": "carthage",
    "state_code": "NC",
    "placeMasterId": "P02500000FsoG6PYMybZ6YhynCNnNYeP3IkARxGf",
    "placeName": "carthage",
    "state": "NC"
  },
  {
    "city": "dunn",
    "state_code": "NC",
    "placeMasterId": "P02500000FsoG6q5nmnIScViJbopdI7ZWTW0lBnb",
    "placeName": "dunn",
    "state": "NC"
  },
  {
    "city": "bolton",
    "state_code": "NC",
    "placeMasterId": "P02500000FsoG6GhtNCzJs6jcOZRxe9zgmyWpmYt",
    "placeName": "bolton",
    "state": "NC"
  },
  {
    "city": "ivanhoe",
    "state_code": "NC",
    "placeMasterId": "P02500000FsoG7hAfPAlAk7BMQgu8l3gztvmfQcc",
    "placeName": "ivanhoe",
    "state": "NC"
  },
  {
    "city": "magnolia",
    "state_code": "NC",
    "placeMasterId": "P02500000FsoG8GYZol4JUWA3dwHoP17JoABG2LF",
    "placeName": "magnolia",
    "state": "NC"
  },
  {
    "city": "sneads ferry",
    "state_code": "NC",
    "placeMasterId": "P02500000FsoG9PKOdvgazK7S4R39gwDW0DoeNdt",
    "placeName": "sneads ferry",
    "state": "NC"
  },
  {
    "city": "tabor city",
    "state_code": "NC",
    "placeMasterId": "P02500000FsoG9h1LqiqAMWbng3jzVun9Q77lS5N",
    "placeName": "tabor city",
    "state": "NC"
  },
  {
    "city": "sunset beach",
    "state_code": "NC",
    "placeMasterId": "P02500000FsoG9h1LqiqAMWbng3jzVusF4lZGb0x",
    "placeName": "sunset beach",
    "state": "NC"
  },
  {
    "city": "jacksonville",
    "state_code": "NC",
    "placeMasterId": "P02500000FsoG7hAfPAlAk7BMQgu8l3ihGGArPiW",
    "placeName": "jacksonville",
    "state": "NC"
  },
  {
    "city": "vanceboro",
    "state_code": "NC",
    "placeMasterId": "P02500000FsoG9h1LqiqAMWbng3jzVuvJXBkNc1M",
    "placeName": "vanceboro",
    "state": "NC"
  },
  {
    "city": "hickory",
    "state_code": "NC",
    "placeMasterId": "P02500000FsoG7YKBnmBO3VwBcsYiqZSu81hrfW9",
    "placeName": "hickory",
    "state": "NC"
  },
  {
    "city": "elkin",
    "state_code": "NC",
    "placeMasterId": "P02500000FsoG77mkzaS1ziCfDRWT767ZB01h397",
    "placeName": "elkin",
    "state": "NC"
  },
  {
    "city": "lansing",
    "state_code": "NC",
    "placeMasterId": "P02500000FsoG7yrcbxuk7Jfi2Jaya2ZIt6bmYT0",
    "placeName": "lansing",
    "state": "NC"
  },
  {
    "city": "asheville",
    "state_code": "NC",
    "placeMasterId": "P02500000FsoG5z0wAPpkUuFGmwl7pBJp7vcNZCo",
    "placeName": "asheville",
    "state": "NC"
  },
  {
    "city": "camden",
    "state_code": "SC",
    "placeMasterId": "P02500000FsoGbNDyrcoVf45bXal4GwwPYk3yXUc",
    "placeName": "camden",
    "state": "SC"
  },
  {
    "city": "holly hill",
    "state_code": "SC",
    "placeMasterId": "P02500000FsoGbwbtHD7ePT4Ikq8juuWtMoGoRnp",
    "placeName": "holly hill",
    "state": "SC"
  },
  {
    "city": "newberry",
    "state_code": "SC",
    "placeMasterId": "P02500000FsoGcVzngnQn9s2zy5WPYrpmDoIcntd",
    "placeName": "newberry",
    "state": "SC"
  },
  {
    "city": "salley",
    "state_code": "SC",
    "placeMasterId": "P02500000FsoGcwXEUzA9DfmWNWYfIL9cfcRxVTm",
    "placeName": "salley",
    "state": "SC"
  },
  {
    "city": "charleston",
    "state_code": "SC",
    "placeMasterId": "P02500000FsoGbNDyrcoVf45bXal4Gx4gp6ShtVb",
    "placeName": "charleston",
    "state": "SC"
  },
  {
    "city": "myrtle beach",
    "state_code": "SC",
    "placeMasterId": "P02500000FsoGcN9K5Or0TGnpAHAzeNbBRrJHz9g",
    "placeName": "myrtle beach",
    "state": "SC"
  },
  {
    "city": "greer",
    "state_code": "SC",
    "placeMasterId": "P02500000FsoGbwbtHD7ePT4Ikq8juuM0BGGcIFr",
    "placeName": "greer",
    "state": "SC"
  },
  {
    "city": "taylors",
    "state_code": "SC",
    "placeMasterId": "P02500000FsoGdEEBhmJiasGrz9FV7Jl0fTeF3wU",
    "placeName": "taylors",
    "state": "SC"
  },
  {
    "city": "hampton",
    "state_code": "SC",
    "placeMasterId": "P02500000FsoGbwbtHD7ePT4Ikq8juuLgZjX3u2c",
    "placeName": "hampton",
    "state": "SC"
  },
  {
    "city": "lawrenceville",
    "state_code": "GA",
    "placeMasterId": "P02500000FsoExDC6znYFgwqqIBPpuCzr4XxLrtd",
    "placeName": "lawrenceville",
    "state": "GA"
  },
  {
    "city": "canton",
    "state_code": "GA",
    "placeMasterId": "P02500000FsoEvvZoZEMBVXeH3sJ4hndo0kd6Po2",
    "placeName": "canton",
    "state": "GA"
  },
  {
    "city": "cartersville",
    "state_code": "GA",
    "placeMasterId": "P02500000FsoEvvZoZEMBVXeH3sJ4hneN8P5XG8c",
    "placeName": "cartersville",
    "state": "GA"
  },
  {
    "city": "powder springs",
    "state_code": "GA",
    "placeMasterId": "P02500000FsoEy4GycB0xoYJt73ULN9BqrsDvNgJ",
    "placeName": "powder springs",
    "state": "GA"
  },
  {
    "city": "hiram",
    "state_code": "GA",
    "placeMasterId": "P02500000FsoEx4LdOOyT0LbfUN4PziZ2PbzgWDT",
    "placeName": "hiram",
    "state": "GA"
  },
  {
    "city": "jasper",
    "state_code": "GA",
    "placeMasterId": "P02500000FsoEx4LdOOyT0LbfUN4Pzib56KTDR9f",
    "placeName": "jasper",
    "state": "GA"
  },
  {
    "city": "fayetteville",
    "state_code": "GA",
    "placeMasterId": "P02500000FsoEwUxiyofKFwcyH7gkLl6jBuC9uyN",
    "placeName": "fayetteville",
    "state": "GA"
  },
  {
    "city": "lovejoy",
    "state_code": "GA",
    "placeMasterId": "P02500000FsoExM2abC82NY615zlFohMiIoAedbI",
    "placeName": "lovejoy",
    "state": "GA"
  },
  {
    "city": "luthersville",
    "state_code": "GA",
    "placeMasterId": "P02500000FsoExUt4Cahp49LBto6fjBgcWzdwRb2",
    "placeName": "luthersville",
    "state": "GA"
  },
  {
    "city": "moreland",
    "state_code": "GA",
    "placeMasterId": "P02500000FsoExdjXnzHbkkaMhcS5dg55QA6FUE3",
    "placeName": "moreland",
    "state": "GA"
  },
  {
    "city": "atlanta",
    "state_code": "GA",
    "placeMasterId": "P02500000FsoEvV2Nl2cpRjukeRGoyKXsQZ9lvPs",
    "placeName": "atlanta",
    "state": "GA"
  },
  {
    "city": "atlanta",
    "state_code": "GA",
    "placeMasterId": "P02500000FsoEvV2Nl2cpRjukeRGoyKXsQZ9lvPs",
    "placeName": "atlanta",
    "state": "GA"
  },
  {
    "city": "atlanta",
    "state_code": "GA",
    "placeMasterId": "P02500000FsoEvV2Nl2cpRjukeRGoyKXsQZ9lvPs",
    "placeName": "atlanta",
    "state": "GA"
  },
  {
    "city": "blue ridge",
    "state_code": "GA",
    "placeMasterId": "P02500000FsoEvdsrMRCc8L9vSFcEsotcjxlZSfW",
    "placeName": "blue ridge",
    "state": "GA"
  },
  {
    "city": "homer",
    "state_code": "GA",
    "placeMasterId": "P02500000FsoEx4LdOOyT0LbfUN4PziaUXrjOUGC",
    "placeName": "homer",
    "state": "GA"
  },
  {
    "city": "maysville",
    "state_code": "GA",
    "placeMasterId": "P02500000FsoExUt4Cahp49LBto6fjBiFnUsvcgA",
    "placeName": "maysville",
    "state": "GA"
  },
  {
    "city": "tiger",
    "state_code": "GA",
    "placeMasterId": "P02500000FsoEydet1lK6YxIaKIs116iCDEHJf7v",
    "placeName": "tiger",
    "state": "GA"
  },
  {
    "city": "crawfordville",
    "state_code": "GA",
    "placeMasterId": "P02500000FsoEwDGlm1Vksk8cfUzuWmO9RzYxE44",
    "placeName": "crawfordville",
    "state": "GA"
  },
  {
    "city": "lookout mountain",
    "state_code": "GA",
    "placeMasterId": "P02500000FsoExDC6znYFgwqqIBPpuD0rh1zjNak",
    "placeName": "lookout mountain",
    "state": "GA"
  },
  {
    "city": "noonan",
    "state_code": "ND",
    "placeMasterId": "P02500000FsoGBpiVtfUwfXHPjEvGBGSiWQAfbo6",
    "placeName": "noonan",
    "state": "ND"
  },
  {
    "city": "palermo",
    "state_code": "ND",
    "placeMasterId": "P02500000FsoGBpiVtfUwfXHPjEvGBGcqDRdONED",
    "placeName": "palermo",
    "state": "ND"
  },
  {
    "city": "powers lake",
    "state_code": "ND",
    "placeMasterId": "P02500000FsoGByYzV44jM8WaX3Gg5klelfVnE5S",
    "placeName": "powers lake",
    "state": "ND"
  },
  {
    "city": "tolley",
    "state_code": "ND",
    "placeMasterId": "P02500000FsoGCGFwhrEIjL0w8fxVujfqNXS0A4y",
    "placeName": "tolley",
    "state": "ND"
  },
  {
    "city": "white earth",
    "state_code": "ND",
    "placeMasterId": "P02500000FsoGCP6QJFo5PwG6wUIvpE4HB26rUDJ",
    "placeName": "white earth",
    "state": "ND"
  },
  {
    "city": "ashland",
    "state_code": "MT",
    "placeMasterId": "P02500000FsoFoZkga3PwfcO0lsc8fPyX1juQWVi",
    "placeName": "ashland",
    "state": "MT"
  },
  {
    "city": "belfry",
    "state_code": "MT",
    "placeMasterId": "P02500000FsoFoibABRzjMDdBZgxYZuLyUq5vjqA",
    "placeName": "belfry",
    "state": "MT"
  },
  {
    "city": "musselshell",
    "state_code": "MT",
    "placeMasterId": "P02500000FsoFq0DSc1BnXcpko04JmJa3UTASJ2k",
    "placeName": "musselshell",
    "state": "MT"
  },
  {
    "city": "pryor",
    "state_code": "MT",
    "placeMasterId": "P02500000FsoFq93wDPlaEE4vboPjgnz8p0nDYxh",
    "placeName": "pryor",
    "state": "MT"
  },
  {
    "city": "silver gate",
    "state_code": "MT",
    "placeMasterId": "P02500000FsoFqQktQCv9bQZHDR6ZVmnS7Gis8Jq",
    "placeName": "silver gate",
    "state": "MT"
  },
  {
    "city": "westby",
    "state_code": "MT",
    "placeMasterId": "P02500000FsoFqiRqd04iyd3cp3nPKlQzsPKGpMM",
    "placeName": "westby",
    "state": "MT"
  },
  {
    "city": "vaughn",
    "state_code": "MT",
    "placeMasterId": "P02500000FsoFqZbN1bUwI1oS1FRzQH9Z24ltpI9",
    "placeName": "vaughn",
    "state": "MT"
  },
  {
    "city": "malta",
    "state_code": "MT",
    "placeMasterId": "P02500000FsoFprMz0cc0r1aa0BitrpAmq1FRRFm",
    "placeName": "malta",
    "state": "MT"
  },
  {
    "city": "marysville",
    "state_code": "MT",
    "placeMasterId": "P02500000FsoFprMz0cc0r1aa0BitrpGA6NEbKDe",
    "placeName": "marysville",
    "state": "MT"
  },
  {
    "city": "pony",
    "state_code": "MT",
    "placeMasterId": "P02500000FsoFq0DSc1BnXcpko04JmJkSju8ua29",
    "placeName": "pony",
    "state": "MT"
  },
  {
    "city": "pinesdale",
    "state_code": "MT",
    "placeMasterId": "P02500000FsoFq0DSc1BnXcpko04JmJfq7GJvh9D",
    "placeName": "pinesdale",
    "state": "MT"
  },
  {
    "city": "des plaines",
    "state_code": "IL",
    "placeMasterId": "P02500000FsoF2v3D7edfAydoQfEYLnoL2wjanzh",
    "placeName": "des plaines",
    "state": "IL"
  },
  {
    "city": "kirkland",
    "state_code": "IL",
    "placeMasterId": "P02500000FsoF4m3Pxo8s6mp4sDizCAgVeWQOV1A",
    "placeName": "kirkland",
    "state": "IL"
  },
  {
    "city": "wheaton",
    "state_code": "IL",
    "placeMasterId": "P02500000FsoF8lkmquIrLbfxMxOght2xgFNZ3Tp",
    "placeName": "wheaton",
    "state": "IL"
  },
  {
    "city": "oak park",
    "state_code": "IL",
    "placeMasterId": "P02500000FsoF6LMfbAUVfOVzi9WaDYkUbA3T87Q",
    "placeName": "oak park",
    "state": "IL"
  },
  {
    "city": "dolton",
    "state_code": "IL",
    "placeMasterId": "P02500000FsoF33tgj3DRrZszETZyGIBujtux85S",
    "placeName": "dolton",
    "state": "IL"
  },
  {
    "city": "chicago",
    "state_code": "IL",
    "placeMasterId": "P02500000FsoF2LfIi4KWQZf7DPqshqNB04VNil1",
    "placeName": "chicago",
    "state": "IL"
  },
  {
    "city": "clifton",
    "state_code": "IL",
    "placeMasterId": "P02500000FsoF2dMFurU5nm9Sp2XiWp2zEUmFRED",
    "placeName": "clifton",
    "state": "IL"
  },
  {
    "city": "gibson city",
    "state_code": "IL",
    "placeMasterId": "P02500000FsoF3m84k26NIa6rFXJ3ok1sTOJGBOE",
    "placeName": "gibson city",
    "state": "IL"
  },
  {
    "city": "herscher",
    "state_code": "IL",
    "placeMasterId": "P02500000FsoF4CfVYDpjMNqNeyLJYDBTHwTRAwF",
    "placeName": "herscher",
    "state": "IL"
  },
  {
    "city": "hoopeston",
    "state_code": "IL",
    "placeMasterId": "P02500000FsoF4LVz9cPW2z5YSmgjShWxWN8mcQ3",
    "placeName": "hoopeston",
    "state": "IL"
  },
  {
    "city": "melvin",
    "state_code": "IL",
    "placeMasterId": "P02500000FsoF5d8HaBbaEOI7h5nUf6uHoW9pNHs",
    "placeName": "melvin",
    "state": "IL"
  },
  {
    "city": "rossville",
    "state_code": "IL",
    "placeMasterId": "P02500000FsoF7LI0owX0TbEDKpwVazJqqI7Qwxs",
    "placeName": "rossville",
    "state": "IL"
  },
  {
    "city": "union hill",
    "state_code": "IL",
    "placeMasterId": "P02500000FsoF8CMsRJzibChG9i113vZxhYaAKkh",
    "placeName": "union hill",
    "state": "IL"
  },
  {
    "city": "poplar grove",
    "state_code": "IL",
    "placeMasterId": "P02500000FsoF6uka0knePnUgvOuFrWCUpBGzKRV",
    "placeName": "poplar grove",
    "state": "IL"
  },
  {
    "city": "ohio",
    "state_code": "IL",
    "placeMasterId": "P02500000FsoF6UD9CZ4ILzlAVxs0834s3huDH3m",
    "placeName": "ohio",
    "state": "IL"
  },
  {
    "city": "princeton",
    "state_code": "IL",
    "placeMasterId": "P02500000FsoF73b3c9NR6OjrjDFfm0ZU4Mspa7M",
    "placeName": "princeton",
    "state": "IL"
  },
  {
    "city": "altona",
    "state_code": "IL",
    "placeMasterId": "P02500000FsoF1LjxUII1cMwtajQxKPjim4JOoG2",
    "placeName": "altona",
    "state": "IL"
  }
]