[
  {
    "city": "los angeles",
    "state_code": "CA",
    "placeMasterId": "P02500000FsoEiEJyfAwnXs9Xvv8xEm0Sp2kcekK",
    "placeName": "los angeles",
    "state": "CA"
  },
  {
    "city": "los angeles",
    "state_code": "CA",
    "placeMasterId": "P02500000FsoEiEJyfAwnXs9Xvv8xEm0Sp2kcekK",
    "placeName": "los angeles",
    "state": "CA"
  },
  {
    "city": "los angeles",
    "state_code": "CA",
    "placeMasterId": "P02500000FsoEiEJyfAwnXs9Xvv8xEm0Sp2kcekK",
    "placeName": "los angeles",
    "state": "CA"
  },
  {
    "city": "los angeles",
    "state_code": "CA",
    "placeMasterId": "P02500000FsoEiEJyfAwnXs9Xvv8xEm0Sp2kcekK",
    "placeName": "los angeles",
    "state": "CA"
  },
  {
    "city": "compton",
    "state_code": "CA",
    "placeMasterId": "P02500000FsoEfEXwzqpJ7G0t3rtB6UAwwwBo6w5",
    "placeName": "compton",
    "state": "CA"
  },
  {
    "city": "whittier",
    "state_code": "CA",
    "placeMasterId": "P02500000FsoEm5ArwsX065lFcqTEq03Op0nFoD0",
    "placeName": "whittier",
    "state": "CA"
  },
  {
    "city": "cypress",
    "state_code": "CA",
    "placeMasterId": "P02500000FsoEfWEuCdysUSVEfUa0vSwcRPLg1i3",
    "placeName": "cypress",
    "state": "CA"
  },
  {
    "city": "la mirada",
    "state_code": "CA",
    "placeMasterId": "P02500000FsoEhnmXqzDRU4Q1WU6hVIqWTVMAK9v",
    "placeName": "la mirada",
    "state": "CA"
  },
  {
    "city": "oak park",
    "state_code": "CA",
    "placeMasterId": "P02500000FsoEjEFJswzIM4rlYbYscCZvZVyF9fT",
    "placeName": "oak park",
    "state": "CA"
  },
  {
    "city": "ontario",
    "state_code": "CA",
    "placeMasterId": "P02500000FsoEjN5nULZ52g6wMPuIWgz46b1txqD",
    "placeName": "ontario",
    "state": "CA"
  },
  {
    "city": "pomona",
    "state_code": "CA",
    "placeMasterId": "P02500000FsoEjwThtvsDn55dZfHyAeOtTFhRIMY",
    "placeName": "pomona",
    "state": "CA"
  },
  {
    "city": "oceanside",
    "state_code": "CA",
    "placeMasterId": "P02500000FsoEjEFJswzIM4rlYbYscCbpyMDj1AM",
    "placeName": "oceanside",
    "state": "CA"
  },
  {
    "city": "san diego",
    "state_code": "CA",
    "placeMasterId": "P02500000FsoEkVrcJWBMXU4KmufdobvSE82FU0j",
    "placeName": "san diego",
    "state": "CA"
  },
  {
    "city": "san diego",
    "state_code": "CA",
    "placeMasterId": "P02500000FsoEkVrcJWBMXU4KmufdobvSE82FU0j",
    "placeName": "san diego",
    "state": "CA"
  },
  {
    "city": "san diego",
    "state_code": "CA",
    "placeMasterId": "P02500000FsoEkVrcJWBMXU4KmufdobvSE82FU0j",
    "placeName": "san diego",
    "state": "CA"
  },
  {
    "city": "el centro",
    "state_code": "CA",
    "placeMasterId": "P02500000FsoEg5cocEI1ErTvsjxgZQQ3hcro0ds",
    "placeName": "el centro",
    "state": "CA"
  },
  {
    "city": "thermal",
    "state_code": "CA",
    "placeMasterId": "P02500000FsoElVmxXIDrLgmYPb5ZC2VL8AO85Rx",
    "placeName": "thermal",
    "state": "CA"
  },
  {
    "city": "calimesa",
    "state_code": "CA",
    "placeMasterId": "P02500000FsoEefA2aGWAMr2BqcVVSWgUL6YOD8K",
    "placeName": "calimesa",
    "state": "CA"
  },
  {
    "city": "pinon hills",
    "state_code": "CA",
    "placeMasterId": "P02500000FsoEjndEIXIR6TqSlqwYGA3LwRbP16x",
    "placeName": "pinon hills",
    "state": "CA"
  },
  {
    "city": "murrieta",
    "state_code": "CA",
    "placeMasterId": "P02500000FsoEiwYMg9piysNPwys2nDssQ2NvJD8",
    "placeName": "murrieta",
    "state": "CA"
  },
  {
    "city": "irvine",
    "state_code": "CA",
    "placeMasterId": "P02500000FsoEhNF72nU5QGgV734RlpjosMp0ILe",
    "placeName": "irvine",
    "state": "CA"
  },
  {
    "city": "corona",
    "state_code": "CA",
    "placeMasterId": "P02500000FsoEfEXwzqpJ7G0t3rtB6UBBq9RdoYT",
    "placeName": "corona",
    "state": "CA"
  },
  {
    "city": "carpinteria",
    "state_code": "CA",
    "placeMasterId": "P02500000FsoEeo0WBf5x3SHMeQqvN13F7YcWhKr",
    "placeName": "carpinteria",
    "state": "CA"
  },
  {
    "city": "oxnard",
    "state_code": "CA",
    "placeMasterId": "P02500000FsoEjVwH5k8rjHM7AEFiRBGzv15nrjk",
    "placeName": "oxnard",
    "state": "CA"
  },
  {
    "city": "pleasanton",
    "state_code": "CA",
    "placeMasterId": "P02500000FsoEjndEIXIR6TqSlqwYGA4yFj35Ytq",
    "placeName": "pleasanton",
    "state": "CA"
  },
  {
    "city": "union city",
    "state_code": "CA",
    "placeMasterId": "P02500000FsoEledR8gne2I1jDPQz6Wu50AiuXcx",
    "placeName": "union city",
    "state": "CA"
  },
  {
    "city": "oakland",
    "state_code": "CA",
    "placeMasterId": "P02500000FsoEjN5nULZ52g6wMPuIWgwHJpxtC9b",
    "placeName": "oakland",
    "state": "CA"
  },
  {
    "city": "corte madera",
    "state_code": "CA",
    "placeMasterId": "P02500000FsoEfNOQbFP5nrG3rgEb0yXRL6cm896",
    "placeName": "corte madera",
    "state": "CA"
  },
  {
    "city": "woodacre",
    "state_code": "CA",
    "placeMasterId": "P02500000FsoEmMrp9fgZTIFbETA4eyjYzVBszKB",
    "placeName": "woodacre",
    "state": "CA"
  },
  {
    "city": "empire",
    "state_code": "CA",
    "placeMasterId": "P02500000FsoEgETIDcrnvSj6gYJ6TuktkJfdn6f",
    "placeName": "empire",
    "state": "CA"
  },
  {
    "city": "groveland",
    "state_code": "CA",
    "placeMasterId": "P02500000FsoEgwhgEbkjMSwyhc2C2MbPRh3VUap",
    "placeName": "groveland",
    "state": "CA"
  },
  {
    "city": "hughson",
    "state_code": "CA",
    "placeMasterId": "P02500000FsoEhEOdROuIjfRKJEj1rLO2MmM5EFh",
    "placeName": "hughson",
    "state": "CA"
  },
  {
    "city": "lower lake",
    "state_code": "CA",
    "placeMasterId": "P02500000FsoEiEJyfAwnXs9Xvv8xElzwRgErSQB",
    "placeName": "lower lake",
    "state": "CA"
  },
  {
    "city": "willits",
    "state_code": "CA",
    "placeMasterId": "P02500000FsoEmE1LYH6mmh0QQeoekUO8JddTmrm",
    "placeName": "willits",
    "state": "CA"
  },
  {
    "city": "eureka",
    "state_code": "CA",
    "placeMasterId": "P02500000FsoEgETIDcrnvSj6gYJ6TumIB6FHerr",
    "placeName": "eureka",
    "state": "CA"
  },
  {
    "city": "garberville",
    "state_code": "CA",
    "placeMasterId": "P02500000FsoEgf0j1ob9zGSd5zLMDNtkG8a2vIf",
    "placeName": "garberville",
    "state": "CA"
  },
  {
    "city": "auburn",
    "state_code": "CA",
    "placeMasterId": "P02500000FsoEdwveZHdEvqoJpYmPu4p2Hno6fzp",
    "placeName": "auburn",
    "state": "CA"
  },
  {
    "city": "davis",
    "state_code": "CA",
    "placeMasterId": "P02500000FsoEff5No2YfB3kPTIvQpxFfXbd37Je",
    "placeName": "davis",
    "state": "CA"
  },
  {
    "city": "woodland",
    "state_code": "CA",
    "placeMasterId": "P02500000FsoEmMrp9fgZTIFbETA4eykn2fiUF0Q",
    "placeName": "woodland",
    "state": "CA"
  },
  {
    "city": "alta",
    "state_code": "CA",
    "placeMasterId": "P02500000FsoEdfEhMUTfYeJyDw5a565iRV1wVgX",
    "placeName": "alta",
    "state": "CA"
  },
  {
    "city": "penn valley",
    "state_code": "CA",
    "placeMasterId": "P02500000FsoEjemkh8iePsbHy2b8LfgNiiwELa0",
    "placeName": "penn valley",
    "state": "CA"
  },
  {
    "city": "oroville",
    "state_code": "CA",
    "placeMasterId": "P02500000FsoEjVwH5k8rjHM7AEFiRBHNRgcL1It",
    "placeName": "oroville",
    "state": "CA"
  },
  {
    "city": "sutter",
    "state_code": "CA",
    "placeMasterId": "P02500000FsoElMwTvte4f5XNbmk9HYAUf3zUIXC",
    "placeName": "sutter",
    "state": "CA"
  },
  {
    "city": "shasta lake",
    "state_code": "CA",
    "placeMasterId": "P02500000FsoEkwP37huibHnrCLhtY54KDqxFQpM",
    "placeName": "shasta lake",
    "state": "CA"
  },
  {
    "city": "junction city",
    "state_code": "CA",
    "placeMasterId": "P02500000FsoEhW5aeC3s6rvfurPrgK5DRYaET8d",
    "placeName": "junction city",
    "state": "CA"
  },
  {
    "city": "lakehead",
    "state_code": "CA",
    "placeMasterId": "P02500000FsoEhew4FadenTAqiflHaoVxzYuiYo7",
    "placeName": "lakehead",
    "state": "CA"
  },
  {
    "city": "tahoe vista",
    "state_code": "CA",
    "placeMasterId": "P02500000FsoElVmxXIDrLgmYPb5ZC2TmFxOUSVz",
    "placeName": "tahoe vista",
    "state": "CA"
  },
  {
    "city": "waimanalo",
    "state_code": "HI",
    "placeMasterId": "P02500000FsoEzdaEFXMbNA0nwzHwOXIOo2ZMlcU",
    "placeName": "waimanalo",
    "state": "HI"
  },
  {
    "city": "honolulu",
    "state_code": "HI",
    "placeMasterId": "P02500000FsoEzdaEFXMbNA0nwzHwOXKc1cb4u6p",
    "placeName": "honolulu",
    "state": "HI"
  },
  {
    "city": "beavercreek",
    "state_code": "OR",
    "placeMasterId": "P02500000FsoGOOCWyYI38OokQhK2MN4M0GpQEru",
    "placeName": "beavercreek",
    "state": "OR"
  },
  {
    "city": "beaverton",
    "state_code": "OR",
    "placeMasterId": "P02500000FsoGOOCWyYI38OokQhK2MN4832yBAV5",
    "placeName": "beaverton",
    "state": "OR"
  },
  {
    "city": "cannon beach",
    "state_code": "OR",
    "placeMasterId": "P02500000FsoGOOCWyYI38OokQhK2MNApC21VGtd",
    "placeName": "cannon beach",
    "state": "OR"
  },
  {
    "city": "pacific city",
    "state_code": "OR",
    "placeMasterId": "P02500000FsoGPfopP7U7Jo1Jf0QnYmWCK5funpQ",
    "placeName": "pacific city",
    "state": "OR"
  },
  {
    "city": "monmouth",
    "state_code": "OR",
    "placeMasterId": "P02500000FsoGPWyLniuKdCm8rC5NeI4zJ1aZoBd",
    "placeName": "monmouth",
    "state": "OR"
  },
  {
    "city": "coquille",
    "state_code": "OR",
    "placeMasterId": "P02500000FsoGOX30Zwrpp03vEVfSGrYQ3rsOeFF",
    "placeName": "coquille",
    "state": "OR"
  },
  {
    "city": "yoncalla",
    "state_code": "OR",
    "placeMasterId": "P02500000FsoGQO3DQ6N2koFBg49t7ER39zw7H9s",
    "placeName": "yoncalla",
    "state": "OR"
  },
  {
    "city": "bonanza",
    "state_code": "OR",
    "placeMasterId": "P02500000FsoGOOCWyYI38OokQhK2MN4XQlhJ1Hc",
    "placeName": "bonanza",
    "state": "OR"
  },
  {
    "city": "silver lake",
    "state_code": "OR",
    "placeMasterId": "P02500000FsoGPxVmbudgh0VfGd7dNlK7bvN6iaQ",
    "placeName": "silver lake",
    "state": "OR"
  },
  {
    "city": "burns",
    "state_code": "OR",
    "placeMasterId": "P02500000FsoGOOCWyYI38OokQhK2MN5nXa3gtsU",
    "placeName": "burns",
    "state": "OR"
  },
  {
    "city": "hines",
    "state_code": "OR",
    "placeMasterId": "P02500000FsoGOxaRO8bBsnnRdwhi0KnzcUHGm10",
    "placeName": "hines",
    "state": "OR"
  },
  {
    "city": "enterprise",
    "state_code": "OR",
    "placeMasterId": "P02500000FsoGOojxmk1PCCYGq8MI5qFwoy4ZBsl",
    "placeName": "enterprise",
    "state": "OR"
  },
  {
    "city": "lexington",
    "state_code": "OR",
    "placeMasterId": "P02500000FsoGPFHOavklG0HnFZOXpJMFg5zifpN",
    "placeName": "lexington",
    "state": "OR"
  },
  {
    "city": "monument",
    "state_code": "OR",
    "placeMasterId": "P02500000FsoGPWyLniuKdCm8rC5NeI6wCe6yeUg",
    "placeName": "monument",
    "state": "OR"
  },
  {
    "city": "kent",
    "state_code": "WA",
    "placeMasterId": "P02500000FsoGzd79P0w0TBhE7dU7AE8vavLnglK",
    "placeName": "kent",
    "state": "WA"
  },
  {
    "city": "kirkland",
    "state_code": "WA",
    "placeMasterId": "P02500000FsoGzd79P0w0TBhE7dU7AEEpNa31OT5",
    "placeName": "kirkland",
    "state": "WA"
  },
  {
    "city": "seattle",
    "state_code": "WA",
    "placeMasterId": "P02500000FsoH13ZvQyhrLC8y9kwIH7vOQ9mB44J",
    "placeName": "seattle",
    "state": "WA"
  },
  {
    "city": "seattle",
    "state_code": "WA",
    "placeMasterId": "P02500000FsoH13ZvQyhrLC8y9kwIH7vOQ9mB44J",
    "placeName": "seattle",
    "state": "WA"
  },
  {
    "city": "bremerton",
    "state_code": "WA",
    "placeMasterId": "P02500000FsoGyULKZqJiyNjph8ilsJ86UsuhgwD",
    "placeName": "bremerton",
    "state": "WA"
  },
  {
    "city": "graham",
    "state_code": "WA",
    "placeMasterId": "P02500000FsoGzLQCCDmR5zCsW0nHLFOe38BDJv2",
    "placeName": "graham",
    "state": "WA"
  },
  {
    "city": "keyport",
    "state_code": "WA",
    "placeMasterId": "P02500000FsoGzlxd0PVn9mwOvRpX4iUjo28R0V3",
    "placeName": "keyport",
    "state": "WA"
  },
  {
    "city": "puyallup",
    "state_code": "WA",
    "placeMasterId": "P02500000FsoH0ujRpa84eatnLwasMdN1YTtCRxU",
    "placeName": "puyallup",
    "state": "WA"
  },
  {
    "city": "taft",
    "state_code": "CA",
    "placeMasterId": "P02500000FsoElMwTvte4f5XNbmk9HY9owQYtpup",
    "placeName": "taft",
    "state": "CA"
  },
  {
    "city": "los alamos",
    "state_code": "CA",
    "placeMasterId": "P02500000FsoEiEJyfAwnXs9Xvv8xElwoHhIoAzu",
    "placeName": "los alamos",
    "state": "CA"
  },
  {
    "city": "independence",
    "state_code": "CA",
    "placeMasterId": "P02500000FsoEhEOdROuIjfRKJEj1rLM1C9vfaP8",
    "placeName": "independence",
    "state": "CA"
  },
  {
    "city": "ridgecrest",
    "state_code": "CA",
    "placeMasterId": "P02500000FsoEkEAf6j1nAHZzBHynzd9yVCv5YA2",
    "placeName": "ridgecrest",
    "state": "CA"
  },
  {
    "city": "soledad",
    "state_code": "CA",
    "placeMasterId": "P02500000FsoEl5FWj6UVHt320A3JSZQbAMYD1Ui",
    "placeName": "soledad",
    "state": "CA"
  },
  {
    "city": "loma mar",
    "state_code": "CA",
    "placeMasterId": "P02500000FsoEi5TV3mN0rGuN86nXKHcM09QCAsL",
    "placeName": "loma mar",
    "state": "CA"
  },
  {
    "city": "menlo park",
    "state_code": "CA",
    "placeMasterId": "P02500000FsoEierPTMg9bft4LMBCyF4yCvWVbfT",
    "placeName": "menlo park",
    "state": "CA"
  },
  {
    "city": "pescadero",
    "state_code": "CA",
    "placeMasterId": "P02500000FsoEjemkh8iePsbHy2b8LffeqScjjWb",
    "placeName": "pescadero",
    "state": "CA"
  },
  {
    "city": "san francisco",
    "state_code": "CA",
    "placeMasterId": "P02500000FsoEkVrcJWBMXU4KmufdobtfKVREvsP",
    "placeName": "san francisco",
    "state": "CA"
  },
  {
    "city": "stanford",
    "state_code": "CA",
    "placeMasterId": "P02500000FsoElMwTvte4f5XNbmk9HY7XfaNqGlr",
    "placeName": "stanford",
    "state": "CA"
  },
  {
    "city": "steilacoom",
    "state_code": "WA",
    "placeMasterId": "P02500000FsoH1LGsdlrQiOdJlNd866RDv5ZLkZq",
    "placeName": "steilacoom",
    "state": "WA"
  },
  {
    "city": "sumner",
    "state_code": "WA",
    "placeMasterId": "P02500000FsoH1LGsdlrQiOdJlNd866YEbQ8WuDX",
    "placeName": "sumner",
    "state": "WA"
  },
  {
    "city": "tacoma",
    "state_code": "WA",
    "placeMasterId": "P02500000FsoH1LGsdlrQiOdJlNd866Yu1WjXF5B",
    "placeName": "tacoma",
    "state": "WA"
  },
  {
    "city": "south bend",
    "state_code": "WA",
    "placeMasterId": "P02500000FsoH1CQP2NHe1nO8xZHiBcBMbq6FT9L",
    "placeName": "south bend",
    "state": "WA"
  },
  {
    "city": "lyle",
    "state_code": "WA",
    "placeMasterId": "P02500000FsoH03eaDCfMWzQkX4WMthCROp3Uddn",
    "placeName": "lyle",
    "state": "WA"
  },
  {
    "city": "trout lake",
    "state_code": "WA",
    "placeMasterId": "P02500000FsoH1U7MFARDOzsUZByY0avOcKmwUgx",
    "placeName": "trout lake",
    "state": "WA"
  },
  {
    "city": "vancouver",
    "state_code": "WA",
    "placeMasterId": "P02500000FsoH1cxpqZ105b7fN0Jxv5AzaVoQseW",
    "placeName": "vancouver",
    "state": "WA"
  },
  {
    "city": "rock island",
    "state_code": "WA",
    "placeMasterId": "P02500000FsoH13ZvQyhrLC8y9kwIH7ip41XpKsw",
    "placeName": "rock island",
    "state": "WA"
  },
  {
    "city": "easton",
    "state_code": "WA",
    "placeMasterId": "P02500000FsoGz3jEzQcrimiWuO6RWGc8nFPQvKX",
    "placeName": "easton",
    "state": "WA"
  },
  {
    "city": "lamont",
    "state_code": "WA",
    "placeMasterId": "P02500000FsoGzuo6bo5ZqOBZjGAwzCwXVSO9pSN",
    "placeName": "lamont",
    "state": "WA"
  },
  {
    "city": "colville",
    "state_code": "WA",
    "placeMasterId": "P02500000FsoGym2HmdTILaEBIlPbhHwXcKpkZdf",
    "placeName": "colville",
    "state": "WA"
  },
  {
    "city": "danville",
    "state_code": "WA",
    "placeMasterId": "P02500000FsoGyuslO2352BTM6Zl1bmD14LPbblQ",
    "placeName": "danville",
    "state": "WA"
  },
  {
    "city": "malden",
    "state_code": "WA",
    "placeMasterId": "P02500000FsoH03eaDCfMWzQkX4WMthEi5z2nhyy",
    "placeName": "malden",
    "state": "WA"
  },
  {
    "city": "richland",
    "state_code": "WA",
    "placeMasterId": "P02500000FsoH13ZvQyhrLC8y9kwIH7kACLbNRDz",
    "placeName": "richland",
    "state": "WA"
  },
  {
    "city": "royal city",
    "state_code": "WA",
    "placeMasterId": "P02500000FsoH13ZvQyhrLC8y9kwIH7pNy2XogpL",
    "placeName": "royal city",
    "state": "WA"
  },
  {
    "city": "pedro bay",
    "state_code": "AK",
    "placeMasterId": "P02500000FsoEXF9DDeVKdcJ84OXm53ODUeXNzUX",
    "placeName": "pedro bay",
    "state": "AK"
  },
  {
    "city": "port alsworth",
    "state_code": "AK",
    "placeMasterId": "P02500000FsoEXNzgp357KDYIsCtBzXkAta4itnM",
    "placeName": "port alsworth",
    "state": "AK"
  },
  {
    "city": "trapper creek",
    "state_code": "AK",
    "placeMasterId": "P02500000FsoEXoX7dEoTO1HpHdvRj0rLRwG11Yp",
    "placeName": "trapper creek",
    "state": "AK"
  },
  {
    "city": "unalaska",
    "state_code": "AK",
    "placeMasterId": "P02500000FsoEXoX7dEoTO1HpHdvRj0svoEO4jxO",
    "placeName": "unalaska",
    "state": "AK"
  },
  {
    "city": "eielson afb",
    "state_code": "AK",
    "placeMasterId": "P02500000FsoEWO4LbH2cW0q5FWTGc7B4ySGk860",
    "placeName": "eielson afb",
    "state": "AK"
  },
  {
    "city": "tanacross",
    "state_code": "AK",
    "placeMasterId": "P02500000FsoEXoX7dEoTO1HpHdvRj0qRdSMJj8B",
    "placeName": "tanacross",
    "state": "AK"
  },
  {
    "city": "klawock",
    "state_code": "AK",
    "placeMasterId": "P02500000FsoEWxSG0rLlGPomSlqwG4c5GhzdBI1",
    "placeName": "klawock",
    "state": "AK"
  },
  {
    "city": "macon",
    "state_code": "GA",
    "placeMasterId": "P02500000FsoExUt4Cahp49LBto6fjBgwFvKC0bb",
    "placeName": "macon",
    "state": "GA"
  },
  {
    "city": "riceboro",
    "state_code": "GA",
    "placeMasterId": "P02500000FsoEyD7SDZakV9Z3urplHdYZtLLqpC2",
    "placeName": "riceboro",
    "state": "GA"
  },
  {
    "city": "enigma",
    "state_code": "GA",
    "placeMasterId": "P02500000FsoEwdoCaDF6wXs94w2AGFTXsSMRVYR",
    "placeName": "enigma",
    "state": "GA"
  },
  {
    "city": "edgewater",
    "state_code": "FL",
    "placeMasterId": "P02500000FsoErDe3f9JGpiZWY4uHddLRMUJafDx",
    "placeName": "edgewater",
    "state": "FL"
  },
  {
    "city": "lady lake",
    "state_code": "FL",
    "placeMasterId": "P02500000FsoEsDZOsvLldvHkAlKD13yq94pIhp0",
    "placeName": "lady lake",
    "state": "FL"
  },
  {
    "city": "bristol",
    "state_code": "FL",
    "placeMasterId": "P02500000FsoEqMZC2lqYi76TjCpmAhADXWG0zfe",
    "placeName": "bristol",
    "state": "FL"
  },
  {
    "city": "carrabelle",
    "state_code": "FL",
    "placeMasterId": "P02500000FsoEqeG9FZ085JapKpWbzftWpGiB9pa",
    "placeName": "carrabelle",
    "state": "FL"
  },
  {
    "city": "campbellton",
    "state_code": "FL",
    "placeMasterId": "P02500000FsoEqeG9FZ085JapKpWbzftB5LyIXYY",
    "placeName": "campbellton",
    "state": "FL"
  },
  {
    "city": "gainesville",
    "state_code": "FL",
    "placeMasterId": "P02500000FsoErVL0rwSqCv3s9hb7Sc6QcwCAknl",
    "placeName": "gainesville",
    "state": "FL"
  },
  {
    "city": "gainesville",
    "state_code": "FL",
    "placeMasterId": "P02500000FsoErVL0rwSqCv3s9hb7Sc6QcwCAknl",
    "placeName": "gainesville",
    "state": "FL"
  },
  {
    "city": "micanopy",
    "state_code": "FL",
    "placeMasterId": "P02500000FsoEt4eGVIoTlWkmzdOiU0BbjsKLQRu",
    "placeName": "micanopy",
    "state": "FL"
  },
  {
    "city": "umatilla",
    "state_code": "FL",
    "placeMasterId": "P02500000FsoEudxW8fA7K8RhpZCJVOJOjjvLDOi",
    "placeName": "umatilla",
    "state": "FL"
  },
  {
    "city": "orlando",
    "state_code": "FL",
    "placeMasterId": "P02500000FsoEtVBhJUXppKUJP4QyDTHMDbz9uFq",
    "placeName": "orlando",
    "state": "FL"
  },
  {
    "city": "orlando",
    "state_code": "FL",
    "placeMasterId": "P02500000FsoEtVBhJUXppKUJP4QyDTHMDbz9uFq",
    "placeName": "orlando",
    "state": "FL"
  },
  {
    "city": "cocoa beach",
    "state_code": "FL",
    "placeMasterId": "P02500000FsoEqvx6SM9hSW5AwSDRoebWnl1QlKC",
    "placeName": "cocoa beach",
    "state": "FL"
  },
  {
    "city": "hialeah",
    "state_code": "FL",
    "placeMasterId": "P02500000FsoErvsRg8CCGinOZ8dNC5CWcpArNmA",
    "placeName": "hialeah",
    "state": "FL"
  },
  {
    "city": "hialeah",
    "state_code": "FL",
    "placeMasterId": "P02500000FsoErvsRg8CCGinOZ8dNC5CWcpArNmA",
    "placeName": "hialeah",
    "state": "FL"
  },
  {
    "city": "hollywood",
    "state_code": "FL",
    "placeMasterId": "P02500000FsoErvsRg8CCGinOZ8dNC5DYkbxOTEU",
    "placeName": "hollywood",
    "state": "FL"
  },
  {
    "city": "miami",
    "state_code": "FL",
    "placeMasterId": "P02500000FsoEsvnmtuEh4vVcBp3IZVnnnRh03zn",
    "placeName": "miami",
    "state": "FL"
  },
  {
    "city": "miami",
    "state_code": "FL",
    "placeMasterId": "P02500000FsoEsvnmtuEh4vVcBp3IZVnnnRh03zn",
    "placeName": "miami",
    "state": "FL"
  },
  {
    "city": "miami",
    "state_code": "FL",
    "placeMasterId": "P02500000FsoEsvnmtuEh4vVcBp3IZVnnnRh03zn",
    "placeName": "miami",
    "state": "FL"
  },
  {
    "city": "fort lauderdale",
    "state_code": "FL",
    "placeMasterId": "P02500000FsoErVL0rwSqCv3s9hb7Sc4XvAWhbEe",
    "placeName": "fort lauderdale",
    "state": "FL"
  },
  {
    "city": "west palm beach",
    "state_code": "FL",
    "placeMasterId": "P02500000FsoEuveTLSJghKw3RBt9KN3fVhs2PCt",
    "placeName": "west palm beach",
    "state": "FL"
  },
  {
    "city": "west palm beach",
    "state_code": "FL",
    "placeMasterId": "P02500000FsoEuveTLSJghKw3RBt9KN3fVhs2PCt",
    "placeName": "west palm beach",
    "state": "FL"
  },
  {
    "city": "boynton beach",
    "state_code": "FL",
    "placeMasterId": "P02500000FsoEqVPfeAQLOiLeX1BC5BTmvRaDTr1",
    "placeName": "boynton beach",
    "state": "FL"
  },
  {
    "city": "boca raton",
    "state_code": "FL",
    "placeMasterId": "P02500000FsoEqVPfeAQLOiLeX1BC5BUmAvSIYfv",
    "placeName": "boca raton",
    "state": "FL"
  },
  {
    "city": "delray beach",
    "state_code": "FL",
    "placeMasterId": "P02500000FsoEqvx6SM9hSW5AwSDRoedShzoxbKs",
    "placeName": "delray beach",
    "state": "FL"
  },
  {
    "city": "dade city",
    "state_code": "FL",
    "placeMasterId": "P02500000FsoEr4na3kjU97KLkGYrj8xyJOjvhTh",
    "placeName": "dade city",
    "state": "FL"
  },
  {
    "city": "plant city",
    "state_code": "FL",
    "placeMasterId": "P02500000FsoEtmseWHhPCWyf0h7o2S4rYK3jZeq",
    "placeName": "plant city",
    "state": "FL"
  },
  {
    "city": "lakeland",
    "state_code": "FL",
    "placeMasterId": "P02500000FsoEsMPsUJvYKWWuyZfcvYKMAG7ePey",
    "placeName": "lakeland",
    "state": "FL"
  },
  {
    "city": "davenport",
    "state_code": "FL",
    "placeMasterId": "P02500000FsoEqvx6SM9hSW5AwSDRoebvw0kQDxT",
    "placeName": "davenport",
    "state": "FL"
  },
  {
    "city": "waverly",
    "state_code": "FL",
    "placeMasterId": "P02500000FsoEv4UwwqtTNwBEF0EZErN4ZChwNc3",
    "placeName": "waverly",
    "state": "FL"
  },
  {
    "city": "fort myers",
    "state_code": "FL",
    "placeMasterId": "P02500000FsoErMUXGXt3WJohLtFhY7lIEW7YWt0",
    "placeName": "fort myers",
    "state": "FL"
  },
  {
    "city": "bokeelia",
    "state_code": "FL",
    "placeMasterId": "P02500000FsoEqMZC2lqYi76TjCpmAh9TlpyIzc6",
    "placeName": "bokeelia",
    "state": "FL"
  },
  {
    "city": "sanibel",
    "state_code": "FL",
    "placeMasterId": "P02500000FsoEu4Zbj4qyZjT0cJodrQqPcPM9z5Q",
    "placeName": "sanibel",
    "state": "FL"
  },
  {
    "city": "fort myers",
    "state_code": "FL",
    "placeMasterId": "P02500000FsoErMUXGXt3WJohLtFhY7lIEW7YWt0",
    "placeName": "fort myers",
    "state": "FL"
  },
  {
    "city": "bradenton",
    "state_code": "FL",
    "placeMasterId": "P02500000FsoEqVPfeAQLOiLeX1BC5BUGpFKoSYy",
    "placeName": "bradenton",
    "state": "FL"
  },
  {
    "city": "englewood",
    "state_code": "FL",
    "placeMasterId": "P02500000FsoErDe3f9JGpiZWY4uHddMUcQowGUm",
    "placeName": "englewood",
    "state": "FL"
  },
  {
    "city": "north port",
    "state_code": "FL",
    "placeMasterId": "P02500000FsoEtDUk6hOGS7zxnRk8OUaiDW51aDQ",
    "placeName": "north port",
    "state": "FL"
  },
  {
    "city": "hernando",
    "state_code": "FL",
    "placeMasterId": "P02500000FsoErn1y4jcPa7YDlKHxHar73ms1L8T",
    "placeName": "hernando",
    "state": "FL"
  },
  {
    "city": "homosassa",
    "state_code": "FL",
    "placeMasterId": "P02500000FsoErvsRg8CCGinOZ8dNC5EfJ7lhWOY",
    "placeName": "homosassa",
    "state": "FL"
  },
  {
    "city": "ocala",
    "state_code": "FL",
    "placeMasterId": "P02500000FsoEtMLDi5y38jF8bG5YIyvCqOZlLNH",
    "placeName": "ocala",
    "state": "FL"
  },
  {
    "city": "kissimmee",
    "state_code": "FL",
    "placeMasterId": "P02500000FsoEsDZOsvLldvHkAlKD13zx5ZMuxgh",
    "placeName": "kissimmee",
    "state": "FL"
  },
  {
    "city": "bon air",
    "state_code": "AL",
    "placeMasterId": "P02500000FsoESxkt7lBm1axty2BEkMCcU4A1j5p",
    "placeName": "bon air",
    "state": "AL"
  },
  {
    "city": "clanton",
    "state_code": "AL",
    "placeMasterId": "P02500000FsoET6bMj9lYiCD4lqWeeqe9eQgOJyU",
    "placeName": "clanton",
    "state": "AL"
  },
  {
    "city": "garden city",
    "state_code": "AL",
    "placeMasterId": "P02500000FsoETfzH8k4hSbBlz5uKIo3Bz6vWNo1",
    "placeName": "garden city",
    "state": "AL"
  },
  {
    "city": "springville",
    "state_code": "AL",
    "placeMasterId": "P02500000FsoEVWzTytZuOPN2QeOl9At4PWdbN7Y",
    "placeName": "springville",
    "state": "AL"
  },
  {
    "city": "west blocton",
    "state_code": "AL",
    "placeMasterId": "P02500000FsoEVogRBgjTlbrO2H5ay9gY0TAMsRY",
    "placeName": "west blocton",
    "state": "AL"
  },
  {
    "city": "wilsonville",
    "state_code": "AL",
    "placeMasterId": "P02500000FsoEVxWun5JGSD6Yq5R0sdzaDocFr0P",
    "placeName": "wilsonville",
    "state": "AL"
  },
  {
    "city": "birmingham",
    "state_code": "AL",
    "placeMasterId": "P02500000FsoESouPWMbzKzijADpoprrGKsxshig",
    "placeName": "birmingham",
    "state": "AL"
  },
  {
    "city": "birmingham",
    "state_code": "AL",
    "placeMasterId": "P02500000FsoESouPWMbzKzijADpoprrGKsxshig",
    "placeName": "birmingham",
    "state": "AL"
  },
  {
    "city": "birmingham",
    "state_code": "AL",
    "placeMasterId": "P02500000FsoESouPWMbzKzijADpoprrGKsxshig",
    "placeName": "birmingham",
    "state": "AL"
  },
  {
    "city": "panola",
    "state_code": "AL",
    "placeMasterId": "P02500000FsoEUxbZZJGle0OLDP15VDRCeKxlo7q",
    "placeName": "panola",
    "state": "AL"
  },
  {
    "city": "nauvoo",
    "state_code": "AL",
    "placeMasterId": "P02500000FsoEUol5xugyxP9APaffaj1Me6VGh7L",
    "placeName": "nauvoo",
    "state": "AL"
  },
  {
    "city": "anderson",
    "state_code": "AL",
    "placeMasterId": "P02500000FsoESg3vuy2CeOTYMPUOvNWxLLIOWyo",
    "placeName": "anderson",
    "state": "AL"
  },
  {
    "city": "falkville",
    "state_code": "AL",
    "placeMasterId": "P02500000FsoETX8nXLUulzwbBHYuOJhhHigHR7J",
    "placeName": "falkville",
    "state": "AL"
  },
  {
    "city": "gadsden",
    "state_code": "AL",
    "placeMasterId": "P02500000FsoETfzH8k4hSbBlz5uKIo6YFvxq7aX",
    "placeName": "gadsden",
    "state": "AL"
  },
  {
    "city": "boaz",
    "state_code": "AL",
    "placeMasterId": "P02500000FsoESouPWMbzKzijADpoprtts5LLERw",
    "placeName": "boaz",
    "state": "AL"
  },
  {
    "city": "cedar bluff",
    "state_code": "AL",
    "placeMasterId": "P02500000FsoESxkt7lBm1axty2BEkMExz0oqLhd",
    "placeName": "cedar bluff",
    "state": "AL"
  },
  {
    "city": "clayton",
    "state_code": "AL",
    "placeMasterId": "P02500000FsoET6bMj9lYiCD4lqWeeqaL8XrppPg",
    "placeName": "clayton",
    "state": "AL"
  },
  {
    "city": "montgomery",
    "state_code": "AL",
    "placeMasterId": "P02500000FsoEUX48l7XPaCeonxyplkMDm5NRSjd",
    "placeName": "montgomery",
    "state": "AL"
  },
  {
    "city": "alexandria",
    "state_code": "AL",
    "placeMasterId": "P02500000FsoESg3vuy2CeOTYMPUOvNSV3kJ4crB",
    "placeName": "alexandria",
    "state": "AL"
  },
  {
    "city": "jacksonville",
    "state_code": "AL",
    "placeMasterId": "P02500000FsoEU6Whwvo3WOvIOWwa2HEbZzY0JPE",
    "placeName": "jacksonville",
    "state": "AL"
  },
  {
    "city": "cowarts",
    "state_code": "AL",
    "placeMasterId": "P02500000FsoETFRqKYLLOnSFZes4ZKwGqqgeSa3",
    "placeName": "cowarts",
    "state": "AL"
  },
  {
    "city": "webb",
    "state_code": "AL",
    "placeMasterId": "P02500000FsoEVogRBgjTlbrO2H5ay9dtBS76wL4",
    "placeName": "webb",
    "state": "AL"
  },
  {
    "city": "monroeville",
    "state_code": "AL",
    "placeMasterId": "P02500000FsoEUX48l7XPaCeonxyplkMG4UsD9Qs",
    "placeName": "monroeville",
    "state": "AL"
  },
  {
    "city": "foley",
    "state_code": "AL",
    "placeMasterId": "P02500000FsoETX8nXLUulzwbBHYuOJipo0ChSD5",
    "placeName": "foley",
    "state": "AL"
  },
  {
    "city": "camden",
    "state_code": "AL",
    "placeMasterId": "P02500000FsoESxkt7lBm1axty2BEkMDsUSSMiOu",
    "placeName": "camden",
    "state": "AL"
  },
  {
    "city": "myrtlewood",
    "state_code": "AL",
    "placeMasterId": "P02500000FsoEUfucMW7CGntzbmKFgEf6ZIK5UTd",
    "placeName": "myrtlewood",
    "state": "AL"
  },
  {
    "city": "oak hill",
    "state_code": "AL",
    "placeMasterId": "P02500000FsoEUol5xugyxP9APaffaj4VmWrl7Jk",
    "placeName": "oak hill",
    "state": "AL"
  },
  {
    "city": "camp hill",
    "state_code": "AL",
    "placeMasterId": "P02500000FsoESxkt7lBm1axty2BEkMDZvxTEc5O",
    "placeName": "camp hill",
    "state": "AL"
  },
  {
    "city": "phenix city",
    "state_code": "AL",
    "placeMasterId": "P02500000FsoEUxbZZJGle0OLDP15VDUgI6E33CT",
    "placeName": "phenix city",
    "state": "AL"
  },
  {
    "city": "lisman",
    "state_code": "AL",
    "placeMasterId": "P02500000FsoEUFNBYKNqD0ATCLHzwlawGzYHLa2",
    "placeName": "lisman",
    "state": "AL"
  },
  {
    "city": "jasper",
    "state_code": "TN",
    "placeMasterId": "P02500000FsoGgnO7mgkLltOE4RswtZ5FYy5WLak",
    "placeName": "jasper",
    "state": "TN"
  },
  {
    "city": "chattanooga",
    "state_code": "TN",
    "placeMasterId": "P02500000FsoGg59jlhrQKtAM3O9rL7CHHcMaKbF",
    "placeName": "chattanooga",
    "state": "TN"
  },
  {
    "city": "clinton",
    "state_code": "TN",
    "placeMasterId": "P02500000FsoGgE0DN6RD1UPWrCVHFbVhig6eS88",
    "placeName": "clinton",
    "state": "TN"
  },
  {
    "city": "mascot",
    "state_code": "TN",
    "placeMasterId": "P02500000FsoGh554zTtv95sZg4ZmiXlrovBleRA",
    "placeName": "mascot",
    "state": "TN"
  },
  {
    "city": "knoxville",
    "state_code": "TN",
    "placeMasterId": "P02500000FsoGgwEbO5K8SUdOsGEMo3NrnN3KYab",
    "placeName": "knoxville",
    "state": "TN"
  },
  {
    "city": "hickory valley",
    "state_code": "TN",
    "placeMasterId": "P02500000FsoGgnO7mgkLltOE4RswtZ2PrA9jNIn",
    "placeName": "hickory valley",
    "state": "TN"
  },
  {
    "city": "puryear",
    "state_code": "TN",
    "placeMasterId": "P02500000FsoGhVcVnfdHCtc65Vc2S18t5arKgLL",
    "placeName": "puryear",
    "state": "TN"
  },
  {
    "city": "bradford",
    "state_code": "TN",
    "placeMasterId": "P02500000FsoGfwJGAJHdeHvBFZoRQcwIh0PMxwG",
    "placeName": "bradford",
    "state": "TN"
  },
  {
    "city": "enville",
    "state_code": "TN",
    "placeMasterId": "P02500000FsoGgMqgyV0zi5ehf0qhA66JjyBFP2k",
    "placeName": "enville",
    "state": "TN"
  },
  {
    "city": "minor hill",
    "state_code": "TN",
    "placeMasterId": "P02500000FsoGhDvYasThph7kTsvCd2Ho2N15hO8",
    "placeName": "minor hill",
    "state": "TN"
  },
  {
    "city": "hernando",
    "state_code": "MS",
    "placeMasterId": "P02500000FsoFhIaKopytcyu7nSzpCR0JEWqDpl8",
    "placeName": "hernando",
    "state": "MS"
  },
  {
    "city": "inverness",
    "state_code": "MS",
    "placeMasterId": "P02500000FsoFhRQoQEYgJa9IbHLF6vKL0NC31Ms",
    "placeName": "inverness",
    "state": "MS"
  },
  {
    "city": "isola",
    "state_code": "MS",
    "placeMasterId": "P02500000FsoFhRQoQEYgJa9IbHLF6vNOf5Qp8Vk",
    "placeName": "isola",
    "state": "MS"
  },
  {
    "city": "tupelo",
    "state_code": "MS",
    "placeMasterId": "P02500000FsoFiIVg2c1ORBcLQ9PkZreoJ4UQWQv",
    "placeName": "tupelo",
    "state": "MS"
  },
  {
    "city": "thaxton",
    "state_code": "MS",
    "placeMasterId": "P02500000FsoFiRM9e0bB7mrWDxlAULsLZf1KdlY",
    "placeName": "thaxton",
    "state": "MS"
  },
  {
    "city": "vardaman",
    "state_code": "MS",
    "placeMasterId": "P02500000FsoFiaCdFPAxoO6h1m6aOqELdeST3el",
    "placeName": "vardaman",
    "state": "MS"
  },
  {
    "city": "tutwiler",
    "state_code": "MS",
    "placeMasterId": "P02500000FsoFiIVg2c1ORBcLQ9PkZreGhQoXWZR",
    "placeName": "tutwiler",
    "state": "MS"
  },
  {
    "city": "flora",
    "state_code": "MS",
    "placeMasterId": "P02500000FsoFh9jrDRP6wNewzeePHwXB04eHi6y",
    "placeName": "flora",
    "state": "MS"
  },
  {
    "city": "mount olive",
    "state_code": "MS",
    "placeMasterId": "P02500000FsoFhj7ld1iFgmdeCu24vu6ruowsPaq",
    "placeName": "mount olive",
    "state": "MS"
  },
  {
    "city": "sebastopol",
    "state_code": "MS",
    "placeMasterId": "P02500000FsoFi9fCRDRbkaNAcL4KfNA6Wi6jP8Z",
    "placeName": "sebastopol",
    "state": "MS"
  },
  {
    "city": "crawford",
    "state_code": "MS",
    "placeMasterId": "P02500000FsoFgs2u0eFXZBAbO1xZSy2oeNiMgfF",
    "placeName": "crawford",
    "state": "MS"
  },
  {
    "city": "weir",
    "state_code": "MS",
    "placeMasterId": "P02500000FsoFiaCdFPAxoO6h1m6aOqLcE0j8qWy",
    "placeName": "weir",
    "state": "MS"
  },
  {
    "city": "louisville",
    "state_code": "KY",
    "placeMasterId": "P02500000FsoFOkYGPIwoIt5TLu5UkkhkzCsPo64",
    "placeName": "louisville",
    "state": "KY"
  },
  {
    "city": "mount sterling",
    "state_code": "KY",
    "placeMasterId": "P02500000FsoFP2FDc66Ng5ZoxWmKZjTiv9bSD7S",
    "placeName": "mount sterling",
    "state": "KY"
  },
  {
    "city": "mckee",
    "state_code": "KY",
    "placeMasterId": "P02500000FsoFOkYGPIwoIt5TLu5UkknEpvAMFVT",
    "placeName": "mckee",
    "state": "KY"
  },
  {
    "city": "carrollton",
    "state_code": "KY",
    "placeMasterId": "P02500000FsoFNSvxyjkk7Tsu7ayjYLJjh2tMcoI",
    "placeName": "carrollton",
    "state": "KY"
  },
  {
    "city": "maysville",
    "state_code": "KY",
    "placeMasterId": "P02500000FsoFOtOk0hWazUKe9iQufF34ULFfBaE",
    "placeName": "maysville",
    "state": "KY"
  },
  {
    "city": "garrison",
    "state_code": "KY",
    "placeMasterId": "P02500000FsoFO2JsOK3srsrbKqMPCIq1yX2QtkR",
    "placeName": "garrison",
    "state": "KY"
  },
  {
    "city": "hazel green",
    "state_code": "KY",
    "placeMasterId": "P02500000FsoFOK0pb7DSF5LwwT3F1HabIC29cUW",
    "placeName": "hazel green",
    "state": "KY"
  },
  {
    "city": "la center",
    "state_code": "KY",
    "placeMasterId": "P02500000FsoFObhmnuN1cHqIY5k4qGR0ivQIvH4",
    "placeName": "la center",
    "state": "KY"
  },
  {
    "city": "bowling green",
    "state_code": "KY",
    "placeMasterId": "P02500000FsoFNK5UNLAxQsdjJmdJdqvjbCdesEP",
    "placeName": "bowling green",
    "state": "KY"
  },
  {
    "city": "trenton",
    "state_code": "KY",
    "placeMasterId": "P02500000FsoFPkTbd4zJ75ngyaVQ8BSXI3HaaOa",
    "placeName": "trenton",
    "state": "KY"
  },
  {
    "city": "hodgenville",
    "state_code": "KY",
    "placeMasterId": "P02500000FsoFOK0pb7DSF5LwwT3F1HdUFuQjUfH",
    "placeName": "hodgenville",
    "state": "KY"
  },
  {
    "city": "columbus",
    "state_code": "OH",
    "placeMasterId": "P02500000FsoGDyPfwc9iyXx1mQ6Wqc0NMzPNh3d",
    "placeName": "columbus",
    "state": "OH"
  },
  {
    "city": "columbus",
    "state_code": "OH",
    "placeMasterId": "P02500000FsoGDyPfwc9iyXx1mQ6Wqc0NMzPNh3d",
    "placeName": "columbus",
    "state": "OH"
  },
  {
    "city": "ridgeway",
    "state_code": "OH",
    "placeMasterId": "P02500000FsoGHy72piJiDMnuH9mEMKaUXjpcCLq",
    "placeName": "ridgeway",
    "state": "OH"
  },
  {
    "city": "belle valley",
    "state_code": "OH",
    "placeMasterId": "P02500000FsoGCyUKiq7EALEo9jgbTBWr3BAbK25",
    "placeName": "belle valley",
    "state": "OH"
  },
  {
    "city": "duncan falls",
    "state_code": "OH",
    "placeMasterId": "P02500000FsoGEG6d9PJILkRNO2nMfaumD2pweye",
    "placeName": "duncan falls",
    "state": "OH"
  },
  {
    "city": "amsterdam",
    "state_code": "OH",
    "placeMasterId": "P02500000FsoGCgnNW2xen8kSY6zleCl8XCoCWYa",
    "placeName": "amsterdam",
    "state": "OH"
  },
  {
    "city": "conneaut",
    "state_code": "OH",
    "placeMasterId": "P02500000FsoGDyPfwc9iyXx1mQ6Wqbw4Omjmpr7",
    "placeName": "conneaut",
    "state": "OH"
  },
  {
    "city": "elyria",
    "state_code": "OH",
    "placeMasterId": "P02500000FsoGEOx6knt52LgYBr8ma5FQiDHkhHN",
    "placeName": "elyria",
    "state": "OH"
  },
  {
    "city": "cleveland",
    "state_code": "OH",
    "placeMasterId": "P02500000FsoGDpZCLDZwHwhqybl6w7hFiW8c2lu",
    "placeName": "cleveland",
    "state": "OH"
  },
  {
    "city": "clinton",
    "state_code": "OH",
    "placeMasterId": "P02500000FsoGDpZCLDZwHwhqybl6w7lQMsObSQt",
    "placeName": "clinton",
    "state": "OH"
  },
  {
    "city": "akron",
    "state_code": "OH",
    "placeMasterId": "P02500000FsoGCXwtueNs6XVHkIeLjiMh8uljxTa",
    "placeName": "akron",
    "state": "OH"
  },
  {
    "city": "east palestine",
    "state_code": "OH",
    "placeMasterId": "P02500000FsoGEOx6knt52LgYBr8ma58g9QBaSGy",
    "placeName": "east palestine",
    "state": "OH"
  },
  {
    "city": "dover",
    "state_code": "OH",
    "placeMasterId": "P02500000FsoGEG6d9PJILkRNO2nMfajtyfnWHVM",
    "placeName": "dover",
    "state": "OH"
  },
  {
    "city": "canton",
    "state_code": "OH",
    "placeMasterId": "P02500000FsoGDXsF8QQMukDVMz4H790las5R4Gr",
    "placeName": "canton",
    "state": "OH"
  },
  {
    "city": "flat rock",
    "state_code": "OH",
    "placeMasterId": "P02500000FsoGEXnaMCSriwvizfUCUZboi68T69X",
    "placeName": "flat rock",
    "state": "OH"
  },
  {
    "city": "monroe",
    "state_code": "OH",
    "placeMasterId": "P02500000FsoGGgUkP97e1xbL2qfT9v6GaXMeyKW",
    "placeName": "monroe",
    "state": "OH"
  },
  {
    "city": "cincinnati",
    "state_code": "OH",
    "placeMasterId": "P02500000FsoGDpZCLDZwHwhqybl6w7e8Lps6H4x",
    "placeName": "cincinnati",
    "state": "OH"
  },
  {
    "city": "cincinnati",
    "state_code": "OH",
    "placeMasterId": "P02500000FsoGDpZCLDZwHwhqybl6w7e8Lps6H4x",
    "placeName": "cincinnati",
    "state": "OH"
  },
  {
    "city": "covington",
    "state_code": "OH",
    "placeMasterId": "P02500000FsoGDyPfwc9iyXx1mQ6Wqc6VzHYOlJP",
    "placeName": "covington",
    "state": "OH"
  },
  {
    "city": "tipp city",
    "state_code": "OH",
    "placeMasterId": "P02500000FsoGIy2O3UMD1ZW7tqC9jl1heWSvVXE",
    "placeName": "tipp city",
    "state": "OH"
  },
  {
    "city": "dayton",
    "state_code": "OH",
    "placeMasterId": "P02500000FsoGE7G9Y0jVf9CCaERwl6OdIDcWstb",
    "placeName": "dayton",
    "state": "OH"
  },
  {
    "city": "beaver",
    "state_code": "OH",
    "placeMasterId": "P02500000FsoGCyUKiq7EALEo9jgbTBPtIAs9JTV",
    "placeName": "beaver",
    "state": "OH"
  },
  {
    "city": "hamden",
    "state_code": "OH",
    "placeMasterId": "P02500000FsoGEyL1AOCDmkfFP6WSE2jgyjnvyrb",
    "placeName": "hamden",
    "state": "OH"
  },
  {
    "city": "lower salem",
    "state_code": "OH",
    "placeMasterId": "P02500000FsoGG76pzYoVHYcdpbHnVxgEiVL15AO",
    "placeName": "lower salem",
    "state": "OH"
  },
  {
    "city": "rutland",
    "state_code": "OH",
    "placeMasterId": "P02500000FsoGIFo02VTHaZIFsmT4BJ7oIOhAQv4",
    "placeName": "rutland",
    "state": "OH"
  },
  {
    "city": "delphos",
    "state_code": "OH",
    "placeMasterId": "P02500000FsoGE7G9Y0jVf9CCaERwl6Zs7MzYNvu",
    "placeName": "delphos",
    "state": "OH"
  },
  {
    "city": "alexandria",
    "state_code": "IN",
    "placeMasterId": "P02500000FsoF93Rk3hSQioAIya5WWrl1mmyTzgv",
    "placeName": "alexandria",
    "state": "IN"
  },
  {
    "city": "milroy",
    "state_code": "IN",
    "placeMasterId": "P02500000FsoFBC8u6e7D1opv1lGnCDNnjffdTkC",
    "placeName": "milroy",
    "state": "IN"
  },
  {
    "city": "indianapolis",
    "state_code": "IN",
    "placeMasterId": "P02500000FsoFAckzh3o4HPrDoVt7YFuCi8MjR1V",
    "placeName": "indianapolis",
    "state": "IN"
  },
  {
    "city": "cedar lake",
    "state_code": "IN",
    "placeMasterId": "P02500000FsoF9TzArtBmmbtpO17mGKthMD6jdLY",
    "placeName": "cedar lake",
    "state": "IN"
  },
  {
    "city": "millersburg",
    "state_code": "IN",
    "placeMasterId": "P02500000FsoFBC8u6e7D1opv1lGnCDOkCON7JJX",
    "placeName": "millersburg",
    "state": "IN"
  },
  {
    "city": "ashley",
    "state_code": "IN",
    "placeMasterId": "P02500000FsoF9CIDf62DPPPTmOQwRMB2riIoZAI",
    "placeName": "ashley",
    "state": "IN"
  },
  {
    "city": "new haven",
    "state_code": "IN",
    "placeMasterId": "P02500000FsoFBTprJRGmP1KGdNxd1C4WwV0OWPo",
    "placeName": "new haven",
    "state": "IN"
  },
  {
    "city": "fort wayne",
    "state_code": "IN",
    "placeMasterId": "P02500000FsoFACDYss4iDc7hP4qromiuPZZ994H",
    "placeName": "fort wayne",
    "state": "IN"
  },
  {
    "city": "fort wayne",
    "state_code": "IN",
    "placeMasterId": "P02500000FsoFACDYss4iDc7hP4qromiuPZZ994H",
    "placeName": "fort wayne",
    "state": "IN"
  },
  {
    "city": "brookville",
    "state_code": "IN",
    "placeMasterId": "P02500000FsoF9L8hGUc060eeaCmMLqWkogeDnGw",
    "placeName": "brookville",
    "state": "IN"
  },
  {
    "city": "metamora",
    "state_code": "IN",
    "placeMasterId": "P02500000FsoFBC8u6e7D1opv1lGnCDMTrthqJoA",
    "placeName": "metamora",
    "state": "IN"
  },
  {
    "city": "greenville",
    "state_code": "IN",
    "placeMasterId": "P02500000FsoFAL42UGeUuDMsCtCHjH9SYkViiW8",
    "placeName": "greenville",
    "state": "IN"
  },
  {
    "city": "medora",
    "state_code": "IN",
    "placeMasterId": "P02500000FsoFB3IQVFXQLDakDwvNHiyUznZQg3e",
    "placeName": "medora",
    "state": "IN"
  },
  {
    "city": "muncie",
    "state_code": "IN",
    "placeMasterId": "P02500000FsoFBKzNi2gziQ55pZcD6hjHnegWN5v",
    "placeName": "muncie",
    "state": "IN"
  },
  {
    "city": "spiceland",
    "state_code": "IN",
    "placeMasterId": "P02500000FsoFCKuivojUWcnJSG28U8JGG6d4RYn",
    "placeName": "spiceland",
    "state": "IN"
  },
  {
    "city": "scotland",
    "state_code": "IN",
    "placeMasterId": "P02500000FsoFCC4FKQ9hq1Y8eRgiZdwaJEFUPVC",
    "placeName": "scotland",
    "state": "IN"
  },
  {
    "city": "holland",
    "state_code": "IN",
    "placeMasterId": "P02500000FsoFATuW5fEHaoc30hXhdlXzItJprL6",
    "placeName": "holland",
    "state": "IN"
  },
  {
    "city": "loogootee",
    "state_code": "IN",
    "placeMasterId": "P02500000FsoFAuRwtqxdecLZQ8ZxNEd6HhyxmmV",
    "placeName": "loogootee",
    "state": "IN"
  },
  {
    "city": "chrisney",
    "state_code": "IN",
    "placeMasterId": "P02500000FsoF9cpeTHlZTD90BpTCApFoFL5VPXt",
    "placeName": "chrisney",
    "state": "IN"
  },
  {
    "city": "elberfeld",
    "state_code": "IN",
    "placeMasterId": "P02500000FsoFA3N5HTUvX0sWbGVRuIMHRsWiQsj",
    "placeName": "elberfeld",
    "state": "IN"
  },
  {
    "city": "mount vernon",
    "state_code": "IN",
    "placeMasterId": "P02500000FsoFBKzNi2gziQ55pZcD6hkxPDPXK4e",
    "placeName": "mount vernon",
    "state": "IN"
  },
  {
    "city": "terre haute",
    "state_code": "IN",
    "placeMasterId": "P02500000FsoFCTlCXDJHDE2UG4NYOcfygXVyJsD",
    "placeName": "terre haute",
    "state": "IN"
  },
  {
    "city": "terre haute",
    "state_code": "IN",
    "placeMasterId": "P02500000FsoFCTlCXDJHDE2UG4NYOcfygXVyJsD",
    "placeName": "terre haute",
    "state": "IN"
  },
  {
    "city": "harmony",
    "state_code": "IN",
    "placeMasterId": "P02500000FsoFATuW5fEHaoc30hXhdlW0B7UHrcx",
    "placeName": "harmony",
    "state": "IN"
  },
  {
    "city": "brookston",
    "state_code": "IN",
    "placeMasterId": "P02500000FsoF9L8hGUc060eeaCmMLqWAihZfVmc",
    "placeName": "brookston",
    "state": "IN"
  },
  {
    "city": "monticello",
    "state_code": "IN",
    "placeMasterId": "P02500000FsoFBC8u6e7D1opv1lGnCDQ6YyyBRJV",
    "placeName": "monticello",
    "state": "IN"
  },
  {
    "city": "algonac",
    "state_code": "MI",
    "placeMasterId": "P02500000FsoFX1dxOIQM9jHZx07jbAJrxdDnh05",
    "placeName": "algonac",
    "state": "MI"
  },
  {
    "city": "lambertville",
    "state_code": "MI",
    "placeMasterId": "P02500000FsoFZAL7RF58SjxC0BJ0GVidWnGm2TM",
    "placeName": "lambertville",
    "state": "MI"
  },
  {
    "city": "livonia",
    "state_code": "MI",
    "placeMasterId": "P02500000FsoFZJBb2dev9LCMnzeQB0AWsH8JTiJ",
    "placeName": "livonia",
    "state": "MI"
  },
  {
    "city": "detroit",
    "state_code": "MI",
    "placeMasterId": "P02500000FsoFY1ZIc4SqxvznZgXeyauoH5nCTkI",
    "placeName": "detroit",
    "state": "MI"
  },
  {
    "city": "pontiac",
    "state_code": "MI",
    "placeMasterId": "P02500000FsoFa1Pz3cXqaLQEp3NVjS4gXnb0R9v",
    "placeName": "pontiac",
    "state": "MI"
  },
  {
    "city": "flushing",
    "state_code": "MI",
    "placeMasterId": "P02500000FsoFYS6jQGCD1jjJz7Zui3zMQ72Lvy3",
    "placeName": "flushing",
    "state": "MI"
  },
  {
    "city": "melvin",
    "state_code": "MI",
    "placeMasterId": "P02500000FsoFZasYFQoUWXgiPcLFzyq1hTlHh3g",
    "placeName": "melvin",
    "state": "MI"
  },
  {
    "city": "port hope",
    "state_code": "MI",
    "placeMasterId": "P02500000FsoFaAGSf17dGwfPcrivdwLxiiJ6XEE",
    "placeName": "port hope",
    "state": "MI"
  },
  {
    "city": "burton",
    "state_code": "MI",
    "placeMasterId": "P02500000FsoFXb1rnsjUu8GHAFVPF7pg6BzkNAm",
    "placeName": "burton",
    "state": "MI"
  },
  {
    "city": "merrill",
    "state_code": "MI",
    "placeMasterId": "P02500000FsoFZS24e2EhpwRXbnzq5UeGFDxaTSd",
    "placeName": "merrill",
    "state": "MI"
  },
  {
    "city": "bay port",
    "state_code": "MI",
    "placeMasterId": "P02500000FsoFXJKub5ZvWvlvYcoZQ8zhknk0RPJ",
    "placeName": "bay port",
    "state": "MI"
  },
  {
    "city": "long lake",
    "state_code": "MI",
    "placeMasterId": "P02500000FsoHl07fecYiacx4rEArerTKl7jAcQR",
    "placeName": "long lake",
    "state": "MI"
  },
  {
    "city": "fowler",
    "state_code": "MI",
    "placeMasterId": "P02500000FsoFYJGForcQL8U9BJEUnZgkciZNDF0",
    "placeName": "fowler",
    "state": "MI"
  },
  {
    "city": "ithaca",
    "state_code": "MI",
    "placeMasterId": "P02500000FsoFZ1UdpqVLm8i1CMxaM1Qt5HIBngq",
    "placeName": "ithaca",
    "state": "MI"
  },
  {
    "city": "mount pleasant",
    "state_code": "MI",
    "placeMasterId": "P02500000FsoFZjj1qpOHD8vtDQgfuTEHceaFQCt",
    "placeName": "mount pleasant",
    "state": "MI"
  },
  {
    "city": "lansing",
    "state_code": "MI",
    "placeMasterId": "P02500000FsoFZAL7RF58SjxC0BJ0GVtzoDUs0q2",
    "placeName": "lansing",
    "state": "MI"
  },
  {
    "city": "benton harbor",
    "state_code": "MI",
    "placeMasterId": "P02500000FsoFXSBOCU9iDX16MR9zKdHpJ2G0CCv",
    "placeName": "benton harbor",
    "state": "MI"
  },
  {
    "city": "bronson",
    "state_code": "MI",
    "placeMasterId": "P02500000FsoFXb1rnsjUu8GHAFVPF7iBMccsZRC",
    "placeName": "bronson",
    "state": "MI"
  },
  {
    "city": "sherwood",
    "state_code": "MI",
    "placeMasterId": "P02500000FsoFaRxProHCe99lEUPlSvAh7in4fgD",
    "placeName": "sherwood",
    "state": "MI"
  },
  {
    "city": "clayton",
    "state_code": "MI",
    "placeMasterId": "P02500000FsoFXsip0ft4HKkclsCF46PmcHDPomE",
    "placeName": "clayton",
    "state": "MI"
  },
  {
    "city": "freeport",
    "state_code": "MI",
    "placeMasterId": "P02500000FsoFYS6jQGCD1jjJz7Zui3xGaoJtgvP",
    "placeName": "freeport",
    "state": "MI"
  },
  {
    "city": "kent city",
    "state_code": "MI",
    "placeMasterId": "P02500000FsoFZ1UdpqVLm8i1CMxaM1aPSbAp8Oq",
    "placeName": "kent city",
    "state": "MI"
  },
  {
    "city": "paris",
    "state_code": "MI",
    "placeMasterId": "P02500000FsoHmHjy5Bkmm29e5XHcrGgBdb8BRGN",
    "placeName": "paris",
    "state": "MI"
  },
  {
    "city": "sand lake",
    "state_code": "MI",
    "placeMasterId": "P02500000FsoFaRxProHCe99lEUPlSvEKEDAa1v4",
    "placeName": "sand lake",
    "state": "MI"
  },
  {
    "city": "grand rapids",
    "state_code": "MI",
    "placeMasterId": "P02500000FsoFYaxD1elziKyUmvvKcYHhKO7uwq1",
    "placeName": "grand rapids",
    "state": "MI"
  },
  {
    "city": "grand rapids",
    "state_code": "MI",
    "placeMasterId": "P02500000FsoFYaxD1elziKyUmvvKcYHhKO7uwq1",
    "placeName": "grand rapids",
    "state": "MI"
  },
  {
    "city": "beulah",
    "state_code": "MI",
    "placeMasterId": "P02500000FsoFXSBOCU9iDX16MR9zKdHYQT7GXd5",
    "placeName": "beulah",
    "state": "MI"
  },
  {
    "city": "brutus",
    "state_code": "MI",
    "placeMasterId": "P02500000FsoFXb1rnsjUu8GHAFVPF7gWTsrQVLc",
    "placeName": "brutus",
    "state": "MI"
  },
  {
    "city": "hillman",
    "state_code": "MI",
    "placeMasterId": "P02500000FsoFYjngd3LmOwDfakGkX2iwUkzY2kr",
    "placeName": "hillman",
    "state": "MI"
  },
  {
    "city": "trout lake",
    "state_code": "MI",
    "placeMasterId": "P02500000FsoHniCk79Wde2bO7ejnyALqmRXPuPJ",
    "placeName": "trout lake",
    "state": "MI"
  },
  {
    "city": "wolverine",
    "state_code": "MI",
    "placeMasterId": "P02500000FsoFb1LKHOaLOY8SRjnR6sa5la32A0j",
    "placeName": "wolverine",
    "state": "MI"
  },
  {
    "city": "skandia",
    "state_code": "MI",
    "placeMasterId": "P02500000FsoHnHfJIxnHaErriDhYEhDe0ppIbuk",
    "placeName": "skandia",
    "state": "MI"
  },
  {
    "city": "iron river",
    "state_code": "MI",
    "placeMasterId": "P02500000FsoFZ1UdpqVLm8i1CMxaM1SbK0310lA",
    "placeName": "iron river",
    "state": "MI"
  },
  {
    "city": "bussey",
    "state_code": "IA",
    "placeMasterId": "P02500000FsoFDcX1MNvYi1zsgZ8tgXgyopgBN7r",
    "placeName": "bussey",
    "state": "IA"
  },
  {
    "city": "windsor heights",
    "state_code": "IA",
    "placeMasterId": "P02500000FsoFItqgg3Hc8G3KPbvMOfRYu5SBSlA",
    "placeName": "windsor heights",
    "state": "IA"
  },
  {
    "city": "lakota",
    "state_code": "IA",
    "placeMasterId": "P02500000FsoFFu4f0jA7hdufXYfaGNbkckBWYjw",
    "placeName": "lakota",
    "state": "IA"
  },
  {
    "city": "plymouth",
    "state_code": "IA",
    "placeMasterId": "P02500000FsoFHTNue5VlGFbaNUTBHlgO8FefNFn",
    "placeName": "plymouth",
    "state": "IA"
  },
  {
    "city": "dakota city",
    "state_code": "IA",
    "placeMasterId": "P02500000FsoFEBuvlyEhSQyZtoWZKVD26QJIdnS",
    "placeName": "dakota city",
    "state": "IA"
  },
  {
    "city": "pocahontas",
    "state_code": "IA",
    "placeMasterId": "P02500000FsoFHTNue5VlGFbaNUTBHlhSN1On4Gx",
    "placeName": "pocahontas",
    "state": "IA"
  },
  {
    "city": "conrad",
    "state_code": "IA",
    "placeMasterId": "P02500000FsoFE34SAZeulpjP60B9Q0oamz20LXa",
    "placeName": "conrad",
    "state": "IA"
  },
  {
    "city": "gilbertville",
    "state_code": "IA",
    "placeMasterId": "P02500000FsoFF2znOLhPa2Rcigb4nRNbqrwbQWW",
    "placeName": "gilbertville",
    "state": "IA"
  },
  {
    "city": "parkersburg",
    "state_code": "IA",
    "placeMasterId": "P02500000FsoFHBgxRIMBt37ElrmLSmwdF7XrfCX",
    "placeName": "parkersburg",
    "state": "IA"
  },
  {
    "city": "shell rock",
    "state_code": "IA",
    "placeMasterId": "P02500000FsoFI2lp3fou0eaHajqqvj9KRsWV8iR",
    "placeName": "shell rock",
    "state": "IA"
  },
  {
    "city": "calumet",
    "state_code": "IA",
    "placeMasterId": "P02500000FsoFDlNUxmVLOdF3UNUJb22DaKwC5kE",
    "placeName": "calumet",
    "state": "IA"
  },
  {
    "city": "ashton",
    "state_code": "IA",
    "placeMasterId": "P02500000FsoFDBzaYCCCeEGMH86dx4XcQd1FTue",
    "placeName": "ashton",
    "state": "IA"
  },
  {
    "city": "inwood",
    "state_code": "IA",
    "placeMasterId": "P02500000FsoFFTXECXQldqB987dKWuWJAsRmJL3",
    "placeName": "inwood",
    "state": "IA"
  },
  {
    "city": "milford",
    "state_code": "IA",
    "placeMasterId": "P02500000FsoFGcJ31i338e8XYcOfopTwpsKXtSh",
    "placeName": "milford",
    "state": "IA"
  },
  {
    "city": "ida grove",
    "state_code": "IA",
    "placeMasterId": "P02500000FsoFFTXECXQldqB987dKWuVQZW81Z5L",
    "placeName": "ida grove",
    "state": "IA"
  },
  {
    "city": "kiron",
    "state_code": "IA",
    "placeMasterId": "P02500000FsoFFu4f0jA7hdufXYfaGNbHBOipfS2",
    "placeName": "kiron",
    "state": "IA"
  },
  {
    "city": "elk horn",
    "state_code": "IA",
    "placeMasterId": "P02500000FsoFElIqBYXqCpxH73uEySdEqSGjAwY",
    "placeName": "elk horn",
    "state": "IA"
  },
  {
    "city": "macedonia",
    "state_code": "IA",
    "placeMasterId": "P02500000FsoFGBlcDWJh4qP19BMQ5MNwnQBvsiC",
    "placeName": "macedonia",
    "state": "IA"
  },
  {
    "city": "persia",
    "state_code": "IA",
    "placeMasterId": "P02500000FsoFHKXR2gvyZeMPZg7lNHIQgNRaF8e",
    "placeName": "persia",
    "state": "IA"
  },
  {
    "city": "treynor",
    "state_code": "IA",
    "placeMasterId": "P02500000FsoFITJFrrYG4SJo0At6fCH5gSg8twa",
    "placeName": "treynor",
    "state": "IA"
  },
  {
    "city": "northboro",
    "state_code": "IA",
    "placeMasterId": "P02500000FsoFH2qTptmPCRs3y3QvYIZ9nwGQ4Ot",
    "placeName": "northboro",
    "state": "IA"
  },
  {
    "city": "marquette",
    "state_code": "IA",
    "placeMasterId": "P02500000FsoFGKc5outTlReBwzhpzql0t50nEI1",
    "placeName": "marquette",
    "state": "IA"
  },
  {
    "city": "protivin",
    "state_code": "IA",
    "placeMasterId": "P02500000FsoFHTNue5VlGFbaNUTBHlgubsR8hTI",
    "placeName": "protivin",
    "state": "IA"
  },
  {
    "city": "mount vernon",
    "state_code": "IA",
    "placeMasterId": "P02500000FsoFGl9Wd6cppFNiMQk5jJsXmzb4An3",
    "placeName": "mount vernon",
    "state": "IA"
  },
  {
    "city": "cedar rapids",
    "state_code": "IA",
    "placeMasterId": "P02500000FsoFDuDyZB585EUEIBpjVWPCEPVewtT",
    "placeName": "cedar rapids",
    "state": "IA"
  },
  {
    "city": "mount sterling",
    "state_code": "IA",
    "placeMasterId": "P02500000FsoFGl9Wd6cppFNiMQk5jJrDweVwYpV",
    "placeName": "mount sterling",
    "state": "IA"
  },
  {
    "city": "mystic",
    "state_code": "IA",
    "placeMasterId": "P02500000FsoFGl9Wd6cppFNiMQk5jJskO2UQ6Z7",
    "placeName": "mystic",
    "state": "IA"
  },
  {
    "city": "mount union",
    "state_code": "IA",
    "placeMasterId": "P02500000FsoFGl9Wd6cppFNiMQk5jJpJUdN1TlY",
    "placeName": "mount union",
    "state": "IA"
  },
  {
    "city": "west point",
    "state_code": "IA",
    "placeMasterId": "P02500000FsoFItqgg3Hc8G3KPbvMOfPstKPF5Z5",
    "placeName": "west point",
    "state": "IA"
  },
  {
    "city": "andover",
    "state_code": "IA",
    "placeMasterId": "P02500000FsoFDBzaYCCCeEGMH86dx4ZwRWr6WNO",
    "placeName": "andover",
    "state": "IA"
  },
  {
    "city": "clinton",
    "state_code": "IA",
    "placeMasterId": "P02500000FsoFE34SAZeulpjP60B9Q0mXOW85vQc",
    "placeName": "clinton",
    "state": "IA"
  },
  {
    "city": "columbus junction",
    "state_code": "IA",
    "placeMasterId": "P02500000FsoFE34SAZeulpjP60B9Q0mfGclByau",
    "placeName": "columbus junction",
    "state": "IA"
  },
  {
    "city": "fruitland",
    "state_code": "IA",
    "placeMasterId": "P02500000FsoFF2znOLhPa2Rcigb4nRLjBFfJaHM",
    "placeName": "fruitland",
    "state": "IA"
  },
  {
    "city": "burlington",
    "state_code": "WI",
    "placeMasterId": "P02500000FsoH4uQoigI3tPkfqgGZsLinbHPSYMC",
    "placeName": "burlington",
    "state": "WI"
  },
  {
    "city": "silver lake",
    "state_code": "WI",
    "placeMasterId": "P02500000FsoH7uCqO0PYK1tKijWM0db0is0JZ7g",
    "placeName": "silver lake",
    "state": "WI"
  },
  {
    "city": "footville",
    "state_code": "WI",
    "placeMasterId": "P02500000FsoH5cfCjfAzKPyXrjzfQnjtalFWTtg",
    "placeName": "footville",
    "state": "WI"
  },
  {
    "city": "madison",
    "state_code": "WI",
    "placeMasterId": "P02500000FsoH6caXxRDU8cglUQPaoEDC1yqNdF5",
    "placeName": "madison",
    "state": "WI"
  },
  {
    "city": "la valle",
    "state_code": "WI",
    "placeMasterId": "P02500000FsoHFkl6Yo9k74LuuOWL7ZyRGjF5wiw",
    "placeName": "la valle",
    "state": "WI"
  },
  {
    "city": "new lisbon",
    "state_code": "WI",
    "placeMasterId": "P02500000FsoH737ylcwqCQQHtrRqXhNnPLi83Tn",
    "placeName": "new lisbon",
    "state": "WI"
  },
  {
    "city": "packwaukee",
    "state_code": "WI",
    "placeMasterId": "P02500000FsoIj4SgaVYJrWzR65boF5gHNIuYhWz",
    "placeName": "packwaukee",
    "state": "WI"
  },
  {
    "city": "brillion",
    "state_code": "WI",
    "placeMasterId": "P02500000FsoH4laL7HiHCoVV2rv9xrXr0QjRuVL",
    "placeName": "brillion",
    "state": "WI"
  },
  {
    "city": "neopit",
    "state_code": "WI",
    "placeMasterId": "P02500000FsoH737ylcwqCQQHtrRqXhJHTh3iGuK",
    "placeName": "neopit",
    "state": "WI"
  },
  {
    "city": "potter",
    "state_code": "WI",
    "placeMasterId": "P02500000FsoH7TfPZogCGE9oJIU6HAXcG4XyOO6",
    "placeName": "potter",
    "state": "WI"
  },
  {
    "city": "shiocton",
    "state_code": "WI",
    "placeMasterId": "P02500000FsoH7lMMmbpldQe9uvAw69M9stsJ7E6",
    "placeName": "shiocton",
    "state": "WI"
  },
  {
    "city": "luxemburg",
    "state_code": "WI",
    "placeMasterId": "P02500000FsoHF2WiXpGog482tKnFZ8KKP5AyntH",
    "placeName": "luxemburg",
    "state": "WI"
  },
  {
    "city": "mishicot",
    "state_code": "WI",
    "placeMasterId": "P02500000FsoHFKDfkcQO3GcOUxU5O6qhuIq0wjL",
    "placeName": "mishicot",
    "state": "WI"
  },
  {
    "city": "boulder junction",
    "state_code": "WI",
    "placeMasterId": "P02500000FsoIg4gevBQpQuqmE2M26nqsKw9jRyn",
    "placeName": "boulder junction",
    "state": "WI"
  },
  {
    "city": "hazelhurst",
    "state_code": "WI",
    "placeMasterId": "P02500000FsoIhdzuYXmSzWXh3y9d8Bw7UJbwB6r",
    "placeName": "hazelhurst",
    "state": "WI"
  },
  {
    "city": "sayner",
    "state_code": "WI",
    "placeMasterId": "P02500000FsoH7lMMmbpldQe9uvAw69EiM0oCxye",
    "placeName": "sayner",
    "state": "WI"
  },
  {
    "city": "gays mills",
    "state_code": "WI",
    "placeMasterId": "P02500000FsoH5lVgL3km11DifYL5LI3xOqUlrqU",
    "placeName": "gays mills",
    "state": "WI"
  },
  {
    "city": "independence",
    "state_code": "WI",
    "placeMasterId": "P02500000FsoH63CdXquLODi4HB1vAGuMg2IKhya",
    "placeName": "independence",
    "state": "WI"
  },
  {
    "city": "sheldon",
    "state_code": "WI",
    "placeMasterId": "P02500000FsoHFT49M10AjrrZIlpVIbD0RWXhauW",
    "placeName": "sheldon",
    "state": "WI"
  },
  {
    "city": "bruce",
    "state_code": "WI",
    "placeMasterId": "P02500000FsoH4uQoigI3tPkfqgGZsLkZWfg4VNg",
    "placeName": "bruce",
    "state": "WI"
  },
  {
    "city": "fond du lac",
    "state_code": "WI",
    "placeMasterId": "P02500000FsoH5cfCjfAzKPyXrjzfQndRKblx8Tz",
    "placeName": "fond du lac",
    "state": "WI"
  },
  {
    "city": "greenville",
    "state_code": "WI",
    "placeMasterId": "P02500000FsoIhV9Qx9CgIvIWG9oDDhZqzeQIa53",
    "placeName": "greenville",
    "state": "WI"
  },
  {
    "city": "menasha",
    "state_code": "WI",
    "placeMasterId": "P02500000FsoH6lR1YpnGpDvwIEl0iidoHb0pSdV",
    "placeName": "menasha",
    "state": "WI"
  },
  {
    "city": "rosendale",
    "state_code": "WI",
    "placeMasterId": "P02500000FsoHEkplL27FIrdhHi6Pk9Qbw9aOVyQ",
    "placeName": "rosendale",
    "state": "WI"
  },
  {
    "city": "lakeville",
    "state_code": "MN",
    "placeMasterId": "P02500000FsoFdsGsLK838Z1wVyhnKg4fjJaEevw",
    "placeName": "lakeville",
    "state": "MN"
  },
  {
    "city": "morristown",
    "state_code": "MN",
    "placeMasterId": "P02500000FsoFeRemkuRBsy0djE5SydcYz5VKfQV",
    "placeName": "morristown",
    "state": "MN"
  },
  {
    "city": "sandstone",
    "state_code": "MN",
    "placeMasterId": "P02500000FsoFfRa7ygTghAirLuVOM4F9XDg936y",
    "placeName": "sandstone",
    "state": "MN"
  },
  {
    "city": "bird island",
    "state_code": "MN",
    "placeMasterId": "P02500000FsoFbRsl5aJhSLryrApgqLqJ76MBrDV",
    "placeName": "bird island",
    "state": "MN"
  },
  {
    "city": "silver bay",
    "state_code": "MN",
    "placeMasterId": "P02500000FsoFfaQba53TNly29iqoGYYuCbjSQ14",
    "placeName": "silver bay",
    "state": "MN"
  },
  {
    "city": "coleraine",
    "state_code": "MN",
    "placeMasterId": "P02500000FsoFcA796ZCctM5qsEYmOnY9OStZFzW",
    "placeName": "coleraine",
    "state": "MN"
  },
  {
    "city": "hollandale",
    "state_code": "MN",
    "placeMasterId": "P02500000FsoFdIsxvjouOA3FIjK7gikaGLRUjbp",
    "placeName": "hollandale",
    "state": "MN"
  },
  {
    "city": "luverne",
    "state_code": "MN",
    "placeMasterId": "P02500000FsoFe17LwihppAH7Jn3DFAR1upAAmJT",
    "placeName": "luverne",
    "state": "MN"
  },
  {
    "city": "welcome",
    "state_code": "MN",
    "placeMasterId": "P02500000FsoFg9oVzfMc8AwjMyETuW2ex8RHqXC",
    "placeName": "welcome",
    "state": "MN"
  },
  {
    "city": "lucan",
    "state_code": "MN",
    "placeMasterId": "P02500000FsoFe17LwihppAH7Jn3DFALsfqw0z57",
    "placeName": "lucan",
    "state": "MN"
  },
  {
    "city": "maynard",
    "state_code": "MN",
    "placeMasterId": "P02500000FsoFeIoJ9VrPCMlSvPk3497CtNKHE5J",
    "placeName": "maynard",
    "state": "MN"
  },
  {
    "city": "sacred heart",
    "state_code": "MN",
    "placeMasterId": "P02500000FsoFfIjeNHtu0ZTgY69yRZpNx77UQV5",
    "placeName": "sacred heart",
    "state": "MN"
  },
  {
    "city": "freeport",
    "state_code": "MN",
    "placeMasterId": "P02500000FsoFcjV3W9Vldl4Y5TwS2lE8MBW7lrc",
    "placeName": "freeport",
    "state": "MN"
  },
  {
    "city": "aldrich",
    "state_code": "MN",
    "placeMasterId": "P02500000FsoFbABnsnA859NdFY8r1Mx9WhBdXEk",
    "placeName": "aldrich",
    "state": "MN"
  },
  {
    "city": "crosslake",
    "state_code": "MN",
    "placeMasterId": "P02500000FsoFc1GfVAcqCkqg4QDMUJLswOwvqWL",
    "placeName": "crosslake",
    "state": "MN"
  },
  {
    "city": "comstock",
    "state_code": "MN",
    "placeMasterId": "P02500000FsoFcA796ZCctM5qsEYmOnaXIs9d2XK",
    "placeName": "comstock",
    "state": "MN"
  },
  {
    "city": "elizabeth",
    "state_code": "MN",
    "placeMasterId": "P02500000FsoFcaeZukvyx9pNHfb28GfU0xXdcCG",
    "placeName": "elizabeth",
    "state": "MN"
  },
  {
    "city": "leonard",
    "state_code": "MN",
    "placeMasterId": "P02500000FsoFdjQOjvYGRxmliAMNQBo42upFEik",
    "placeName": "leonard",
    "state": "MN"
  },
  {
    "city": "humboldt",
    "state_code": "MN",
    "placeMasterId": "P02500000FsoFdRjRX8Oh4lIQ6XfXbD2FjYEvLQ3",
    "placeName": "humboldt",
    "state": "MN"
  },
  {
    "city": "red lake falls",
    "state_code": "MN",
    "placeMasterId": "P02500000FsoFf12hAUkKdMzKwTT8cb0ValAU3TO",
    "placeName": "red lake falls",
    "state": "MN"
  },
  {
    "city": "aurora",
    "state_code": "SD",
    "placeMasterId": "P02500000FsoGdelcVy34eg0OOaHkqmpHXu5Ib3F",
    "placeName": "aurora",
    "state": "SD"
  },
  {
    "city": "centerville",
    "state_code": "SD",
    "placeMasterId": "P02500000FsoGdnc67McrLHFZCOdAlHNZZP3vcjD",
    "placeName": "centerville",
    "state": "SD"
  },
  {
    "city": "sioux falls",
    "state_code": "SD",
    "placeMasterId": "P02500000FsoGfE4s9KOiDHhJEW5LsAy2czuKme9",
    "placeName": "sioux falls",
    "state": "SD"
  },
  {
    "city": "sioux falls",
    "state_code": "SD",
    "placeMasterId": "P02500000FsoGfE4s9KOiDHhJEW5LsAy2czuKme9",
    "placeName": "sioux falls",
    "state": "SD"
  },
  {
    "city": "toronto",
    "state_code": "SD",
    "placeMasterId": "P02500000FsoGfMvLkiyUtswU2KQlmfJvWcRCDAA",
    "placeName": "toronto",
    "state": "SD"
  },
  {
    "city": "agar",
    "state_code": "SD",
    "placeMasterId": "P02500000FsoGdVv8uZTHy4lDalwKwISiQxf7zsd",
    "placeName": "agar",
    "state": "SD"
  },
  {
    "city": "timber lake",
    "state_code": "SD",
    "placeMasterId": "P02500000FsoGfMvLkiyUtswU2KQlmfUGOhqzNBj",
    "placeName": "timber lake",
    "state": "SD"
  },
  {
    "city": "walcott",
    "state_code": "ND",
    "placeMasterId": "P02500000FsoGCP6QJFo5PwG6wUIvpDya6IfSgUN",
    "placeName": "walcott",
    "state": "ND"
  },
  {
    "city": "hamilton",
    "state_code": "ND",
    "placeMasterId": "P02500000FsoGBGKbU5Bnv8IiVzXaXIssulBrgWr",
    "placeName": "hamilton",
    "state": "ND"
  },
  {
    "city": "manvel",
    "state_code": "ND",
    "placeMasterId": "P02500000FsoGBgs2IGv9yw2EvQZqGlzR0m6mzdU",
    "placeName": "manvel",
    "state": "ND"
  },
  {
    "city": "mountain",
    "state_code": "ND",
    "placeMasterId": "P02500000FsoGBgs2IGv9yw2EvQZqGmCXYO1rExo",
    "placeName": "mountain",
    "state": "ND"
  },
  {
    "city": "crary",
    "state_code": "ND",
    "placeMasterId": "P02500000FsoGAY6DT6IsU84qUvoUyrBLcMjK2cG",
    "placeName": "crary",
    "state": "ND"
  },
  {
    "city": "webster",
    "state_code": "ND",
    "placeMasterId": "P02500000FsoI8OvyZdDVH95ecOpP5CLFlgUqpJj",
    "placeName": "webster",
    "state": "ND"
  },
  {
    "city": "carrington",
    "state_code": "ND",
    "placeMasterId": "P02500000FsoGAPFjrhj5nWpfh7T54Mv5HpFJjo1",
    "placeName": "carrington",
    "state": "ND"
  },
  {
    "city": "stanton",
    "state_code": "ND",
    "placeMasterId": "P02500000FsoGCGFwhrEIjL0w8fxVuji9TEnjLuf",
    "placeName": "stanton",
    "state": "ND"
  },
  {
    "city": "underwood",
    "state_code": "ND",
    "placeMasterId": "P02500000FsoGCP6QJFo5PwG6wUIvpE29OZid8ot",
    "placeName": "underwood",
    "state": "ND"
  },
  {
    "city": "washburn",
    "state_code": "ND",
    "placeMasterId": "P02500000FsoGCP6QJFo5PwG6wUIvpEBP6nxqIJq",
    "placeName": "washburn",
    "state": "ND"
  },
  {
    "city": "belfield",
    "state_code": "ND",
    "placeMasterId": "P02500000FsoGAGPGGJ9J6vaUtJ7f9sT2nmOuWgE",
    "placeName": "belfield",
    "state": "ND"
  },
  {
    "city": "gladstone",
    "state_code": "ND",
    "placeMasterId": "P02500000FsoGAydeHI2EXvoMuMqkiKHA4mwEpVO",
    "placeName": "gladstone",
    "state": "ND"
  },
  {
    "city": "bantry",
    "state_code": "ND",
    "placeMasterId": "P02500000FsoGAGPGGJ9J6vaUtJ7f9sNCMxmGFDL",
    "placeName": "bantry",
    "state": "ND"
  },
  {
    "city": "holyoke",
    "state_code": "MA",
    "placeMasterId": "P02500000FsoFWb6Wa6h05vY3XZ5Trh6cTEM4JV7",
    "placeName": "holyoke",
    "state": "MA"
  },
  {
    "city": "monterey",
    "state_code": "MA",
    "placeMasterId": "P02500000FsoHe9Ukhar1bnCiIFanvLSR5acRhAy",
    "placeName": "monterey",
    "state": "MA"
  },
  {
    "city": "heath",
    "state_code": "MA",
    "placeMasterId": "P02500000FsoHdrnnUnhSEaiMgcty6MooG7gKAIy",
    "placeName": "heath",
    "state": "MA"
  },
  {
    "city": "orange",
    "state_code": "MA",
    "placeMasterId": "P02500000FsoHAtys3KX2ke1zamm88vTnNHYWHkY",
    "placeName": "orange",
    "state": "MA"
  },
  {
    "city": "ashburnham",
    "state_code": "MA",
    "placeMasterId": "P02500000FsoHdIPt5DOJUBjfTNWISPSkS9353y2",
    "placeName": "ashburnham",
    "state": "MA"
  },
  {
    "city": "east brookfield",
    "state_code": "MA",
    "placeMasterId": "P02500000FsoHBKWIrWGOoRlW0DoNsOgajoAoGy6",
    "placeName": "east brookfield",
    "state": "MA"
  },
  {
    "city": "douglas",
    "state_code": "MA",
    "placeMasterId": "P02500000FsoHdixJtP7fXzTBsoYYBsPSNJThhzP",
    "placeName": "douglas",
    "state": "MA"
  },
  {
    "city": "uxbridge",
    "state_code": "MA",
    "placeMasterId": "P02500000FsoHeRBhuO0ayzh3tsHdkKEza3sO4Sv",
    "placeName": "uxbridge",
    "state": "MA"
  },
  {
    "city": "lowell",
    "state_code": "MA",
    "placeMasterId": "P02500000FsoFWb6Wa6h05vY3XZ5Trh8C13Bjmyh",
    "placeName": "lowell",
    "state": "MA"
  },
  {
    "city": "essex",
    "state_code": "MA",
    "placeMasterId": "P02500000FsoHAtys3KX2ke1zamm88vQlZ9sP3rZ",
    "placeName": "essex",
    "state": "MA"
  },
  {
    "city": "scituate",
    "state_code": "MA",
    "placeMasterId": "P02500000FsoHBKWIrWGOoRlW0DoNsOd8bHhRNKZ",
    "placeName": "scituate",
    "state": "MA"
  },
  {
    "city": "boston",
    "state_code": "MA",
    "placeMasterId": "P02500000FsoFWJPZNJXQij3hvwOe2iNmqEqJmO9",
    "placeName": "boston",
    "state": "MA"
  },
  {
    "city": "bridgewater",
    "state_code": "MA",
    "placeMasterId": "P02500000FsoHBBfpG7gc7qWLCPSxxuGb3zTf1Ql",
    "placeName": "bridgewater",
    "state": "MA"
  },
  {
    "city": "lakeville",
    "state_code": "MA",
    "placeMasterId": "P02500000FsoHdrnnUnhSEaiMgcty6MrKAoD4NmL",
    "placeName": "lakeville",
    "state": "MA"
  },
  {
    "city": "waltham",
    "state_code": "MA",
    "placeMasterId": "P02500000FsoFWsnTmtqZT82P9BmJgfsN7hT1rsV",
    "placeName": "waltham",
    "state": "MA"
  },
  {
    "city": "south yarmouth",
    "state_code": "MA",
    "placeMasterId": "P02500000FsoFWsnTmtqZT82P9BmJgfnmXYEwMct",
    "placeName": "south yarmouth",
    "state": "MA"
  },
  {
    "city": "west greenwich",
    "state_code": "RI",
    "placeMasterId": "P02500000FsoIZE3jy9j8S56Pf3lyNI1n4lsoqWI",
    "placeName": "west greenwich",
    "state": "RI"
  },
  {
    "city": "foster",
    "state_code": "RI",
    "placeMasterId": "P02500000FsoIZ5DGMl9LlTrErFQYSneDO2ZZsXt",
    "placeName": "foster",
    "state": "RI"
  },
  {
    "city": "warren",
    "state_code": "RI",
    "placeMasterId": "P02500000FsoIZE3jy9j8S56Pf3lyNI1zaaFGz2a",
    "placeName": "warren",
    "state": "RI"
  },
  {
    "city": "warwick",
    "state_code": "RI",
    "placeMasterId": "P02500000FsoGb5X1epewHrbFvy4ERyBqmHLiLnl",
    "placeName": "warwick",
    "state": "RI"
  },
  {
    "city": "henniker",
    "state_code": "NH",
    "placeMasterId": "P02500000FsoHBcDG4JPyBeFrbqVDhNPqR5e7gfJ",
    "placeName": "henniker",
    "state": "NH"
  },
  {
    "city": "springfield",
    "state_code": "NH",
    "placeMasterId": "P02500000FsoIC6wOFwDv8lSBVVoGlvvnYvAPl5L",
    "placeName": "springfield",
    "state": "NH"
  },
  {
    "city": "peterborough",
    "state_code": "NH",
    "placeMasterId": "P02500000FsoHBl3jfhzksFV2PeqdbrboDNhjGer",
    "placeName": "peterborough",
    "state": "NH"
  },
  {
    "city": "lempster",
    "state_code": "NH",
    "placeMasterId": "P02500000FsoIBpFR394LlYxptt7Qwx9aUKzeCkU",
    "placeName": "lempster",
    "state": "NH"
  },
  {
    "city": "walpole",
    "state_code": "NH",
    "placeMasterId": "P02500000FsoICFmrrKnhpMhMJK9ggQFcNKymn76",
    "placeName": "walpole",
    "state": "NH"
  },
  {
    "city": "farmington",
    "state_code": "NH",
    "placeMasterId": "P02500000FsoHBl3jfhzksFV2PeqdbrduaSj0312",
    "placeName": "farmington",
    "state": "NH"
  },
  {
    "city": "melvin village",
    "state_code": "NH",
    "placeMasterId": "P02500000FsoFuzqAitOHaeOqvQ9wfSbhFLpmabm",
    "placeName": "melvin village",
    "state": "NH"
  },
  {
    "city": "kennebunkport",
    "state_code": "ME",
    "placeMasterId": "P02500000FsoHAtys3KX2ke1zamm88vNQJoLHOFX",
    "placeName": "kennebunkport",
    "state": "ME"
  },
  {
    "city": "greenwood",
    "state_code": "ME",
    "placeMasterId": "P02500000FsoHfR738A35nCPHWYhZ7kn8Nndfbhx",
    "placeName": "greenwood",
    "state": "ME"
  },
  {
    "city": "readfield",
    "state_code": "ME",
    "placeMasterId": "P02500000FsoHg9LR98w1ECd9XcQegCj8dcOjbLO",
    "placeName": "readfield",
    "state": "ME"
  },
  {
    "city": "bradley",
    "state_code": "ME",
    "placeMasterId": "P02500000FsoHerj8iZjx2nQaJJJtTnLCxMz4wym",
    "placeName": "bradley",
    "state": "ME"
  },
  {
    "city": "howland",
    "state_code": "ME",
    "placeMasterId": "P02500000FsoHAcHuqXNTNRXdzA5IJwdduQ8vAzR",
    "placeName": "howland",
    "state": "ME"
  },
  {
    "city": "georgetown",
    "state_code": "ME",
    "placeMasterId": "P02500000FsoHfR738A35nCPHWYhZ7kuFSEjEZsH",
    "placeName": "georgetown",
    "state": "ME"
  },
  {
    "city": "south bristol",
    "state_code": "ME",
    "placeMasterId": "P02500000FsoHgR2OLw5abP7V9F7UVBQ8BkFWI3S",
    "placeName": "south bristol",
    "state": "ME"
  },
  {
    "city": "bar harbor",
    "state_code": "ME",
    "placeMasterId": "P02500000FsoHAKaxdkDu0F3INXOSUxxvQP99nSn",
    "placeName": "bar harbor",
    "state": "ME"
  },
  {
    "city": "cutler",
    "state_code": "ME",
    "placeMasterId": "P02500000FsoHf9Q5vMtWPzuvuw0jIm6ikamd8Gr",
    "placeName": "cutler",
    "state": "ME"
  },
  {
    "city": "eastport",
    "state_code": "ME",
    "placeMasterId": "P02500000FsoFTAn46aq9bVfsG4nRzwBkTwNfv19",
    "placeName": "eastport",
    "state": "ME"
  },
  {
    "city": "baileyville",
    "state_code": "ME",
    "placeMasterId": "P02500000FsoHeisf7BAAMCBPVUyTZJ1afSoc2GM",
    "placeName": "baileyville",
    "state": "ME"
  },
  {
    "city": "monticello",
    "state_code": "ME",
    "placeMasterId": "P02500000FsoHg0UxXkMEXbNyjo5EliHogbsGSi7",
    "placeName": "monticello",
    "state": "ME"
  },
  {
    "city": "owls head",
    "state_code": "ME",
    "placeMasterId": "P02500000FsoHg9LR98w1ECd9XcQegCglInRXNeg",
    "placeName": "owls head",
    "state": "ME"
  },
  {
    "city": "rockport",
    "state_code": "ME",
    "placeMasterId": "P02500000FsoHgIBukXVnunsKLQm4ah3tWP7eAdr",
    "placeName": "rockport",
    "state": "ME"
  },
  {
    "city": "new portland",
    "state_code": "ME",
    "placeMasterId": "P02500000FsoHg0UxXkMEXbNyjo5EliNDtflYTl6",
    "placeName": "new portland",
    "state": "ME"
  },
  {
    "city": "north springfield",
    "state_code": "VT",
    "placeMasterId": "P02500000FsoGuLnU5LZx2xdmOaheS6T3dvJB0BY",
    "placeName": "north springfield",
    "state": "VT"
  },
  {
    "city": "waterville",
    "state_code": "VT",
    "placeMasterId": "P02500000FsoIfMSGuCXtzucuCycwYM1JRwVfg0g",
    "placeName": "waterville",
    "state": "VT"
  },
  {
    "city": "east barre",
    "state_code": "VT",
    "placeMasterId": "P02500000FsoGuCx0Tx0AMMObamMEXbxfkGx8I5x",
    "placeName": "east barre",
    "state": "VT"
  },
  {
    "city": "pittsfield",
    "state_code": "VT",
    "placeMasterId": "P02500000FsoIevuq60oXw6tNnXagosufXW5DBld",
    "placeName": "pittsfield",
    "state": "VT"
  },
  {
    "city": "pittsford",
    "state_code": "VT",
    "placeMasterId": "P02500000FsoIevuq60oXw6tNnXagosttAnN7Jq5",
    "placeName": "pittsford",
    "state": "VT"
  },
  {
    "city": "sutton",
    "state_code": "VT",
    "placeMasterId": "P02500000FsoIfDbnIny7JJNjPAHWdrg141hZIap",
    "placeName": "sutton",
    "state": "VT"
  },
  {
    "city": "norton",
    "state_code": "VT",
    "placeMasterId": "P02500000FsoIevuq60oXw6tNnXagosuAvVXgwPL",
    "placeName": "norton",
    "state": "VT"
  },
  {
    "city": "avon",
    "state_code": "CT",
    "placeMasterId": "P02500000FsoHGBIXMzt6As5RJpYar3GbmIFvRTJ",
    "placeName": "avon",
    "state": "CT"
  },
  {
    "city": "falls village",
    "state_code": "CT",
    "placeMasterId": "P02500000FsoEp4wtcCeUWhtuUtj0yHnJm1e8JXv",
    "placeName": "falls village",
    "state": "CT"
  },
  {
    "city": "tolland",
    "state_code": "CT",
    "placeMasterId": "P02500000FsoHGtWvNym1bsJJKtHgPV5ZBuBgYi0",
    "placeName": "tolland",
    "state": "CT"
  },
  {
    "city": "west hartford",
    "state_code": "CT",
    "placeMasterId": "P02500000FsoEpeKo1mxdH6sbi96gcFFUCHGLcEM",
    "placeName": "west hartford",
    "state": "CT"
  },
  {
    "city": "east lyme",
    "state_code": "CT",
    "placeMasterId": "P02500000FsoHGSzUZn2fY4ZmvSFQg1s2jn2sZ7D",
    "placeName": "east lyme",
    "state": "CT"
  },
  {
    "city": "beacon falls",
    "state_code": "CT",
    "placeMasterId": "P02500000FsoHGBIXMzt6As5RJpYar3DTW5cJLlY",
    "placeName": "beacon falls",
    "state": "CT"
  },
  {
    "city": "higganum",
    "state_code": "CT",
    "placeMasterId": "P02500000FsoEpDnNDbEHDJ95Ii4Qsm87ghugB7Y",
    "placeName": "higganum",
    "state": "CT"
  },
  {
    "city": "woodbury",
    "state_code": "CT",
    "placeMasterId": "P02500000FsoHGtWvNym1bsJJKtHgPV7fuXFgpOA",
    "placeName": "woodbury",
    "state": "CT"
  },
  {
    "city": "montclair",
    "state_code": "NJ",
    "placeMasterId": "P02500000FsoID6rjTiGPwyAP8CEC9MUYB8IzHss",
    "placeName": "montclair",
    "state": "NJ"
  },
  {
    "city": "montville",
    "state_code": "NJ",
    "placeMasterId": "P02500000FsoID6rjTiGPwyAP8CEC9Md1F1m0McZ",
    "placeName": "montville",
    "state": "NJ"
  },
  {
    "city": "roselle park",
    "state_code": "NJ",
    "placeMasterId": "P02500000FsoFxZ4la1mPxSnzO2NT4HGhQKJeHUH",
    "placeName": "roselle park",
    "state": "NJ"
  },
  {
    "city": "saddle river",
    "state_code": "NJ",
    "placeMasterId": "P02500000FsoFxZ4la1mPxSnzO2NT4HGVLGwrtPV",
    "placeName": "saddle river",
    "state": "NJ"
  },
  {
    "city": "new milford",
    "state_code": "NJ",
    "placeMasterId": "P02500000FsoFwqqNZ2tUWSa7MyeNVpXgbik2B81",
    "placeName": "new milford",
    "state": "NJ"
  },
  {
    "city": "northvale",
    "state_code": "NJ",
    "placeMasterId": "P02500000FsoFwzgrARTHD3pIAmznQJqwZCQKUem",
    "placeName": "northvale",
    "state": "NJ"
  },
  {
    "city": "rochelle park",
    "state_code": "NJ",
    "placeMasterId": "P02500000FsoIDOYggVPzKAekjov1yLHI5Qnw1Ye",
    "placeName": "rochelle park",
    "state": "NJ"
  },
  {
    "city": "deal",
    "state_code": "NJ",
    "placeMasterId": "P02500000FsoFvi4YjsHD1eciwTt2DuTpRBFOoLY",
    "placeName": "deal",
    "state": "NJ"
  },
  {
    "city": "freehold",
    "state_code": "NJ",
    "placeMasterId": "P02500000FsoICgKIfWX3tAQsilBwPtPh197eptC",
    "placeName": "freehold",
    "state": "NJ"
  },
  {
    "city": "oakhurst",
    "state_code": "NJ",
    "placeMasterId": "P02500000FsoFwzgrARTHD3pIAmznQJtgTHeOcpP",
    "placeName": "oakhurst",
    "state": "NJ"
  },
  {
    "city": "far hills",
    "state_code": "NJ",
    "placeMasterId": "P02500000FsoFvqv2LGqziFrtkIES8OqNutb0soS",
    "placeName": "far hills",
    "state": "NJ"
  },
  {
    "city": "alloway",
    "state_code": "NJ",
    "placeMasterId": "P02500000FsoICOdLSjNUVxwX78V6aufsMPuoVHd",
    "placeName": "alloway",
    "state": "NJ"
  },
  {
    "city": "riverside",
    "state_code": "NJ",
    "placeMasterId": "P02500000FsoIDOYggVPzKAekjov1yLBcsNolw9q",
    "placeName": "riverside",
    "state": "NJ"
  },
  {
    "city": "absecon",
    "state_code": "NJ",
    "placeMasterId": "P02500000FsoFv8geKHy4HFe1jEVMZwxkF75uyuA",
    "placeName": "absecon",
    "state": "NJ"
  },
  {
    "city": "millville",
    "state_code": "NJ",
    "placeMasterId": "P02500000FsoFwhztxeJhprKwZAIxbLAQWeqrutK",
    "placeName": "millville",
    "state": "NJ"
  },
  {
    "city": "vineland",
    "state_code": "NJ",
    "placeMasterId": "P02500000FsoFxqlimovzKfIKzf4ItGC6HRfEZFI",
    "placeName": "vineland",
    "state": "NJ"
  },
  {
    "city": "rocky hill",
    "state_code": "NJ",
    "placeMasterId": "P02500000FsoFxQEHydCdGrYoaE239n144TdWzh1",
    "placeName": "rocky hill",
    "state": "NJ"
  },
  {
    "city": "trenton",
    "state_code": "NJ",
    "placeMasterId": "P02500000FsoFxqlimovzKfIKzf4ItG76ZSi5TQc",
    "placeName": "trenton",
    "state": "NJ"
  },
  {
    "city": "island heights",
    "state_code": "NJ",
    "placeMasterId": "P02500000FsoFwQIwkrA8SeqaxXc7mMH2JXHp9Pd",
    "placeName": "island heights",
    "state": "NJ"
  },
  {
    "city": "edison",
    "state_code": "NJ",
    "placeMasterId": "P02500000FsoICgKIfWX3tAQsilBwPtKSyP5xlkc",
    "placeName": "edison",
    "state": "NJ"
  },
  {
    "city": "kendall park",
    "state_code": "NJ",
    "placeMasterId": "P02500000FsoFwQIwkrA8SeqaxXc7mMJjrxdbHw3",
    "placeName": "kendall park",
    "state": "NJ"
  },
  {
    "city": "hampton",
    "state_code": "NJ",
    "placeMasterId": "P02500000FsoICpAmGv6qZlg3WZXMKNoIYt62Iqi",
    "placeName": "hampton",
    "state": "NJ"
  },
  {
    "city": "martinsville",
    "state_code": "NJ",
    "placeMasterId": "P02500000FsoFwhztxeJhprKwZAIxbL4YDh3ZXN5",
    "placeName": "martinsville",
    "state": "NJ"
  },
  {
    "city": "spotswood",
    "state_code": "NJ",
    "placeMasterId": "P02500000FsoFxhvFBQMCe43ABqisylg2phX5OCh",
    "placeName": "spotswood",
    "state": "NJ"
  },
  {
    "city": "new york",
    "state_code": "NY",
    "placeMasterId": "P02500000FsoG3hTIW4bBVIKTvxERFLPbpMNP8u9",
    "placeName": "new york",
    "state": "NY"
  },
  {
    "city": "new york",
    "state_code": "NY",
    "placeMasterId": "P02500000FsoG3hTIW4bBVIKTvxERFLPbpMNP8u9",
    "placeName": "new york",
    "state": "NY"
  },
  {
    "city": "new york",
    "state_code": "NY",
    "placeMasterId": "P02500000FsoG3hTIW4bBVIKTvxERFLPbpMNP8u9",
    "placeName": "new york",
    "state": "NY"
  },
  {
    "city": "staten island",
    "state_code": "NY",
    "placeMasterId": "P02500000FsoHDBWVhflbkFwmRmIoilOWW8CMZ4T",
    "placeName": "staten island",
    "state": "NY"
  },
  {
    "city": "north salem",
    "state_code": "NY",
    "placeMasterId": "P02500000FsoIFxnHXdo7gz3tCR8YN9xVHidXjnf",
    "placeName": "north salem",
    "state": "NY"
  },
  {
    "city": "monroe",
    "state_code": "NY",
    "placeMasterId": "P02500000FsoHCtpYUsc2N3SQq9bytmlCisVgl4F",
    "placeName": "monroe",
    "state": "NY"
  },
  {
    "city": "locust valley",
    "state_code": "NY",
    "placeMasterId": "P02500000FsoG3GvrhsrpRUaxWWCBVsBmvPbVfoe",
    "placeName": "locust valley",
    "state": "NY"
  },
  {
    "city": "roslyn heights",
    "state_code": "NY",
    "placeMasterId": "P02500000FsoG4YYA8S3tctnWkpIwiHf4UvXZ9wD",
    "placeName": "roslyn heights",
    "state": "NY"
  },
  {
    "city": "westbury",
    "state_code": "NY",
    "placeMasterId": "P02500000FsoG5hJyxcgB7hkvBK4I0COPDwyfOAR",
    "placeName": "westbury",
    "state": "NY"
  },
  {
    "city": "west islip",
    "state_code": "NY",
    "placeMasterId": "P02500000FsoG5hJyxcgB7hkvBK4I0CZF0WOcRaZ",
    "placeName": "west islip",
    "state": "NY"
  },
  {
    "city": "center moriches",
    "state_code": "NY",
    "placeMasterId": "P02500000FsoG1PverjMcVgPh4xhkfVRTaFmmFse",
    "placeName": "center moriches",
    "state": "NY"
  },
  {
    "city": "shelter island",
    "state_code": "NY",
    "placeMasterId": "P02500000FsoHDKMzJ4LOQrBxFaeEdFo9W4hmHi5",
    "placeName": "shelter island",
    "state": "NY"
  },
  {
    "city": "shirley",
    "state_code": "NY",
    "placeMasterId": "P02500000FsoG4qF7LFDT06HsMRzmXGL2oUB3OnR",
    "placeName": "shirley",
    "state": "NY"
  },
  {
    "city": "yaphank",
    "state_code": "NY",
    "placeMasterId": "P02500000FsoG5qASZ1FxoJ05z8PhugsvduViW0A",
    "placeName": "yaphank",
    "state": "NY"
  },
  {
    "city": "ballston spa",
    "state_code": "NY",
    "placeMasterId": "P02500000FsoG0qXkS93TlHQzriK51Xwc1SsUtg2",
    "placeName": "ballston spa",
    "state": "NY"
  },
  {
    "city": "broadalbin",
    "state_code": "NY",
    "placeMasterId": "P02500000FsoHCTI7ggsgJFiuQiZjAJQWeelgCbc",
    "placeName": "broadalbin",
    "state": "NY"
  },
  {
    "city": "rensselaerville",
    "state_code": "NY",
    "placeMasterId": "P02500000FsoIGOKiLpXTkmnPbsAo6dAg2rCFx9Z",
    "placeName": "rensselaerville",
    "state": "NY"
  },
  {
    "city": "albany",
    "state_code": "NY",
    "placeMasterId": "P02500000FsoG0qXkS93TlHQzriK51XlWeUkwFLA",
    "placeName": "albany",
    "state": "NY"
  },
  {
    "city": "albany",
    "state_code": "NY",
    "placeMasterId": "P02500000FsoG0qXkS93TlHQzriK51XlWeUkwFLA",
    "placeName": "albany",
    "state": "NY"
  },
  {
    "city": "margaretville",
    "state_code": "NY",
    "placeMasterId": "P02500000FsoG3PmLJHRc85q8KKXbQMf0zv2o0ZP",
    "placeName": "margaretville",
    "state": "NY"
  },
  {
    "city": "pine hill",
    "state_code": "NY",
    "placeMasterId": "P02500000FsoG4GrCveuKFhJB9Cc6tIr0qBvzRIs",
    "placeName": "pine hill",
    "state": "NY"
  },
  {
    "city": "hopewell junction",
    "state_code": "NY",
    "placeMasterId": "P02500000FsoG2qOQth8TNgrR759vmP7aFu6RsPj",
    "placeName": "hopewell junction",
    "state": "NY"
  },
  {
    "city": "rhinebeck",
    "state_code": "NY",
    "placeMasterId": "P02500000FsoHCBbATtj6w3EYp5stLKtpDh9P2Zw",
    "placeName": "rhinebeck",
    "state": "NY"
  },
  {
    "city": "staatsburg",
    "state_code": "NY",
    "placeMasterId": "P02500000FsoG57w4Y2N2NImDy4gcMF3gYQBwTol",
    "placeName": "staatsburg",
    "state": "NY"
  },
  {
    "city": "glens falls",
    "state_code": "NY",
    "placeMasterId": "P02500000FsoG2Pr05VP7Jt7uhe7g2vvv8v7HoZc",
    "placeName": "glens falls",
    "state": "NY"
  },
  {
    "city": "granville",
    "state_code": "NY",
    "placeMasterId": "P02500000FsoHDc3wVrUxo3gIrDL4SEP8NBnhErB",
    "placeName": "granville",
    "state": "NY"
  },
  {
    "city": "indian lake",
    "state_code": "NY",
    "placeMasterId": "P02500000FsoIFFYtWevCFyq1BNPSoiBj5DTZWqD",
    "placeName": "indian lake",
    "state": "NY"
  },
  {
    "city": "pottersville",
    "state_code": "NY",
    "placeMasterId": "P02500000FsoG4PhgX3U6wIYLx0xWnnIQcmOnm8H",
    "placeName": "pottersville",
    "state": "NY"
  },
  {
    "city": "mooers",
    "state_code": "NY",
    "placeMasterId": "P02500000FsoHCBbATtj6w3EYp5stLKgLsw3UW2o",
    "placeName": "mooers",
    "state": "NY"
  },
  {
    "city": "rouses point",
    "state_code": "NY",
    "placeMasterId": "P02500000FsoG4YYA8S3tctnWkpIwiHb1LLPxy3n",
    "placeName": "rouses point",
    "state": "NY"
  },
  {
    "city": "schuyler falls",
    "state_code": "NY",
    "placeMasterId": "P02500000FsoIGg1fYch37zHlDUrdvbr76pE11Qm",
    "placeName": "schuyler falls",
    "state": "NY"
  },
  {
    "city": "cicero",
    "state_code": "NY",
    "placeMasterId": "P02500000FsoIEFdYIsshRm7nYgzXRHRuKQ2PJcs",
    "placeName": "cicero",
    "state": "NY"
  },
  {
    "city": "liverpool",
    "state_code": "NY",
    "placeMasterId": "P02500000FsoG3GvrhsrpRUaxWWCBVsAOutLRubp",
    "placeName": "liverpool",
    "state": "NY"
  },
  {
    "city": "syracuse",
    "state_code": "NY",
    "placeMasterId": "P02500000FsoG57w4Y2N2NImDy4gcMF3udu0wEbR",
    "placeName": "syracuse",
    "state": "NY"
  },
  {
    "city": "new berlin",
    "state_code": "NY",
    "placeMasterId": "P02500000FsoHC2kgsV9KFRzO1HXTQqM1oL2pcDi",
    "placeName": "new berlin",
    "state": "NY"
  },
  {
    "city": "adams center",
    "state_code": "NY",
    "placeMasterId": "P02500000FsoG0qXkS93TlHQzriK51XlimRsOsdd",
    "placeName": "adams center",
    "state": "NY"
  },
  {
    "city": "calcium",
    "state_code": "NY",
    "placeMasterId": "P02500000FsoG1PverjMcVgPh4xhkfVHVthxPQMi",
    "placeName": "calcium",
    "state": "NY"
  },
  {
    "city": "great bend",
    "state_code": "NY",
    "placeMasterId": "P02500000FsoG2Pr05VP7Jt7uhe7g2w4UgVVdxda",
    "placeName": "great bend",
    "state": "NY"
  },
  {
    "city": "oswegatchie",
    "state_code": "NY",
    "placeMasterId": "P02500000FsoIFxnHXdo7gz3tCR8YNA4HYvQXRCb",
    "placeName": "oswegatchie",
    "state": "NY"
  },
  {
    "city": "milford",
    "state_code": "NY",
    "placeMasterId": "P02500000FsoHDBWVhflbkFwmRmIoilIBsjegVAl",
    "placeName": "milford",
    "state": "NY"
  },
  {
    "city": "mount morris",
    "state_code": "NY",
    "placeMasterId": "P02500000FsoHCc8bI5SSzqy5EWv94nz6Hbrjtg6",
    "placeName": "mount morris",
    "state": "NY"
  },
  {
    "city": "springwater",
    "state_code": "NY",
    "placeMasterId": "P02500000FsoIGxiclPqcVBm6p7YTkaSth2Htad5",
    "placeName": "springwater",
    "state": "NY"
  },
  {
    "city": "york",
    "state_code": "NY",
    "placeMasterId": "P02500000FsoIHX6XB09lFako2Mw9OY0RFlbfoBJ",
    "placeName": "york",
    "state": "NY"
  },
  {
    "city": "rochester",
    "state_code": "NY",
    "placeMasterId": "P02500000FsoG4YYA8S3tctnWkpIwiHXc7FWLpT6",
    "placeName": "rochester",
    "state": "NY"
  },
  {
    "city": "rochester",
    "state_code": "NY",
    "placeMasterId": "P02500000FsoG4YYA8S3tctnWkpIwiHXc7FWLpT6",
    "placeName": "rochester",
    "state": "NY"
  },
  {
    "city": "frewsburg",
    "state_code": "NY",
    "placeMasterId": "P02500000FsoG2H0WU6pKdHsjtpmG8RctNFaYbii",
    "placeName": "frewsburg",
    "state": "NY"
  },
  {
    "city": "bradford",
    "state_code": "NY",
    "placeMasterId": "P02500000FsoIDxwb65j84ZdRx4IhcIqOpeZpvuD",
    "placeName": "bradford",
    "state": "NY"
  },
  {
    "city": "cohocton",
    "state_code": "NY",
    "placeMasterId": "P02500000FsoHDKMzJ4LOQrBxFaeEdFleX9n4WVA",
    "placeName": "cohocton",
    "state": "NY"
  },
  {
    "city": "dravosburg",
    "state_code": "PA",
    "placeMasterId": "P02500000FsoGSfar4RbbkQ9yX3gZh4H6ncuADum",
    "placeName": "dravosburg",
    "state": "PA"
  },
  {
    "city": "elrama",
    "state_code": "PA",
    "placeMasterId": "P02500000FsoGT68HsdKxoDtUwUipQXNt3IrQoEl",
    "placeName": "elrama",
    "state": "PA"
  },
  {
    "city": "industry",
    "state_code": "PA",
    "placeMasterId": "P02500000FsoGUfRXVzgbMpaPmQWQRvahLMEk6Se",
    "placeName": "industry",
    "state": "PA"
  },
  {
    "city": "mcdonald",
    "state_code": "PA",
    "placeMasterId": "P02500000FsoGVfMsjlj6B2IdP6wLpM9noHgGj4N",
    "placeName": "mcdonald",
    "state": "PA"
  },
  {
    "city": "pittsburgh",
    "state_code": "PA",
    "placeMasterId": "P02500000FsoGXfDZBJo5nRj4eTmCaDENhHWAB15",
    "placeName": "pittsburgh",
    "state": "PA"
  },
  {
    "city": "pittsburgh",
    "state_code": "PA",
    "placeMasterId": "P02500000FsoGXfDZBJo5nRj4eTmCaDENhHWAB15",
    "placeName": "pittsburgh",
    "state": "PA"
  },
  {
    "city": "pittsburgh",
    "state_code": "PA",
    "placeMasterId": "P02500000FsoGXfDZBJo5nRj4eTmCaDENhHWAB15",
    "placeName": "pittsburgh",
    "state": "PA"
  },
  {
    "city": "farmington",
    "state_code": "PA",
    "placeMasterId": "P02500000FsoGTEylU1ukUp8fkJ4FL1sRm4WaklH",
    "placeName": "farmington",
    "state": "PA"
  },
  {
    "city": "shanksville",
    "state_code": "PA",
    "placeMasterId": "P02500000FsoGYnzO0UQNIFgT4yXXs8EOwkPmpOD",
    "placeName": "shanksville",
    "state": "PA"
  },
  {
    "city": "export",
    "state_code": "PA",
    "placeMasterId": "P02500000FsoGTEylU1ukUp8fkJ4FL1jOpLlYfSO",
    "placeName": "export",
    "state": "PA"
  },
  {
    "city": "hostetter",
    "state_code": "PA",
    "placeMasterId": "P02500000FsoGUWb3ub6ogELEycB0XRFUfSLfaPO",
    "placeName": "hostetter",
    "state": "PA"
  },
  {
    "city": "scottdale",
    "state_code": "PA",
    "placeMasterId": "P02500000FsoGYf8uP5qabeRIHAC7xdnyHRmkcAG",
    "placeName": "scottdale",
    "state": "PA"
  },
  {
    "city": "johnstown",
    "state_code": "PA",
    "placeMasterId": "P02500000FsoGUx8UimqAk24lO3DGGu9IeQPPEZ3",
    "placeName": "johnstown",
    "state": "PA"
  },
  {
    "city": "beaverdale",
    "state_code": "PA",
    "placeMasterId": "P02500000FsoGQxR7pggBVDDstJXYlBrHd5iQX1B",
    "placeName": "beaverdale",
    "state": "PA"
  },
  {
    "city": "bessemer",
    "state_code": "PA",
    "placeMasterId": "P02500000FsoGR6HbR5FyBoT3h7syfgBSRRPct3L",
    "placeName": "bessemer",
    "state": "PA"
  },
  {
    "city": "shippenville",
    "state_code": "PA",
    "placeMasterId": "P02500000FsoGYnzO0UQNIFgT4yXXs8MPeXGvTCL",
    "placeName": "shippenville",
    "state": "PA"
  },
  {
    "city": "tidioute",
    "state_code": "PA",
    "placeMasterId": "P02500000FsoGZf4Fcrt5Pr9Vtqc3L4PQnwGvm95",
    "placeName": "tidioute",
    "state": "PA"
  },
  {
    "city": "ashville",
    "state_code": "PA",
    "placeMasterId": "P02500000FsoGQfkActWc80jXHgqiwD6iF2hWIZJ",
    "placeName": "ashville",
    "state": "PA"
  },
  {
    "city": "state college",
    "state_code": "PA",
    "placeMasterId": "P02500000FsoGZEWoog9jM3PzUPZnbbV5xEIqcbj",
    "placeName": "state college",
    "state": "PA"
  },
  {
    "city": "west decatur",
    "state_code": "PA",
    "placeMasterId": "P02500000FsoGaNIddqm0qrNNuuL8tWKBHEMhU7B",
    "placeName": "west decatur",
    "state": "PA"
  },
  {
    "city": "mansfield",
    "state_code": "PA",
    "placeMasterId": "P02500000FsoGVoDMLAIsrdXoCvHljqaM2scF83z",
    "placeName": "mansfield",
    "state": "PA"
  },
  {
    "city": "berrysburg",
    "state_code": "PA",
    "placeMasterId": "P02500000FsoGR6HbR5FyBoT3h7syfg77zK2cr5I",
    "placeName": "berrysburg",
    "state": "PA"
  },
  {
    "city": "harrisburg",
    "state_code": "PA",
    "placeMasterId": "P02500000FsoGU63d6PNScQbiZB8kny65f71GTm1",
    "placeName": "harrisburg",
    "state": "PA"
  },
  {
    "city": "greencastle",
    "state_code": "PA",
    "placeMasterId": "P02500000FsoGTxD9V0nfvpMXlMnKtTgmkk62FdC",
    "placeName": "greencastle",
    "state": "PA"
  },
  {
    "city": "wellsville",
    "state_code": "PA",
    "placeMasterId": "P02500000FsoGaESA2SCEAG8D75ziz1vrMJzaqLP",
    "placeName": "wellsville",
    "state": "PA"
  },
  {
    "city": "christiana",
    "state_code": "PA",
    "placeMasterId": "P02500000FsoGRxMT3SigJPw6VzxU8cVp6uevrtM",
    "placeName": "christiana",
    "state": "PA"
  },
  {
    "city": "gordonville",
    "state_code": "PA",
    "placeMasterId": "P02500000FsoGTxD9V0nfvpMXlMnKtTgik2aXNZa",
    "placeName": "gordonville",
    "state": "PA"
  },
  {
    "city": "klingerstown",
    "state_code": "PA",
    "placeMasterId": "P02500000FsoGV5yyKBPxQdJwBrYgBOWf16H2q6U",
    "placeName": "klingerstown",
    "state": "PA"
  },
  {
    "city": "port carbon",
    "state_code": "PA",
    "placeMasterId": "P02500000FsoGXo42miNsU2yFSI7cUhcOS1vhltJ",
    "placeName": "port carbon",
    "state": "PA"
  },
  {
    "city": "jermyn",
    "state_code": "PA",
    "placeMasterId": "P02500000FsoGUoI17OGO3QpaaErqMQ5DxBAOLxa",
    "placeName": "jermyn",
    "state": "PA"
  },
  {
    "city": "scranton",
    "state_code": "PA",
    "placeMasterId": "P02500000FsoGYf8uP5qabeRIHAC7xdsDcRUIZct",
    "placeName": "scranton",
    "state": "PA"
  },
  {
    "city": "glen lyon",
    "state_code": "PA",
    "placeMasterId": "P02500000FsoGTxD9V0nfvpMXlMnKtTbL3zBvUOd",
    "placeName": "glen lyon",
    "state": "PA"
  },
  {
    "city": "new hope",
    "state_code": "PA",
    "placeMasterId": "P02500000FsoGWo8hYwLNfqG1pbhh7HASa0lHkWr",
    "placeName": "new hope",
    "state": "PA"
  },
  {
    "city": "perkasie",
    "state_code": "PA",
    "placeMasterId": "P02500000FsoGXWN5ZvEJ6qTtqfQmfj10cLHlUdR",
    "placeName": "perkasie",
    "state": "PA"
  },
  {
    "city": "trumbauersville",
    "state_code": "PA",
    "placeMasterId": "P02500000FsoGZnujEGSs6SOghexTFYqr0LsF65q",
    "placeName": "trumbauersville",
    "state": "PA"
  },
  {
    "city": "oreland",
    "state_code": "PA",
    "placeMasterId": "P02500000FsoGXNWbyWeWQFEj2r5MlEWIQQgZjD8",
    "placeName": "oreland",
    "state": "PA"
  },
  {
    "city": "philadelphia",
    "state_code": "PA",
    "placeMasterId": "P02500000FsoGXWN5ZvEJ6qTtqfQmfiyVODy6MPW",
    "placeName": "philadelphia",
    "state": "PA"
  },
  {
    "city": "exton",
    "state_code": "PA",
    "placeMasterId": "P02500000FsoGTEylU1ukUp8fkJ4FL1qiT68Dj4a",
    "placeName": "exton",
    "state": "PA"
  },
  {
    "city": "unionville",
    "state_code": "PA",
    "placeMasterId": "P02500000FsoGZwlCpf2en3drVTItA38MMR2r6gT",
    "placeName": "unionville",
    "state": "PA"
  },
  {
    "city": "frederica",
    "state_code": "DE",
    "placeMasterId": "P02500000FsoEpnBHdBXPxi7mVxS6WjcziI030Ca",
    "placeName": "frederica",
    "state": "DE"
  },
  {
    "city": "washington",
    "state_code": "DC",
    "placeMasterId": "P02500000FsoEq4sEpygzKuc87a8wLiQYg142PzN",
    "placeName": "washington",
    "state": "DC"
  },
  {
    "city": "washington",
    "state_code": "DC",
    "placeMasterId": "P02500000FsoEq4sEpygzKuc87a8wLiQYg142PzN",
    "placeName": "washington",
    "state": "DC"
  },
  {
    "city": "washington",
    "state_code": "DC",
    "placeMasterId": "P02500000FsoEq4sEpygzKuc87a8wLiQYg142PzN",
    "placeName": "washington",
    "state": "DC"
  },
  {
    "city": "washington",
    "state_code": "DC",
    "placeMasterId": "P02500000FsoEq4sEpygzKuc87a8wLiQYg142PzN",
    "placeName": "washington",
    "state": "DC"
  },
  {
    "city": "lanham",
    "state_code": "MD",
    "placeMasterId": "P02500000FsoFUswnLLlZqibxtowSvogQzIZBBun",
    "placeName": "lanham",
    "state": "MD"
  },
  {
    "city": "college park",
    "state_code": "MD",
    "placeMasterId": "P02500000FsoFTt1S7Zj52VtkH8WXYODxmge7cnn",
    "placeName": "college park",
    "state": "MD"
  },
  {
    "city": "hyattsville",
    "state_code": "MD",
    "placeMasterId": "P02500000FsoFUk6JjxBnA7Mn60b31KN4Wj0BAWZ",
    "placeName": "hyattsville",
    "state": "MD"
  },
  {
    "city": "silver spring",
    "state_code": "MD",
    "placeMasterId": "P02500000FsoFVk1exjEHyK50ih0yOl85Zhht6fO",
    "placeName": "silver spring",
    "state": "MD"
  },
  {
    "city": "edgewater",
    "state_code": "MD",
    "placeMasterId": "P02500000FsoFUAiPKMsePiO5slDNNMm2RvD77Lq",
    "placeName": "edgewater",
    "state": "MD"
  },
  {
    "city": "baltimore",
    "state_code": "MD",
    "placeMasterId": "P02500000FsoFTSU1JNziyiADrhUHous91WaBH4V",
    "placeName": "baltimore",
    "state": "MD"
  },
  {
    "city": "baltimore",
    "state_code": "MD",
    "placeMasterId": "P02500000FsoFTSU1JNziyiADrhUHous91WaBH4V",
    "placeName": "baltimore",
    "state": "MD"
  },
  {
    "city": "baltimore",
    "state_code": "MD",
    "placeMasterId": "P02500000FsoFTSU1JNziyiADrhUHous91WaBH4V",
    "placeName": "baltimore",
    "state": "MD"
  },
  {
    "city": "midland",
    "state_code": "MD",
    "placeMasterId": "P02500000FsoFVAdkY8v9Dv6JVRdIknLxv2sN9Iw",
    "placeName": "midland",
    "state": "MD"
  },
  {
    "city": "federalsburg",
    "state_code": "MD",
    "placeMasterId": "P02500000FsoFUJYsvlSR6JdGgZYnHr9NYPEC8f6",
    "placeName": "federalsburg",
    "state": "MD"
  },
  {
    "city": "frederick",
    "state_code": "MD",
    "placeMasterId": "P02500000FsoFUJYsvlSR6JdGgZYnHrC7Vb7aVJm",
    "placeName": "frederick",
    "state": "MD"
  },
  {
    "city": "pocomoke city",
    "state_code": "MD",
    "placeMasterId": "P02500000FsoFVSKhkw4ib7af74K8ZmCFhCsOWhN",
    "placeName": "pocomoke city",
    "state": "MD"
  },
  {
    "city": "quantico",
    "state_code": "MD",
    "placeMasterId": "P02500000FsoFVbBBMKeVHippusfYUGRnhcb1wa6",
    "placeName": "quantico",
    "state": "MD"
  },
  {
    "city": "plaza",
    "state_code": "ND",
    "placeMasterId": "P02500000FsoGByYzV44jM8WaX3Gg5ktWAvdtE8R",
    "placeName": "plaza",
    "state": "ND"
  },
  {
    "city": "grenora",
    "state_code": "ND",
    "placeMasterId": "P02500000FsoGB7U7sgc1EX3XiBCAcolgO0NtAbM",
    "placeName": "grenora",
    "state": "ND"
  },
  {
    "city": "keene",
    "state_code": "ND",
    "placeMasterId": "P02500000FsoI4gvYtKD5PWj7jHqXOSgtiXgEiCm",
    "placeName": "keene",
    "state": "ND"
  },
  {
    "city": "hardin",
    "state_code": "MT",
    "placeMasterId": "P02500000FsoFpQpYCQsenDr3akge8MEIfk6FdPM",
    "placeName": "hardin",
    "state": "MT"
  },
  {
    "city": "fairfield",
    "state_code": "MT",
    "placeMasterId": "P02500000FsoFp98azdj5Q1Mhz7zoJNYnzUczLRl",
    "placeName": "fairfield",
    "state": "MT"
  },
  {
    "city": "havre",
    "state_code": "MT",
    "placeMasterId": "P02500000FsoFpQpYCQsenDr3akge8MEzoCdbGA6",
    "placeName": "havre",
    "state": "MT"
  },
  {
    "city": "sheridan",
    "state_code": "MT",
    "placeMasterId": "P02500000FsoFqQktQCv9bQZHDR6ZVmkoRLYUUG4",
    "placeName": "sheridan",
    "state": "MT"
  },
  {
    "city": "west yellowstone",
    "state_code": "MT",
    "placeMasterId": "P02500000FsoFqiRqd04iyd3cp3nPKlRJz4UzFgC",
    "placeName": "west yellowstone",
    "state": "MT"
  },
  {
    "city": "missoula",
    "state_code": "MT",
    "placeMasterId": "P02500000FsoFq0DSc1BnXcpko04JmJXRBQWeVrS",
    "placeName": "missoula",
    "state": "MT"
  },
  {
    "city": "ovando",
    "state_code": "MT",
    "placeMasterId": "P02500000FsoFq0DSc1BnXcpko04JmJbqvMwfsFZ",
    "placeName": "ovando",
    "state": "MT"
  },
  {
    "city": "philipsburg",
    "state_code": "MT",
    "placeMasterId": "P02500000FsoFq93wDPlaEE4vboPjgnxiDQlZyHC",
    "placeName": "philipsburg",
    "state": "MT"
  },
  {
    "city": "ronan",
    "state_code": "MT",
    "placeMasterId": "P02500000FsoFqHuPooLMupK6Pcl9bINu01B5una",
    "placeName": "ronan",
    "state": "MT"
  },
  {
    "city": "coram",
    "state_code": "MT",
    "placeMasterId": "P02500000FsoFp98azdj5Q1Mhz7zoJNKUkLTAxke",
    "placeName": "coram",
    "state": "MT"
  },
  {
    "city": "elmo",
    "state_code": "MT",
    "placeMasterId": "P02500000FsoFpHz4b2Is6cbsmwLEDri5ZlEfWEz",
    "placeName": "elmo",
    "state": "MT"
  },
  {
    "city": "dekalb",
    "state_code": "IL",
    "placeMasterId": "P02500000FsoF2v3D7edfAydoQfEYLnpy1ajhkS6",
    "placeName": "dekalb",
    "state": "IL"
  },
  {
    "city": "elgin",
    "state_code": "IL",
    "placeMasterId": "P02500000FsoF3CkAKRnEYB8A2HvOAmY3wSrnsPC",
    "placeName": "elgin",
    "state": "IL"
  },
  {
    "city": "roselle",
    "state_code": "IL",
    "placeMasterId": "P02500000FsoF7LI0owX0TbEDKpwVazK58tAwhqO",
    "placeName": "roselle",
    "state": "IL"
  },
  {
    "city": "bolingbrook",
    "state_code": "IL",
    "placeMasterId": "P02500000FsoF1mHOIU1NgAgQ0ATD3su9Wz2k6vH",
    "placeName": "bolingbrook",
    "state": "IL"
  },
  {
    "city": "wilmington",
    "state_code": "IL",
    "placeMasterId": "P02500000FsoF8lkmquIrLbfxMxOght4dyyd570S",
    "placeName": "wilmington",
    "state": "IL"
  },
  {
    "city": "bolingbrook",
    "state_code": "IL",
    "placeMasterId": "P02500000FsoF1mHOIU1NgAgQ0ATD3su9Wz2k6vH",
    "placeName": "bolingbrook",
    "state": "IL"
  },
  {
    "city": "aurora",
    "state_code": "IL",
    "placeMasterId": "P02500000FsoF1UaR5groIyC4OXmNEu6g7d0TmeM",
    "placeName": "aurora",
    "state": "IL"
  },
  {
    "city": "hinckley",
    "state_code": "IL",
    "placeMasterId": "P02500000FsoF4LVz9cPW2z5YSmgjShYo6zZ0Ikk",
    "placeName": "hinckley",
    "state": "IL"
  },
  {
    "city": "millington",
    "state_code": "IL",
    "placeMasterId": "P02500000FsoF5lylBaBMuzXIUu8uZbGwPbmmFzA",
    "placeName": "millington",
    "state": "IL"
  },
  {
    "city": "naperville",
    "state_code": "IL",
    "placeMasterId": "P02500000FsoF5upEmyl9bamTIiUKU5d7vrWjH7i",
    "placeName": "naperville",
    "state": "IL"
  },
  {
    "city": "chicago",
    "state_code": "IL",
    "placeMasterId": "P02500000FsoF2LfIi4KWQZf7DPqshqNB04VNil1",
    "placeName": "chicago",
    "state": "IL"
  },
  {
    "city": "chicago",
    "state_code": "IL",
    "placeMasterId": "P02500000FsoF2LfIi4KWQZf7DPqshqNB04VNil1",
    "placeName": "chicago",
    "state": "IL"
  },
  {
    "city": "chicago",
    "state_code": "IL",
    "placeMasterId": "P02500000FsoF2LfIi4KWQZf7DPqshqNB04VNil1",
    "placeName": "chicago",
    "state": "IL"
  },
  {
    "city": "chicago",
    "state_code": "IL",
    "placeMasterId": "P02500000FsoF2LfIi4KWQZf7DPqshqNB04VNil1",
    "placeName": "chicago",
    "state": "IL"
  },
  {
    "city": "cissna park",
    "state_code": "IL",
    "placeMasterId": "P02500000FsoF2UVmJSuJ7AuI1ECIcKfQRr3Qyxi",
    "placeName": "cissna park",
    "state": "IL"
  },
  {
    "city": "roscoe",
    "state_code": "IL",
    "placeMasterId": "P02500000FsoF7LI0owX0TbEDKpwVazIT1AfqZc8",
    "placeName": "roscoe",
    "state": "IL"
  },
  {
    "city": "magnolia",
    "state_code": "IL",
    "placeMasterId": "P02500000FsoF5UHnyn1nXn2wtHS4kcWGWSWU0XN",
    "placeName": "magnolia",
    "state": "IL"
  },
  {
    "city": "raritan",
    "state_code": "IL",
    "placeMasterId": "P02500000FsoF73b3c9NR6OjrjDFfm0YWhVplExa",
    "placeName": "raritan",
    "state": "IL"
  },
  {
    "city": "wataga",
    "state_code": "IL",
    "placeMasterId": "P02500000FsoF8cuJFVj4f0QmZ93GnOfpBatehjD",
    "placeName": "wataga",
    "state": "IL"
  },
  {
    "city": "chillicothe",
    "state_code": "IL",
    "placeMasterId": "P02500000FsoF2LfIi4KWQZf7DPqshqNNvG0sURO",
    "placeName": "chillicothe",
    "state": "IL"
  },
  {
    "city": "forest city",
    "state_code": "IL",
    "placeMasterId": "P02500000FsoF3dHb8dWabyrgRixduFftuPlYGOM",
    "placeName": "forest city",
    "state": "IL"
  },
  {
    "city": "hanna city",
    "state_code": "IL",
    "placeMasterId": "P02500000FsoF43p1wpFwfmbCr9ztdinqIua06rc",
    "placeName": "hanna city",
    "state": "IL"
  },
  {
    "city": "roanoke",
    "state_code": "IL",
    "placeMasterId": "P02500000FsoF73b3c9NR6OjrjDFfm0dTKwnVy2q",
    "placeName": "roanoke",
    "state": "IL"
  },
  {
    "city": "sparland",
    "state_code": "IL",
    "placeMasterId": "P02500000FsoF7ufvEWq9E0CuY5KBEwqcgnOFv3d",
    "placeName": "sparland",
    "state": "IL"
  },
  {
    "city": "fairbury",
    "state_code": "IL",
    "placeMasterId": "P02500000FsoF3LadvqN1EmNKq6Go5GwUdKYS6ts",
    "placeName": "fairbury",
    "state": "IL"
  },
  {
    "city": "maroa",
    "state_code": "IL",
    "placeMasterId": "P02500000FsoF5d8HaBbaEOI7h5nUf6rhh0vtbhw",
    "placeName": "maroa",
    "state": "IL"
  },
  {
    "city": "murdock",
    "state_code": "IL",
    "placeMasterId": "P02500000FsoHMSXXuRHePIr6fYkywbRGbLwtkgH",
    "placeName": "murdock",
    "state": "IL"
  },
  {
    "city": "greenfield",
    "state_code": "IL",
    "placeMasterId": "P02500000FsoF3uyYLQg9zBM23LeTjEQP6Rxlztr",
    "placeName": "greenfield",
    "state": "IL"
  },
  {
    "city": "mount olive",
    "state_code": "IL",
    "placeMasterId": "P02500000FsoF5upEmyl9bamTIiUKU5eoJFpuLPV",
    "placeName": "mount olive",
    "state": "IL"
  },
  {
    "city": "south roxana",
    "state_code": "IL",
    "placeMasterId": "P02500000FsoF7ufvEWq9E0CuY5KBEwo8wyJUP7x",
    "placeName": "south roxana",
    "state": "IL"
  },
  {
    "city": "belleville",
    "state_code": "IL",
    "placeMasterId": "P02500000FsoF1dQuh5RazZRFCM7n9OU7MtuzgSx",
    "placeName": "belleville",
    "state": "IL"
  },
  {
    "city": "belleville",
    "state_code": "IL",
    "placeMasterId": "P02500000FsoF1dQuh5RazZRFCM7n9OU7MtuzgSx",
    "placeName": "belleville",
    "state": "IL"
  },
  {
    "city": "highland",
    "state_code": "IL",
    "placeMasterId": "P02500000FsoF4LVz9cPW2z5YSmgjShWqNn5iBot",
    "placeName": "highland",
    "state": "IL"
  },
  {
    "city": "nashville",
    "state_code": "IL",
    "placeMasterId": "P02500000FsoF63fiONKwIC1e6WpkOZzfbPfZGAN",
    "placeName": "nashville",
    "state": "IL"
  },
  {
    "city": "trenton",
    "state_code": "IL",
    "placeMasterId": "P02500000FsoF8LDM2iZVHnwQxWMQyPuAc2wBkIS",
    "placeName": "trenton",
    "state": "IL"
  },
  {
    "city": "troy",
    "state_code": "IL",
    "placeMasterId": "P02500000FsoF8CMsRJzibChG9i113vaFRvIdJUV",
    "placeName": "troy",
    "state": "IL"
  },
  {
    "city": "payson",
    "state_code": "IL",
    "placeMasterId": "P02500000FsoF6d3cnxe52b0LJmDQ2XVzTRdeP8P",
    "placeName": "payson",
    "state": "IL"
  },
  {
    "city": "pearl",
    "state_code": "IL",
    "placeMasterId": "P02500000FsoF6lu6PMDrjCFW7aYpx1pLkecLvvI",
    "placeName": "pearl",
    "state": "IL"
  },
  {
    "city": "decatur",
    "state_code": "IL",
    "placeMasterId": "P02500000FsoF2v3D7edfAydoQfEYLnpWbMReuOD",
    "placeName": "decatur",
    "state": "IL"
  },
  {
    "city": "illiopolis",
    "state_code": "IL",
    "placeMasterId": "P02500000FsoF4UMSl0zIjaKjGb29NBtUbxzPD8f",
    "placeName": "illiopolis",
    "state": "IL"
  },
  {
    "city": "taylorville",
    "state_code": "IL",
    "placeMasterId": "P02500000FsoF8CMsRJzibChG9i113vY4TMWHmTg",
    "placeName": "taylorville",
    "state": "IL"
  },
  {
    "city": "chapin",
    "state_code": "IL",
    "placeMasterId": "P02500000FsoF2LfIi4KWQZf7DPqshqJyzaIlhQB",
    "placeName": "chapin",
    "state": "IL"
  },
  {
    "city": "frederick",
    "state_code": "IL",
    "placeMasterId": "P02500000FsoHJtIx3ItW2URyCwXSXmmcfT0X9dN",
    "placeName": "frederick",
    "state": "IL"
  },
  {
    "city": "mason city",
    "state_code": "IL",
    "placeMasterId": "P02500000FsoF5UHnyn1nXn2wtHS4kcZHibtQ3NZ",
    "placeName": "mason city",
    "state": "IL"
  },
  {
    "city": "springfield",
    "state_code": "IL",
    "placeMasterId": "P02500000FsoF7ufvEWq9E0CuY5KBEwn2MTYuixB",
    "placeName": "springfield",
    "state": "IL"
  },
  {
    "city": "marion",
    "state_code": "IL",
    "placeMasterId": "P02500000FsoF5UHnyn1nXn2wtHS4kcXULmLCOgD",
    "placeName": "marion",
    "state": "IL"
  },
  {
    "city": "chesterfield",
    "state_code": "MO",
    "placeMasterId": "P02500000FsoFja7yTBDScaoueSWVmH1vwiPuc8U",
    "placeName": "chesterfield",
    "state": "MO"
  },
  {
    "city": "valley park",
    "state_code": "MO",
    "placeMasterId": "P02500000FsoFo9DFlrgaboeUMRZsvwqsX8xSda6",
    "placeName": "valley park",
    "state": "MO"
  },
  {
    "city": "alexandria",
    "state_code": "MO",
    "placeMasterId": "P02500000FsoFij36qnkkUzLrpaS0JKc3lwikTia",
    "placeName": "alexandria",
    "state": "MO"
  },
  {
    "city": "leonard",
    "state_code": "MO",
    "placeMasterId": "P02500000FsoFlrfc7WS1cCjhVS3CM6w4pnyAsP6",
    "placeName": "leonard",
    "state": "MO"
  },
  {
    "city": "wayland",
    "state_code": "MO",
    "placeMasterId": "P02500000FsoFoI3jNGGNIPtfAFvIqREYGX0bIjb",
    "placeName": "wayland",
    "state": "MO"
  },
  {
    "city": "catron",
    "state_code": "MO",
    "placeMasterId": "P02500000FsoFja7yTBDScaoueSWVmGy4yLMUxK6",
    "placeName": "catron",
    "state": "MO"
  },
  {
    "city": "holland",
    "state_code": "MO",
    "placeMasterId": "P02500000FsoFl9RE6XZ6BCVpUOK6nf78puAURO7",
    "placeName": "holland",
    "state": "MO"
  },
  {
    "city": "tallapoosa",
    "state_code": "MO",
    "placeMasterId": "P02500000FsoFo0MmAT6nvDPJYdET1SPME25NY8w",
    "placeName": "tallapoosa",
    "state": "MO"
  },
  {
    "city": "blue springs",
    "state_code": "MO",
    "placeMasterId": "P02500000FsoFj9aXezU6Yn5OF1UG2nprLmCk7kt",
    "placeName": "blue springs",
    "state": "MO"
  },
  {
    "city": "buckner",
    "state_code": "MO",
    "placeMasterId": "P02500000FsoFjIR1GO3tFOKZ2ppfxIEbcHy3vTc",
    "placeName": "buckner",
    "state": "MO"
  },
  {
    "city": "mayview",
    "state_code": "MO",
    "placeMasterId": "P02500000FsoFm9MZKJbazPE374k2B5irCdzqv4I",
    "placeName": "mayview",
    "state": "MO"
  },
  {
    "city": "kansas city",
    "state_code": "MO",
    "placeMasterId": "P02500000FsoFlR8BJKifYP0B610wcdmJLAheztV",
    "placeName": "kansas city",
    "state": "MO"
  },
  {
    "city": "kansas city",
    "state_code": "MO",
    "placeMasterId": "P02500000FsoFlR8BJKifYP0B610wcdmJLAheztV",
    "placeName": "kansas city",
    "state": "MO"
  },
  {
    "city": "kansas city",
    "state_code": "MO",
    "placeMasterId": "P02500000FsoFlR8BJKifYP0B610wcdmJLAheztV",
    "placeName": "kansas city",
    "state": "MO"
  },
  {
    "city": "riverside",
    "state_code": "MO",
    "placeMasterId": "P02500000FsoFnQyrksnfAoQcLNqnNUsQALNTogI",
    "placeName": "riverside",
    "state": "MO"
  },
  {
    "city": "eagleville",
    "state_code": "MO",
    "placeMasterId": "P02500000FsoFk9VsslWbMznbrhuBQELzAwld0Bm",
    "placeName": "eagleville",
    "state": "MO"
  },
  {
    "city": "bosworth",
    "state_code": "MO",
    "placeMasterId": "P02500000FsoFj9aXezU6Yn5OF1UG2nt53an1ABw",
    "placeName": "bosworth",
    "state": "MO"
  },
  {
    "city": "carrollton",
    "state_code": "MO",
    "placeMasterId": "P02500000FsoFjRHUrmdfvzZjqeB5rmcRVZaXStN",
    "placeName": "carrollton",
    "state": "MO"
  },
  {
    "city": "lucerne",
    "state_code": "MO",
    "placeMasterId": "P02500000FsoFm0W5iv1oInysJGOcGbGY86LPVdL",
    "placeName": "lucerne",
    "state": "MO"
  },
  {
    "city": "norborne",
    "state_code": "MO",
    "placeMasterId": "P02500000FsoFmZu08VKx3CxZWVmHuYm3bBe8fML",
    "placeName": "norborne",
    "state": "MO"
  },
  {
    "city": "adrian",
    "state_code": "MO",
    "placeMasterId": "P02500000FsoFiaCdFPAxoO6h1m6aOqRJARF98DY",
    "placeName": "adrian",
    "state": "MO"
  },
  {
    "city": "sheldon",
    "state_code": "MO",
    "placeMasterId": "P02500000FsoFnZpLMHNRrPfn9CCDHzQuZSCJuEV",
    "placeName": "sheldon",
    "state": "MO"
  },
  {
    "city": "alba",
    "state_code": "MO",
    "placeMasterId": "P02500000FsoFiaCdFPAxoO6h1m6aOqNq1iNGZnw",
    "placeName": "alba",
    "state": "MO"
  },
  {
    "city": "lanagan",
    "state_code": "MO",
    "placeMasterId": "P02500000FsoFlrfc7WS1cCjhVS3CM6nV82SI2xq",
    "placeName": "lanagan",
    "state": "MO"
  },
  {
    "city": "purcell",
    "state_code": "MO",
    "placeMasterId": "P02500000FsoFn9HuY5e5nbwGjl9xYWBzaP8pIID",
    "placeName": "purcell",
    "state": "MO"
  },
  {
    "city": "webb city",
    "state_code": "MO",
    "placeMasterId": "P02500000FsoFoQuCyeq9z18py4GikvYc0Uft1rj",
    "placeName": "webb city",
    "state": "MO"
  },
  {
    "city": "dalton",
    "state_code": "MO",
    "placeMasterId": "P02500000FsoFk0fPHMwogOYR3tYlVk3FvuT7jDe",
    "placeName": "dalton",
    "state": "MO"
  },
  {
    "city": "madison",
    "state_code": "MO",
    "placeMasterId": "P02500000FsoFm9MZKJbazPE374k2B5X7xuByLXt",
    "placeName": "madison",
    "state": "MO"
  },
  {
    "city": "stoutsville",
    "state_code": "MO",
    "placeMasterId": "P02500000FsoFnrWIZ4X1EcA8kot36y913J8anl1",
    "placeName": "stoutsville",
    "state": "MO"
  },
  {
    "city": "blackwater",
    "state_code": "MO",
    "placeMasterId": "P02500000FsoFj9aXezU6Yn5OF1UG2nnv7tP5znq",
    "placeName": "blackwater",
    "state": "MO"
  },
  {
    "city": "plato",
    "state_code": "MO",
    "placeMasterId": "P02500000FsoFn0RQwh4J70h5vwoXe1rAklDeeKe",
    "placeName": "plato",
    "state": "MO"
  },
  {
    "city": "stoutland",
    "state_code": "MO",
    "placeMasterId": "P02500000FsoFnrWIZ4X1EcA8kot36y05Yk8FKCR",
    "placeName": "stoutland",
    "state": "MO"
  },
  {
    "city": "aurora",
    "state_code": "MO",
    "placeMasterId": "P02500000FsoFirtaSCKXBab2dOnQDp4VnWuNpCu",
    "placeName": "aurora",
    "state": "MO"
  },
  {
    "city": "monett",
    "state_code": "MO",
    "placeMasterId": "P02500000FsoFmID2viBNg0TDut5S5a34Ou6h0mT",
    "placeName": "monett",
    "state": "MO"
  },
  {
    "city": "springfield",
    "state_code": "MO",
    "placeMasterId": "P02500000FsoFnifoxfxEY0uxx0XdCTlHDhP1BxY",
    "placeName": "springfield",
    "state": "MO"
  },
  {
    "city": "lawrence",
    "state_code": "KS",
    "placeMasterId": "P02500000FsoFKthN7bMbkfTleylD9WfQGaj0ALz",
    "placeName": "lawrence",
    "state": "KS"
  },
  {
    "city": "ozawkie",
    "state_code": "KS",
    "placeMasterId": "P02500000FsoFLtciLNP6YsBzHfB8WxBvvKK9e6C",
    "placeName": "ozawkie",
    "state": "KS"
  },
  {
    "city": "princeton",
    "state_code": "KS",
    "placeMasterId": "P02500000FsoFM2TBwlytFTRA5TWYRRZp9WxSzM9",
    "placeName": "princeton",
    "state": "KS"
  },
  {
    "city": "kansas city",
    "state_code": "KS",
    "placeMasterId": "P02500000FsoFKthN7bMbkfTleylD9WcwenSSDwE",
    "placeName": "kansas city",
    "state": "KS"
  },
  {
    "city": "belvue",
    "state_code": "KS",
    "placeMasterId": "P02500000FsoFJTEb5daksf21crJ22crlFd96Zli",
    "placeName": "belvue",
    "state": "KS"
  },
  {
    "city": "silver lake",
    "state_code": "KS",
    "placeMasterId": "P02500000FsoFMT0ckxiFJHAgUuYoAufth8M46c4",
    "placeName": "silver lake",
    "state": "KS"
  },
  {
    "city": "vassar",
    "state_code": "KS",
    "placeMasterId": "P02500000FsoFMbr6MMI1zsPrIiuE5P51CLsToDH",
    "placeName": "vassar",
    "state": "KS"
  },
  {
    "city": "elsmore",
    "state_code": "KS",
    "placeMasterId": "P02500000FsoFK2cVVDttd40iq6ghgaRvi5YDMZz",
    "placeName": "elsmore",
    "state": "KS"
  },
  {
    "city": "byers",
    "state_code": "KS",
    "placeMasterId": "P02500000FsoFJc54h2AXZGHCQfeRx7GCXMWYAeg",
    "placeName": "byers",
    "state": "KS"
  },
  {
    "city": "garden plain",
    "state_code": "KS",
    "placeMasterId": "P02500000FsoFKBSz6cTgJfFtdv27b4nTXYDcdJe",
    "placeName": "garden plain",
    "state": "KS"
  },
  {
    "city": "goessel",
    "state_code": "KS",
    "placeMasterId": "P02500000FsoFKKJSi13T0GV4RjNXVZA1iQihL25",
    "placeName": "goessel",
    "state": "KS"
  },
  {
    "city": "maize",
    "state_code": "KS",
    "placeMasterId": "P02500000FsoFLBOKKOWB7ry7GbS2yVOgrXtfZm3",
    "placeName": "maize",
    "state": "KS"
  },
  {
    "city": "pratt",
    "state_code": "KS",
    "placeMasterId": "P02500000FsoFM2TBwlytFTRA5TWYRRZkVCVCkTw",
    "placeName": "pratt",
    "state": "KS"
  },
  {
    "city": "wichita",
    "state_code": "KS",
    "placeMasterId": "P02500000FsoFMtY3Z9RbN4uCuLb3uNnBOyNlFLT",
    "placeName": "wichita",
    "state": "KS"
  },
  {
    "city": "wichita",
    "state_code": "KS",
    "placeMasterId": "P02500000FsoFMtY3Z9RbN4uCuLb3uNnBOyNlFLT",
    "placeName": "wichita",
    "state": "KS"
  },
  {
    "city": "grenola",
    "state_code": "KS",
    "placeMasterId": "P02500000FsoFKT9wJPdFgrkFFXixQ3TWi9RYkwM",
    "placeName": "grenola",
    "state": "KS"
  },
  {
    "city": "abilene",
    "state_code": "KS",
    "placeMasterId": "P02500000FsoFJ2hAHRrOorIVDQGmJ9kxFVEoyRS",
    "placeName": "abilene",
    "state": "KS"
  },
  {
    "city": "talmage",
    "state_code": "KS",
    "placeMasterId": "P02500000FsoFMT0ckxiFJHAgUuYoAuiyxQPmNf7",
    "placeName": "talmage",
    "state": "KS"
  },
  {
    "city": "utica",
    "state_code": "KS",
    "placeMasterId": "P02500000FsoFMbr6MMI1zsPrIiuE5P5xHJfTVV6",
    "placeName": "utica",
    "state": "KS"
  },
  {
    "city": "herndon",
    "state_code": "KS",
    "placeMasterId": "P02500000FsoFKc0PuoD2NSzQ3M4NKXqFdakzU9R",
    "placeName": "herndon",
    "state": "KS"
  },
  {
    "city": "levant",
    "state_code": "KS",
    "placeMasterId": "P02500000FsoFL2XqizwORGiwSn6d40yjlL7ZeK9",
    "placeName": "levant",
    "state": "KS"
  },
  {
    "city": "englewood",
    "state_code": "KS",
    "placeMasterId": "P02500000FsoFKBSz6cTgJfFtdv27b4imyiEhOpe",
    "placeName": "englewood",
    "state": "KS"
  },
  {
    "city": "holcomb",
    "state_code": "KS",
    "placeMasterId": "P02500000FsoFKkqtWCmp44EarAPnF2DaYMBYg5y",
    "placeName": "holcomb",
    "state": "KS"
  },
  {
    "city": "memphis",
    "state_code": "NE",
    "placeMasterId": "P02500000FsoFsr90fwjVHdjEsEyg070zQftP9Pq",
    "placeName": "memphis",
    "state": "NE"
  },
  {
    "city": "prague",
    "state_code": "NE",
    "placeMasterId": "P02500000FsoFtHgRU8SrLRSlHg0vja9Wx8kKrLm",
    "placeName": "prague",
    "state": "NE"
  },
  {
    "city": "benedict",
    "state_code": "NE",
    "placeMasterId": "P02500000FsoFr8zHRBo52Qn9EUpf4EZOfveSp6p",
    "placeName": "benedict",
    "state": "NE"
  },
  {
    "city": "murray",
    "state_code": "NE",
    "placeMasterId": "P02500000FsoFsr90fwjVHdjEsEyg0711oPzcNz3",
    "placeName": "murray",
    "state": "NE"
  },
  {
    "city": "lincoln",
    "state_code": "NE",
    "placeMasterId": "P02500000FsoFsZS3T9ZvuREtGcHqB8DyQVvTvuI",
    "placeName": "lincoln",
    "state": "NE"
  },
  {
    "city": "lincoln",
    "state_code": "NE",
    "placeMasterId": "P02500000FsoFsZS3T9ZvuREtGcHqB8DyQVvTvuI",
    "placeName": "lincoln",
    "state": "NE"
  },
  {
    "city": "ericson",
    "state_code": "NE",
    "placeMasterId": "P02500000FsoFrrDfSAh0TR11FYYkcgOF4kiQ7XJ",
    "placeName": "ericson",
    "state": "NE"
  },
  {
    "city": "north bend",
    "state_code": "NE",
    "placeMasterId": "P02500000FsoFszzUHLJHyEyPg3K5ubLURrd7PuU",
    "placeName": "north bend",
    "state": "NE"
  },
  {
    "city": "rogers",
    "state_code": "NE",
    "placeMasterId": "P02500000FsoFtQWv5X2e22hw5UMLe4TMBILM0E0",
    "placeName": "rogers",
    "state": "NE"
  },
  {
    "city": "coleridge",
    "state_code": "NE",
    "placeMasterId": "P02500000FsoFrQgEdyxePdHUq7WUtDQ90s2ZVRR",
    "placeName": "coleridge",
    "state": "NE"
  },
  {
    "city": "dixon",
    "state_code": "NE",
    "placeMasterId": "P02500000FsoFrZWiFNXR6EWfdvrunhr0LVR6aLI",
    "placeName": "dixon",
    "state": "NE"
  },
  {
    "city": "pierce",
    "state_code": "NE",
    "placeMasterId": "P02500000FsoFtHgRU8SrLRSlHg0vja707dNzahd",
    "placeName": "pierce",
    "state": "NE"
  },
  {
    "city": "ponca",
    "state_code": "NE",
    "placeMasterId": "P02500000FsoFtHgRU8SrLRSlHg0vjaGqTAdSpqB",
    "placeName": "ponca",
    "state": "NE"
  },
  {
    "city": "overton",
    "state_code": "NE",
    "placeMasterId": "P02500000FsoFszzUHLJHyEyPg3K5ubVrh2uQmj7",
    "placeName": "overton",
    "state": "NE"
  },
  {
    "city": "pleasanton",
    "state_code": "NE",
    "placeMasterId": "P02500000FsoFt8pxsjt4eqDaTrfVp5sPZ0ikdez",
    "placeName": "pleasanton",
    "state": "NE"
  },
  {
    "city": "lawrence",
    "state_code": "NE",
    "placeMasterId": "P02500000FsoFsQbZrl09DpziSnwQGe2ObzZHlQj",
    "placeName": "lawrence",
    "state": "NE"
  },
  {
    "city": "lebanon",
    "state_code": "NE",
    "placeMasterId": "P02500000FsoFsZS3T9ZvuREtGcHqB8I7MQRmcoT",
    "placeName": "lebanon",
    "state": "NE"
  },
  {
    "city": "palisade",
    "state_code": "NE",
    "placeMasterId": "P02500000FsoFt8pxsjt4eqDaTrfVp5pZiXAPkpj",
    "placeName": "palisade",
    "state": "NE"
  },
  {
    "city": "scottsbluff",
    "state_code": "NE",
    "placeMasterId": "P02500000FsoFtQWv5X2e22hw5UMLe4auxZEpNl9",
    "placeName": "scottsbluff",
    "state": "NE"
  },
  {
    "city": "chauvin",
    "state_code": "LA",
    "placeMasterId": "P02500000FsoFQbYTFSS1EhGjnSZvb7Xs8rG6Jsy",
    "placeName": "chauvin",
    "state": "LA"
  },
  {
    "city": "chataignier",
    "state_code": "LA",
    "placeMasterId": "P02500000FsoFQbYTFSS1EhGjnSZvb7dXVEmWYVB",
    "placeName": "chataignier",
    "state": "LA"
  },
  {
    "city": "jeanerette",
    "state_code": "LA",
    "placeMasterId": "P02500000FsoFRSdKrpujMIjmcKeR43pKJe63J77",
    "placeName": "jeanerette",
    "state": "LA"
  },
  {
    "city": "convent",
    "state_code": "LA",
    "placeMasterId": "P02500000FsoFQkOwqr1nvIVubGvLVbzW474iFmg",
    "placeName": "convent",
    "state": "LA"
  },
  {
    "city": "walker",
    "state_code": "LA",
    "placeMasterId": "P02500000FsoFSt66tngaEJBWeS6cAxWviJp6QT5",
    "placeName": "walker",
    "state": "LA"
  },
  {
    "city": "belcher",
    "state_code": "LA",
    "placeMasterId": "P02500000FsoFQJrW2fIRrUmOBpt5m8jPEGYF7Oz",
    "placeName": "belcher",
    "state": "LA"
  },
  {
    "city": "frierson",
    "state_code": "LA",
    "placeMasterId": "P02500000FsoFRAwNf2l9z6FR0hxbF4zyBKZgg1N",
    "placeName": "frierson",
    "state": "LA"
  },
  {
    "city": "quitman",
    "state_code": "LA",
    "placeMasterId": "P02500000FsoFSSYg5bxEAVS0F14MRUIcrbc0uiL",
    "placeName": "quitman",
    "state": "LA"
  },
  {
    "city": "bunkie",
    "state_code": "LA",
    "placeMasterId": "P02500000FsoFQShze3sEY61YzeEVgdDOcrOPwGL",
    "placeName": "bunkie",
    "state": "LA"
  },
  {
    "city": "deville",
    "state_code": "LA",
    "placeMasterId": "P02500000FsoFQkOwqr1nvIVubGvLVc152fz74hg",
    "placeName": "deville",
    "state": "LA"
  },
  {
    "city": "sicily island",
    "state_code": "LA",
    "placeMasterId": "P02500000FsoFSbP9h0X0r6hB2pPmLyi9ZvVZYw7",
    "placeName": "sicily island",
    "state": "LA"
  },
  {
    "city": "florien",
    "state_code": "LA",
    "placeMasterId": "P02500000FsoFR25u3eBNIV0GCtcBKacNnmDEqU9",
    "placeName": "florien",
    "state": "LA"
  },
  {
    "city": "chidester",
    "state_code": "AR",
    "placeMasterId": "P02500000FsoEax9ctxVkVEfexVWdln5kDKB8xJI",
    "placeName": "chidester",
    "state": "AR"
  },
  {
    "city": "magnolia",
    "state_code": "AR",
    "placeMasterId": "P02500000FsoEcElvKWhogdsEBodOyCQaVqyWK3x",
    "placeName": "magnolia",
    "state": "AR"
  },
  {
    "city": "whelen springs",
    "state_code": "AR",
    "placeMasterId": "P02500000FsoEdWODl5tss34nQ7kAAbhRYYOGo3i",
    "placeName": "whelen springs",
    "state": "AR"
  },
  {
    "city": "horatio",
    "state_code": "AR",
    "placeMasterId": "P02500000FsoEboEUWKyScq8hmNb9EjGmGxFfrek",
    "placeName": "horatio",
    "state": "AR"
  },
  {
    "city": "mccaskill",
    "state_code": "AR",
    "placeMasterId": "P02500000FsoEcElvKWhogdsEBodOyCOx7t4gSgi",
    "placeName": "mccaskill",
    "state": "AR"
  },
  {
    "city": "winthrop",
    "state_code": "AR",
    "placeMasterId": "P02500000FsoEdWODl5tss34nQ7kAAbiJsuzXU5y",
    "placeName": "winthrop",
    "state": "AR"
  },
  {
    "city": "kirby",
    "state_code": "AR",
    "placeMasterId": "P02500000FsoEbx4y7jYFJRNsaBwZ9Dcy7OvYWjS",
    "placeName": "kirby",
    "state": "AR"
  },
  {
    "city": "okolona",
    "state_code": "AR",
    "placeMasterId": "P02500000FsoEcfJM8iRAkRbkbFfehfVXbjyJxnY",
    "placeName": "okolona",
    "state": "AR"
  },
  {
    "city": "bald knob",
    "state_code": "AR",
    "placeMasterId": "P02500000FsoEafSfhAMB82BJLspnwoFWoogCgK5",
    "placeName": "bald knob",
    "state": "AR"
  },
  {
    "city": "bigelow",
    "state_code": "AR",
    "placeMasterId": "P02500000FsoEaoJ9IYvxodQU9hBDrId61k0f2mb",
    "placeName": "bigelow",
    "state": "AR"
  },
  {
    "city": "enola",
    "state_code": "AR",
    "placeMasterId": "P02500000FsoEbNh3i9F6Z2PBMwYtVG6vCUgUmG4",
    "placeName": "enola",
    "state": "AR"
  },
  {
    "city": "jacksonville",
    "state_code": "AR",
    "placeMasterId": "P02500000FsoEbx4y7jYFJRNsaBwZ9DexjeDMT7v",
    "placeName": "jacksonville",
    "state": "AR"
  },
  {
    "city": "morrilton",
    "state_code": "AR",
    "placeMasterId": "P02500000FsoEcWSsXJrO3qMZnRKEnB7zS0Ki2F0",
    "placeName": "morrilton",
    "state": "AR"
  },
  {
    "city": "stuttgart",
    "state_code": "AR",
    "placeMasterId": "P02500000FsoEd5qmwuAWoFLH0ghuR8cO09cdr0m",
    "placeName": "stuttgart",
    "state": "AR"
  },
  {
    "city": "forrest city",
    "state_code": "AR",
    "placeMasterId": "P02500000FsoEbWXXJXotFdeMAkuJPkVDsznwVej",
    "placeName": "forrest city",
    "state": "AR"
  },
  {
    "city": "datto",
    "state_code": "AR",
    "placeMasterId": "P02500000FsoEbEqa6kfJsRA0Z8DTallTQFXPyTV",
    "placeName": "datto",
    "state": "AR"
  },
  {
    "city": "harrisburg",
    "state_code": "AR",
    "placeMasterId": "P02500000FsoEboEUWKyScq8hmNb9EjEVNP6spZ0",
    "placeName": "harrisburg",
    "state": "AR"
  },
  {
    "city": "batesville",
    "state_code": "AR",
    "placeMasterId": "P02500000FsoEafSfhAMB82BJLspnwoIoAdZJ397",
    "placeName": "batesville",
    "state": "AR"
  },
  {
    "city": "cushman",
    "state_code": "AR",
    "placeMasterId": "P02500000FsoEb606VM5XBpuplJs3gHOtCA1VmYP",
    "placeName": "cushman",
    "state": "AR"
  },
  {
    "city": "springdale",
    "state_code": "AR",
    "placeMasterId": "P02500000FsoEd5qmwuAWoFLH0ghuR8bXSUKmczG",
    "placeName": "springdale",
    "state": "AR"
  },
  {
    "city": "lamar",
    "state_code": "AR",
    "placeMasterId": "P02500000FsoEc5vRj88202d3O0Hz3hyP4HCOEuL",
    "placeName": "lamar",
    "state": "AR"
  },
  {
    "city": "dyer",
    "state_code": "AR",
    "placeMasterId": "P02500000FsoEbEqa6kfJsRA0Z8DTaloSReJd2tQ",
    "placeName": "dyer",
    "state": "AR"
  },
  {
    "city": "huntington",
    "state_code": "AR",
    "placeMasterId": "P02500000FsoEbx4y7jYFJRNsaBwZ9DasxTVrBv6",
    "placeName": "huntington",
    "state": "AR"
  },
  {
    "city": "mansfield",
    "state_code": "AR",
    "placeMasterId": "P02500000FsoEcElvKWhogdsEBodOyCORCgcXZ03",
    "placeName": "mansfield",
    "state": "AR"
  },
  {
    "city": "mulberry",
    "state_code": "AR",
    "placeMasterId": "P02500000FsoEcWSsXJrO3qMZnRKEnB6IykFkpln",
    "placeName": "mulberry",
    "state": "AR"
  },
  {
    "city": "calumet",
    "state_code": "OK",
    "placeMasterId": "P02500000FsoGKFegU3YHCyih89IuwAUBzuRGO8l",
    "placeName": "calumet",
    "state": "OK"
  },
  {
    "city": "cashion",
    "state_code": "OK",
    "placeMasterId": "P02500000FsoGKOVA5S83tZxrvxeKqeqedNr7GYu",
    "placeName": "cashion",
    "state": "OK"
  },
  {
    "city": "norman",
    "state_code": "OK",
    "placeMasterId": "P02500000FsoGMg2njnMctBsemxB1QUbHJdaKM5C",
    "placeName": "norman",
    "state": "OK"
  },
  {
    "city": "newcastle",
    "state_code": "OK",
    "placeMasterId": "P02500000FsoGMXCK8OmqCadTz8pbW0PVjRdmYRQ",
    "placeName": "newcastle",
    "state": "OK"
  },
  {
    "city": "norman",
    "state_code": "OK",
    "placeMasterId": "P02500000FsoGMg2njnMctBsemxB1QUbHJdaKM5C",
    "placeName": "norman",
    "state": "OK"
  },
  {
    "city": "oklahoma city",
    "state_code": "OK",
    "placeMasterId": "P02500000FsoGMg2njnMctBsemxB1QUgVkw3g3BI",
    "placeName": "oklahoma city",
    "state": "OK"
  },
  {
    "city": "oklahoma city",
    "state_code": "OK",
    "placeMasterId": "P02500000FsoGMg2njnMctBsemxB1QUgVkw3g3BI",
    "placeName": "oklahoma city",
    "state": "OK"
  },
  {
    "city": "oklahoma city",
    "state_code": "OK",
    "placeMasterId": "P02500000FsoGMg2njnMctBsemxB1QUgVkw3g3BI",
    "placeName": "oklahoma city",
    "state": "OK"
  },
  {
    "city": "fairmont",
    "state_code": "OK",
    "placeMasterId": "P02500000FsoGLFa1hpam1BQukpiqJasliN19DuD",
    "placeName": "fairmont",
    "state": "OK"
  },
  {
    "city": "fairview",
    "state_code": "OK",
    "placeMasterId": "P02500000FsoGL6jY6R0zKaBjx1NQP6ZYsCJNg1e",
    "placeName": "fairview",
    "state": "OK"
  },
  {
    "city": "manchester",
    "state_code": "OK",
    "placeMasterId": "P02500000FsoGMFVMvbdGpO98NW8lh1TIiI81aXN",
    "placeName": "manchester",
    "state": "OK"
  },
  {
    "city": "wakita",
    "state_code": "OK",
    "placeMasterId": "P02500000FsoGNxf6AMYh4b5E1GHmcu0574i1KPI",
    "placeName": "wakita",
    "state": "OK"
  },
  {
    "city": "hooker",
    "state_code": "OK",
    "placeMasterId": "P02500000FsoGLg7SW1K84zARAGl63442xLaTnOl",
    "placeName": "hooker",
    "state": "OK"
  },
  {
    "city": "avant",
    "state_code": "OK",
    "placeMasterId": "P02500000FsoGJxxjHGOhpmELWWc57BbKvQRflJP",
    "placeName": "avant",
    "state": "OK"
  },
  {
    "city": "claremore",
    "state_code": "OK",
    "placeMasterId": "P02500000FsoGKgC7IFHdGmSDXaLAfdRtpBKDNwm",
    "placeName": "claremore",
    "state": "OK"
  },
  {
    "city": "perkins",
    "state_code": "OK",
    "placeMasterId": "P02500000FsoGMotHLBwPZn7palWRKz45YMKQvAG",
    "placeName": "perkins",
    "state": "OK"
  },
  {
    "city": "prue",
    "state_code": "OK",
    "placeMasterId": "P02500000FsoGMxjkwaWCGON0OZrrFTLibXihXp8",
    "placeName": "prue",
    "state": "OK"
  },
  {
    "city": "tulsa",
    "state_code": "OK",
    "placeMasterId": "P02500000FsoGNfy8xZP7hOasPdawnvKembwKfLR",
    "placeName": "tulsa",
    "state": "OK"
  },
  {
    "city": "tulsa",
    "state_code": "OK",
    "placeMasterId": "P02500000FsoGNfy8xZP7hOasPdawnvKembwKfLR",
    "placeName": "tulsa",
    "state": "OK"
  },
  {
    "city": "disney",
    "state_code": "OK",
    "placeMasterId": "P02500000FsoGKp2atdrPxNhOLOgaa7qEcFVVwav",
    "placeName": "disney",
    "state": "OK"
  },
  {
    "city": "mcalester",
    "state_code": "OK",
    "placeMasterId": "P02500000FsoGMFVMvbdGpO98NW8lh1bhfwBhjUu",
    "placeName": "mcalester",
    "state": "OK"
  },
  {
    "city": "kaw city",
    "state_code": "OK",
    "placeMasterId": "P02500000FsoGLoxw7PtulaPby56VxYQeq6DE80s",
    "placeName": "kaw city",
    "state": "OK"
  },
  {
    "city": "colbert",
    "state_code": "OK",
    "placeMasterId": "P02500000FsoGKgC7IFHdGmSDXaLAfdYQCW7cDey",
    "placeName": "colbert",
    "state": "OK"
  },
  {
    "city": "meeker",
    "state_code": "OK",
    "placeMasterId": "P02500000FsoGMOLqX0D3VzOJBKUBbW12SwFjFM2",
    "placeName": "meeker",
    "state": "OK"
  },
  {
    "city": "arkoma",
    "state_code": "OK",
    "placeMasterId": "P02500000FsoGJp7Ffrov9AzAiiGfChP8UkVOo7e",
    "placeName": "arkoma",
    "state": "OK"
  },
  {
    "city": "watts",
    "state_code": "OK",
    "placeMasterId": "P02500000FsoGNxf6AMYh4b5E1GHmcu2f0wBeFPS",
    "placeName": "watts",
    "state": "OK"
  },
  {
    "city": "plano",
    "state_code": "TX",
    "placeMasterId": "P02500000FsoGpMAlyTNSzw4gHAc1YxIwpOpGjrg",
    "placeName": "plano",
    "state": "TX"
  },
  {
    "city": "irving",
    "state_code": "TX",
    "placeMasterId": "P02500000FsoGmVFDuXplFvBCCvhfL9vyF5GYbVg",
    "placeName": "irving",
    "state": "TX"
  },
  {
    "city": "desoto",
    "state_code": "TX",
    "placeMasterId": "P02500000FsoGkVOXSzkldVkkxYroaIeukQhRNTq",
    "placeName": "desoto",
    "state": "TX"
  },
  {
    "city": "kemp",
    "state_code": "TX",
    "placeMasterId": "P02500000FsoGme5hVwPXwWQN0k35FeNzyq8yy5N",
    "placeName": "kemp",
    "state": "TX"
  },
  {
    "city": "mabank",
    "state_code": "TX",
    "placeMasterId": "P02500000FsoGnmrWL71pRKNlREoQXZGdjcHnABX",
    "placeName": "mabank",
    "state": "TX"
  },
  {
    "city": "dallas",
    "state_code": "TX",
    "placeMasterId": "P02500000FsoGkMY3rbAywuVa9kWOfoNE7vnQ9N4",
    "placeName": "dallas",
    "state": "TX"
  },
  {
    "city": "dallas",
    "state_code": "TX",
    "placeMasterId": "P02500000FsoGkMY3rbAywuVa9kWOfoNE7vnQ9N4",
    "placeName": "dallas",
    "state": "TX"
  },
  {
    "city": "deport",
    "state_code": "TX",
    "placeMasterId": "P02500000FsoGkVOXSzkldVkkxYroaIcZwBSeFOP",
    "placeName": "deport",
    "state": "TX"
  },
  {
    "city": "pecan gap",
    "state_code": "TX",
    "placeMasterId": "P02500000FsoGp4TolgDtcjaKfXvBjyaj4fE7lCM",
    "placeName": "pecan gap",
    "state": "TX"
  },
  {
    "city": "pittsburg",
    "state_code": "TX",
    "placeMasterId": "P02500000FsoGpDKIN4ngJKpVTMGbeTAN80Am2pa",
    "placeName": "pittsburg",
    "state": "TX"
  },
  {
    "city": "tatum",
    "state_code": "TX",
    "placeMasterId": "P02500000FsoGrDAyocsfvkFwij6SPKBtgRjFeBF",
    "placeName": "tatum",
    "state": "TX"
  },
  {
    "city": "tyler",
    "state_code": "TX",
    "placeMasterId": "P02500000FsoGrUrw1Q2FIwkIKLnIEIqxT9CHRU3",
    "placeName": "tyler",
    "state": "TX"
  },
  {
    "city": "tyler",
    "state_code": "TX",
    "placeMasterId": "P02500000FsoGrUrw1Q2FIwkIKLnIEIqxT9CHRU3",
    "placeName": "tyler",
    "state": "TX"
  },
  {
    "city": "athens",
    "state_code": "TX",
    "placeMasterId": "P02500000FsoGieOKcqFYhhZUW0NNjvpDa88FtKP",
    "placeName": "athens",
    "state": "TX"
  },
  {
    "city": "athens",
    "state_code": "TX",
    "placeMasterId": "P02500000FsoGieOKcqFYhhZUW0NNjvpDa88FtKP",
    "placeName": "athens",
    "state": "TX"
  },
  {
    "city": "cushing",
    "state_code": "TX",
    "placeMasterId": "P02500000FsoGkMY3rbAywuVa9kWOfoOsPTPFUbD",
    "placeName": "cushing",
    "state": "TX"
  },
  {
    "city": "crockett",
    "state_code": "TX",
    "placeMasterId": "P02500000FsoGkMY3rbAywuVa9kWOfoFp9637OyY",
    "placeName": "crockett",
    "state": "TX"
  },
  {
    "city": "broaddus",
    "state_code": "TX",
    "placeMasterId": "P02500000FsoGjDmF2QYhS6YBjFl3NtOMbE4gSAy",
    "placeName": "broaddus",
    "state": "TX"
  },
  {
    "city": "collinsville",
    "state_code": "TX",
    "placeMasterId": "P02500000FsoGk4r6eo1PZi1EY7pYqpYZHr54d29",
    "placeName": "collinsville",
    "state": "TX"
  },
  {
    "city": "sadler",
    "state_code": "TX",
    "placeMasterId": "P02500000FsoGq4P9zSGOQwIYIEL77PM2tll0WUP",
    "placeName": "sadler",
    "state": "TX"
  },
  {
    "city": "weinert",
    "state_code": "TX",
    "placeMasterId": "P02500000FsoGrmYtEDBog9EdvyU83HaiWrMHbX0",
    "placeName": "weinert",
    "state": "TX"
  },
  {
    "city": "gordon",
    "state_code": "TX",
    "placeMasterId": "P02500000FsoGlVJsglnGRiSyaFHjxjPf0JWi2G0",
    "placeName": "gordon",
    "state": "TX"
  },
  {
    "city": "moody",
    "state_code": "TX",
    "placeMasterId": "P02500000FsoGoDOx9IlBV87HqfqgH2Q9vSQV1Lv",
    "placeName": "moody",
    "state": "TX"
  },
  {
    "city": "meridian",
    "state_code": "TX",
    "placeMasterId": "P02500000FsoGnvhzwVbc7vcwF39qS3jUxcFUKf4",
    "placeName": "meridian",
    "state": "TX"
  },
  {
    "city": "waco",
    "state_code": "TX",
    "placeMasterId": "P02500000FsoGrdiPcoc1zXzT8A8i8nMQbSmxQI8",
    "placeName": "waco",
    "state": "TX"
  },
  {
    "city": "houston",
    "state_code": "TX",
    "placeMasterId": "P02500000FsoGmDYGhkgBsigqbJ0pWBK8GcFdEcU",
    "placeName": "houston",
    "state": "TX"
  },
  {
    "city": "houston",
    "state_code": "TX",
    "placeMasterId": "P02500000FsoGmDYGhkgBsigqbJ0pWBK8GcFdEcU",
    "placeName": "houston",
    "state": "TX"
  },
  {
    "city": "tomball",
    "state_code": "TX",
    "placeMasterId": "P02500000FsoGrM1SQ1SScLV7WXRsJoYuIH4xA4v",
    "placeName": "tomball",
    "state": "TX"
  },
  {
    "city": "tomball",
    "state_code": "TX",
    "placeMasterId": "P02500000FsoGrM1SQ1SScLV7WXRsJoYuIH4xA4v",
    "placeName": "tomball",
    "state": "TX"
  },
  {
    "city": "van vleck",
    "state_code": "TX",
    "placeMasterId": "P02500000FsoGrdiPcoc1zXzT8A8i8nKHun7ijmt",
    "placeName": "van vleck",
    "state": "TX"
  },
  {
    "city": "baytown",
    "state_code": "TX",
    "placeMasterId": "P02500000FsoGinEoEEpLOIofJoineQFkwWY9J4P",
    "placeName": "baytown",
    "state": "TX"
  },
  {
    "city": "dickinson",
    "state_code": "TX",
    "placeMasterId": "P02500000FsoGkeF14OKYK6zvlNDEUmzWBhpXTkf",
    "placeName": "dickinson",
    "state": "TX"
  },
  {
    "city": "austwell",
    "state_code": "TX",
    "placeMasterId": "P02500000FsoGieOKcqFYhhZUW0NNjvoB9pdg7K1",
    "placeName": "austwell",
    "state": "TX"
  },
  {
    "city": "laredo",
    "state_code": "TX",
    "placeMasterId": "P02500000FsoGnDTbvWiggvP4DzQktbfh6Rv89vp",
    "placeName": "laredo",
    "state": "TX"
  },
  {
    "city": "three rivers",
    "state_code": "TX",
    "placeMasterId": "P02500000FsoGrM1SQ1SScLV7WXRsJoYyL8Zp5Sl",
    "placeName": "three rivers",
    "state": "TX"
  },
  {
    "city": "cibolo",
    "state_code": "TX",
    "placeMasterId": "P02500000FsoGjnA9S0rqCVWswV8j1qsrqqe6lVu",
    "placeName": "cibolo",
    "state": "TX"
  },
  {
    "city": "san antonio",
    "state_code": "TX",
    "placeMasterId": "P02500000FsoGqM67CFPxo8mttr1wwNqfYQdpCPu",
    "placeName": "san antonio",
    "state": "TX"
  },
  {
    "city": "san antonio",
    "state_code": "TX",
    "placeMasterId": "P02500000FsoGqM67CFPxo8mttr1wwNqfYQdpCPu",
    "placeName": "san antonio",
    "state": "TX"
  },
  {
    "city": "san antonio",
    "state_code": "TX",
    "placeMasterId": "P02500000FsoGqM67CFPxo8mttr1wwNqfYQdpCPu",
    "placeName": "san antonio",
    "state": "TX"
  },
  {
    "city": "san antonio",
    "state_code": "TX",
    "placeMasterId": "P02500000FsoGqM67CFPxo8mttr1wwNqfYQdpCPu",
    "placeName": "san antonio",
    "state": "TX"
  },
  {
    "city": "san antonio",
    "state_code": "TX",
    "placeMasterId": "P02500000FsoGqM67CFPxo8mttr1wwNqfYQdpCPu",
    "placeName": "san antonio",
    "state": "TX"
  },
  {
    "city": "mcallen",
    "state_code": "TX",
    "placeMasterId": "P02500000FsoGnmrWL71pRKNlREoQXZJVFuPMgE7",
    "placeName": "mcallen",
    "state": "TX"
  },
  {
    "city": "salineno",
    "state_code": "TX",
    "placeMasterId": "P02500000FsoGqDFdaqqB7XXj62gX1tXaE71wkRc",
    "placeName": "salineno",
    "state": "TX"
  },
  {
    "city": "cedar park",
    "state_code": "TX",
    "placeMasterId": "P02500000FsoGjeJfqcI3VuHi8gnJ7MfgQYQ6icC",
    "placeName": "cedar park",
    "state": "TX"
  },
  {
    "city": "mcdade",
    "state_code": "TX",
    "placeMasterId": "P02500000FsoGnmrWL71pRKNlREoQXZJ6NpfBPqD",
    "placeName": "mcdade",
    "state": "TX"
  },
  {
    "city": "austin",
    "state_code": "TX",
    "placeMasterId": "P02500000FsoGieOKcqFYhhZUW0NNjvrbzzBh3wR",
    "placeName": "austin",
    "state": "TX"
  },
  {
    "city": "mclean",
    "state_code": "TX",
    "placeMasterId": "P02500000FsoGnmrWL71pRKNlREoQXZFOcWMiWQI",
    "placeName": "mclean",
    "state": "TX"
  },
  {
    "city": "skellytown",
    "state_code": "TX",
    "placeMasterId": "P02500000FsoGqdn4P2ZXBLHFVTimlMoZt6OwXE3",
    "placeName": "skellytown",
    "state": "TX"
  },
  {
    "city": "morton",
    "state_code": "TX",
    "placeMasterId": "P02500000FsoGoDOx9IlBV87HqfqgH2XrmpoHiqF",
    "placeName": "morton",
    "state": "TX"
  },
  {
    "city": "haskell",
    "state_code": "TX",
    "placeMasterId": "P02500000FsoGlvrJUxWcVWCUzgJzhCYWd12w705",
    "placeName": "haskell",
    "state": "TX"
  },
  {
    "city": "hermleigh",
    "state_code": "TX",
    "placeMasterId": "P02500000FsoGlvrJUxWcVWCUzgJzhCWdwGxODnb",
    "placeName": "hermleigh",
    "state": "TX"
  },
  {
    "city": "arvada",
    "state_code": "CO",
    "placeMasterId": "P02500000FsoEmViIl4GM9tUm2HVUZT9cbsYF4K3",
    "placeName": "arvada",
    "state": "CO"
  },
  {
    "city": "louisville",
    "state_code": "CO",
    "placeMasterId": "P02500000FsoEnwB4n22D1twW4OxfgMpXXd4SZcm",
    "placeName": "louisville",
    "state": "CO"
  },
  {
    "city": "boulder",
    "state_code": "CO",
    "placeMasterId": "P02500000FsoEmeYmMSq8qUjwq5quTxTxPmoV1Le",
    "placeName": "boulder",
    "state": "CO"
  },
  {
    "city": "dillon",
    "state_code": "CO",
    "placeMasterId": "P02500000FsoEmwFjZFziDhEIRiXkIwHRifLktXP",
    "placeName": "dillon",
    "state": "CO"
  },
  {
    "city": "nunn",
    "state_code": "CO",
    "placeMasterId": "P02500000FsoEoDs1zpBmP6Qrg1eVVLXD8FtbKbE",
    "placeName": "nunn",
    "state": "CO"
  },
  {
    "city": "log lane village",
    "state_code": "CO",
    "placeMasterId": "P02500000FsoEnwB4n22D1twW4OxfgMoM3UXBOL6",
    "placeName": "log lane village",
    "state": "CO"
  },
  {
    "city": "hugo",
    "state_code": "CO",
    "placeMasterId": "P02500000FsoEneU7aEsdehSASmGprO3qXna3NW6",
    "placeName": "hugo",
    "state": "CO"
  },
  {
    "city": "peyton",
    "state_code": "CO",
    "placeMasterId": "P02500000FsoEoMiVbDlZ5hg2TpzvPpufi4Utkml",
    "placeName": "peyton",
    "state": "CO"
  },
  {
    "city": "colorado springs",
    "state_code": "CO",
    "placeMasterId": "P02500000FsoEmwFjZFziDhEIRiXkIwGl9Aki2Up",
    "placeName": "colorado springs",
    "state": "CO"
  },
  {
    "city": "colorado springs",
    "state_code": "CO",
    "placeMasterId": "P02500000FsoEmwFjZFziDhEIRiXkIwGl9Aki2Up",
    "placeName": "colorado springs",
    "state": "CO"
  },
  {
    "city": "buena vista",
    "state_code": "CO",
    "placeMasterId": "P02500000FsoEmnPFxrPvX5z7duCKORrh4coXonP",
    "placeName": "buena vista",
    "state": "CO"
  },
  {
    "city": "glendo",
    "state_code": "WY",
    "placeMasterId": "P02500000FsoH92yfDB1popqj9EHhIYgcvkzXxvY",
    "placeName": "glendo",
    "state": "WY"
  },
  {
    "city": "lusk",
    "state_code": "WY",
    "placeMasterId": "P02500000FsoH9KfcPyBPC2L4kqyX7XQOIiTd9pZ",
    "placeName": "lusk",
    "state": "WY"
  },
  {
    "city": "bairoil",
    "state_code": "WY",
    "placeMasterId": "P02500000FsoH8lHi0NsGRdMNXbarTZoIUU5LeRT",
    "placeName": "bairoil",
    "state": "WY"
  },
  {
    "city": "kirby",
    "state_code": "WY",
    "placeMasterId": "P02500000FsoH9KfcPyBPC2L4kqyX7XFpmiybiEk",
    "placeName": "kirby",
    "state": "WY"
  },
  {
    "city": "lonetree",
    "state_code": "WY",
    "placeMasterId": "P02500000FsoH9KfcPyBPC2L4kqyX7XFglwObyKC",
    "placeName": "lonetree",
    "state": "WY"
  },
  {
    "city": "pinedale",
    "state_code": "WY",
    "placeMasterId": "P02500000FsoH9TW61MlBsdaFYfJx21fyQzy9egK",
    "placeName": "pinedale",
    "state": "WY"
  },
  {
    "city": "pocatello",
    "state_code": "ID",
    "placeMasterId": "P02500000FsoF0mM34hysrxyCNU3HgSGknqMKEed",
    "placeName": "pocatello",
    "state": "ID"
  },
  {
    "city": "shoshone",
    "state_code": "ID",
    "placeMasterId": "P02500000FsoF0vCWg6YfYZDNBIOhaweyHsK2nQ3",
    "placeName": "shoshone",
    "state": "ID"
  },
  {
    "city": "iona",
    "state_code": "ID",
    "placeMasterId": "P02500000FsoF0LocGWFWoAEfy311wz9wLLhUXSX",
    "placeName": "iona",
    "state": "ID"
  },
  {
    "city": "menan",
    "state_code": "ID",
    "placeMasterId": "P02500000FsoF0dVZTJP6BMj1Zfhrlxr1HLrfOQg",
    "placeName": "menan",
    "state": "ID"
  },
  {
    "city": "newdale",
    "state_code": "ID",
    "placeMasterId": "P02500000FsoF0mM34hysrxyCNU3HgSDSjDLRlDk",
    "placeName": "newdale",
    "state": "ID"
  },
  {
    "city": "winchester",
    "state_code": "ID",
    "placeMasterId": "P02500000FsoF1CtTstiEvlhimv5XPvKgXu3OvRi",
    "placeName": "winchester",
    "state": "ID"
  },
  {
    "city": "eagle",
    "state_code": "ID",
    "placeMasterId": "P02500000FsoF047f3j5xQxkKMQKC80QA4EFtOob",
    "placeName": "eagle",
    "state": "ID"
  },
  {
    "city": "priest river",
    "state_code": "ID",
    "placeMasterId": "P02500000FsoF0vCWg6YfYZDNBIOhawaFuNSszgB",
    "placeName": "priest river",
    "state": "ID"
  },
  {
    "city": "altamont",
    "state_code": "UT",
    "placeMasterId": "P02500000FsoGsD6K2OvAjwyALPWNmkutYFhSm2l",
    "placeName": "altamont",
    "state": "UT"
  },
  {
    "city": "american fork",
    "state_code": "UT",
    "placeMasterId": "P02500000FsoGsLwndnUxQYDL9DrnhF6c3oUBuwk",
    "placeName": "american fork",
    "state": "UT"
  },
  {
    "city": "saratoga springs",
    "state_code": "UT",
    "placeMasterId": "P02500000FsoGtdZ64Mh1bxPuNWyYtedXpRuJraO",
    "placeName": "saratoga springs",
    "state": "UT"
  },
  {
    "city": "roosevelt",
    "state_code": "UT",
    "placeMasterId": "P02500000FsoGtmPZflGoIYf5BLJyo8lpx915JVz",
    "placeName": "roosevelt",
    "state": "UT"
  },
  {
    "city": "wendover",
    "state_code": "UT",
    "placeMasterId": "P02500000FsoGuCx0Tx0AMMObamMEXbrUVp6EfBD",
    "placeName": "wendover",
    "state": "UT"
  },
  {
    "city": "tremonton",
    "state_code": "UT",
    "placeMasterId": "P02500000FsoGtvG3H9qaz9uFz9fOidKAzztOTHa",
    "placeName": "tremonton",
    "state": "UT"
  },
  {
    "city": "ferron",
    "state_code": "UT",
    "placeMasterId": "P02500000FsoGsmUERzEJULwrYeu3QiJAPTsmlSv",
    "placeName": "ferron",
    "state": "UT"
  },
  {
    "city": "annabella",
    "state_code": "UT",
    "placeMasterId": "P02500000FsoGsLwndnUxQYDL9DrnhF9iAPjzQih",
    "placeName": "annabella",
    "state": "UT"
  },
  {
    "city": "beaver",
    "state_code": "UT",
    "placeMasterId": "P02500000FsoGsUnHFC4k79SVx2DDbjPeRS6TFAm",
    "placeName": "beaver",
    "state": "UT"
  },
  {
    "city": "milford",
    "state_code": "UT",
    "placeMasterId": "P02500000FsoGtD1fGAxfY9gNy5wJABVDfte3Qjz",
    "placeName": "milford",
    "state": "UT"
  },
  {
    "city": "phoenix",
    "state_code": "AZ",
    "placeMasterId": "P02500000FsoEZWgqrzjtdEDuvO4SetJca76kZR3",
    "placeName": "phoenix",
    "state": "AZ"
  },
  {
    "city": "phoenix",
    "state_code": "AZ",
    "placeMasterId": "P02500000FsoEZWgqrzjtdEDuvO4SetJca76kZR3",
    "placeName": "phoenix",
    "state": "AZ"
  },
  {
    "city": "glendale",
    "state_code": "AZ",
    "placeMasterId": "P02500000FsoEYoSSr0qyCE02uKLN6RQeREgGOxx",
    "placeName": "glendale",
    "state": "AZ"
  },
  {
    "city": "glendale",
    "state_code": "AZ",
    "placeMasterId": "P02500000FsoEYoSSr0qyCE02uKLN6RQeREgGOxx",
    "placeName": "glendale",
    "state": "AZ"
  },
  {
    "city": "morristown",
    "state_code": "AZ",
    "placeMasterId": "P02500000FsoEZNqNGbA6wcyk7Zj2kOvihTk32hG",
    "placeName": "morristown",
    "state": "AZ"
  },
  {
    "city": "peoria",
    "state_code": "AZ",
    "placeMasterId": "P02500000FsoEZNqNGbA6wcyk7Zj2kOyAoqXDou0",
    "placeName": "peoria",
    "state": "AZ"
  },
  {
    "city": "sahuarita",
    "state_code": "AZ",
    "placeMasterId": "P02500000FsoEZoNo4mtT0QiGX0lITs3J9UEDrRH",
    "placeName": "sahuarita",
    "state": "AZ"
  },
  {
    "city": "san simon",
    "state_code": "AZ",
    "placeMasterId": "P02500000FsoEZoNo4mtT0QiGX0lITs4GIUKttFJ",
    "placeName": "san simon",
    "state": "AZ"
  },
  {
    "city": "vail",
    "state_code": "AZ",
    "placeMasterId": "P02500000FsoEaEvEsycp4ERmwRnYDLBjbTCkDOn",
    "placeName": "vail",
    "state": "AZ"
  },
  {
    "city": "indian wells",
    "state_code": "AZ",
    "placeMasterId": "P02500000FsoEZ69Q3o0XZQUOVx2CvQAbAIBdLDL",
    "placeName": "indian wells",
    "state": "AZ"
  },
  {
    "city": "meadview",
    "state_code": "AZ",
    "placeMasterId": "P02500000FsoEZEztfCaKG1jZJlNcpubmT7y2NdG",
    "placeName": "meadview",
    "state": "AZ"
  },
  {
    "city": "cubero",
    "state_code": "NM",
    "placeMasterId": "P02500000FsoFyhqaPCOhSGlNoX8oMCI6DXSAnXI",
    "placeName": "cubero",
    "state": "NM"
  },
  {
    "city": "milan",
    "state_code": "NM",
    "placeMasterId": "P02500000FsoFzhlvcyRCGTTbRDYjjcsO6YU9EHS",
    "placeName": "milan",
    "state": "NM"
  },
  {
    "city": "nageezi",
    "state_code": "NM",
    "placeMasterId": "P02500000FsoFzhlvcyRCGTTbRDYjjcv0Qw3klSn",
    "placeName": "nageezi",
    "state": "NM"
  },
  {
    "city": "rio rancho",
    "state_code": "NM",
    "placeMasterId": "P02500000FsoG08JMRAAYKHD7qeazT63G5wC6srQ",
    "placeName": "rio rancho",
    "state": "NM"
  },
  {
    "city": "sheep springs",
    "state_code": "NM",
    "placeMasterId": "P02500000FsoG0Q0JdxK7hThTSHHpI4n5OAstXLl",
    "placeName": "sheep springs",
    "state": "NM"
  },
  {
    "city": "chama",
    "state_code": "NM",
    "placeMasterId": "P02500000FsoFyQ9dCPF854H2CuRyXDaFY63TGvD",
    "placeName": "chama",
    "state": "NM"
  },
  {
    "city": "red river",
    "state_code": "NM",
    "placeMasterId": "P02500000FsoG08JMRAAYKHD7qeazT60NgnnuBP3",
    "placeName": "red river",
    "state": "NM"
  },
  {
    "city": "truchas",
    "state_code": "NM",
    "placeMasterId": "P02500000FsoG0YqnFLtuO4weG5dFCZ7oD6kg2Az",
    "placeName": "truchas",
    "state": "NM"
  },
  {
    "city": "socorro",
    "state_code": "NM",
    "placeMasterId": "P02500000FsoG0Q0JdxK7hThTSHHpI4fazeSWlRk",
    "placeName": "socorro",
    "state": "NM"
  },
  {
    "city": "glenwood",
    "state_code": "NM",
    "placeMasterId": "P02500000FsoFz8O1DO83W4UuDyB45fMRBsxZbFU",
    "placeName": "glenwood",
    "state": "NM"
  },
  {
    "city": "cannon afb",
    "state_code": "NM",
    "placeMasterId": "P02500000FsoFyQ9dCPF854H2CuRyXDVODFuzYID",
    "placeName": "cannon afb",
    "state": "NM"
  },
  {
    "city": "eunice",
    "state_code": "NM",
    "placeMasterId": "P02500000FsoFyqh40ayU8s0YcLUEGgoQgoYJqXH",
    "placeName": "eunice",
    "state": "NM"
  },
  {
    "city": "tatum",
    "state_code": "NM",
    "placeMasterId": "P02500000FsoG0YqnFLtuO4weG5dFCZ7W7Eoh2Gm",
    "placeName": "tatum",
    "state": "NM"
  },
  {
    "city": "mescalero",
    "state_code": "NM",
    "placeMasterId": "P02500000FsoFzhlvcyRCGTTbRDYjjcprqzaLF4V",
    "placeName": "mescalero",
    "state": "NM"
  },
  {
    "city": "ruidoso",
    "state_code": "NM",
    "placeMasterId": "P02500000FsoG08JMRAAYKHD7qeazT661Paxyo5N",
    "placeName": "ruidoso",
    "state": "NM"
  },
  {
    "city": "sacramento",
    "state_code": "NM",
    "placeMasterId": "P02500000FsoG0H9q2YkL0sSIeSwPNaI7lwAef3A",
    "placeName": "sacramento",
    "state": "NM"
  },
  {
    "city": "blue diamond",
    "state_code": "NV",
    "placeMasterId": "P02500000FsoFu8lJ6VvZT2vo6Y5RCWQBEekbBUO",
    "placeName": "blue diamond",
    "state": "NV"
  },
  {
    "city": "henderson",
    "state_code": "NV",
    "placeMasterId": "P02500000FsoFuQSGJJ58qFQ9iAmH1VFxDxgAeEI",
    "placeName": "henderson",
    "state": "NV"
  },
  {
    "city": "las vegas",
    "state_code": "NV",
    "placeMasterId": "P02500000FsoFuQSGJJ58qFQ9iAmH1VC0RKB5lYR",
    "placeName": "las vegas",
    "state": "NV"
  },
  {
    "city": "las vegas",
    "state_code": "NV",
    "placeMasterId": "P02500000FsoFuQSGJJ58qFQ9iAmH1VC0RKB5lYR",
    "placeName": "las vegas",
    "state": "NV"
  },
  {
    "city": "carson city",
    "state_code": "NV",
    "placeMasterId": "P02500000FsoFu8lJ6VvZT2vo6Y5RCWPoMg8UsQl",
    "placeName": "carson city",
    "state": "NV"
  },
  {
    "city": "los angeles",
    "state_code": "CA",
    "placeMasterId": "P02500000FsoEiEJyfAwnXs9Xvv8xEm0Sp2kcekK",
    "placeName": "los angeles",
    "state": "CA"
  },
  {
    "city": "los angeles",
    "state_code": "CA",
    "placeMasterId": "P02500000FsoEiEJyfAwnXs9Xvv8xEm0Sp2kcekK",
    "placeName": "los angeles",
    "state": "CA"
  },
  {
    "city": "los angeles",
    "state_code": "CA",
    "placeMasterId": "P02500000FsoEiEJyfAwnXs9Xvv8xEm0Sp2kcekK",
    "placeName": "los angeles",
    "state": "CA"
  },
  {
    "city": "redondo beach",
    "state_code": "CA",
    "placeMasterId": "P02500000FsoEk5KBVKS0TgKoNTdO58oDZh6UXxG",
    "placeName": "redondo beach",
    "state": "CA"
  },
  {
    "city": "avalon",
    "state_code": "CA",
    "placeMasterId": "P02500000FsoEdo5Axt3SFFZ91kQzzaVGUmVP1ZA",
    "placeName": "avalon",
    "state": "CA"
  },
  {
    "city": "long beach",
    "state_code": "CA",
    "placeMasterId": "P02500000FsoEiEJyfAwnXs9Xvv8xElwosKjKxLA",
    "placeName": "long beach",
    "state": "CA"
  },
  {
    "city": "glendale",
    "state_code": "CA",
    "placeMasterId": "P02500000FsoEgf0j1ob9zGSd5zLMDNrwH2YihSi",
    "placeName": "glendale",
    "state": "CA"
  },
  {
    "city": "burbank",
    "state_code": "CA",
    "placeMasterId": "P02500000FsoEeWJYyrwNgFn12oA5Y2JrY905Fai",
    "placeName": "burbank",
    "state": "CA"
  },
  {
    "city": "chino",
    "state_code": "CA",
    "placeMasterId": "P02500000FsoEf5hTOSFWQeliG3XlBzn37qHAO2v",
    "placeName": "chino",
    "state": "CA"
  },
  {
    "city": "el monte",
    "state_code": "CA",
    "placeMasterId": "P02500000FsoEg5cocEI1ErTvsjxgZQQHzyoIvbr",
    "placeName": "el monte",
    "state": "CA"
  },
  {
    "city": "campo",
    "state_code": "CA",
    "placeMasterId": "P02500000FsoEeo0WBf5x3SHMeQqvN11D4htOFpb",
    "placeName": "campo",
    "state": "CA"
  },
  {
    "city": "bonsall",
    "state_code": "CA",
    "placeMasterId": "P02500000FsoEeNT5NTMazeXqEzofdXusASsI6eo",
    "placeName": "bonsall",
    "state": "CA"
  },
  {
    "city": "san diego",
    "state_code": "CA",
    "placeMasterId": "P02500000FsoEkVrcJWBMXU4KmufdobvSE82FU0j",
    "placeName": "san diego",
    "state": "CA"
  },
  {
    "city": "winterhaven",
    "state_code": "CA",
    "placeMasterId": "P02500000FsoEmE1LYH6mmh0QQeoekUNWs5Qn9Zj",
    "placeName": "winterhaven",
    "state": "CA"
  },
  {
    "city": "san bernardino",
    "state_code": "CA",
    "placeMasterId": "P02500000FsoEkVrcJWBMXU4KmufdobxDvk7Zv0i",
    "placeName": "san bernardino",
    "state": "CA"
  },
  {
    "city": "moreno valley",
    "state_code": "CA",
    "placeMasterId": "P02500000FsoEiwYMg9piysNPwys2nDnm1HWZG0r",
    "placeName": "moreno valley",
    "state": "CA"
  },
  {
    "city": "aliso viejo",
    "state_code": "CA",
    "placeMasterId": "P02500000FsoEdfEhMUTfYeJyDw5a566CNo8ssAm",
    "placeName": "aliso viejo",
    "state": "CA"
  },
  {
    "city": "rancho santa margarita",
    "state_code": "CA",
    "placeMasterId": "P02500000FsoEkEAf6j1nAHZzBHynzd98mOym6AU",
    "placeName": "rancho santa margarita",
    "state": "CA"
  },
  {
    "city": "brea",
    "state_code": "CA",
    "placeMasterId": "P02500000FsoEeNT5NTMazeXqEzofdXzDFnZk7rm",
    "placeName": "brea",
    "state": "CA"
  },
  {
    "city": "garden grove",
    "state_code": "CA",
    "placeMasterId": "P02500000FsoEgWAFQQ1NIfDSIAzwItXKd1qktLQ",
    "placeName": "garden grove",
    "state": "CA"
  },
  {
    "city": "camarillo",
    "state_code": "CA",
    "placeMasterId": "P02500000FsoEefA2aGWAMr2BqcVVSWeUA6rG3at",
    "placeName": "camarillo",
    "state": "CA"
  },
  {
    "city": "oak view",
    "state_code": "CA",
    "placeMasterId": "P02500000FsoEjN5nULZ52g6wMPuIWgxCLpLQH3G",
    "placeName": "oak view",
    "state": "CA"
  },
  {
    "city": "tipton",
    "state_code": "CA",
    "placeMasterId": "P02500000FsoEledR8gne2I1jDPQz6WsT0uYgD9D",
    "placeName": "tipton",
    "state": "CA"
  },
  {
    "city": "woodlake",
    "state_code": "CA",
    "placeMasterId": "P02500000FsoEmMrp9fgZTIFbETA4eykAMB3ypjQ",
    "placeName": "woodlake",
    "state": "CA"
  },
  {
    "city": "bakersfield",
    "state_code": "CA",
    "placeMasterId": "P02500000FsoEdwveZHdEvqoJpYmPu4r7PsLmxxn",
    "placeName": "bakersfield",
    "state": "CA"
  },
  {
    "city": "bakersfield",
    "state_code": "CA",
    "placeMasterId": "P02500000FsoEdwveZHdEvqoJpYmPu4r7PsLmxxn",
    "placeName": "bakersfield",
    "state": "CA"
  },
  {
    "city": "san luis obispo",
    "state_code": "CA",
    "placeMasterId": "P02500000FsoEkei5uul9E5JVaj13j6HHJUo0WSE",
    "placeName": "san luis obispo",
    "state": "CA"
  },
  {
    "city": "bradley",
    "state_code": "CA",
    "placeMasterId": "P02500000FsoEeWJYyrwNgFn12oA5Y2IIMRlNVep",
    "placeName": "bradley",
    "state": "CA"
  },
  {
    "city": "south dos palos",
    "state_code": "CA",
    "placeMasterId": "P02500000FsoEl5FWj6UVHt320A3JSZNwjfZHY4B",
    "placeName": "south dos palos",
    "state": "CA"
  },
  {
    "city": "fresno",
    "state_code": "CA",
    "placeMasterId": "P02500000FsoEgf0j1ob9zGSd5zLMDNqyCZUrC3I",
    "placeName": "fresno",
    "state": "CA"
  },
  {
    "city": "los altos",
    "state_code": "CA",
    "placeMasterId": "P02500000FsoEiEJyfAwnXs9Xvv8xElxEmi5t2Bw",
    "placeName": "los altos",
    "state": "CA"
  },
  {
    "city": "montara",
    "state_code": "CA",
    "placeMasterId": "P02500000FsoEinht4lFwIH8F9AWcsjUfNHVaSN4",
    "placeName": "montara",
    "state": "CA"
  },
  {
    "city": "san francisco",
    "state_code": "CA",
    "placeMasterId": "P02500000FsoEkVrcJWBMXU4KmufdobtfKVREvsP",
    "placeName": "san francisco",
    "state": "CA"
  },
  {
    "city": "concord",
    "state_code": "CA",
    "placeMasterId": "P02500000FsoEfNOQbFP5nrG3rgEb0yVfbyJpBt7",
    "placeName": "concord",
    "state": "CA"
  },
  {
    "city": "orinda",
    "state_code": "CA",
    "placeMasterId": "P02500000FsoEjVwH5k8rjHM7AEFiRBIEAYrhrbc",
    "placeName": "orinda",
    "state": "CA"
  },
  {
    "city": "pinole",
    "state_code": "CA",
    "placeMasterId": "P02500000FsoEjndEIXIR6TqSlqwYGA1wTOrpEJL",
    "placeName": "pinole",
    "state": "CA"
  },
  {
    "city": "san leandro",
    "state_code": "CA",
    "placeMasterId": "P02500000FsoEkVrcJWBMXU4Kmufdobx0jSZ7LQo",
    "placeName": "san leandro",
    "state": "CA"
  },
  {
    "city": "oakland",
    "state_code": "CA",
    "placeMasterId": "P02500000FsoEjN5nULZ52g6wMPuIWgwHJpxtC9b",
    "placeName": "oakland",
    "state": "CA"
  },
  {
    "city": "berkeley",
    "state_code": "CA",
    "placeMasterId": "P02500000FsoEeEcbm4moJ3IfRBTFj3Xr6gOP3lm",
    "placeName": "berkeley",
    "state": "CA"
  },
  {
    "city": "santa clara",
    "state_code": "CA",
    "placeMasterId": "P02500000FsoEknYZWJKvugYgOXMTdafb3ziMRag",
    "placeName": "santa clara",
    "state": "CA"
  },
  {
    "city": "san jose",
    "state_code": "CA",
    "placeMasterId": "P02500000FsoEkei5uul9E5JVaj13j6FZZ7utLyF",
    "placeName": "san jose",
    "state": "CA"
  },
  {
    "city": "wallace",
    "state_code": "CA",
    "placeMasterId": "P02500000FsoElwKOLTxDPUW4p27ovVfZwQ6oWwR",
    "placeName": "wallace",
    "state": "CA"
  },
  {
    "city": "denair",
    "state_code": "CA",
    "placeMasterId": "P02500000FsoEff5No2YfB3kPTIvQpxIsOwWqX88",
    "placeName": "denair",
    "state": "CA"
  },
  {
    "city": "eldridge",
    "state_code": "CA",
    "placeMasterId": "P02500000FsoEg5cocEI1ErTvsjxgZQN1RBhj1rr",
    "placeName": "eldridge",
    "state": "CA"
  },
  {
    "city": "hydesville",
    "state_code": "CA",
    "placeMasterId": "P02500000FsoEhEOdROuIjfRKJEj1rLLValUIAlX",
    "placeName": "hydesville",
    "state": "CA"
  },
  {
    "city": "dobbins",
    "state_code": "CA",
    "placeMasterId": "P02500000FsoEfnvrPR8RrezaH7GqkRfrdBWVgey",
    "placeName": "dobbins",
    "state": "CA"
  },
  {
    "city": "meridian",
    "state_code": "CA",
    "placeMasterId": "P02500000FsoEierPTMg9bft4LMBCyF6rZgHrTjZ",
    "placeName": "meridian",
    "state": "CA"
  },
  {
    "city": "twain",
    "state_code": "CA",
    "placeMasterId": "P02500000FsoEledR8gne2I1jDPQz6WsC7A3MSgv",
    "placeName": "twain",
    "state": "CA"
  },
  {
    "city": "canby",
    "state_code": "CA",
    "placeMasterId": "P02500000FsoEefA2aGWAMr2BqcVVSWiuizRVQm7",
    "placeName": "canby",
    "state": "CA"
  },
  {
    "city": "shasta",
    "state_code": "CA",
    "placeMasterId": "P02500000FsoEkwP37huibHnrCLhtY51dIPTNDlF",
    "placeName": "shasta",
    "state": "CA"
  },
  {
    "city": "loyalton",
    "state_code": "CA",
    "placeMasterId": "P02500000FsoEiEJyfAwnXs9Xvv8xElzUuUPjdTK",
    "placeName": "loyalton",
    "state": "CA"
  },
  {
    "city": "markleeville",
    "state_code": "CA",
    "placeMasterId": "P02500000FsoEiW0vry6Mv4dtXXpn3kfprnCqcmL",
    "placeName": "markleeville",
    "state": "CA"
  },
  {
    "city": "westwood",
    "state_code": "CA",
    "placeMasterId": "P02500000FsoEmE1LYH6mmh0QQeoekUNOiI4sF38",
    "placeName": "westwood",
    "state": "CA"
  },
  {
    "city": "laupahoehoe",
    "state_code": "HI",
    "placeMasterId": "P02500000FsoEzLtH2kD1zxWSLMb6ZYYA2p33oAC",
    "placeName": "laupahoehoe",
    "state": "HI"
  },
  {
    "city": "mountain view",
    "state_code": "HI",
    "placeMasterId": "P02500000FsoEzUjke8mogYld9AwWU2uYP0KmKTC",
    "placeName": "mountain view",
    "state": "HI"
  },
  {
    "city": "papaikou",
    "state_code": "HI",
    "placeMasterId": "P02500000FsoEzUjke8mogYld9AwWU2wGKtSKrJO",
    "placeName": "papaikou",
    "state": "HI"
  },
  {
    "city": "waialua",
    "state_code": "HI",
    "placeMasterId": "P02500000FsoEzmQhqvwO3lFykndMJ1clm7s39rP",
    "placeName": "waialua",
    "state": "HI"
  },
  {
    "city": "beaverton",
    "state_code": "OR",
    "placeMasterId": "P02500000FsoGOOCWyYI38OokQhK2MN4832yBAV5",
    "placeName": "beaverton",
    "state": "OR"
  },
  {
    "city": "grass valley",
    "state_code": "OR",
    "placeMasterId": "P02500000FsoGOxaRO8bBsnnRdwhi0KmGkiQr7eK",
    "placeName": "grass valley",
    "state": "OR"
  },
  {
    "city": "shaniko",
    "state_code": "OR",
    "placeMasterId": "P02500000FsoGPxVmbudgh0VfGd7dNlJyaBoIXgL",
    "placeName": "shaniko",
    "state": "OR"
  },
  {
    "city": "portland",
    "state_code": "OR",
    "placeMasterId": "P02500000FsoGPfopP7U7Jo1Jf0QnYmTaqhg2Hwh",
    "placeName": "portland",
    "state": "OR"
  },
  {
    "city": "portland",
    "state_code": "OR",
    "placeMasterId": "P02500000FsoGPfopP7U7Jo1Jf0QnYmTaqhg2Hwh",
    "placeName": "portland",
    "state": "OR"
  },
  {
    "city": "alsea",
    "state_code": "OR",
    "placeMasterId": "P02500000FsoGOFM3N9iGRnZZcsycRsp0mV1Mu9u",
    "placeName": "alsea",
    "state": "OR"
  },
  {
    "city": "falls city",
    "state_code": "OR",
    "placeMasterId": "P02500000FsoGOojxmk1PCCYGq8MI5qCaEJ7Jstp",
    "placeName": "falls city",
    "state": "OR"
  },
  {
    "city": "eugene",
    "state_code": "OR",
    "placeMasterId": "P02500000FsoGOojxmk1PCCYGq8MI5qABIfZ8O2m",
    "placeName": "eugene",
    "state": "OR"
  },
  {
    "city": "mitchell",
    "state_code": "OR",
    "placeMasterId": "P02500000FsoGPO7sCKKXwbWy3Njxjnm2BrB91xZ",
    "placeName": "mitchell",
    "state": "OR"
  },
  {
    "city": "sisters",
    "state_code": "OR",
    "placeMasterId": "P02500000FsoGQ6MGDJDTNbkq4RT3IFYCI9mnBBb",
    "placeName": "sisters",
    "state": "OR"
  },
  {
    "city": "terrebonne",
    "state_code": "OR",
    "placeMasterId": "P02500000FsoGQ6MGDJDTNbkq4RT3IFg1JhlHrj7",
    "placeName": "terrebonne",
    "state": "OR"
  },
  {
    "city": "unity",
    "state_code": "OR",
    "placeMasterId": "P02500000FsoGQFCjohnG4D00sFoTCjuKdHM5liv",
    "placeName": "unity",
    "state": "OR"
  },
  {
    "city": "harper",
    "state_code": "OR",
    "placeMasterId": "P02500000FsoGOxaRO8bBsnnRdwhi0KhszvuvI2F",
    "placeName": "harper",
    "state": "OR"
  },
  {
    "city": "bellevue",
    "state_code": "WA",
    "placeMasterId": "P02500000FsoGyLUqyRjwHmUetKNLxoicb0BtnQC",
    "placeName": "bellevue",
    "state": "WA"
  },
  {
    "city": "bothell",
    "state_code": "WA",
    "placeMasterId": "P02500000FsoGyULKZqJiyNjph8ilsJ74312LnIi",
    "placeName": "bothell",
    "state": "WA"
  },
  {
    "city": "woodinville",
    "state_code": "WA",
    "placeMasterId": "P02500000FsoH1uen3MAZSnc0yd0nk41HMUgq5ec",
    "placeName": "woodinville",
    "state": "WA"
  },
  {
    "city": "seattle",
    "state_code": "WA",
    "placeMasterId": "P02500000FsoH13ZvQyhrLC8y9kwIH7vOQ9mB44J",
    "placeName": "seattle",
    "state": "WA"
  },
  {
    "city": "seattle",
    "state_code": "WA",
    "placeMasterId": "P02500000FsoH13ZvQyhrLC8y9kwIH7vOQ9mB44J",
    "placeName": "seattle",
    "state": "WA"
  },
  {
    "city": "seattle",
    "state_code": "WA",
    "placeMasterId": "P02500000FsoH13ZvQyhrLC8y9kwIH7vOQ9mB44J",
    "placeName": "seattle",
    "state": "WA"
  },
  {
    "city": "seattle",
    "state_code": "WA",
    "placeMasterId": "P02500000FsoH13ZvQyhrLC8y9kwIH7vOQ9mB44J",
    "placeName": "seattle",
    "state": "WA"
  },
  {
    "city": "anderson island",
    "state_code": "WA",
    "placeMasterId": "P02500000FsoGyCeNN3A9bBFU5W1w3KPlDYQr4si",
    "placeName": "anderson island",
    "state": "WA"
  },
  {
    "city": "charlottesville",
    "state_code": "VA",
    "placeMasterId": "P02500000FsoGv41s6KSsTxrePeQk0YL6leSie9b",
    "placeName": "charlottesville",
    "state": "VA"
  },
  {
    "city": "fishersville",
    "state_code": "VA",
    "placeMasterId": "P02500000FsoGvdPmVum1EMqLctoPeVnaXQCVYMc",
    "placeName": "fishersville",
    "state": "VA"
  },
  {
    "city": "goochland",
    "state_code": "VA",
    "placeMasterId": "P02500000FsoGvmGG7JLnuy5WQi9pZ09orfVbPv4",
    "placeName": "goochland",
    "state": "VA"
  },
  {
    "city": "tasley",
    "state_code": "VA",
    "placeMasterId": "P02500000FsoGxm6wYrQnXNVxg4zgJrFT5fMz5iK",
    "placeName": "tasley",
    "state": "VA"
  },
  {
    "city": "virginia beach",
    "state_code": "VA",
    "placeMasterId": "P02500000FsoGxuxQAG0aDyl8TtL6ELfzK3Qkryw",
    "placeName": "virginia beach",
    "state": "VA"
  },
  {
    "city": "virginia beach",
    "state_code": "VA",
    "placeMasterId": "P02500000FsoGxuxQAG0aDyl8TtL6ELfzK3Qkryw",
    "placeName": "virginia beach",
    "state": "VA"
  },
  {
    "city": "charlotte court house",
    "state_code": "VA",
    "placeMasterId": "P02500000FsoGv41s6KSsTxrePeQk0Y6v5vymZDA",
    "placeName": "charlotte court house",
    "state": "VA"
  },
  {
    "city": "kenbridge",
    "state_code": "VA",
    "placeMasterId": "P02500000FsoGwCngvV59ylp2q9C5IT5lmlJb7WG",
    "placeName": "kenbridge",
    "state": "VA"
  },
  {
    "city": "phenix",
    "state_code": "VA",
    "placeMasterId": "P02500000FsoGxCj29H7emyXGSpc0ftj3KgJqtnO",
    "placeName": "phenix",
    "state": "VA"
  },
  {
    "city": "blue ridge",
    "state_code": "VA",
    "placeMasterId": "P02500000FsoGumKutXJJ6lNIo1juBZaAMc7ohYu",
    "placeName": "blue ridge",
    "state": "VA"
  },
  {
    "city": "rich creek",
    "state_code": "VA",
    "placeMasterId": "P02500000FsoGxLZVkfhRTZmRGdxQaO4UocAkjJN",
    "placeName": "rich creek",
    "state": "VA"
  },
  {
    "city": "clinchco",
    "state_code": "VA",
    "placeMasterId": "P02500000FsoGvCsLhj2fAZ6pDSm9v2dZoubT1Oe",
    "placeName": "clinchco",
    "state": "VA"
  },
  {
    "city": "dante",
    "state_code": "VA",
    "placeMasterId": "P02500000FsoGvLipJ7cRrAM01H7ZpX3Qo7sS73r",
    "placeName": "dante",
    "state": "VA"
  },
  {
    "city": "scottsville",
    "state_code": "VA",
    "placeMasterId": "P02500000FsoGxLZVkfhRTZmRGdxQaODEc0mAE0E",
    "placeName": "scottsville",
    "state": "VA"
  },
  {
    "city": "handley",
    "state_code": "WV",
    "placeMasterId": "P02500000FsoH2ljefjdHaP53nV5JD0PeavZg12d",
    "placeName": "handley",
    "state": "WV"
  },
  {
    "city": "kincaid",
    "state_code": "WV",
    "placeMasterId": "P02500000FsoH33QbsWmqxbZPP7m91z8eo2zW9Lb",
    "placeName": "kincaid",
    "state": "WV"
  },
  {
    "city": "smithers",
    "state_code": "WV",
    "placeMasterId": "P02500000FsoH3uVTUuFZ5D2SDzqeUvB7DweHy6z",
    "placeName": "smithers",
    "state": "WV"
  },
  {
    "city": "gallipolis ferry",
    "state_code": "WV",
    "placeMasterId": "P02500000FsoH2ljefjdHaP53nV5JD0HQxhZr1yc",
    "placeName": "gallipolis ferry",
    "state": "WV"
  },
  {
    "city": "verdunville",
    "state_code": "WV",
    "placeMasterId": "P02500000FsoH43Lx6IpLloHd1oC4PPbodGpA8ke",
    "placeName": "verdunville",
    "state": "WV"
  },
  {
    "city": "williamson",
    "state_code": "WV",
    "placeMasterId": "P02500000FsoH4CCQhhP8SPWnpcXUJtw0jYIcXdx",
    "placeName": "williamson",
    "state": "WV"
  },
  {
    "city": "glen white",
    "state_code": "WV",
    "placeMasterId": "P02500000FsoH2ljefjdHaP53nV5JD0NQFIctGWU",
    "placeName": "glen white",
    "state": "WV"
  },
  {
    "city": "quinwood",
    "state_code": "WV",
    "placeMasterId": "P02500000FsoH3coWI75zi0Y6cN9ofwYKbSumhAe",
    "placeName": "quinwood",
    "state": "WV"
  },
  {
    "city": "triadelphia",
    "state_code": "WV",
    "placeMasterId": "P02500000FsoH43Lx6IpLloHd1oC4PPWy0Mn4sjr",
    "placeName": "triadelphia",
    "state": "WV"
  },
  {
    "city": "montrose",
    "state_code": "WV",
    "placeMasterId": "P02500000FsoH3L7Z5JwQKo3l0kSyqxmyer4Ff9Z",
    "placeName": "montrose",
    "state": "WV"
  },
  {
    "city": "grafton",
    "state_code": "WV",
    "placeMasterId": "P02500000FsoH2ljefjdHaP53nV5JD0NCnk6fonW",
    "placeName": "grafton",
    "state": "WV"
  },
  {
    "city": "pine grove",
    "state_code": "WV",
    "placeMasterId": "P02500000FsoH3Ty2giWD1PIvoYoOlSB4TEe19K3",
    "placeName": "pine grove",
    "state": "WV"
  },
  {
    "city": "belva",
    "state_code": "WV",
    "placeMasterId": "P02500000FsoH1uen3MAZSnc0yd0nk46awVPPtl3",
    "placeName": "belva",
    "state": "WV"
  },
  {
    "city": "biscoe",
    "state_code": "NC",
    "placeMasterId": "P02500000FsoG6GhtNCzJs6jcOZRxe9uwq79W1dT",
    "placeName": "biscoe",
    "state": "NC"
  },
  {
    "city": "eden",
    "state_code": "NC",
    "placeMasterId": "P02500000FsoG6ywHOBsFJ6xUPdB3CbpLYbO1mIq",
    "placeName": "eden",
    "state": "NC"
  },
  {
    "city": "pleasant garden",
    "state_code": "NC",
    "placeMasterId": "P02500000FsoG8pwUELNSEv8krBfU2ykwpRnX7pE",
    "placeName": "pleasant garden",
    "state": "NC"
  },
  {
    "city": "stovall",
    "state_code": "NC",
    "placeMasterId": "P02500000FsoG9YAsFKGNfvMcsFOZbQVtchNWnEy",
    "placeName": "stovall",
    "state": "NC"
  },
  {
    "city": "wendell",
    "state_code": "NC",
    "placeMasterId": "P02500000FsoG9yiJ3Vzjjj69HgQpKtZwnaXbz4m",
    "placeName": "wendell",
    "state": "NC"
  },
  {
    "city": "rocky mount",
    "state_code": "NC",
    "placeMasterId": "P02500000FsoG97dRR8X1c7d6SoMJrxKBjQOZu5t",
    "placeName": "rocky mount",
    "state": "NC"
  },
  {
    "city": "elizabeth city",
    "state_code": "NC",
    "placeMasterId": "P02500000FsoG6ywHOBsFJ6xUPdB3CbsBNPKBDid",
    "placeName": "elizabeth city",
    "state": "NC"
  },
  {
    "city": "salisbury",
    "state_code": "NC",
    "placeMasterId": "P02500000FsoG9GTv2X6oIisHGchjmRgUuJJuRZp",
    "placeName": "salisbury",
    "state": "NC"
  },
  {
    "city": "charlotte",
    "state_code": "NC",
    "placeMasterId": "P02500000FsoG6YOqa08tFJDy0C8nT8qHEOhlkFv",
    "placeName": "charlotte",
    "state": "NC"
  },
  {
    "city": "bladenboro",
    "state_code": "NC",
    "placeMasterId": "P02500000FsoG6GhtNCzJs6jcOZRxeA5aOEcpomJ",
    "placeName": "bladenboro",
    "state": "NC"
  },
  {
    "city": "raeford",
    "state_code": "NC",
    "placeMasterId": "P02500000FsoG8ymxpjxEvWNvf00txSx8wZhSkOo",
    "placeName": "raeford",
    "state": "NC"
  },
  {
    "city": "wilmington",
    "state_code": "NC",
    "placeMasterId": "P02500000FsoGA7YmeuZWQKLK5UmFFNulrAI1CsW",
    "placeName": "wilmington",
    "state": "NC"
  },
  {
    "city": "grifton",
    "state_code": "NC",
    "placeMasterId": "P02500000FsoG7YKBnmBO3VwBcsYiqZGCJ6FzBCX",
    "placeName": "grifton",
    "state": "NC"
  },
  {
    "city": "hobucken",
    "state_code": "NC",
    "placeMasterId": "P02500000FsoG7hAfPAlAk7BMQgu8l3fE1bxK25P",
    "placeName": "hobucken",
    "state": "NC"
  },
  {
    "city": "connelly springs",
    "state_code": "NC",
    "placeMasterId": "P02500000FsoG6hFKBOifvuT8o0UDNd7MBJNfGZl",
    "placeName": "connelly springs",
    "state": "NC"
  },
  {
    "city": "icard",
    "state_code": "NC",
    "placeMasterId": "P02500000FsoG7hAfPAlAk7BMQgu8l3cUVUfjMwQ",
    "placeName": "icard",
    "state": "NC"
  },
  {
    "city": "fairview",
    "state_code": "NC",
    "placeMasterId": "P02500000FsoG77mkzaS1ziCfDRWT76BX6FKzfhM",
    "placeName": "fairview",
    "state": "NC"
  },
  {
    "city": "maggie valley",
    "state_code": "NC",
    "placeMasterId": "P02500000FsoG87i6DMUWnuusq7wOUWn4VvvSlWv",
    "placeName": "maggie valley",
    "state": "NC"
  },
  {
    "city": "cayce",
    "state_code": "SC",
    "placeMasterId": "P02500000FsoGbNDyrcoVf45bXal4Gx1I1SI3zHw",
    "placeName": "cayce",
    "state": "SC"
  },
  {
    "city": "monetta",
    "state_code": "SC",
    "placeMasterId": "P02500000FsoGcN9K5Or0TGnpAHAzeNaRVqUNYdB",
    "placeName": "monetta",
    "state": "SC"
  },
  {
    "city": "springfield",
    "state_code": "SC",
    "placeMasterId": "P02500000FsoGd5Ni6NjvuH1hBKu5CpZcqY7kTl3",
    "placeName": "springfield",
    "state": "SC"
  },
  {
    "city": "summerton",
    "state_code": "SC",
    "placeMasterId": "P02500000FsoGdEEBhmJiasGrz9FV7JhtDLuRkCh",
    "placeName": "summerton",
    "state": "SC"
  },
  {
    "city": "buffalo",
    "state_code": "SC",
    "placeMasterId": "P02500000FsoGbNDyrcoVf45bXal4GwsGzaJTI9d",
    "placeName": "buffalo",
    "state": "SC"
  },
  {
    "city": "campobello",
    "state_code": "SC",
    "placeMasterId": "P02500000FsoGbNDyrcoVf45bXal4GwwUgCncwwv",
    "placeName": "campobello",
    "state": "SC"
  },
  {
    "city": "bonneau",
    "state_code": "SC",
    "placeMasterId": "P02500000FsoGbENVGEEiySqQjmPeMScCLHF3AiA",
    "placeName": "bonneau",
    "state": "SC"
  },
  {
    "city": "ridgeville",
    "state_code": "SC",
    "placeMasterId": "P02500000FsoGcwXEUzA9DfmWNWYfIKzRfUxHAPo",
    "placeName": "ridgeville",
    "state": "SC"
  },
  {
    "city": "myrtle beach",
    "state_code": "SC",
    "placeMasterId": "P02500000FsoGcN9K5Or0TGnpAHAzeNbBRrJHz9g",
    "placeName": "myrtle beach",
    "state": "SC"
  },
  {
    "city": "myrtle beach",
    "state_code": "SC",
    "placeMasterId": "P02500000FsoGcN9K5Or0TGnpAHAzeNbBRrJHz9g",
    "placeName": "myrtle beach",
    "state": "SC"
  },
  {
    "city": "greenville",
    "state_code": "SC",
    "placeMasterId": "P02500000FsoGbwbtHD7ePT4Ikq8juuKkVY6QuEs",
    "placeName": "greenville",
    "state": "SC"
  },
  {
    "city": "pickens",
    "state_code": "SC",
    "placeMasterId": "P02500000FsoGcngktaaMX4XLZiDFNqbn2hOp4Vk",
    "placeName": "pickens",
    "state": "SC"
  },
  {
    "city": "salem",
    "state_code": "SC",
    "placeMasterId": "P02500000FsoGcwXEUzA9DfmWNWYfILAWUArzPhh",
    "placeName": "salem",
    "state": "SC"
  },
  {
    "city": "allendale",
    "state_code": "SC",
    "placeMasterId": "P02500000FsoGb5X1epewHrbFvy4ERyLtIX6FF0C",
    "placeName": "allendale",
    "state": "SC"
  },
  {
    "city": "edgefield",
    "state_code": "SC",
    "placeMasterId": "P02500000FsoGbeuw4Py52GZx9DRu5vhTsJA6ENI",
    "placeName": "edgefield",
    "state": "SC"
  },
  {
    "city": "plum branch",
    "state_code": "SC",
    "placeMasterId": "P02500000FsoGceqHIC0ZqTIAltrpTMO6n5nHZqK",
    "placeName": "plum branch",
    "state": "SC"
  },
  {
    "city": "grayson",
    "state_code": "GA",
    "placeMasterId": "P02500000FsoEwvV9n0OgJkMUgYj05EC5gSRyhEz",
    "placeName": "grayson",
    "state": "GA"
  },
  {
    "city": "lithonia",
    "state_code": "GA",
    "placeMasterId": "P02500000FsoExM2abC82NY615zlFohIwwKTeElu",
    "placeName": "lithonia",
    "state": "GA"
  },
  {
    "city": "marietta",
    "state_code": "GA",
    "placeMasterId": "P02500000FsoExM2abC82NY615zlFohL9dHDdiW0",
    "placeName": "marietta",
    "state": "GA"
  },
  {
    "city": "smyrna",
    "state_code": "GA",
    "placeMasterId": "P02500000FsoEyLxvoyAXBkoEigBBC7wvCyunD0n",
    "placeName": "smyrna",
    "state": "GA"
  },
  {
    "city": "hogansville",
    "state_code": "GA",
    "placeMasterId": "P02500000FsoEx4LdOOyT0LbfUN4PziZTokNhWvF",
    "placeName": "hogansville",
    "state": "GA"
  },
  {
    "city": "atlanta",
    "state_code": "GA",
    "placeMasterId": "P02500000FsoEvV2Nl2cpRjukeRGoyKXsQZ9lvPs",
    "placeName": "atlanta",
    "state": "GA"
  },
  {
    "city": "atlanta",
    "state_code": "GA",
    "placeMasterId": "P02500000FsoEvV2Nl2cpRjukeRGoyKXsQZ9lvPs",
    "placeName": "atlanta",
    "state": "GA"
  },
  {
    "city": "girard",
    "state_code": "GA",
    "placeMasterId": "P02500000FsoEwdoCaDF6wXs94w2AGFVDXAiA5Fa",
    "placeName": "girard",
    "state": "GA"
  },
  {
    "city": "gainesville",
    "state_code": "GA",
    "placeMasterId": "P02500000FsoEwmegBbotd97JskNaAjp2WK40aam",
    "placeName": "gainesville",
    "state": "GA"
  },
  {
    "city": "dillard",
    "state_code": "GA",
    "placeMasterId": "P02500000FsoEwM7FNQ5XZLNnTJLKRGkRp43FVnA",
    "placeName": "dillard",
    "state": "GA"
  },
  {
    "city": "rayle",
    "state_code": "GA",
    "placeMasterId": "P02500000FsoExvQV0mRB7x4iJF8vSesr9vBAEEm",
    "placeName": "rayle",
    "state": "GA"
  },
  {
    "city": "statham",
    "state_code": "GA",
    "placeMasterId": "P02500000FsoEyUoPQMkJsM3PWUWb6cGvTc5IBvu",
    "placeName": "statham",
    "state": "GA"
  },
  {
    "city": "augusta",
    "state_code": "GA",
    "placeMasterId": "P02500000FsoEvV2Nl2cpRjukeRGoyKWGC8vWncN",
    "placeName": "augusta",
    "state": "GA"
  },
  {
    "city": "allentown",
    "state_code": "GA",
    "placeMasterId": "P02500000FsoEvV2Nl2cpRjukeRGoyKTCdwgemGS",
    "placeName": "allentown",
    "state": "GA"
  },
  {
    "city": "rainier",
    "state_code": "WA",
    "placeMasterId": "P02500000FsoH0ujRpa84eatnLwasMdNhGxllrlN",
    "placeName": "rainier",
    "state": "WA"
  },
  {
    "city": "brewster",
    "state_code": "WA",
    "placeMasterId": "P02500000FsoGyULKZqJiyNjph8ilsJ7dOu4tbNT",
    "placeName": "brewster",
    "state": "WA"
  },
  {
    "city": "omak",
    "state_code": "WA",
    "placeMasterId": "P02500000FsoH0d2UcmyVHOPRkJu2Xef0dmQVNTL",
    "placeName": "omak",
    "state": "WA"
  },
  {
    "city": "mattawa",
    "state_code": "WA",
    "placeMasterId": "P02500000FsoH0CV3obF9DafvKsrmoBWiqX365XT",
    "placeName": "mattawa",
    "state": "WA"
  },
  {
    "city": "west richland",
    "state_code": "WA",
    "placeMasterId": "P02500000FsoH1loJRxammCMqAofNpZh3XYwpeNW",
    "placeName": "west richland",
    "state": "WA"
  },
  {
    "city": "chevak",
    "state_code": "AK",
    "placeMasterId": "P02500000FsoEWFDrzsSppPauRi7qhcmrflawDBh",
    "placeName": "chevak",
    "state": "AK"
  },
  {
    "city": "nondalton",
    "state_code": "AK",
    "placeMasterId": "P02500000FsoEXF9DDeVKdcJ84OXm53LV6PfxCTL",
    "placeName": "nondalton",
    "state": "AK"
  },
  {
    "city": "big lake",
    "state_code": "AK",
    "placeMasterId": "P02500000FsoEWFDrzsSppPauRi7qhcjchpz3GRn",
    "placeName": "big lake",
    "state": "AK"
  },
  {
    "city": "seward",
    "state_code": "AK",
    "placeMasterId": "P02500000FsoEXWqAQReu0onTg1Ebu28lHpMsxnI",
    "placeName": "seward",
    "state": "AK"
  },
  {
    "city": "cantwell",
    "state_code": "AK",
    "placeMasterId": "P02500000FsoEWFDrzsSppPauRi7qhcleiPqkhRM",
    "placeName": "cantwell",
    "state": "AK"
  },
  {
    "city": "point hope",
    "state_code": "AK",
    "placeMasterId": "P02500000FsoEXNzgp357KDYIsCtBzXmcFkmtGTZ",
    "placeName": "point hope",
    "state": "AK"
  },
  {
    "city": "fairbanks",
    "state_code": "AK",
    "placeMasterId": "P02500000FsoEWWupCfcPCc5G3KogWbX3A1nKP4z",
    "placeName": "fairbanks",
    "state": "AK"
  },
  {
    "city": "wilbraham",
    "state_code": "MA",
    "placeMasterId": "P02500000FsoHAtys3KX2ke1zamm88vV9MNyL6lC",
    "placeName": "wilbraham",
    "state": "MA"
  },
  {
    "city": "springfield",
    "state_code": "MA",
    "placeMasterId": "P02500000FsoFWsnTmtqZT82P9BmJgfxQ61bP7CW",
    "placeName": "springfield",
    "state": "MA"
  },
  {
    "city": "cheshire",
    "state_code": "MA",
    "placeMasterId": "P02500000FsoHdRGMgby6AmyqHBriMtmb2xqr6hM",
    "placeName": "cheshire",
    "state": "MA"
  },
  {
    "city": "bedford",
    "state_code": "MA",
    "placeMasterId": "P02500000FsoHdRGMgby6AmyqHBriMtbrzVrjFrU",
    "placeName": "bedford",
    "state": "MA"
  },
  {
    "city": "north andover",
    "state_code": "MA",
    "placeMasterId": "P02500000FsoHe9Ukhar1bnCiIFanvLZZH65yXZE",
    "placeName": "north andover",
    "state": "MA"
  },
  {
    "city": "reading",
    "state_code": "MA",
    "placeMasterId": "P02500000FsoHB2pLej6pRFHAOb7Y3Pr4lCDkWYN",
    "placeName": "reading",
    "state": "MA"
  },
  {
    "city": "medway",
    "state_code": "MA",
    "placeMasterId": "P02500000FsoHdrnnUnhSEaiMgcty6MuPpIJAKLj",
    "placeName": "medway",
    "state": "MA"
  },
  {
    "city": "cambridge",
    "state_code": "MA",
    "placeMasterId": "P02500000FsoFWSG2yi7DPKIsjkk3xCgVxYKpwDE",
    "placeName": "cambridge",
    "state": "MA"
  },
  {
    "city": "brookline",
    "state_code": "MA",
    "placeMasterId": "P02500000FsoHB2pLej6pRFHAOb7Y3Pu1xUoJpPI",
    "placeName": "brookline",
    "state": "MA"
  },
  {
    "city": "wellesley",
    "state_code": "MA",
    "placeMasterId": "P02500000FsoHBBfpG7gc7qWLCPSxxuEWlJRMNeM",
    "placeName": "wellesley",
    "state": "MA"
  },
  {
    "city": "east falmouth",
    "state_code": "MA",
    "placeMasterId": "P02500000FsoFWSG2yi7DPKIsjkk3xCewysid6ty",
    "placeName": "east falmouth",
    "state": "MA"
  },
  {
    "city": "edgartown",
    "state_code": "MA",
    "placeMasterId": "P02500000FsoHdixJtP7fXzTBsoYYBsLeaJFK4SG",
    "placeName": "edgartown",
    "state": "MA"
  },
  {
    "city": "mashpee",
    "state_code": "MA",
    "placeMasterId": "P02500000FsoHe0eH6CHEvBxXURFO0rFQHrkpm9C",
    "placeName": "mashpee",
    "state": "MA"
  },
  {
    "city": "lincoln",
    "state_code": "RI",
    "placeMasterId": "P02500000FsoIZ5DGMl9LlTrErFQYSnfRQj7SIRA",
    "placeName": "lincoln",
    "state": "RI"
  },
  {
    "city": "west warwick",
    "state_code": "RI",
    "placeMasterId": "P02500000FsoHDtktieeXBGAeSq1uHDCjzYSv1to",
    "placeName": "west warwick",
    "state": "RI"
  },
  {
    "city": "wilton",
    "state_code": "NH",
    "placeMasterId": "P02500000FsoHBcDG4JPyBeFrbqVDhNIIiGxCxxN",
    "placeName": "wilton",
    "state": "NH"
  },
  {
    "city": "tilton",
    "state_code": "NH",
    "placeMasterId": "P02500000FsoIC6wOFwDv8lSBVVoGlw45PCiL1Qr",
    "placeName": "tilton",
    "state": "NH"
  },
  {
    "city": "concord",
    "state_code": "NH",
    "placeMasterId": "P02500000FsoFuzqAitOHaeOqvQ9wfSeTAsU2Dfb",
    "placeName": "concord",
    "state": "NH"
  },
  {
    "city": "marlborough",
    "state_code": "NH",
    "placeMasterId": "P02500000FsoHBTMmSuqBV30go29nmsywIqpLrgl",
    "placeName": "marlborough",
    "state": "NH"
  },
  {
    "city": "charlestown",
    "state_code": "NH",
    "placeMasterId": "P02500000FsoHBcDG4JPyBeFrbqVDhNR7yJi7Ngz",
    "placeName": "charlestown",
    "state": "NH"
  },
  {
    "city": "rollinsford",
    "state_code": "NH",
    "placeMasterId": "P02500000FsoIBy5ueXe8SAD0hhSqrRYnbMvCmoK",
    "placeName": "rollinsford",
    "state": "NH"
  },
  {
    "city": "parsonsfield",
    "state_code": "ME",
    "placeMasterId": "P02500000FsoHg0UxXkMEXbNyjo5EliRk8cqfcLE",
    "placeName": "parsonsfield",
    "state": "ME"
  },
  {
    "city": "old orchard beach",
    "state_code": "ME",
    "placeMasterId": "P02500000FsoHAtys3KX2ke1zamm88vPBcEZ99VS",
    "placeName": "old orchard beach",
    "state": "ME"
  },
  {
    "city": "buxton",
    "state_code": "ME",
    "placeMasterId": "P02500000FsoHerj8iZjx2nQaJJJtTnRY0Jv2swK",
    "placeName": "buxton",
    "state": "ME"
  },
  {
    "city": "buckfield",
    "state_code": "ME",
    "placeMasterId": "P02500000FsoHerj8iZjx2nQaJJJtTnQ6DSVmjpg",
    "placeName": "buckfield",
    "state": "ME"
  },
  {
    "city": "stoneham",
    "state_code": "ME",
    "placeMasterId": "P02500000FsoHgR2OLw5abP7V9F7UVBZVhMzXfFL",
    "placeName": "stoneham",
    "state": "ME"
  },
  {
    "city": "paris",
    "state_code": "ME",
    "placeMasterId": "P02500000FsoHg9LR98w1ECd9XcQegCi60P32lUE",
    "placeName": "paris",
    "state": "ME"
  },
  {
    "city": "hallowell",
    "state_code": "ME",
    "placeMasterId": "P02500000FsoFTAn46aq9bVfsG4nRzwErCPufk5m",
    "placeName": "hallowell",
    "state": "ME"
  },
  {
    "city": "bradford",
    "state_code": "ME",
    "placeMasterId": "P02500000FsoHerj8iZjx2nQaJJJtTnMz3KT9BO5",
    "placeName": "bradford",
    "state": "ME"
  },
  {
    "city": "castine",
    "state_code": "ME",
    "placeMasterId": "P02500000FsoHf0ZcJyJjjOfl77fJOHleiCUWRwa",
    "placeName": "castine",
    "state": "ME"
  },
  {
    "city": "lincoln",
    "state_code": "ME",
    "placeMasterId": "P02500000FsoHATRRF8nggqITBLjsPSNrROU2v1a",
    "placeName": "lincoln",
    "state": "ME"
  },
  {
    "city": "damariscotta",
    "state_code": "ME",
    "placeMasterId": "P02500000FsoHf9Q5vMtWPzuvuw0jIm6oTGB5wtY",
    "placeName": "damariscotta",
    "state": "ME"
  },
  {
    "city": "bridgewater",
    "state_code": "ME",
    "placeMasterId": "P02500000FsoHerj8iZjx2nQaJJJtTnQXpzs8Gtu",
    "placeName": "bridgewater",
    "state": "ME"
  },
  {
    "city": "wallagrass",
    "state_code": "ME",
    "placeMasterId": "P02500000FsoHgZsrxKfNI0Mfx3SuPfwAIkHmTY7",
    "placeName": "wallagrass",
    "state": "ME"
  },
  {
    "city": "union",
    "state_code": "ME",
    "placeMasterId": "P02500000FsoHgZsrxKfNI0Mfx3SuPfnsUDSE8q5",
    "placeName": "union",
    "state": "ME"
  },
  {
    "city": "norridgewock",
    "state_code": "ME",
    "placeMasterId": "P02500000FsoHAl8ORvxG42momyQiEQy1y3Nwulk",
    "placeName": "norridgewock",
    "state": "ME"
  },
  {
    "city": "west forks",
    "state_code": "ME",
    "placeMasterId": "P02500000FsoHAcHuqXNTNRXdzA5IJwon9oC0GqP",
    "placeName": "west forks",
    "state": "ME"
  },
  {
    "city": "readsboro",
    "state_code": "VT",
    "placeMasterId": "P02500000FsoIevuq60oXw6tNnXagosvgUEmFxCV",
    "placeName": "readsboro",
    "state": "VT"
  },
  {
    "city": "jeffersonville",
    "state_code": "VT",
    "placeMasterId": "P02500000FsoGuCx0Tx0AMMObamMEXc4RjAMngNu",
    "placeName": "jeffersonville",
    "state": "VT"
  },
  {
    "city": "richford",
    "state_code": "VT",
    "placeMasterId": "P02500000FsoIfDbnIny7JJNjPAHWdrbWvLFQdHI",
    "placeName": "richford",
    "state": "VT"
  },
  {
    "city": "starksboro",
    "state_code": "VT",
    "placeMasterId": "P02500000FsoIfMSGuCXtzucuCycwYLyDDc855bO",
    "placeName": "starksboro",
    "state": "VT"
  },
  {
    "city": "lowell",
    "state_code": "VT",
    "placeMasterId": "P02500000FsoIen4MUcElFVeCzjFGuOXMyx9dxIj",
    "placeName": "lowell",
    "state": "VT"
  },
  {
    "city": "troy",
    "state_code": "VT",
    "placeMasterId": "P02500000FsoIfDbnIny7JJNjPAHWdretsnRYaBa",
    "placeName": "troy",
    "state": "VT"
  },
  {
    "city": "lakeville",
    "state_code": "CT",
    "placeMasterId": "P02500000FsoEpDnNDbEHDJ95Ii4Qsm8oM858tCJ",
    "placeName": "lakeville",
    "state": "CT"
  },
  {
    "city": "somers",
    "state_code": "CT",
    "placeMasterId": "P02500000FsoHGkgRmaCEvH48X4wGV0kQ4jrRdYY",
    "placeName": "somers",
    "state": "CT"
  },
  {
    "city": "middlefield",
    "state_code": "CT",
    "placeMasterId": "P02500000FsoHGSzUZn2fY4ZmvSFQg24b91eu0Il",
    "placeName": "middlefield",
    "state": "CT"
  },
  {
    "city": "fairfield",
    "state_code": "CT",
    "placeMasterId": "P02500000FsoHGSzUZn2fY4ZmvSFQg1xkp518m9w",
    "placeName": "fairfield",
    "state": "CT"
  },
  {
    "city": "norwalk",
    "state_code": "CT",
    "placeMasterId": "P02500000FsoEpMdqozo3tuOG6WPqnGVjKk8zkLb",
    "placeName": "norwalk",
    "state": "CT"
  },
  {
    "city": "weston",
    "state_code": "CT",
    "placeMasterId": "P02500000FsoHGtWvNym1bsJJKtHgPV1Tx1xU2qX",
    "placeName": "weston",
    "state": "CT"
  },
  {
    "city": "stamford",
    "state_code": "CT",
    "placeMasterId": "P02500000FsoEpMdqozo3tuOG6WPqnGa7UQ8WG36",
    "placeName": "stamford",
    "state": "CT"
  },
  {
    "city": "scotch plains",
    "state_code": "NJ",
    "placeMasterId": "P02500000FsoIDFiD56qCdZPZw0Zc3qxb58FOvmq",
    "placeName": "scotch plains",
    "state": "NJ"
  },
  {
    "city": "jersey city",
    "state_code": "NJ",
    "placeMasterId": "P02500000FsoFwQIwkrA8SeqaxXc7mMMNxqPJn2t",
    "placeName": "jersey city",
    "state": "NJ"
  },
  {
    "city": "elmwood park",
    "state_code": "NJ",
    "placeMasterId": "P02500000FsoFvqv2LGqziFrtkIES8OsxZ4t9a2b",
    "placeName": "elmwood park",
    "state": "NJ"
  },
  {
    "city": "pequannock",
    "state_code": "NJ",
    "placeMasterId": "P02500000FsoIDFiD56qCdZPZw0Zc3qprWJaZ37v",
    "placeName": "pequannock",
    "state": "NJ"
  },
  {
    "city": "emerson",
    "state_code": "NJ",
    "placeMasterId": "P02500000FsoFvzlVwfQmOr74Y6Zs2t97vIr8vh2",
    "placeName": "emerson",
    "state": "NJ"
  },
  {
    "city": "morganville",
    "state_code": "NJ",
    "placeMasterId": "P02500000FsoFwqqNZ2tUWSa7MyeNVpN79MZkVFu",
    "placeName": "morganville",
    "state": "NJ"
  },
  {
    "city": "blackwood",
    "state_code": "NJ",
    "placeMasterId": "P02500000FsoFvHX7vgXqxqtCX2qmURONVpbvNWF",
    "placeName": "blackwood",
    "state": "NJ"
  },
  {
    "city": "juliustown",
    "state_code": "NJ",
    "placeMasterId": "P02500000FsoFwQIwkrA8SeqaxXc7mMLvqaHL9q1",
    "placeName": "juliustown",
    "state": "NJ"
  },
  {
    "city": "paulsboro",
    "state_code": "NJ",
    "placeMasterId": "P02500000FsoFx8XKlq33tf4SybLDKoIoX2RZK79",
    "placeName": "paulsboro",
    "state": "NJ"
  },
  {
    "city": "avalon",
    "state_code": "NJ",
    "placeMasterId": "P02500000FsoFvHX7vgXqxqtCX2qmURIeP50w6fs",
    "placeName": "avalon",
    "state": "NJ"
  },
  {
    "city": "clayton",
    "state_code": "NJ",
    "placeMasterId": "P02500000FsoFvZE58ThQL3NY8fXcJQC9xECneIJ",
    "placeName": "clayton",
    "state": "NJ"
  },
  {
    "city": "cranbury",
    "state_code": "NJ",
    "placeMasterId": "P02500000FsoICXTp47xHCZBhuwqWVP4N80z2vjd",
    "placeName": "cranbury",
    "state": "NJ"
  },
  {
    "city": "trenton",
    "state_code": "NJ",
    "placeMasterId": "P02500000FsoFxqlimovzKfIKzf4ItG76ZSi5TQc",
    "placeName": "trenton",
    "state": "NJ"
  },
  {
    "city": "trenton",
    "state_code": "NJ",
    "placeMasterId": "P02500000FsoFxqlimovzKfIKzf4ItG76ZSi5TQc",
    "placeName": "trenton",
    "state": "NJ"
  },
  {
    "city": "trenton",
    "state_code": "NJ",
    "placeMasterId": "P02500000FsoFxqlimovzKfIKzf4ItG76ZSi5TQc",
    "placeName": "trenton",
    "state": "NJ"
  },
  {
    "city": "toms river",
    "state_code": "NJ",
    "placeMasterId": "P02500000FsoHBl3jfhzksFV2PeqdbrjnDDuBoT5",
    "placeName": "toms river",
    "state": "NJ"
  },
  {
    "city": "bridgewater",
    "state_code": "NJ",
    "placeMasterId": "P02500000FsoICOdLSjNUVxwX78V6auhaqFuqmf9",
    "placeName": "bridgewater",
    "state": "NJ"
  },
  {
    "city": "clinton",
    "state_code": "NJ",
    "placeMasterId": "P02500000FsoFvi4YjsHD1eciwTt2DuPNhyPcVEr",
    "placeName": "clinton",
    "state": "NJ"
  },
  {
    "city": "helmetta",
    "state_code": "NJ",
    "placeMasterId": "P02500000FsoFwHST9SaLm3bQ9jGhrrvv82bTl1s",
    "placeName": "helmetta",
    "state": "NJ"
  },
  {
    "city": "manville",
    "state_code": "NJ",
    "placeMasterId": "P02500000FsoFwhztxeJhprKwZAIxbL1ORUD7RBQ",
    "placeName": "manville",
    "state": "NJ"
  },
  {
    "city": "south bound brook",
    "state_code": "NJ",
    "placeMasterId": "P02500000FsoFxhvFBQMCe43ABqisyljV8jtciHC",
    "placeName": "south bound brook",
    "state": "NJ"
  },
  {
    "city": "new york",
    "state_code": "NY",
    "placeMasterId": "P02500000FsoG3hTIW4bBVIKTvxERFLPbpMNP8u9",
    "placeName": "new york",
    "state": "NY"
  },
  {
    "city": "new york",
    "state_code": "NY",
    "placeMasterId": "P02500000FsoG3hTIW4bBVIKTvxERFLPbpMNP8u9",
    "placeName": "new york",
    "state": "NY"
  },
  {
    "city": "new york",
    "state_code": "NY",
    "placeMasterId": "P02500000FsoG3hTIW4bBVIKTvxERFLPbpMNP8u9",
    "placeName": "new york",
    "state": "NY"
  },
  {
    "city": "new york",
    "state_code": "NY",
    "placeMasterId": "P02500000FsoG3hTIW4bBVIKTvxERFLPbpMNP8u9",
    "placeName": "new york",
    "state": "NY"
  },
  {
    "city": "yonkers",
    "state_code": "NY",
    "placeMasterId": "P02500000FsoG5qASZ1FxoJ05z8Phugz8ElJISm3",
    "placeName": "yonkers",
    "state": "NY"
  },
  {
    "city": "blauvelt",
    "state_code": "NY",
    "placeMasterId": "P02500000FsoG18EhewD38TvLTL0uqWVzgpI1yMd",
    "placeName": "blauvelt",
    "state": "NY"
  },
  {
    "city": "piermont",
    "state_code": "NY",
    "placeMasterId": "P02500000FsoG4GrCveuKFhJB9Cc6tIrSrbB6VjS",
    "placeName": "piermont",
    "state": "NY"
  },
  {
    "city": "brooklyn",
    "state_code": "NY",
    "placeMasterId": "P02500000FsoHCc8bI5SSzqy5EWv94nnzJKQNSS5",
    "placeName": "brooklyn",
    "state": "NY"
  },
  {
    "city": "mineola",
    "state_code": "NY",
    "placeMasterId": "P02500000FsoG3Ycoug1Ooh5J88t1Kr0YtUs4mQS",
    "placeName": "mineola",
    "state": "NY"
  },
  {
    "city": "atlantic beach",
    "state_code": "NY",
    "placeMasterId": "P02500000FsoG0qXkS93TlHQzriK51XvvkruCKuW",
    "placeName": "atlantic beach",
    "state": "NY"
  },
  {
    "city": "islandia",
    "state_code": "NY",
    "placeMasterId": "P02500000FsoG2qOQth8TNgrR759vmP7aUGJklUv",
    "placeName": "islandia",
    "state": "NY"
  },
  {
    "city": "levittown",
    "state_code": "NY",
    "placeMasterId": "P02500000FsoG3GvrhsrpRUaxWWCBVs7oXimGBSC",
    "placeName": "levittown",
    "state": "NY"
  },
  {
    "city": "ocean beach",
    "state_code": "NY",
    "placeMasterId": "P02500000FsoG480jKGKXZ640LOGgyoNk3nOz5bD",
    "placeName": "ocean beach",
    "state": "NY"
  },
  {
    "city": "manorville",
    "state_code": "NY",
    "placeMasterId": "P02500000FsoG3GvrhsrpRUaxWWCBVsF6xOBVofj",
    "placeName": "manorville",
    "state": "NY"
  },
  {
    "city": "quogue",
    "state_code": "NY",
    "placeMasterId": "P02500000FsoG4YYA8S3tctnWkpIwiHStYEdzGUZ",
    "placeName": "quogue",
    "state": "NY"
  },
  {
    "city": "ravena",
    "state_code": "NY",
    "placeMasterId": "P02500000FsoG4PhgX3U6wIYLx0xWnnGXWDmVHQ2",
    "placeName": "ravena",
    "state": "NY"
  },
  {
    "city": "voorheesville",
    "state_code": "NY",
    "placeMasterId": "P02500000FsoG5YTVME6OR6VkNVis5i1X85FW5LE",
    "placeName": "voorheesville",
    "state": "NY"
  },
  {
    "city": "wells",
    "state_code": "NY",
    "placeMasterId": "P02500000FsoIHFPZyD0BsOGSQkFJZZHa6RX5Flq",
    "placeName": "wells",
    "state": "NY"
  },
  {
    "city": "napanoch",
    "state_code": "NY",
    "placeMasterId": "P02500000FsoG3qJm7TAyBtZejlZr9pYvDRzqQSb",
    "placeName": "napanoch",
    "state": "NY"
  },
  {
    "city": "claverack",
    "state_code": "NY",
    "placeMasterId": "P02500000FsoIEFdYIsshRm7nYgzXRHTLxMA07j3",
    "placeName": "claverack",
    "state": "NY"
  },
  {
    "city": "marlboro",
    "state_code": "NY",
    "placeMasterId": "P02500000FsoG3Ycoug1Ooh5J88t1KqpYFHvourr",
    "placeName": "marlboro",
    "state": "NY"
  },
  {
    "city": "poughkeepsie",
    "state_code": "NY",
    "placeMasterId": "P02500000FsoG4PhgX3U6wIYLx0xWnnEZmjsnSw6",
    "placeName": "poughkeepsie",
    "state": "NY"
  }
]