[
  {
    "city": "biggsville",
    "state_code": "IL",
    "placeMasterId": "P02500000FsoF1dQuh5RazZRFCM7n9OWV6HTjF0B",
    "placeName": "biggsville",
    "state": "IL"
  },
  {
    "city": "bishop hill",
    "state_code": "IL",
    "placeMasterId": "P02500000FsoF1mHOIU1NgAgQ0ATD3srjFAXZKPR",
    "placeName": "bishop hill",
    "state": "IL"
  },
  {
    "city": "littleton",
    "state_code": "IL",
    "placeMasterId": "P02500000FsoF5CaqlzsEAaYbHelEvdmuqgCkFQ5",
    "placeName": "littleton",
    "state": "IL"
  },
  {
    "city": "seaton",
    "state_code": "IL",
    "placeMasterId": "P02500000FsoF7cyy1jgZqniYwSdLPy2yQgLLBuF",
    "placeName": "seaton",
    "state": "IL"
  },
  {
    "city": "woodhull",
    "state_code": "IL",
    "placeMasterId": "P02500000FsoF8ubGSIse2Cv8Alk6cNPCKiqklyZ",
    "placeName": "woodhull",
    "state": "IL"
  },
  {
    "city": "kingston mines",
    "state_code": "IL",
    "placeMasterId": "P02500000FsoF4m3Pxo8s6mp4sDizCAeBZ0H4DKM",
    "placeName": "kingston mines",
    "state": "IL"
  },
  {
    "city": "trivoli",
    "state_code": "IL",
    "placeMasterId": "P02500000FsoHP1m8lZfmm7GF8AyVLQAHFY4yVsa",
    "placeName": "trivoli",
    "state": "IL"
  },
  {
    "city": "yates city",
    "state_code": "IL",
    "placeMasterId": "P02500000FsoF8ubGSIse2Cv8Alk6cNRsMU6zjOe",
    "placeName": "yates city",
    "state": "IL"
  },
  {
    "city": "flanagan",
    "state_code": "IL",
    "placeMasterId": "P02500000FsoF3UR7XEwnvNcVducDzlJOd9I9B2T",
    "placeName": "flanagan",
    "state": "IL"
  },
  {
    "city": "mahomet",
    "state_code": "IL",
    "placeMasterId": "P02500000FsoF5UHnyn1nXn2wtHS4kcW4AAgFtdh",
    "placeName": "mahomet",
    "state": "IL"
  },
  {
    "city": "ridge farm",
    "state_code": "IL",
    "placeMasterId": "P02500000FsoF73b3c9NR6OjrjDFfm0cbT9ERQ70",
    "placeName": "ridge farm",
    "state": "IL"
  },
  {
    "city": "gays",
    "state_code": "IL",
    "placeMasterId": "P02500000FsoF3dHb8dWabyrgRixduFigH7shKda",
    "placeName": "gays",
    "state": "IL"
  },
  {
    "city": "columbia",
    "state_code": "IL",
    "placeMasterId": "P02500000FsoF2dMFurU5nm9Sp2XiWp5UrxKPTCO",
    "placeName": "columbia",
    "state": "IL"
  },
  {
    "city": "evansville",
    "state_code": "IL",
    "placeMasterId": "P02500000FsoF3LadvqN1EmNKq6Go5GyK1EqHaRP",
    "placeName": "evansville",
    "state": "IL"
  },
  {
    "city": "dallas city",
    "state_code": "IL",
    "placeMasterId": "P02500000FsoF2v3D7edfAydoQfEYLnnG06umlgI",
    "placeName": "dallas city",
    "state": "IL"
  },
  {
    "city": "bridgeport",
    "state_code": "IL",
    "placeMasterId": "P02500000FsoF1mHOIU1NgAgQ0ATD3ssjxmRZVbP",
    "placeName": "bridgeport",
    "state": "IL"
  },
  {
    "city": "calhoun",
    "state_code": "IL",
    "placeMasterId": "P02500000FsoF2Cop6fkjjyPwPbVSnLxmQHo2KEz",
    "placeName": "calhoun",
    "state": "IL"
  },
  {
    "city": "morrisonville",
    "state_code": "IL",
    "placeMasterId": "P02500000FsoF5lylBaBMuzXIUu8uZbHvIIXjlLL",
    "placeName": "morrisonville",
    "state": "IL"
  },
  {
    "city": "arenzville",
    "state_code": "IL",
    "placeMasterId": "P02500000FsoF1CtTstiEvlhimv5XPvPcfeo24xf",
    "placeName": "arenzville",
    "state": "IL"
  },
  {
    "city": "carlinville",
    "state_code": "IL",
    "placeMasterId": "P02500000FsoF2Cop6fkjjyPwPbVSnM0RdCt9uxW",
    "placeName": "carlinville",
    "state": "IL"
  },
  {
    "city": "elkhart",
    "state_code": "IL",
    "placeMasterId": "P02500000FsoF3CkAKRnEYB8A2HvOAmZUGsr3sSA",
    "placeName": "elkhart",
    "state": "IL"
  },
  {
    "city": "kilbourne",
    "state_code": "IL",
    "placeMasterId": "P02500000FsoF4m3Pxo8s6mp4sDizCAgbfzjx3G1",
    "placeName": "kilbourne",
    "state": "IL"
  },
  {
    "city": "new holland",
    "state_code": "IL",
    "placeMasterId": "P02500000FsoF6CWBzluiynGouLBAJ4MIWRM8RO6",
    "placeName": "new holland",
    "state": "IL"
  },
  {
    "city": "pleasant plains",
    "state_code": "IL",
    "placeMasterId": "P02500000FsoF6uka0knePnUgvOuFrWBemh3UiUv",
    "placeName": "pleasant plains",
    "state": "IL"
  },
  {
    "city": "tallula",
    "state_code": "IL",
    "placeMasterId": "P02500000FsoF83WOpvPvubS5Ltfb9RCPy2nRZZD",
    "placeName": "tallula",
    "state": "IL"
  },
  {
    "city": "buckner",
    "state_code": "IL",
    "placeMasterId": "P02500000FsoF1v7rtsbAMlvanyocyNFRczrgrbO",
    "placeName": "buckner",
    "state": "IL"
  },
  {
    "city": "salem",
    "state_code": "IL",
    "placeMasterId": "P02500000FsoF7U8UQL6nACTO8eHvVThgsMNzhSZ",
    "placeName": "salem",
    "state": "IL"
  },
  {
    "city": "de soto",
    "state_code": "IL",
    "placeMasterId": "P02500000FsoF2v3D7edfAydoQfEYLnpE7U3lmtX",
    "placeName": "de soto",
    "state": "IL"
  },
  {
    "city": "royalton",
    "state_code": "IL",
    "placeMasterId": "P02500000FsoF7LI0owX0TbEDKpwVazL8BVIiYsv",
    "placeName": "royalton",
    "state": "IL"
  },
  {
    "city": "simpson",
    "state_code": "IL",
    "placeMasterId": "P02500000FsoF7lpRd8GMXOxjkGylKSQTx8UOrdm",
    "placeName": "simpson",
    "state": "IL"
  },
  {
    "city": "gerald",
    "state_code": "MO",
    "placeMasterId": "P02500000FsoFkitnILpk7OmJ4xHr4BqTCdE2RXi",
    "placeName": "gerald",
    "state": "MO"
  },
  {
    "city": "old monroe",
    "state_code": "MO",
    "placeMasterId": "P02500000FsoFmikTjtujjoCkKK7hp32IBKyuq77",
    "placeName": "old monroe",
    "state": "MO"
  },
  {
    "city": "vandalia",
    "state_code": "MO",
    "placeMasterId": "P02500000FsoFo9DFlrgaboeUMRZsvwp82aI8DHv",
    "placeName": "vandalia",
    "state": "MO"
  },
  {
    "city": "wentzville",
    "state_code": "MO",
    "placeMasterId": "P02500000FsoFoQuCyeq9z18py4GikvVYrszHUBh",
    "placeName": "wentzville",
    "state": "MO"
  },
  {
    "city": "leadwood",
    "state_code": "MO",
    "placeMasterId": "P02500000FsoFlrfc7WS1cCjhVS3CM6tEnAq2BM4",
    "placeName": "leadwood",
    "state": "MO"
  },
  {
    "city": "delta",
    "state_code": "MO",
    "placeMasterId": "P02500000FsoFk0fPHMwogOYR3tYlVk7xcJkjV0t",
    "placeName": "delta",
    "state": "MO"
  },
  {
    "city": "oran",
    "state_code": "MO",
    "placeMasterId": "P02500000FsoFmikTjtujjoCkKK7hp38USIEgVHK",
    "placeName": "oran",
    "state": "MO"
  },
  {
    "city": "malden",
    "state_code": "MO",
    "placeMasterId": "P02500000FsoFm9MZKJbazPE374k2B5YChuxTg7j",
    "placeName": "malden",
    "state": "MO"
  },
  {
    "city": "van buren",
    "state_code": "MO",
    "placeMasterId": "P02500000FsoFo9DFlrgaboeUMRZsvwk6yMLOX33",
    "placeName": "van buren",
    "state": "MO"
  },
  {
    "city": "kansas city",
    "state_code": "MO",
    "placeMasterId": "P02500000FsoFlR8BJKifYP0B610wcdmJLAheztV",
    "placeName": "kansas city",
    "state": "MO"
  },
  {
    "city": "bolckow",
    "state_code": "MO",
    "placeMasterId": "P02500000FsoFj9aXezU6Yn5OF1UG2nkbuZRrB3y",
    "placeName": "bolckow",
    "state": "MO"
  },
  {
    "city": "ravenwood",
    "state_code": "MO",
    "placeMasterId": "P02500000FsoFn9HuY5e5nbwGjl9xYWHFPM3DgCN",
    "placeName": "ravenwood",
    "state": "MO"
  },
  {
    "city": "marceline",
    "state_code": "MO",
    "placeMasterId": "P02500000FsoFm0W5iv1oInysJGOcGbHXK6qr4Fu",
    "placeName": "marceline",
    "state": "MO"
  },
  {
    "city": "deepwater",
    "state_code": "MO",
    "placeMasterId": "P02500000FsoFk0fPHMwogOYR3tYlVjxhDjNfyoe",
    "placeName": "deepwater",
    "state": "MO"
  },
  {
    "city": "duenweg",
    "state_code": "MO",
    "placeMasterId": "P02500000FsoFk9VsslWbMznbrhuBQEUKcofiPZG",
    "placeName": "duenweg",
    "state": "MO"
  },
  {
    "city": "camdenton",
    "state_code": "MO",
    "placeMasterId": "P02500000FsoFjRHUrmdfvzZjqeB5rmYTpyyhZHe",
    "placeName": "camdenton",
    "state": "MO"
  },
  {
    "city": "freeburg",
    "state_code": "MO",
    "placeMasterId": "P02500000FsoFka3JgxFxQnX8H8wR9hb1RvUgWkI",
    "placeName": "freeburg",
    "state": "MO"
  },
  {
    "city": "lohman",
    "state_code": "MO",
    "placeMasterId": "P02500000FsoFm0W5iv1oInysJGOcGbEltO7oC7l",
    "placeName": "lohman",
    "state": "MO"
  },
  {
    "city": "paris",
    "state_code": "MO",
    "placeMasterId": "P02500000FsoFmraxLIUWQPRv88T7jXN26cdU109",
    "placeName": "paris",
    "state": "MO"
  },
  {
    "city": "sweet springs",
    "state_code": "MO",
    "placeMasterId": "P02500000FsoFo0MmAT6nvDPJYdET1SMeEUZeGBS",
    "placeName": "sweet springs",
    "state": "MO"
  },
  {
    "city": "fair play",
    "state_code": "MO",
    "placeMasterId": "P02500000FsoFkRCq5YgAkCHxTKb1FDDCEDEk3MD",
    "placeName": "fair play",
    "state": "MO"
  },
  {
    "city": "cabool",
    "state_code": "MO",
    "placeMasterId": "P02500000FsoFjRHUrmdfvzZjqeB5rmZHWWjTiJF",
    "placeName": "cabool",
    "state": "MO"
  },
  {
    "city": "south greenfield",
    "state_code": "MO",
    "placeMasterId": "P02500000FsoFnifoxfxEY0uxx0XdCTkd3TAJl6y",
    "placeName": "south greenfield",
    "state": "MO"
  },
  {
    "city": "macks creek",
    "state_code": "MO",
    "placeMasterId": "P02500000FsoFm0W5iv1oInysJGOcGbF0IMoMohI",
    "placeName": "macks creek",
    "state": "MO"
  },
  {
    "city": "leawood",
    "state_code": "KS",
    "placeMasterId": "P02500000FsoFL2XqizwORGiwSn6d40xsLRnGUVa",
    "placeName": "leawood",
    "state": "KS"
  },
  {
    "city": "emmett",
    "state_code": "KS",
    "placeMasterId": "P02500000FsoFKBSz6cTgJfFtdv27b4jPb3YeSrS",
    "placeName": "emmett",
    "state": "KS"
  },
  {
    "city": "powhattan",
    "state_code": "KS",
    "placeMasterId": "P02500000FsoFM2TBwlytFTRA5TWYRRYxPPNgSXN",
    "placeName": "powhattan",
    "state": "KS"
  },
  {
    "city": "topeka",
    "state_code": "KS",
    "placeMasterId": "P02500000FsoFMbr6MMI1zsPrIiuE5P2hY2Q28N9",
    "placeName": "topeka",
    "state": "KS"
  },
  {
    "city": "topeka",
    "state_code": "KS",
    "placeMasterId": "P02500000FsoFMbr6MMI1zsPrIiuE5P2hY2Q28N9",
    "placeName": "topeka",
    "state": "KS"
  },
  {
    "city": "fredonia",
    "state_code": "KS",
    "placeMasterId": "P02500000FsoFKBSz6cTgJfFtdv27b4opGC7Q8Ia",
    "placeName": "fredonia",
    "state": "KS"
  },
  {
    "city": "savonburg",
    "state_code": "KS",
    "placeMasterId": "P02500000FsoFMKA99Z8ScfvVh6DOGQJucoIcCKY",
    "placeName": "savonburg",
    "state": "KS"
  },
  {
    "city": "allen",
    "state_code": "KS",
    "placeMasterId": "P02500000FsoFJ2hAHRrOorIVDQGmJ9qAuKqkN5R",
    "placeName": "allen",
    "state": "KS"
  },
  {
    "city": "lebo",
    "state_code": "KS",
    "placeMasterId": "P02500000FsoFL2XqizwORGiwSn6d40zY29z7QQa",
    "placeName": "lebo",
    "state": "KS"
  },
  {
    "city": "marion",
    "state_code": "KS",
    "placeMasterId": "P02500000FsoFLKEnvn5xoTDI4PnSszlbOALolem",
    "placeName": "marion",
    "state": "KS"
  },
  {
    "city": "lebanon",
    "state_code": "KS",
    "placeMasterId": "P02500000FsoFL2XqizwORGiwSn6d40xpFSKzkQL",
    "placeName": "lebanon",
    "state": "KS"
  },
  {
    "city": "randall",
    "state_code": "KS",
    "placeMasterId": "P02500000FsoFM2TBwlytFTRA5TWYRRZrQfrPkrj",
    "placeName": "randall",
    "state": "KS"
  },
  {
    "city": "medicine lodge",
    "state_code": "KS",
    "placeMasterId": "P02500000FsoFLT5HXBfkV4SSsE8snU44Zdbz7Nn",
    "placeName": "medicine lodge",
    "state": "KS"
  },
  {
    "city": "viola",
    "state_code": "KS",
    "placeMasterId": "P02500000FsoFMkhZxkrogTf26XFdztSnn6rTCTA",
    "placeName": "viola",
    "state": "KS"
  },
  {
    "city": "wichita",
    "state_code": "KS",
    "placeMasterId": "P02500000FsoFMtY3Z9RbN4uCuLb3uNnBOyNlFLT",
    "placeName": "wichita",
    "state": "KS"
  },
  {
    "city": "wichita",
    "state_code": "KS",
    "placeMasterId": "P02500000FsoFMtY3Z9RbN4uCuLb3uNnBOyNlFLT",
    "placeName": "wichita",
    "state": "KS"
  },
  {
    "city": "wichita",
    "state_code": "KS",
    "placeMasterId": "P02500000FsoFMtY3Z9RbN4uCuLb3uNnBOyNlFLT",
    "placeName": "wichita",
    "state": "KS"
  },
  {
    "city": "bushton",
    "state_code": "KS",
    "placeMasterId": "P02500000FsoFJc54h2AXZGHCQfeRx7HvRUEbYSo",
    "placeName": "bushton",
    "state": "KS"
  },
  {
    "city": "enterprise",
    "state_code": "KS",
    "placeMasterId": "P02500000FsoFK2cVVDttd40iq6ghgaQrFKjX3VP",
    "placeName": "enterprise",
    "state": "KS"
  },
  {
    "city": "hudson",
    "state_code": "KS",
    "placeMasterId": "P02500000FsoFKc0PuoD2NSzQ3M4NKXs1YCtvNSt",
    "placeName": "hudson",
    "state": "KS"
  },
  {
    "city": "prairie view",
    "state_code": "KS",
    "placeMasterId": "P02500000FsoFM2TBwlytFTRA5TWYRRdnLAdzl8J",
    "placeName": "prairie view",
    "state": "KS"
  },
  {
    "city": "stockton",
    "state_code": "KS",
    "placeMasterId": "P02500000FsoFMT0ckxiFJHAgUuYoAugc2mTv0mW",
    "placeName": "stockton",
    "state": "KS"
  },
  {
    "city": "ingalls",
    "state_code": "KS",
    "placeMasterId": "P02500000FsoFKkqtWCmp44EarAPnF2G2jMwRqTS",
    "placeName": "ingalls",
    "state": "KS"
  },
  {
    "city": "bellevue",
    "state_code": "NE",
    "placeMasterId": "P02500000FsoFr8zHRBo52Qn9EUpf4EbnsB7qVfn",
    "placeName": "bellevue",
    "state": "NE"
  },
  {
    "city": "ceresco",
    "state_code": "NE",
    "placeMasterId": "P02500000FsoFrQgEdyxePdHUq7WUtDLfnmPV7m3",
    "placeName": "ceresco",
    "state": "NE"
  },
  {
    "city": "plattsmouth",
    "state_code": "NE",
    "placeMasterId": "P02500000FsoFtHgRU8SrLRSlHg0vja82EwGfjMm",
    "placeName": "plattsmouth",
    "state": "NE"
  },
  {
    "city": "yutan",
    "state_code": "NE",
    "placeMasterId": "P02500000FsoFu8lJ6VvZT2vo6Y5RCWNd5AHK0lK",
    "placeName": "yutan",
    "state": "NE"
  },
  {
    "city": "omaha",
    "state_code": "NE",
    "placeMasterId": "P02500000FsoFszzUHLJHyEyPg3K5ubV6FuzuT2T",
    "placeName": "omaha",
    "state": "NE"
  },
  {
    "city": "omaha",
    "state_code": "NE",
    "placeMasterId": "P02500000FsoFszzUHLJHyEyPg3K5ubV6FuzuT2T",
    "placeName": "omaha",
    "state": "NE"
  },
  {
    "city": "cortland",
    "state_code": "NE",
    "placeMasterId": "P02500000FsoFrZWiFNXR6EWfdvrunhiqZ2Jvbsg",
    "placeName": "cortland",
    "state": "NE"
  },
  {
    "city": "malcolm",
    "state_code": "NE",
    "placeMasterId": "P02500000FsoFsiIX4Y9ib2U44QdG5ckqluAJ8xr",
    "placeName": "malcolm",
    "state": "NE"
  },
  {
    "city": "lindsay",
    "state_code": "NE",
    "placeMasterId": "P02500000FsoFsZS3T9ZvuREtGcHqB8IYdx1NUO4",
    "placeName": "lindsay",
    "state": "NE"
  },
  {
    "city": "stromsburg",
    "state_code": "NE",
    "placeMasterId": "P02500000FsoFtiDsIKCDPFCHh73BT3CDGXgyGDp",
    "placeName": "stromsburg",
    "state": "NE"
  },
  {
    "city": "dannebrog",
    "state_code": "NE",
    "placeMasterId": "P02500000FsoFrZWiFNXR6EWfdvrunhmZ5DESc2U",
    "placeName": "dannebrog",
    "state": "NE"
  },
  {
    "city": "stratton",
    "state_code": "NE",
    "placeMasterId": "P02500000FsoFtiDsIKCDPFCHh73BT3G5KKpAGJ4",
    "placeName": "stratton",
    "state": "NE"
  },
  {
    "city": "hershey",
    "state_code": "NE",
    "placeMasterId": "P02500000FsoFs8ucexqZqdVMrBFaRfLt1EJleZ7",
    "placeName": "hershey",
    "state": "NE"
  },
  {
    "city": "venango",
    "state_code": "NE",
    "placeMasterId": "P02500000FsoFtr4Ltim05qRSUvObNXn4gSR0IQm",
    "placeName": "venango",
    "state": "NE"
  },
  {
    "city": "bayard",
    "state_code": "NE",
    "placeMasterId": "P02500000FsoFr08npnEILpXyQgUF9kJnzI1gtUl",
    "placeName": "bayard",
    "state": "NE"
  },
  {
    "city": "destrehan",
    "state_code": "LA",
    "placeMasterId": "P02500000FsoFQkOwqr1nvIVubGvLVbzM8iOYb7z",
    "placeName": "destrehan",
    "state": "LA"
  },
  {
    "city": "westwego",
    "state_code": "LA",
    "placeMasterId": "P02500000FsoFSt66tngaEJBWeS6cAxV0kYM2nkv",
    "placeName": "westwego",
    "state": "LA"
  },
  {
    "city": "new orleans",
    "state_code": "LA",
    "placeMasterId": "P02500000FsoFS21FHQDs6hiTpa26i1JVz94sOtB",
    "placeName": "new orleans",
    "state": "LA"
  },
  {
    "city": "lake charles",
    "state_code": "LA",
    "placeMasterId": "P02500000FsoFRkKI4d4IjVE8DxLGt2Q5hpUnD3T",
    "placeName": "lake charles",
    "state": "LA"
  },
  {
    "city": "cotton valley",
    "state_code": "LA",
    "placeMasterId": "P02500000FsoFQkOwqr1nvIVubGvLVc4zrVgumHd",
    "placeName": "cotton valley",
    "state": "LA"
  },
  {
    "city": "mooringsport",
    "state_code": "LA",
    "placeMasterId": "P02500000FsoFRtAlg1e5Q6TJ1lggnWwfYW8Ny9q",
    "placeName": "mooringsport",
    "state": "LA"
  },
  {
    "city": "sarepta",
    "state_code": "LA",
    "placeMasterId": "P02500000FsoFSSYg5bxEAVS0F14MRURzUEh4u5r",
    "placeName": "sarepta",
    "state": "LA"
  },
  {
    "city": "calhoun",
    "state_code": "LA",
    "placeMasterId": "P02500000FsoFQbYTFSS1EhGjnSZvb7TJzjDxIUE",
    "placeName": "calhoun",
    "state": "LA"
  },
  {
    "city": "oak ridge",
    "state_code": "LA",
    "placeMasterId": "P02500000FsoFSArisonenIxedONWcVfkmPhdcct",
    "placeName": "oak ridge",
    "state": "LA"
  },
  {
    "city": "lecompte",
    "state_code": "LA",
    "placeMasterId": "P02500000FsoFRkKI4d4IjVE8DxLGt2SIM7KBmmG",
    "placeName": "lecompte",
    "state": "LA"
  },
  {
    "city": "new llano",
    "state_code": "LA",
    "placeMasterId": "P02500000FsoFS21FHQDs6hiTpa26i1MF2JnhX6b",
    "placeName": "new llano",
    "state": "LA"
  },
  {
    "city": "hermitage",
    "state_code": "AR",
    "placeMasterId": "P02500000FsoEboEUWKyScq8hmNb9EjFDny6lGxm",
    "placeName": "hermitage",
    "state": "AR"
  },
  {
    "city": "mcneil",
    "state_code": "AR",
    "placeMasterId": "P02500000FsoEcElvKWhogdsEBodOyCPXOCe05Dm",
    "placeName": "mcneil",
    "state": "AR"
  },
  {
    "city": "norphlet",
    "state_code": "AR",
    "placeMasterId": "P02500000FsoEcWSsXJrO3qMZnRKEnB8XfGts7g1",
    "placeName": "norphlet",
    "state": "AR"
  },
  {
    "city": "prescott",
    "state_code": "AR",
    "placeMasterId": "P02500000FsoEcx0JLVak7e66CsMUWeCqjRdZWNh",
    "placeName": "prescott",
    "state": "AR"
  },
  {
    "city": "blytheville",
    "state_code": "AR",
    "placeMasterId": "P02500000FsoEaoJ9IYvxodQU9hBDrIckQwZEjYe",
    "placeName": "blytheville",
    "state": "AR"
  },
  {
    "city": "earle",
    "state_code": "AR",
    "placeMasterId": "P02500000FsoEbEqa6kfJsRA0Z8DTalo3QJmsKaZ",
    "placeName": "earle",
    "state": "AR"
  },
  {
    "city": "etowah",
    "state_code": "AR",
    "placeMasterId": "P02500000FsoEbNh3i9F6Z2PBMwYtVG7SuOLMgCy",
    "placeName": "etowah",
    "state": "AR"
  },
  {
    "city": "lafe",
    "state_code": "AR",
    "placeMasterId": "P02500000FsoEc5vRj88202d3O0Hz3i1sxKfGthU",
    "placeName": "lafe",
    "state": "AR"
  },
  {
    "city": "heber springs",
    "state_code": "AR",
    "placeMasterId": "P02500000FsoEboEUWKyScq8hmNb9EjFfrw7oOLT",
    "placeName": "heber springs",
    "state": "AR"
  },
  {
    "city": "russellville",
    "state_code": "AR",
    "placeMasterId": "P02500000FsoEd5qmwuAWoFLH0ghuR8ZSZ23vNjr",
    "placeName": "russellville",
    "state": "AR"
  },
  {
    "city": "ozark",
    "state_code": "AR",
    "placeMasterId": "P02500000FsoEcfJM8iRAkRbkbFfehfSq8TZVaDA",
    "placeName": "ozark",
    "state": "AR"
  },
  {
    "city": "mustang",
    "state_code": "OK",
    "placeMasterId": "P02500000FsoGMOLqX0D3VzOJBKUBbW7tWHIVLbf",
    "placeName": "mustang",
    "state": "OK"
  },
  {
    "city": "oklahoma city",
    "state_code": "OK",
    "placeMasterId": "P02500000FsoGMg2njnMctBsemxB1QUgVkw3g3BI",
    "placeName": "oklahoma city",
    "state": "OK"
  },
  {
    "city": "oklahoma city",
    "state_code": "OK",
    "placeMasterId": "P02500000FsoGMg2njnMctBsemxB1QUgVkw3g3BI",
    "placeName": "oklahoma city",
    "state": "OK"
  },
  {
    "city": "oklahoma city",
    "state_code": "OK",
    "placeMasterId": "P02500000FsoGMg2njnMctBsemxB1QUgVkw3g3BI",
    "placeName": "oklahoma city",
    "state": "OK"
  },
  {
    "city": "healdton",
    "state_code": "OK",
    "placeMasterId": "P02500000FsoGLXGyuckLONvGMSPg8Zgyjk2jGYH",
    "placeName": "healdton",
    "state": "OK"
  },
  {
    "city": "eldorado",
    "state_code": "OK",
    "placeMasterId": "P02500000FsoGL6jY6R0zKaBjx1NQP6aYNAnbIjg",
    "placeName": "eldorado",
    "state": "OK"
  },
  {
    "city": "randlett",
    "state_code": "OK",
    "placeMasterId": "P02500000FsoGMxjkwaWCGON0OZrrFTSwjcXk1Tg",
    "placeName": "randlett",
    "state": "OK"
  },
  {
    "city": "clinton",
    "state_code": "OK",
    "placeMasterId": "P02500000FsoGKgC7IFHdGmSDXaLAfdWGxxwXZNU",
    "placeName": "clinton",
    "state": "OK"
  },
  {
    "city": "rocky",
    "state_code": "OK",
    "placeMasterId": "P02500000FsoGN6aEXz5ywzcBCODH9xtcaRiueNb",
    "placeName": "rocky",
    "state": "OK"
  },
  {
    "city": "bison",
    "state_code": "OK",
    "placeMasterId": "P02500000FsoGK6oCseyUWNTWKKxV1fwMJoi0wnP",
    "placeName": "bison",
    "state": "OK"
  },
  {
    "city": "arnett",
    "state_code": "OK",
    "placeMasterId": "P02500000FsoGJxxjHGOhpmELWWc57BYzwaEpo9j",
    "placeName": "arnett",
    "state": "OK"
  },
  {
    "city": "camargo",
    "state_code": "OK",
    "placeMasterId": "P02500000FsoGKFegU3YHCyih89IuwAXElNksX2l",
    "placeName": "camargo",
    "state": "OK"
  },
  {
    "city": "rosston",
    "state_code": "OK",
    "placeMasterId": "P02500000FsoGNFQi9NfldarM0CYh4S86lXtAljz",
    "placeName": "rosston",
    "state": "OK"
  },
  {
    "city": "beaver",
    "state_code": "OK",
    "placeMasterId": "P02500000FsoGJxxjHGOhpmELWWc57BkiY9eeGRO",
    "placeName": "beaver",
    "state": "OK"
  },
  {
    "city": "kiefer",
    "state_code": "OK",
    "placeMasterId": "P02500000FsoGLoxw7PtulaPby56VxYXP5fOhZej",
    "placeName": "kiefer",
    "state": "OK"
  },
  {
    "city": "ochelata",
    "state_code": "OK",
    "placeMasterId": "P02500000FsoGMg2njnMctBsemxB1QUhVntm8NCw",
    "placeName": "ochelata",
    "state": "OK"
  },
  {
    "city": "tulsa",
    "state_code": "OK",
    "placeMasterId": "P02500000FsoGNfy8xZP7hOasPdawnvKembwKfLR",
    "placeName": "tulsa",
    "state": "OK"
  },
  {
    "city": "hulbert",
    "state_code": "OK",
    "placeMasterId": "P02500000FsoGLg7SW1K84zARAGl634CN8GBEyqz",
    "placeName": "hulbert",
    "state": "OK"
  },
  {
    "city": "albion",
    "state_code": "OK",
    "placeMasterId": "P02500000FsoGJp7Ffrov9AzAiiGfChOsFaRvp5o",
    "placeName": "albion",
    "state": "OK"
  },
  {
    "city": "marland",
    "state_code": "OK",
    "placeMasterId": "P02500000FsoGMFVMvbdGpO98NW8lh1gr7rivR0w",
    "placeName": "marland",
    "state": "OK"
  },
  {
    "city": "asher",
    "state_code": "OK",
    "placeMasterId": "P02500000FsoGJxxjHGOhpmELWWc57Bdvol2c9lj",
    "placeName": "asher",
    "state": "OK"
  },
  {
    "city": "roff",
    "state_code": "OK",
    "placeMasterId": "P02500000FsoGN6aEXz5ywzcBCODH9xlwXUBnHny",
    "placeName": "roff",
    "state": "OK"
  },
  {
    "city": "flower mound",
    "state_code": "TX",
    "placeMasterId": "P02500000FsoGlDcvTydh4Vycycau8kfrgCsCk4U",
    "placeName": "flower mound",
    "state": "TX"
  },
  {
    "city": "lewisville",
    "state_code": "TX",
    "placeMasterId": "P02500000FsoGnMK5WvITNWeF1nmAo6IN3MuxnDs",
    "placeName": "lewisville",
    "state": "TX"
  },
  {
    "city": "mckinney",
    "state_code": "TX",
    "placeMasterId": "P02500000FsoGnmrWL71pRKNlREoQXZEUhipDZkX",
    "placeName": "mckinney",
    "state": "TX"
  },
  {
    "city": "rockwall",
    "state_code": "TX",
    "placeMasterId": "P02500000FsoGpvYgO3gbkL3NUPzhCuwOv71oTyz",
    "placeName": "rockwall",
    "state": "TX"
  },
  {
    "city": "rowlett",
    "state_code": "TX",
    "placeMasterId": "P02500000FsoGq4P9zSGOQwIYIEL77P9k60q35B0",
    "placeName": "rowlett",
    "state": "TX"
  },
  {
    "city": "crandall",
    "state_code": "TX",
    "placeMasterId": "P02500000FsoGk4r6eo1PZi1EY7pYqpc4JWBizGy",
    "placeName": "crandall",
    "state": "TX"
  },
  {
    "city": "edgewood",
    "state_code": "TX",
    "placeMasterId": "P02500000FsoGkn5UfmuL0iF6ZBYePHPwp5xsrKU",
    "placeName": "edgewood",
    "state": "TX"
  },
  {
    "city": "rosser",
    "state_code": "TX",
    "placeMasterId": "P02500000FsoGq4P9zSGOQwIYIEL77P7Jkc0IVe0",
    "placeName": "rosser",
    "state": "TX"
  },
  {
    "city": "dallas",
    "state_code": "TX",
    "placeMasterId": "P02500000FsoGkMY3rbAywuVa9kWOfoNE7vnQ9N4",
    "placeName": "dallas",
    "state": "TX"
  },
  {
    "city": "dallas",
    "state_code": "TX",
    "placeMasterId": "P02500000FsoGkMY3rbAywuVa9kWOfoNE7vnQ9N4",
    "placeName": "dallas",
    "state": "TX"
  },
  {
    "city": "dallas",
    "state_code": "TX",
    "placeMasterId": "P02500000FsoGkMY3rbAywuVa9kWOfoNE7vnQ9N4",
    "placeName": "dallas",
    "state": "TX"
  },
  {
    "city": "dallas",
    "state_code": "TX",
    "placeMasterId": "P02500000FsoGkMY3rbAywuVa9kWOfoNE7vnQ9N4",
    "placeName": "dallas",
    "state": "TX"
  },
  {
    "city": "dallas",
    "state_code": "TX",
    "placeMasterId": "P02500000FsoGkMY3rbAywuVa9kWOfoNE7vnQ9N4",
    "placeName": "dallas",
    "state": "TX"
  },
  {
    "city": "cooper",
    "state_code": "TX",
    "placeMasterId": "P02500000FsoGk4r6eo1PZi1EY7pYqpVNfXauAQ1",
    "placeName": "cooper",
    "state": "TX"
  },
  {
    "city": "quinlan",
    "state_code": "TX",
    "placeMasterId": "P02500000FsoGpdrjBGX2N8Z1snIrNw4Hq1Nqpxr",
    "placeName": "quinlan",
    "state": "TX"
  },
  {
    "city": "texarkana",
    "state_code": "TX",
    "placeMasterId": "P02500000FsoGrDAyocsfvkFwij6SPKHhGp0AH8q",
    "placeName": "texarkana",
    "state": "TX"
  },
  {
    "city": "hemphill",
    "state_code": "TX",
    "placeMasterId": "P02500000FsoGlvrJUxWcVWCUzgJzhCQefCN9g1Y",
    "placeName": "hemphill",
    "state": "TX"
  },
  {
    "city": "nacogdoches",
    "state_code": "TX",
    "placeMasterId": "P02500000FsoGoV5uM5uksKbdSIXW617IZrIt52Q",
    "placeName": "nacogdoches",
    "state": "TX"
  },
  {
    "city": "jarrell",
    "state_code": "TX",
    "placeMasterId": "P02500000FsoGmVFDuXplFvBCCvhfLA2PUzviqdd",
    "placeName": "jarrell",
    "state": "TX"
  },
  {
    "city": "taylor",
    "state_code": "TX",
    "placeMasterId": "P02500000FsoGr4KVDEItF90luul2Upq7fvY5vZt",
    "placeName": "taylor",
    "state": "TX"
  },
  {
    "city": "troy",
    "state_code": "TX",
    "placeMasterId": "P02500000FsoGrUrw1Q2FIwkIKLnIEIvoqmOrJ45",
    "placeName": "troy",
    "state": "TX"
  },
  {
    "city": "cranfills gap",
    "state_code": "TX",
    "placeMasterId": "P02500000FsoGkDhaGCbCGJGPLwAylJvT1RuUzSa",
    "placeName": "cranfills gap",
    "state": "TX"
  },
  {
    "city": "hillsboro",
    "state_code": "TX",
    "placeMasterId": "P02500000FsoGmDYGhkgBsigqbJ0pWBAIvfzGgMN",
    "placeName": "hillsboro",
    "state": "TX"
  },
  {
    "city": "mcgregor",
    "state_code": "TX",
    "placeMasterId": "P02500000FsoGnmrWL71pRKNlREoQXZLBeXRl85Q",
    "placeName": "mcgregor",
    "state": "TX"
  },
  {
    "city": "christoval",
    "state_code": "TX",
    "placeMasterId": "P02500000FsoGjw0d3PRct6m3kJU8wL8HIrDulc1",
    "placeName": "christoval",
    "state": "TX"
  },
  {
    "city": "houston",
    "state_code": "TX",
    "placeMasterId": "P02500000FsoGmDYGhkgBsigqbJ0pWBK8GcFdEcU",
    "placeName": "houston",
    "state": "TX"
  },
  {
    "city": "houston",
    "state_code": "TX",
    "placeMasterId": "P02500000FsoGmDYGhkgBsigqbJ0pWBK8GcFdEcU",
    "placeName": "houston",
    "state": "TX"
  },
  {
    "city": "houston",
    "state_code": "TX",
    "placeMasterId": "P02500000FsoGmDYGhkgBsigqbJ0pWBK8GcFdEcU",
    "placeName": "houston",
    "state": "TX"
  },
  {
    "city": "houston",
    "state_code": "TX",
    "placeMasterId": "P02500000FsoGmDYGhkgBsigqbJ0pWBK8GcFdEcU",
    "placeName": "houston",
    "state": "TX"
  },
  {
    "city": "houston",
    "state_code": "TX",
    "placeMasterId": "P02500000FsoGmDYGhkgBsigqbJ0pWBK8GcFdEcU",
    "placeName": "houston",
    "state": "TX"
  },
  {
    "city": "coldspring",
    "state_code": "TX",
    "placeMasterId": "P02500000FsoGjw0d3PRct6m3kJU8wLKKIefCqFY",
    "placeName": "coldspring",
    "state": "TX"
  },
  {
    "city": "huntsville",
    "state_code": "TX",
    "placeMasterId": "P02500000FsoGmMOkJ9FyZJw1P7MFQfVk0ypPKqW",
    "placeName": "huntsville",
    "state": "TX"
  },
  {
    "city": "pattison",
    "state_code": "TX",
    "placeMasterId": "P02500000FsoGp4TolgDtcjaKfXvBjydr75hMXin",
    "placeName": "pattison",
    "state": "TX"
  },
  {
    "city": "sweeny",
    "state_code": "TX",
    "placeMasterId": "P02500000FsoGr4KVDEItF90luul2UpvLRSIHj53",
    "placeName": "sweeny",
    "state": "TX"
  },
  {
    "city": "waller",
    "state_code": "TX",
    "placeMasterId": "P02500000FsoGrmYtEDBog9EdvyU83HfRZb27kWS",
    "placeName": "waller",
    "state": "TX"
  },
  {
    "city": "pasadena",
    "state_code": "TX",
    "placeMasterId": "P02500000FsoGp4TolgDtcjaKfXvBjyUjswu6ier",
    "placeName": "pasadena",
    "state": "TX"
  },
  {
    "city": "deer park",
    "state_code": "TX",
    "placeMasterId": "P02500000FsoGkMY3rbAywuVa9kWOfoNOpv5SZXQ",
    "placeName": "deer park",
    "state": "TX"
  },
  {
    "city": "hitchcock",
    "state_code": "TX",
    "placeMasterId": "P02500000FsoGmDYGhkgBsigqbJ0pWB9YFWAeeFS",
    "placeName": "hitchcock",
    "state": "TX"
  },
  {
    "city": "calvert",
    "state_code": "TX",
    "placeMasterId": "P02500000FsoGjVTCFDiGpJ2XKsRtCs3JaI3A4V8",
    "placeName": "calvert",
    "state": "TX"
  },
  {
    "city": "cotulla",
    "state_code": "TX",
    "placeMasterId": "P02500000FsoGk4r6eo1PZi1EY7pYqpdlZSb6VKI",
    "placeName": "cotulla",
    "state": "TX"
  },
  {
    "city": "tilden",
    "state_code": "TX",
    "placeMasterId": "P02500000FsoGrM1SQ1SScLV7WXRsJocub4VRHGL",
    "placeName": "tilden",
    "state": "TX"
  },
  {
    "city": "beeville",
    "state_code": "TX",
    "placeMasterId": "P02500000FsoGiw5HpdP84u3q7d4DYuXkdYTESO3",
    "placeName": "beeville",
    "state": "TX"
  },
  {
    "city": "san antonio",
    "state_code": "TX",
    "placeMasterId": "P02500000FsoGqM67CFPxo8mttr1wwNqfYQdpCPu",
    "placeName": "san antonio",
    "state": "TX"
  },
  {
    "city": "sinton",
    "state_code": "TX",
    "placeMasterId": "P02500000FsoGqmdY0R9JrwWQJI4Cfr5h7aQNmOw",
    "placeName": "sinton",
    "state": "TX"
  },
  {
    "city": "mercedes",
    "state_code": "TX",
    "placeMasterId": "P02500000FsoGo4YTXuBOoWs72rVGMXxZUwijlb7",
    "placeName": "mercedes",
    "state": "TX"
  },
  {
    "city": "roma",
    "state_code": "TX",
    "placeMasterId": "P02500000FsoGq4P9zSGOQwIYIEL77PC4L2Ihrpb",
    "placeName": "roma",
    "state": "TX"
  },
  {
    "city": "manchaca",
    "state_code": "TX",
    "placeMasterId": "P02500000FsoGnmrWL71pRKNlREoQXZGyEJTd9zq",
    "placeName": "manchaca",
    "state": "TX"
  },
  {
    "city": "austin",
    "state_code": "TX",
    "placeMasterId": "P02500000FsoGieOKcqFYhhZUW0NNjvrbzzBh3wR",
    "placeName": "austin",
    "state": "TX"
  },
  {
    "city": "austin",
    "state_code": "TX",
    "placeMasterId": "P02500000FsoGieOKcqFYhhZUW0NNjvrbzzBh3wR",
    "placeName": "austin",
    "state": "TX"
  },
  {
    "city": "big wells",
    "state_code": "TX",
    "placeMasterId": "P02500000FsoGiw5HpdP84u3q7d4DYuXjkXTqHH5",
    "placeName": "big wells",
    "state": "TX"
  },
  {
    "city": "carrizo springs",
    "state_code": "TX",
    "placeMasterId": "P02500000FsoGjeJfqcI3VuHi8gnJ7MS0SMjk1xB",
    "placeName": "carrizo springs",
    "state": "TX"
  },
  {
    "city": "weimar",
    "state_code": "TX",
    "placeMasterId": "P02500000FsoGrmYtEDBog9EdvyU83Hm4IoAkQu6",
    "placeName": "weimar",
    "state": "TX"
  },
  {
    "city": "spearman",
    "state_code": "TX",
    "placeMasterId": "P02500000FsoGqvU1bpj6YXlb76PcaLShfDuhpg1",
    "placeName": "spearman",
    "state": "TX"
  },
  {
    "city": "sunray",
    "state_code": "TX",
    "placeMasterId": "P02500000FsoGr4KVDEItF90luul2UpjHT3wPve0",
    "placeName": "sunray",
    "state": "TX"
  },
  {
    "city": "wellington",
    "state_code": "TX",
    "placeMasterId": "P02500000FsoGrmYtEDBog9EdvyU83HpuTAswgY0",
    "placeName": "wellington",
    "state": "TX"
  },
  {
    "city": "amarillo",
    "state_code": "TX",
    "placeMasterId": "P02500000FsoGiMhNQ35zKV58uNgXuxIaAeFmU4D",
    "placeName": "amarillo",
    "state": "TX"
  },
  {
    "city": "clarendon",
    "state_code": "TX",
    "placeMasterId": "P02500000FsoGjw0d3PRct6m3kJU8wLFXbaOJrCM",
    "placeName": "clarendon",
    "state": "TX"
  },
  {
    "city": "sudan",
    "state_code": "TX",
    "placeMasterId": "P02500000FsoGr4KVDEItF90luul2Upog0XSLitL",
    "placeName": "sudan",
    "state": "TX"
  },
  {
    "city": "lubbock",
    "state_code": "TX",
    "placeMasterId": "P02500000FsoGne12jiS2kj8adQT0d50AbRrldL6",
    "placeName": "lubbock",
    "state": "TX"
  },
  {
    "city": "lubbock",
    "state_code": "TX",
    "placeMasterId": "P02500000FsoGne12jiS2kj8adQT0d50AbRrldL6",
    "placeName": "lubbock",
    "state": "TX"
  },
  {
    "city": "anson",
    "state_code": "TX",
    "placeMasterId": "P02500000FsoGiVXr1Rfm16KJiC1xpRWdEkFwQqb",
    "placeName": "anson",
    "state": "TX"
  },
  {
    "city": "blackwell",
    "state_code": "TX",
    "placeMasterId": "P02500000FsoGiw5HpdP84u3q7d4DYuk0YHNpByT",
    "placeName": "blackwell",
    "state": "TX"
  },
  {
    "city": "girard",
    "state_code": "TX",
    "placeMasterId": "P02500000FsoGlVJsglnGRiSyaFHjxjS5KZ4qjuI",
    "placeName": "girard",
    "state": "TX"
  },
  {
    "city": "odessa",
    "state_code": "TX",
    "placeMasterId": "P02500000FsoGommrYt4KFX5z3vELuzmdASlNucj",
    "placeName": "odessa",
    "state": "TX"
  },
  {
    "city": "odessa",
    "state_code": "TX",
    "placeMasterId": "P02500000FsoGommrYt4KFX5z3vELuzmdASlNucj",
    "placeName": "odessa",
    "state": "TX"
  },
  {
    "city": "el paso",
    "state_code": "TX",
    "placeMasterId": "P02500000FsoGkn5UfmuL0iF6ZBYePHb6XkiWYkD",
    "placeName": "el paso",
    "state": "TX"
  },
  {
    "city": "aurora",
    "state_code": "CO",
    "placeMasterId": "P02500000FsoEmViIl4GM9tUm2HVUZT8wZbsyrI4",
    "placeName": "aurora",
    "state": "CO"
  },
  {
    "city": "denver",
    "state_code": "CO",
    "placeMasterId": "P02500000FsoEmwFjZFziDhEIRiXkIwGQWtD2cc9",
    "placeName": "denver",
    "state": "CO"
  },
  {
    "city": "parshall",
    "state_code": "CO",
    "placeMasterId": "P02500000FsoEoDs1zpBmP6Qrg1eVVLb3SvDjYIc",
    "placeName": "parshall",
    "state": "CO"
  },
  {
    "city": "berthoud",
    "state_code": "CO",
    "placeMasterId": "P02500000FsoEmeYmMSq8qUjwq5quTxTpVnPlxbU",
    "placeName": "berthoud",
    "state": "CO"
  },
  {
    "city": "dacono",
    "state_code": "CO",
    "placeMasterId": "P02500000FsoEn56DAeZUuITTFWtADQaZ82FR3I8",
    "placeName": "dacono",
    "state": "CO"
  },
  {
    "city": "wellington",
    "state_code": "CO",
    "placeMasterId": "P02500000FsoEow6Q0o4hq6ejh5Nb3nQEHpmYefP",
    "placeName": "wellington",
    "state": "CO"
  },
  {
    "city": "crook",
    "state_code": "CO",
    "placeMasterId": "P02500000FsoEn56DAeZUuITTFWtADQbCqBcfFtA",
    "placeName": "crook",
    "state": "CO"
  },
  {
    "city": "julesburg",
    "state_code": "CO",
    "placeMasterId": "P02500000FsoEneU7aEsdehSASmGprO5cHK6tE0S",
    "placeName": "julesburg",
    "state": "CO"
  },
  {
    "city": "colorado springs",
    "state_code": "CO",
    "placeMasterId": "P02500000FsoEmwFjZFziDhEIRiXkIwGl9Aki2Up",
    "placeName": "colorado springs",
    "state": "CO"
  },
  {
    "city": "colorado springs",
    "state_code": "CO",
    "placeMasterId": "P02500000FsoEmwFjZFziDhEIRiXkIwGl9Aki2Up",
    "placeName": "colorado springs",
    "state": "CO"
  },
  {
    "city": "cheraw",
    "state_code": "CO",
    "placeMasterId": "P02500000FsoEmnPFxrPvX5z7duCKORre97yExr6",
    "placeName": "cheraw",
    "state": "CO"
  },
  {
    "city": "fowler",
    "state_code": "CO",
    "placeMasterId": "P02500000FsoEnMnANRj4HUxor9a02PLg5NkKHi9",
    "placeName": "fowler",
    "state": "CO"
  },
  {
    "city": "rocky ford",
    "state_code": "CO",
    "placeMasterId": "P02500000FsoEoVYzCcLLmIvDHeLLKKICcPeLm37",
    "placeName": "rocky ford",
    "state": "CO"
  },
  {
    "city": "fort garland",
    "state_code": "CO",
    "placeMasterId": "P02500000FsoEnMnANRj4HUxor9a02PL1vLk56Hj",
    "placeName": "fort garland",
    "state": "CO"
  },
  {
    "city": "crested butte",
    "state_code": "CO",
    "placeMasterId": "P02500000FsoEmwFjZFziDhEIRiXkIwF0WY9seyE",
    "placeName": "crested butte",
    "state": "CO"
  },
  {
    "city": "durango",
    "state_code": "CO",
    "placeMasterId": "P02500000FsoEn56DAeZUuITTFWtADQc4BwwW0m5",
    "placeName": "durango",
    "state": "CO"
  },
  {
    "city": "silverton",
    "state_code": "CO",
    "placeMasterId": "P02500000FsoEoePSo0v8SuAO5SglEoeEtNAP8cg",
    "placeName": "silverton",
    "state": "CO"
  },
  {
    "city": "collbran",
    "state_code": "CO",
    "placeMasterId": "P02500000FsoEmwFjZFziDhEIRiXkIwFOAa3nqNm",
    "placeName": "collbran",
    "state": "CO"
  },
  {
    "city": "laramie",
    "state_code": "WY",
    "placeMasterId": "P02500000FsoH9KfcPyBPC2L4kqyX7XLdIGzsOAL",
    "placeName": "laramie",
    "state": "WY"
  },
  {
    "city": "crowheart",
    "state_code": "WY",
    "placeMasterId": "P02500000FsoH8u8BbmS38EbYLPwHO4JkJN454X3",
    "placeName": "crowheart",
    "state": "WY"
  },
  {
    "city": "evansville",
    "state_code": "WY",
    "placeMasterId": "P02500000FsoH92yfDB1popqj9EHhIYbyhb8GCMg",
    "placeName": "evansville",
    "state": "WY"
  },
  {
    "city": "bliss",
    "state_code": "ID",
    "placeMasterId": "P02500000FsoEzvHBSKWAkMV9YbymDW2VbGvKHbY",
    "placeName": "bliss",
    "state": "ID"
  },
  {
    "city": "riggins",
    "state_code": "ID",
    "placeMasterId": "P02500000FsoF0vCWg6YfYZDNBIOhawcEReJfyAw",
    "placeName": "riggins",
    "state": "ID"
  },
  {
    "city": "new meadows",
    "state_code": "ID",
    "placeMasterId": "P02500000FsoF0mM34hysrxyCNU3HgSDQdble0YZ",
    "placeName": "new meadows",
    "state": "ID"
  },
  {
    "city": "boise",
    "state_code": "ID",
    "placeMasterId": "P02500000FsoEzvHBSKWAkMV9YbymDW1T6oUkWas",
    "placeName": "boise",
    "state": "ID"
  },
  {
    "city": "hayden",
    "state_code": "ID",
    "placeMasterId": "P02500000FsoF0LocGWFWoAEfy311wz7y2LhG3xG",
    "placeName": "hayden",
    "state": "ID"
  },
  {
    "city": "ponderay",
    "state_code": "ID",
    "placeMasterId": "P02500000FsoF0vCWg6YfYZDNBIOhawasUoGJBtg",
    "placeName": "ponderay",
    "state": "ID"
  },
  {
    "city": "riverton",
    "state_code": "UT",
    "placeMasterId": "P02500000FsoGtdZ64Mh1bxPuNWyYtecxfSBkwcL",
    "placeName": "riverton",
    "state": "UT"
  },
  {
    "city": "west jordan",
    "state_code": "UT",
    "placeMasterId": "P02500000FsoGu46WsYQNfl9Qmy0od7fKQBaTcsf",
    "placeName": "west jordan",
    "state": "UT"
  },
  {
    "city": "salt lake city",
    "state_code": "UT",
    "placeMasterId": "P02500000FsoGtmPZflGoIYf5BLJyo8m8TJqdpCK",
    "placeName": "salt lake city",
    "state": "UT"
  },
  {
    "city": "west valley city",
    "state_code": "UT",
    "placeMasterId": "P02500000FsoGuCx0Tx0AMMObamMEXbwNGOaEQa1",
    "placeName": "west valley city",
    "state": "UT"
  },
  {
    "city": "salt lake city",
    "state_code": "UT",
    "placeMasterId": "P02500000FsoGtmPZflGoIYf5BLJyo8m8TJqdpCK",
    "placeName": "salt lake city",
    "state": "UT"
  },
  {
    "city": "providence",
    "state_code": "UT",
    "placeMasterId": "P02500000FsoGtUicSy7EvMAjZid8zAGbbmnq7Rv",
    "placeName": "providence",
    "state": "UT"
  },
  {
    "city": "cleveland",
    "state_code": "UT",
    "placeMasterId": "P02500000FsoGsUnHFC4k79SVx2DDbjbfRdVK2WP",
    "placeName": "cleveland",
    "state": "UT"
  },
  {
    "city": "provo",
    "state_code": "UT",
    "placeMasterId": "P02500000FsoGtdZ64Mh1bxPuNWyYteQE3GF95H8",
    "placeName": "provo",
    "state": "UT"
  },
  {
    "city": "eureka",
    "state_code": "UT",
    "placeMasterId": "P02500000FsoGsmUERzEJULwrYeu3QiA1HqvnLFA",
    "placeName": "eureka",
    "state": "UT"
  },
  {
    "city": "leamington",
    "state_code": "UT",
    "placeMasterId": "P02500000FsoGt4BBemNsrYRDAHatFh9tqJ11c08",
    "placeName": "leamington",
    "state": "UT"
  },
  {
    "city": "mona",
    "state_code": "UT",
    "placeMasterId": "P02500000FsoGtLs8rZXSEkvYluHj4fhZogFlByt",
    "placeName": "mona",
    "state": "UT"
  },
  {
    "city": "junction",
    "state_code": "UT",
    "placeMasterId": "P02500000FsoGt4BBemNsrYRDAHatFgz2U4LxgWu",
    "placeName": "junction",
    "state": "UT"
  },
  {
    "city": "pine valley",
    "state_code": "UT",
    "placeMasterId": "P02500000FsoGtdZ64Mh1bxPuNWyYtePcRlfg2i6",
    "placeName": "pine valley",
    "state": "UT"
  },
  {
    "city": "san tan valley",
    "state_code": "AZ",
    "placeMasterId": "P02500000FsoEZoNo4mtT0QiGX0lITs27gNNPjgE",
    "placeName": "san tan valley",
    "state": "AZ"
  },
  {
    "city": "picacho",
    "state_code": "AZ",
    "placeMasterId": "P02500000FsoEZWgqrzjtdEDuvO4SetHXPC7xfzG",
    "placeName": "picacho",
    "state": "AZ"
  },
  {
    "city": "queen creek",
    "state_code": "AZ",
    "placeMasterId": "P02500000FsoEZfXKTOJgJpT5jCPsZNjF1reMtvC",
    "placeName": "queen creek",
    "state": "AZ"
  },
  {
    "city": "mesa",
    "state_code": "AZ",
    "placeMasterId": "P02500000FsoEZEztfCaKG1jZJlNcpuaRxnUeQgp",
    "placeName": "mesa",
    "state": "AZ"
  },
  {
    "city": "scottsdale",
    "state_code": "AZ",
    "placeMasterId": "P02500000FsoEZoNo4mtT0QiGX0lITs2v218sukG",
    "placeName": "scottsdale",
    "state": "AZ"
  },
  {
    "city": "tempe",
    "state_code": "AZ",
    "placeMasterId": "P02500000FsoEZxEHgBTFh1xRKp6iOMSnYxJEd2N",
    "placeName": "tempe",
    "state": "AZ"
  },
  {
    "city": "chandler",
    "state_code": "AZ",
    "placeMasterId": "P02500000FsoEYNv22p7c8QGWUtJ7MyMb0MOaj2F",
    "placeName": "chandler",
    "state": "AZ"
  },
  {
    "city": "avondale",
    "state_code": "AZ",
    "placeMasterId": "P02500000FsoEY6E4q1y2lDmAtGcHXzZWgAkKGIG",
    "placeName": "avondale",
    "state": "AZ"
  },
  {
    "city": "goodyear",
    "state_code": "AZ",
    "placeMasterId": "P02500000FsoEYoSSr0qyCE02uKLN6RSaPZx6TlC",
    "placeName": "goodyear",
    "state": "AZ"
  },
  {
    "city": "bisbee",
    "state_code": "AZ",
    "placeMasterId": "P02500000FsoEY6E4q1y2lDmAtGcHXzc17Tk302D",
    "placeName": "bisbee",
    "state": "AZ"
  },
  {
    "city": "taylor",
    "state_code": "AZ",
    "placeMasterId": "P02500000FsoEa64lHa32NdCc8dS8IqmWvsqxuxJ",
    "placeName": "taylor",
    "state": "AZ"
  },
  {
    "city": "leupp",
    "state_code": "AZ",
    "placeMasterId": "P02500000FsoEZEztfCaKG1jZJlNcpuXa55nXf9E",
    "placeName": "leupp",
    "state": "AZ"
  },
  {
    "city": "yucca",
    "state_code": "AZ",
    "placeMasterId": "P02500000FsoEaWcC5lmORQw8Y4UO2JuCnTBBV8X",
    "placeName": "yucca",
    "state": "AZ"
  },
  {
    "city": "gallina",
    "state_code": "NM",
    "placeMasterId": "P02500000FsoFyzXXbzYGpTFjQ9peBB0YdVN264v",
    "placeName": "gallina",
    "state": "NM"
  },
  {
    "city": "aragon",
    "state_code": "NM",
    "placeMasterId": "P02500000FsoFyHJ9b0fLOT1rP66YcjDgwWJWpbk",
    "placeName": "aragon",
    "state": "NM"
  },
  {
    "city": "mesquite",
    "state_code": "NM",
    "placeMasterId": "P02500000FsoFzYvS1ZrPZsEQdPDJp8ZQeDjiRFE",
    "placeName": "mesquite",
    "state": "NM"
  },
  {
    "city": "lovington",
    "state_code": "NM",
    "placeMasterId": "P02500000FsoFzYvS1ZrPZsEQdPDJp8UlscUVds2",
    "placeName": "lovington",
    "state": "NM"
  },
  {
    "city": "alamogordo",
    "state_code": "NM",
    "placeMasterId": "P02500000FsoFyHJ9b0fLOT1rP66Ycj832XSEir2",
    "placeName": "alamogordo",
    "state": "NM"
  },
  {
    "city": "searchlight",
    "state_code": "NV",
    "placeMasterId": "P02500000FsoFui9DW6EiDRuVJnT6qTsp4tjSelk",
    "placeName": "searchlight",
    "state": "NV"
  },
  {
    "city": "las vegas",
    "state_code": "NV",
    "placeMasterId": "P02500000FsoFuQSGJJ58qFQ9iAmH1VC0RKB5lYR",
    "placeName": "las vegas",
    "state": "NV"
  },
  {
    "city": "lund",
    "state_code": "NV",
    "placeMasterId": "P02500000FsoFuQSGJJ58qFQ9iAmH1VGqANlzYPv",
    "placeName": "lund",
    "state": "NV"
  },
  {
    "city": "imlay",
    "state_code": "NV",
    "placeMasterId": "P02500000FsoFuQSGJJ58qFQ9iAmH1V7ofvk27os",
    "placeName": "imlay",
    "state": "NV"
  },
  {
    "city": "mina",
    "state_code": "NV",
    "placeMasterId": "P02500000FsoFuZIjuhevWqfKVz7gvzQVSmEbMN8",
    "placeName": "mina",
    "state": "NV"
  },
  {
    "city": "sparks",
    "state_code": "NV",
    "placeMasterId": "P02500000FsoFui9DW6EiDRuVJnT6qTsW0mL5w4C",
    "placeName": "sparks",
    "state": "NV"
  },
  {
    "city": "elko",
    "state_code": "NV",
    "placeMasterId": "P02500000FsoFuHbmhuVM9eAyuMQr70k7HrxeNV5",
    "placeName": "elko",
    "state": "NV"
  },
  {
    "city": "winnett",
    "state_code": "MT",
    "placeMasterId": "P02500000FsoFqiRqd04iyd3cp3nPKlWH56itLqs",
    "placeName": "winnett",
    "state": "MT"
  },
  {
    "city": "jordan",
    "state_code": "MT",
    "placeMasterId": "P02500000FsoFpiWVPE2EAQLPCNNTxKoSl7c2lFc",
    "placeName": "jordan",
    "state": "MT"
  },
  {
    "city": "denton",
    "state_code": "MT",
    "placeMasterId": "P02500000FsoFp0I7OF9IjQ7XBJeOOtAxuuIPeyC",
    "placeName": "denton",
    "state": "MT"
  },
  {
    "city": "lonepine",
    "state_code": "MT",
    "placeMasterId": "P02500000FsoFprMz0cc0r1aa0BitrpFR5Kn7zN4",
    "placeName": "lonepine",
    "state": "MT"
  },
  {
    "city": "kila",
    "state_code": "MT",
    "placeMasterId": "P02500000FsoFpiWVPE2EAQLPCNNTxKvKJdlkzku",
    "placeName": "kila",
    "state": "MT"
  },
  {
    "city": "lakeside",
    "state_code": "MT",
    "placeMasterId": "P02500000FsoFpiWVPE2EAQLPCNNTxKxyX44yy7e",
    "placeName": "lakeside",
    "state": "MT"
  },
  {
    "city": "rolling meadows",
    "state_code": "IL",
    "placeMasterId": "P02500000FsoF7CRXDXxDmzz2X1b5gUx95Y38iIp",
    "placeName": "rolling meadows",
    "state": "IL"
  },
  {
    "city": "waukegan",
    "state_code": "IL",
    "placeMasterId": "P02500000FsoF8cuJFVj4f0QmZ93GnOg9mezNiDp",
    "placeName": "waukegan",
    "state": "IL"
  },
  {
    "city": "shorewood",
    "state_code": "IL",
    "placeMasterId": "P02500000FsoF7cyy1jgZqniYwSdLPy7TEMpE4Mv",
    "placeName": "shorewood",
    "state": "IL"
  },
  {
    "city": "park forest",
    "state_code": "IL",
    "placeMasterId": "P02500000FsoF6d3cnxe52b0LJmDQ2XUqMPWOYrs",
    "placeName": "park forest",
    "state": "IL"
  },
  {
    "city": "homer glen",
    "state_code": "IL",
    "placeMasterId": "P02500000FsoF4LVz9cPW2z5YSmgjShY6hyxjVY6",
    "placeName": "homer glen",
    "state": "IL"
  },
  {
    "city": "downers grove",
    "state_code": "IL",
    "placeMasterId": "P02500000FsoF33tgj3DRrZszETZyGIDbdFxZ5ZE",
    "placeName": "downers grove",
    "state": "IL"
  },
  {
    "city": "lee",
    "state_code": "IL",
    "placeMasterId": "P02500000FsoF53kNAbIRTzJQTqPp19MLpeBEs0H",
    "placeName": "lee",
    "state": "IL"
  },
  {
    "city": "riverside",
    "state_code": "IL",
    "placeMasterId": "P02500000FsoF7CRXDXxDmzz2X1b5gUx2iotJEuz",
    "placeName": "riverside",
    "state": "IL"
  },
  {
    "city": "donovan",
    "state_code": "IL",
    "placeMasterId": "P02500000FsoF33tgj3DRrZszETZyGI9lan8p7tG",
    "placeName": "donovan",
    "state": "IL"
  },
  {
    "city": "dixon",
    "state_code": "IL",
    "placeMasterId": "P02500000FsoF33tgj3DRrZszETZyGIBbvQ0VBO4",
    "placeName": "dixon",
    "state": "IL"
  },
  {
    "city": "forreston",
    "state_code": "IL",
    "placeMasterId": "P02500000FsoF3dHb8dWabyrgRixduFfZDXJ6gUP",
    "placeName": "forreston",
    "state": "IL"
  },
  {
    "city": "nachusa",
    "state_code": "IL",
    "placeMasterId": "P02500000FsoHMJh4J2hrihbvrkPZ275tqyGSRu9",
    "placeName": "nachusa",
    "state": "IL"
  },
  {
    "city": "shirland",
    "state_code": "IL",
    "placeMasterId": "P02500000FsoHOJXkkamrL72N77FPmyQjvkCidpB",
    "placeName": "shirland",
    "state": "IL"
  },
  {
    "city": "stillman valley",
    "state_code": "IL",
    "placeMasterId": "P02500000FsoF7ufvEWq9E0CuY5KBEwomSNED3wa",
    "placeName": "stillman valley",
    "state": "IL"
  },
  {
    "city": "cambridge",
    "state_code": "IL",
    "placeMasterId": "P02500000FsoF23yLVHAx3NAlbnA2sra5YV6YfPC",
    "placeName": "cambridge",
    "state": "IL"
  },
  {
    "city": "granville",
    "state_code": "IL",
    "placeMasterId": "P02500000FsoF43p1wpFwfmbCr9ztdimmFbfelH6",
    "placeName": "granville",
    "state": "IL"
  },
  {
    "city": "oglesby",
    "state_code": "IL",
    "placeMasterId": "P02500000FsoF6LMfbAUVfOVzi9WaDYlkGJMNVy3",
    "placeName": "oglesby",
    "state": "IL"
  },
  {
    "city": "paw paw",
    "state_code": "IL",
    "placeMasterId": "P02500000FsoF6d3cnxe52b0LJmDQ2XVvny64XyU",
    "placeName": "paw paw",
    "state": "IL"
  },
  {
    "city": "abingdon",
    "state_code": "IL",
    "placeMasterId": "P02500000FsoF1CtTstiEvlhimv5XPvLIWHU5BFT",
    "placeName": "abingdon",
    "state": "IL"
  },
  {
    "city": "glasford",
    "state_code": "IL",
    "placeMasterId": "P02500000FsoF3m84k26NIa6rFXJ3ok5TR0MSuG1",
    "placeName": "glasford",
    "state": "IL"
  },
  {
    "city": "peoria",
    "state_code": "IL",
    "placeMasterId": "P02500000FsoF6lu6PMDrjCFW7aYpx1p1lcvPgcL",
    "placeName": "peoria",
    "state": "IL"
  },
  {
    "city": "peoria",
    "state_code": "IL",
    "placeMasterId": "P02500000FsoF6lu6PMDrjCFW7aYpx1p1lcvPgcL",
    "placeName": "peoria",
    "state": "IL"
  },
  {
    "city": "cisco",
    "state_code": "IL",
    "placeMasterId": "P02500000FsoF2LfIi4KWQZf7DPqshqLR8cbq2Mr",
    "placeName": "cisco",
    "state": "IL"
  },
  {
    "city": "brocton",
    "state_code": "IL",
    "placeMasterId": "P02500000FsoF23yLVHAx3NAlbnA2srZEEFY4zm6",
    "placeName": "brocton",
    "state": "IL"
  },
  {
    "city": "patterson",
    "state_code": "IL",
    "placeMasterId": "P02500000FsoHNAlvvQAZqJ4ygcU4V3HENXNOOg4",
    "placeName": "patterson",
    "state": "IL"
  },
  {
    "city": "walshville",
    "state_code": "IL",
    "placeMasterId": "P02500000FsoF8U3pe79HyPBblKhqsuKBuyFRLnV",
    "placeName": "walshville",
    "state": "IL"
  },
  {
    "city": "smithton",
    "state_code": "IL",
    "placeMasterId": "P02500000FsoF7lpRd8GMXOxjkGylKSUKW15ctnV",
    "placeName": "smithton",
    "state": "IL"
  },
  {
    "city": "kinderhook",
    "state_code": "IL",
    "placeMasterId": "P02500000FsoF4m3Pxo8s6mp4sDizCAg8tGk1Yqs",
    "placeName": "kinderhook",
    "state": "IL"
  },
  {
    "city": "west york",
    "state_code": "IL",
    "placeMasterId": "P02500000FsoF8lkmquIrLbfxMxOght2arYxyuL5",
    "placeName": "west york",
    "state": "IL"
  },
  {
    "city": "findlay",
    "state_code": "IL",
    "placeMasterId": "P02500000FsoF3UR7XEwnvNcVducDzlKwsqyNOeq",
    "placeName": "findlay",
    "state": "IL"
  },
  {
    "city": "harvel",
    "state_code": "IL",
    "placeMasterId": "P02500000FsoF43p1wpFwfmbCr9ztdiofNp9LNAV",
    "placeName": "harvel",
    "state": "IL"
  },
  {
    "city": "bluffs",
    "state_code": "IL",
    "placeMasterId": "P02500000FsoF1mHOIU1NgAgQ0ATD3stTFNXyxN1",
    "placeName": "bluffs",
    "state": "IL"
  },
  {
    "city": "belle rive",
    "state_code": "IL",
    "placeMasterId": "P02500000FsoF1dQuh5RazZRFCM7n9OVECqAgU4r",
    "placeName": "belle rive",
    "state": "IL"
  },
  {
    "city": "burnt prairie",
    "state_code": "IL",
    "placeMasterId": "P02500000FsoF2Cop6fkjjyPwPbVSnLwWhwfY1cp",
    "placeName": "burnt prairie",
    "state": "IL"
  },
  {
    "city": "clay city",
    "state_code": "IL",
    "placeMasterId": "P02500000FsoF2UVmJSuJ7AuI1ECIcKhfcB0Cw1p",
    "placeName": "clay city",
    "state": "IL"
  },
  {
    "city": "louisville",
    "state_code": "IL",
    "placeMasterId": "P02500000FsoF5LRKNOS0rBnm5T6eq870QIV8uWL",
    "placeName": "louisville",
    "state": "IL"
  },
  {
    "city": "mcleansboro",
    "state_code": "IL",
    "placeMasterId": "P02500000FsoF5UHnyn1nXn2wtHS4kcU3ujfe8FZ",
    "placeName": "mcleansboro",
    "state": "IL"
  },
  {
    "city": "maunie",
    "state_code": "IL",
    "placeMasterId": "P02500000FsoF5d8HaBbaEOI7h5nUf6v2TJe1abO",
    "placeName": "maunie",
    "state": "IL"
  },
  {
    "city": "tamaroa",
    "state_code": "IL",
    "placeMasterId": "P02500000FsoF83WOpvPvubS5Ltfb9RCWbUhFuGa",
    "placeName": "tamaroa",
    "state": "IL"
  },
  {
    "city": "woodlawn",
    "state_code": "IL",
    "placeMasterId": "P02500000FsoF8ubGSIse2Cv8Alk6cNQ1wFWF6Jf",
    "placeName": "woodlawn",
    "state": "IL"
  },
  {
    "city": "alto pass",
    "state_code": "IL",
    "placeMasterId": "P02500000FsoF1CtTstiEvlhimv5XPvOiC40tucS",
    "placeName": "alto pass",
    "state": "IL"
  },
  {
    "city": "galatia",
    "state_code": "IL",
    "placeMasterId": "P02500000FsoF3m84k26NIa6rFXJ3ok1ovHvkKsJ",
    "placeName": "galatia",
    "state": "IL"
  },
  {
    "city": "hurst",
    "state_code": "IL",
    "placeMasterId": "P02500000FsoF4UMSl0zIjaKjGb29NBv89MnrKih",
    "placeName": "hurst",
    "state": "IL"
  },
  {
    "city": "ullin",
    "state_code": "IL",
    "placeMasterId": "P02500000FsoF8CMsRJzibChG9i113vZmqxKOK5V",
    "placeName": "ullin",
    "state": "IL"
  },
  {
    "city": "cedar hill",
    "state_code": "MO",
    "placeMasterId": "P02500000FsoFja7yTBDScaoueSWVmGpdhbfQASH",
    "placeName": "cedar hill",
    "state": "MO"
  },
  {
    "city": "florissant",
    "state_code": "MO",
    "placeMasterId": "P02500000FsoFka3JgxFxQnX8H8wR9hSzzannq42",
    "placeName": "florissant",
    "state": "MO"
  },
  {
    "city": "bonne terre",
    "state_code": "MO",
    "placeMasterId": "P02500000FsoFj9aXezU6Yn5OF1UG2nm1htjnNIz",
    "placeName": "bonne terre",
    "state": "MO"
  },
  {
    "city": "cape girardeau",
    "state_code": "MO",
    "placeMasterId": "P02500000FsoFja7yTBDScaoueSWVmGsKM32kswx",
    "placeName": "cape girardeau",
    "state": "MO"
  },
  {
    "city": "belton",
    "state_code": "MO",
    "placeMasterId": "P02500000FsoFirtaSCKXBab2dOnQDpAvhCVKZBD",
    "placeName": "belton",
    "state": "MO"
  },
  {
    "city": "holt",
    "state_code": "MO",
    "placeMasterId": "P02500000FsoFl9RE6XZ6BCVpUOK6nf1kJsllqqs",
    "placeName": "holt",
    "state": "MO"
  },
  {
    "city": "kearney",
    "state_code": "MO",
    "placeMasterId": "P02500000FsoFlR8BJKifYP0B610wcdmTaEuHIxf",
    "placeName": "kearney",
    "state": "MO"
  },
  {
    "city": "kansas city",
    "state_code": "MO",
    "placeMasterId": "P02500000FsoFlR8BJKifYP0B610wcdmJLAheztV",
    "placeName": "kansas city",
    "state": "MO"
  },
  {
    "city": "kansas city",
    "state_code": "MO",
    "placeMasterId": "P02500000FsoFlR8BJKifYP0B610wcdmJLAheztV",
    "placeName": "kansas city",
    "state": "MO"
  },
  {
    "city": "kansas city",
    "state_code": "MO",
    "placeMasterId": "P02500000FsoFlR8BJKifYP0B610wcdmJLAheztV",
    "placeName": "kansas city",
    "state": "MO"
  },
  {
    "city": "grant city",
    "state_code": "MO",
    "placeMasterId": "P02500000FsoFkrkGtkPWo01TsldGygCGXLZkKvZ",
    "placeName": "grant city",
    "state": "MO"
  },
  {
    "city": "blairstown",
    "state_code": "MO",
    "placeMasterId": "P02500000FsoFj9aXezU6Yn5OF1UG2nmjjw4CZwH",
    "placeName": "blairstown",
    "state": "MO"
  },
  {
    "city": "collins",
    "state_code": "MO",
    "placeMasterId": "P02500000FsoFjrovfyN1znJGG5DLbFbZaZUkxAm",
    "placeName": "collins",
    "state": "MO"
  },
  {
    "city": "freeman",
    "state_code": "MO",
    "placeMasterId": "P02500000FsoFka3JgxFxQnX8H8wR9haoS4TIBny",
    "placeName": "freeman",
    "state": "MO"
  },
  {
    "city": "anderson",
    "state_code": "MO",
    "placeMasterId": "P02500000FsoFiaCdFPAxoO6h1m6aOqS5xovTu8J",
    "placeName": "anderson",
    "state": "MO"
  },
  {
    "city": "carterville",
    "state_code": "MO",
    "placeMasterId": "P02500000FsoFja7yTBDScaoueSWVmGuZwvlbfc0",
    "placeName": "carterville",
    "state": "MO"
  },
  {
    "city": "clarksburg",
    "state_code": "MO",
    "placeMasterId": "P02500000FsoFjiyS4ZnFJC45SGrvglD5KrI1VoV",
    "placeName": "clarksburg",
    "state": "MO"
  },
  {
    "city": "jefferson city",
    "state_code": "MO",
    "placeMasterId": "P02500000FsoFlR8BJKifYP0B610wcdmrVEf5fJJ",
    "placeName": "jefferson city",
    "state": "MO"
  },
  {
    "city": "blackburn",
    "state_code": "MO",
    "placeMasterId": "P02500000FsoFj0k43auJsBqDRD8q8JRWXlXl1bo",
    "placeName": "blackburn",
    "state": "MO"
  },
  {
    "city": "hughesville",
    "state_code": "MO",
    "placeMasterId": "P02500000FsoFlIHhhw8srnl0ICfWi9OABYJcpUC",
    "placeName": "hughesville",
    "state": "MO"
  },
  {
    "city": "halltown",
    "state_code": "MO",
    "placeMasterId": "P02500000FsoFl0akV8zJUbGegZygtAdN6PGGHel",
    "placeName": "halltown",
    "state": "MO"
  },
  {
    "city": "hermitage",
    "state_code": "MO",
    "placeMasterId": "P02500000FsoFl0akV8zJUbGegZygtAhLwlknLkT",
    "placeName": "hermitage",
    "state": "MO"
  },
  {
    "city": "morrisville",
    "state_code": "MO",
    "placeMasterId": "P02500000FsoFmR3WX6lAMbiOihQs04IgisJkbR8",
    "placeName": "morrisville",
    "state": "MO"
  },
  {
    "city": "niangua",
    "state_code": "MO",
    "placeMasterId": "P02500000FsoFmZu08VKx3CxZWVmHuYmVLHo8s2c",
    "placeName": "niangua",
    "state": "MO"
  },
  {
    "city": "lancaster",
    "state_code": "KS",
    "placeMasterId": "P02500000FsoFL2XqizwORGiwSn6d40y7tqnUqkG",
    "placeName": "lancaster",
    "state": "KS"
  },
  {
    "city": "mission",
    "state_code": "KS",
    "placeMasterId": "P02500000FsoFLKEnvn5xoTDI4PnSszkIcDoCOU6",
    "placeName": "mission",
    "state": "KS"
  },
  {
    "city": "overland park",
    "state_code": "KS",
    "placeMasterId": "P02500000FsoFLtciLNP6YsBzHfB8WxB9BAanqbl",
    "placeName": "overland park",
    "state": "KS"
  },
  {
    "city": "circleville",
    "state_code": "KS",
    "placeMasterId": "P02500000FsoFJc54h2AXZGHCQfeRx7HHN81Zkwx",
    "placeName": "circleville",
    "state": "KS"
  },
  {
    "city": "hiawatha",
    "state_code": "KS",
    "placeMasterId": "P02500000FsoFKc0PuoD2NSzQ3M4NKXptUi8sZkO",
    "placeName": "hiawatha",
    "state": "KS"
  },
  {
    "city": "onaga",
    "state_code": "KS",
    "placeMasterId": "P02500000FsoFLkmEjypJsGwoTqpicSrFfJJ5xME",
    "placeName": "onaga",
    "state": "KS"
  },
  {
    "city": "summerfield",
    "state_code": "KS",
    "placeMasterId": "P02500000FsoFMbr6MMI1zsPrIiuE5P2hU767i3w",
    "placeName": "summerfield",
    "state": "KS"
  },
  {
    "city": "tecumseh",
    "state_code": "KS",
    "placeMasterId": "P02500000FsoHcRL1SpvbMaGceVRmzT0ngbqBIqI",
    "placeName": "tecumseh",
    "state": "KS"
  },
  {
    "city": "westmoreland",
    "state_code": "KS",
    "placeMasterId": "P02500000FsoFMkhZxkrogTf26XFdztT8OilpHMY",
    "placeName": "westmoreland",
    "state": "KS"
  },
  {
    "city": "reading",
    "state_code": "KS",
    "placeMasterId": "P02500000FsoFM2TBwlytFTRA5TWYRRbO2UbL03e",
    "placeName": "reading",
    "state": "KS"
  },
  {
    "city": "mahaska",
    "state_code": "KS",
    "placeMasterId": "P02500000FsoFLBOKKOWB7ry7GbS2yVM4vybLAQ0",
    "placeName": "mahaska",
    "state": "KS"
  },
  {
    "city": "anthony",
    "state_code": "KS",
    "placeMasterId": "P02500000FsoFJ2hAHRrOorIVDQGmJ9tHfwVutiw",
    "placeName": "anthony",
    "state": "KS"
  },
  {
    "city": "bentley",
    "state_code": "KS",
    "placeMasterId": "P02500000FsoFJTEb5daksf21crJ22cvCnXMe4Te",
    "placeName": "bentley",
    "state": "KS"
  },
  {
    "city": "greensburg",
    "state_code": "KS",
    "placeMasterId": "P02500000FsoFKT9wJPdFgrkFFXixQ3TVEN3RZLk",
    "placeName": "greensburg",
    "state": "KS"
  },
  {
    "city": "north newton",
    "state_code": "KS",
    "placeMasterId": "P02500000FsoFLbvl8aFXBfhdg2UIhyTiaC3i18T",
    "placeName": "north newton",
    "state": "KS"
  },
  {
    "city": "wichita",
    "state_code": "KS",
    "placeMasterId": "P02500000FsoFMtY3Z9RbN4uCuLb3uNnBOyNlFLT",
    "placeName": "wichita",
    "state": "KS"
  },
  {
    "city": "elk city",
    "state_code": "KS",
    "placeMasterId": "P02500000FsoFK2cVVDttd40iq6ghgaLsf29eUy5",
    "placeName": "elk city",
    "state": "KS"
  },
  {
    "city": "cawker city",
    "state_code": "KS",
    "placeMasterId": "P02500000FsoFJc54h2AXZGHCQfeRx7L2YI0Tvv7",
    "placeName": "cawker city",
    "state": "KS"
  },
  {
    "city": "arlington",
    "state_code": "KS",
    "placeMasterId": "P02500000FsoFJBXdsqRBVSXg1EcCDeGSnZ0r07G",
    "placeName": "arlington",
    "state": "KS"
  },
  {
    "city": "liebenthal",
    "state_code": "KS",
    "placeMasterId": "P02500000FsoFLBOKKOWB7ry7GbS2yVJpuAOj1IN",
    "placeName": "liebenthal",
    "state": "KS"
  },
  {
    "city": "pawnee rock",
    "state_code": "KS",
    "placeMasterId": "P02500000FsoFLtciLNP6YsBzHfB8WxCmYcC9hP1",
    "placeName": "pawnee rock",
    "state": "KS"
  },
  {
    "city": "fowler",
    "state_code": "KS",
    "placeMasterId": "P02500000FsoFKKJSi13T0GV4RjNXVZ6HpDjgCKS",
    "placeName": "fowler",
    "state": "KS"
  },
  {
    "city": "wright",
    "state_code": "KS",
    "placeMasterId": "P02500000FsoFMtY3Z9RbN4uCuLb3uNo1EZMlSuz",
    "placeName": "wright",
    "state": "KS"
  },
  {
    "city": "bancroft",
    "state_code": "NE",
    "placeMasterId": "P02500000FsoFr08npnEILpXyQgUF9kHDweOBk7H",
    "placeName": "bancroft",
    "state": "NE"
  },
  {
    "city": "fremont",
    "state_code": "NE",
    "placeMasterId": "P02500000FsoFs0493ZGnA2GC3MuAXAlczBLUyle",
    "placeName": "fremont",
    "state": "NE"
  },
  {
    "city": "louisville",
    "state_code": "NE",
    "placeMasterId": "P02500000FsoFsZS3T9ZvuREtGcHqB8KJyejNfTT",
    "placeName": "louisville",
    "state": "NE"
  },
  {
    "city": "omaha",
    "state_code": "NE",
    "placeMasterId": "P02500000FsoFszzUHLJHyEyPg3K5ubV6FuzuT2T",
    "placeName": "omaha",
    "state": "NE"
  },
  {
    "city": "fairbury",
    "state_code": "NE",
    "placeMasterId": "P02500000FsoFrrDfSAh0TR11FYYkcgYnczYd2PU",
    "placeName": "fairbury",
    "state": "NE"
  },
  {
    "city": "garland",
    "state_code": "NE",
    "placeMasterId": "P02500000FsoFrrDfSAh0TR11FYYkcgeyq3pebVS",
    "placeName": "garland",
    "state": "NE"
  },
  {
    "city": "gilead",
    "state_code": "NE",
    "placeMasterId": "P02500000FsoFs0493ZGnA2GC3MuAXAucFQdSmok",
    "placeName": "gilead",
    "state": "NE"
  },
  {
    "city": "goehner",
    "state_code": "NE",
    "placeMasterId": "P02500000FsoFs0493ZGnA2GC3MuAXAv1Dx6KVfZ",
    "placeName": "goehner",
    "state": "NE"
  },
  {
    "city": "pickrell",
    "state_code": "NE",
    "placeMasterId": "P02500000FsoFtHgRU8SrLRSlHg0vja8oLm8KxZg",
    "placeName": "pickrell",
    "state": "NE"
  },
  {
    "city": "swanton",
    "state_code": "NE",
    "placeMasterId": "P02500000FsoFtiDsIKCDPFCHh73BT3QqFtuMfIY",
    "placeName": "swanton",
    "state": "NE"
  },
  {
    "city": "talmage",
    "state_code": "NE",
    "placeMasterId": "P02500000FsoFtiDsIKCDPFCHh73BT3GD4583Xnh",
    "placeName": "talmage",
    "state": "NE"
  },
  {
    "city": "lincoln",
    "state_code": "NE",
    "placeMasterId": "P02500000FsoFsZS3T9ZvuREtGcHqB8DyQVvTvuI",
    "placeName": "lincoln",
    "state": "NE"
  },
  {
    "city": "albion",
    "state_code": "NE",
    "placeMasterId": "P02500000FsoFqrIKEOeVfEIncs8pFFrU3NZ8E4X",
    "placeName": "albion",
    "state": "NE"
  },
  {
    "city": "bristow",
    "state_code": "NE",
    "placeMasterId": "P02500000FsoFrHpl2aNrj22K2JB4yitOR5erGyF",
    "placeName": "bristow",
    "state": "NE"
  },
  {
    "city": "niobrara",
    "state_code": "NE",
    "placeMasterId": "P02500000FsoFszzUHLJHyEyPg3K5ubO3dRMINMO",
    "placeName": "niobrara",
    "state": "NE"
  },
  {
    "city": "glenvil",
    "state_code": "NE",
    "placeMasterId": "P02500000FsoFs0493ZGnA2GC3MuAXAvEFBDohLD",
    "placeName": "glenvil",
    "state": "NE"
  },
  {
    "city": "whitney",
    "state_code": "NE",
    "placeMasterId": "P02500000FsoFtzupV7LmmRgdIjk1I28p2cjSBtF",
    "placeName": "whitney",
    "state": "NE"
  },
  {
    "city": "norco",
    "state_code": "LA",
    "placeMasterId": "P02500000FsoFSArisonenIxedONWcVYllMmKtuX",
    "placeName": "norco",
    "state": "LA"
  },
  {
    "city": "new orleans",
    "state_code": "LA",
    "placeMasterId": "P02500000FsoFS21FHQDs6hiTpa26i1JVz94sOtB",
    "placeName": "new orleans",
    "state": "LA"
  },
  {
    "city": "galliano",
    "state_code": "LA",
    "placeMasterId": "P02500000FsoFRAwNf2l9z6FR0hxbF53zq1Oei3n",
    "placeName": "galliano",
    "state": "LA"
  },
  {
    "city": "morgan city",
    "state_code": "LA",
    "placeMasterId": "P02500000FsoFS21FHQDs6hiTpa26i1HagMlEzIC",
    "placeName": "morgan city",
    "state": "LA"
  },
  {
    "city": "opelousas",
    "state_code": "LA",
    "placeMasterId": "P02500000FsoFSArisonenIxedONWcVfhgwDRa8u",
    "placeName": "opelousas",
    "state": "LA"
  },
  {
    "city": "morganza",
    "state_code": "LA",
    "placeMasterId": "P02500000FsoFS21FHQDs6hiTpa26i1KLtkLrJhQ",
    "placeName": "morganza",
    "state": "LA"
  },
  {
    "city": "baton rouge",
    "state_code": "LA",
    "placeMasterId": "P02500000FsoFQJrW2fIRrUmOBpt5m8hbG1ZgRcE",
    "placeName": "baton rouge",
    "state": "LA"
  },
  {
    "city": "ida",
    "state_code": "LA",
    "placeMasterId": "P02500000FsoFRSdKrpujMIjmcKeR43nFYQJdo1G",
    "placeName": "ida",
    "state": "LA"
  },
  {
    "city": "shreveport",
    "state_code": "LA",
    "placeMasterId": "P02500000FsoFSbP9h0X0r6hB2pPmLynLJaoEkpz",
    "placeName": "shreveport",
    "state": "LA"
  },
  {
    "city": "alexandria",
    "state_code": "LA",
    "placeMasterId": "P02500000FsoFQB12RGifAtXDO1XfreVqCmGfOlB",
    "placeName": "alexandria",
    "state": "LA"
  },
  {
    "city": "jena",
    "state_code": "LA",
    "placeMasterId": "P02500000FsoFRSdKrpujMIjmcKeR43hAjjF18b3",
    "placeName": "jena",
    "state": "LA"
  },
  {
    "city": "wisner",
    "state_code": "LA",
    "placeMasterId": "P02500000FsoFT1waVCGMuuQhSGS25Rn1gkBvcMt",
    "placeName": "wisner",
    "state": "LA"
  },
  {
    "city": "converse",
    "state_code": "LA",
    "placeMasterId": "P02500000FsoFQkOwqr1nvIVubGvLVbvjzYrnNHA",
    "placeName": "converse",
    "state": "LA"
  },
  {
    "city": "robeline",
    "state_code": "LA",
    "placeMasterId": "P02500000FsoFSSYg5bxEAVS0F14MRUHfquNHlat",
    "placeName": "robeline",
    "state": "LA"
  },
  {
    "city": "arkansas city",
    "state_code": "AR",
    "placeMasterId": "P02500000FsoEafSfhAMB82BJLspnwoGlXBFM6RI",
    "placeName": "arkansas city",
    "state": "AR"
  },
  {
    "city": "star city",
    "state_code": "AR",
    "placeMasterId": "P02500000FsoEd5qmwuAWoFLH0ghuR8aj8yNtsdO",
    "placeName": "star city",
    "state": "AR"
  },
  {
    "city": "lewisville",
    "state_code": "AR",
    "placeMasterId": "P02500000FsoEcElvKWhogdsEBodOyCLum2SOnG5",
    "placeName": "lewisville",
    "state": "AR"
  },
  {
    "city": "texarkana",
    "state_code": "AR",
    "placeMasterId": "P02500000FsoEdEhGYIkJUqaRoV3KLcwnAVtE2Vc",
    "placeName": "texarkana",
    "state": "AR"
  },
  {
    "city": "vandervoort",
    "state_code": "AR",
    "placeMasterId": "P02500000FsoEdEhGYIkJUqaRoV3KLcxxwYowD9r",
    "placeName": "vandervoort",
    "state": "AR"
  },
  {
    "city": "clarendon",
    "state_code": "AR",
    "placeMasterId": "P02500000FsoEb606VM5XBpuplJs3gHPuazlBtdN",
    "placeName": "clarendon",
    "state": "AR"
  },
  {
    "city": "coy",
    "state_code": "AR",
    "placeMasterId": "P02500000FsoEb606VM5XBpuplJs3gHR0Aue1J78",
    "placeName": "coy",
    "state": "AR"
  },
  {
    "city": "hazen",
    "state_code": "AR",
    "placeMasterId": "P02500000FsoEbfO0uwOfwEtWyZFjKEuQeBgweni",
    "placeName": "hazen",
    "state": "AR"
  },
  {
    "city": "kensett",
    "state_code": "AR",
    "placeMasterId": "P02500000FsoEbx4y7jYFJRNsaBwZ9DfPOjHCsUh",
    "placeName": "kensett",
    "state": "AR"
  },
  {
    "city": "perryville",
    "state_code": "AR",
    "placeMasterId": "P02500000FsoEco9pk70xR2qvP414c9pN95d5eMM",
    "placeName": "perryville",
    "state": "AR"
  },
  {
    "city": "rose bud",
    "state_code": "AR",
    "placeMasterId": "P02500000FsoEcx0JLVak7e66CsMUWeCmlcrbz5Y",
    "placeName": "rose bud",
    "state": "AR"
  },
  {
    "city": "traskwood",
    "state_code": "AR",
    "placeMasterId": "P02500000FsoEdEhGYIkJUqaRoV3KLd0qYqHMsYv",
    "placeName": "traskwood",
    "state": "AR"
  },
  {
    "city": "dell",
    "state_code": "AR",
    "placeMasterId": "P02500000FsoEbEqa6kfJsRA0Z8DTallcR5ZZODs",
    "placeName": "dell",
    "state": "AR"
  },
  {
    "city": "egypt",
    "state_code": "AR",
    "placeMasterId": "P02500000FsoEbEqa6kfJsRA0Z8DTalnxWEf0zig",
    "placeName": "egypt",
    "state": "AR"
  },
  {
    "city": "leachville",
    "state_code": "AR",
    "placeMasterId": "P02500000FsoEc5vRj88202d3O0Hz3hzskRW0Kzc",
    "placeName": "leachville",
    "state": "AR"
  },
  {
    "city": "monette",
    "state_code": "AR",
    "placeMasterId": "P02500000FsoEcWSsXJrO3qMZnRKEnB6y4OwsqfR",
    "placeName": "monette",
    "state": "AR"
  },
  {
    "city": "diamond city",
    "state_code": "AR",
    "placeMasterId": "P02500000FsoEb606VM5XBpuplJs3gHRA3tabwGd",
    "placeName": "diamond city",
    "state": "AR"
  },
  {
    "city": "lakeview",
    "state_code": "AR",
    "placeMasterId": "P02500000FsoEc5vRj88202d3O0Hz3i0YoPKRsQX",
    "placeName": "lakeview",
    "state": "AR"
  },
  {
    "city": "gentry",
    "state_code": "AR",
    "placeMasterId": "P02500000FsoEbWXXJXotFdeMAkuJPkY8xbmycrz",
    "placeName": "gentry",
    "state": "AR"
  },
  {
    "city": "lowell",
    "state_code": "AR",
    "placeMasterId": "P02500000FsoEcElvKWhogdsEBodOyCKl06ZQlP3",
    "placeName": "lowell",
    "state": "AR"
  },
  {
    "city": "havana",
    "state_code": "AR",
    "placeMasterId": "P02500000FsoEboEUWKyScq8hmNb9EjERuYFfhWz",
    "placeName": "havana",
    "state": "AR"
  },
  {
    "city": "anadarko",
    "state_code": "OK",
    "placeMasterId": "P02500000FsoGJxxjHGOhpmELWWc57BbS7IVjwH6",
    "placeName": "anadarko",
    "state": "OK"
  },
  {
    "city": "edmond",
    "state_code": "OK",
    "placeMasterId": "P02500000FsoGL6jY6R0zKaBjx1NQP6aBd1eiWKr",
    "placeName": "edmond",
    "state": "OK"
  },
  {
    "city": "oklahoma city",
    "state_code": "OK",
    "placeMasterId": "P02500000FsoGMg2njnMctBsemxB1QUgVkw3g3BI",
    "placeName": "oklahoma city",
    "state": "OK"
  },
  {
    "city": "oklahoma city",
    "state_code": "OK",
    "placeMasterId": "P02500000FsoGMg2njnMctBsemxB1QUgVkw3g3BI",
    "placeName": "oklahoma city",
    "state": "OK"
  },
  {
    "city": "oklahoma city",
    "state_code": "OK",
    "placeMasterId": "P02500000FsoGMg2njnMctBsemxB1QUgVkw3g3BI",
    "placeName": "oklahoma city",
    "state": "OK"
  },
  {
    "city": "oklahoma city",
    "state_code": "OK",
    "placeMasterId": "P02500000FsoGMg2njnMctBsemxB1QUgVkw3g3BI",
    "placeName": "oklahoma city",
    "state": "OK"
  },
  {
    "city": "oklahoma city",
    "state_code": "OK",
    "placeMasterId": "P02500000FsoGMg2njnMctBsemxB1QUgVkw3g3BI",
    "placeName": "oklahoma city",
    "state": "OK"
  },
  {
    "city": "kingston",
    "state_code": "OK",
    "placeMasterId": "P02500000FsoGLoxw7PtulaPby56VxYXi9NdIRCC",
    "placeName": "kingston",
    "state": "OK"
  },
  {
    "city": "ringling",
    "state_code": "OK",
    "placeMasterId": "P02500000FsoGN6aEXz5ywzcBCODH9xpVp5f7zNO",
    "placeName": "ringling",
    "state": "OK"
  },
  {
    "city": "walters",
    "state_code": "OK",
    "placeMasterId": "P02500000FsoGNoocYxyuNzq3DRwMiPifavFVdqR",
    "placeName": "walters",
    "state": "OK"
  },
  {
    "city": "elk city",
    "state_code": "OK",
    "placeMasterId": "P02500000FsoGL6jY6R0zKaBjx1NQP6c6Qp3T6gS",
    "placeName": "elk city",
    "state": "OK"
  },
  {
    "city": "okeene",
    "state_code": "OK",
    "placeMasterId": "P02500000FsoGMg2njnMctBsemxB1QUcQjfhRInP",
    "placeName": "okeene",
    "state": "OK"
  },
  {
    "city": "mooreland",
    "state_code": "OK",
    "placeMasterId": "P02500000FsoGMOLqX0D3VzOJBKUBbVxqmn3Nq2K",
    "placeName": "mooreland",
    "state": "OK"
  },
  {
    "city": "forgan",
    "state_code": "OK",
    "placeMasterId": "P02500000FsoGLFa1hpam1BQukpiqJaw4OkFprUY",
    "placeName": "forgan",
    "state": "OK"
  },
  {
    "city": "drumright",
    "state_code": "OK",
    "placeMasterId": "P02500000FsoGKxt4V2RCdywZ9D20UcGwAQ1IS6H",
    "placeName": "drumright",
    "state": "OK"
  },
  {
    "city": "jennings",
    "state_code": "OK",
    "placeMasterId": "P02500000FsoGLoxw7PtulaPby56VxYTpgAzQ1nT",
    "placeName": "jennings",
    "state": "OK"
  },
  {
    "city": "pawnee",
    "state_code": "OK",
    "placeMasterId": "P02500000FsoGMotHLBwPZn7palWRKz1O4rxvP9o",
    "placeName": "pawnee",
    "state": "OK"
  },
  {
    "city": "adair",
    "state_code": "OK",
    "placeMasterId": "P02500000FsoGJp7Ffrov9AzAiiGfChJ93VOgcoQ",
    "placeName": "adair",
    "state": "OK"
  },
  {
    "city": "redbird",
    "state_code": "OK",
    "placeMasterId": "P02500000FsoGMxjkwaWCGON0OZrrFTPaRBLwqXZ",
    "placeName": "redbird",
    "state": "OK"
  },
  {
    "city": "bromide",
    "state_code": "OK",
    "placeMasterId": "P02500000FsoGKFegU3YHCyih89IuwAJiAVF0DPy",
    "placeName": "bromide",
    "state": "OK"
  },
  {
    "city": "pittsburg",
    "state_code": "OK",
    "placeMasterId": "P02500000FsoGMotHLBwPZn7palWRKz8bIsxFK7Z",
    "placeName": "pittsburg",
    "state": "OK"
  },
  {
    "city": "savanna",
    "state_code": "OK",
    "placeMasterId": "P02500000FsoGNFQi9NfldarM0CYh4SG0PeKbkPR",
    "placeName": "savanna",
    "state": "OK"
  },
  {
    "city": "stringtown",
    "state_code": "OK",
    "placeMasterId": "P02500000FsoGNX7fMApL0nLhbpFWtQzNXWWK7FA",
    "placeName": "stringtown",
    "state": "OK"
  },
  {
    "city": "caddo",
    "state_code": "OK",
    "placeMasterId": "P02500000FsoGKOVA5S83tZxrvxeKqeon4pRcDXe",
    "placeName": "caddo",
    "state": "OK"
  },
  {
    "city": "garvin",
    "state_code": "OK",
    "placeMasterId": "P02500000FsoGLFa1hpam1BQukpiqJb0BEtNBPBG",
    "placeName": "garvin",
    "state": "OK"
  },
  {
    "city": "irving",
    "state_code": "TX",
    "placeMasterId": "P02500000FsoGmVFDuXplFvBCCvhfL9vyF5GYbVg",
    "placeName": "irving",
    "state": "TX"
  },
  {
    "city": "mckinney",
    "state_code": "TX",
    "placeMasterId": "P02500000FsoGnmrWL71pRKNlREoQXZEUhipDZkX",
    "placeName": "mckinney",
    "state": "TX"
  },
  {
    "city": "richardson",
    "state_code": "TX",
    "placeMasterId": "P02500000FsoGpvYgO3gbkL3NUPzhCukhB7xHjYP",
    "placeName": "richardson",
    "state": "TX"
  },
  {
    "city": "princeton",
    "state_code": "TX",
    "placeMasterId": "P02500000FsoGpV1FZrxFgXJr4yxRTRgTYlNcuAS",
    "placeName": "princeton",
    "state": "TX"
  },
  {
    "city": "blue ridge",
    "state_code": "TX",
    "placeMasterId": "P02500000FsoGiw5HpdP84u3q7d4DYuinwA8MdLx",
    "placeName": "blue ridge",
    "state": "TX"
  },
  {
    "city": "hooks",
    "state_code": "TX",
    "placeMasterId": "P02500000FsoGmDYGhkgBsigqbJ0pWBJXRFUTQTn",
    "placeName": "hooks",
    "state": "TX"
  },
  {
    "city": "longview",
    "state_code": "TX",
    "placeMasterId": "P02500000FsoGne12jiS2kj8adQT0d4nkfnqiUqY",
    "placeName": "longview",
    "state": "TX"
  },
  {
    "city": "cuney",
    "state_code": "TX",
    "placeMasterId": "P02500000FsoGkMY3rbAywuVa9kWOfoFheksKVwB",
    "placeName": "cuney",
    "state": "TX"
  },
  {
    "city": "fairfield",
    "state_code": "TX",
    "placeMasterId": "P02500000FsoGl4mRsa3uNujSAoFUEGFOFFvn4dT",
    "placeName": "fairfield",
    "state": "TX"
  },
  {
    "city": "milam",
    "state_code": "TX",
    "placeMasterId": "P02500000FsoGo4YTXuBOoWs72rVGMY0mXZZsyDn",
    "placeName": "milam",
    "state": "TX"
  },
  {
    "city": "glen rose",
    "state_code": "TX",
    "placeMasterId": "P02500000FsoGlVJsglnGRiSyaFHjxjM1jaGUrLa",
    "placeName": "glen rose",
    "state": "TX"
  },
  {
    "city": "godley",
    "state_code": "TX",
    "placeMasterId": "P02500000FsoGlVJsglnGRiSyaFHjxjR6NNtDCIo",
    "placeName": "godley",
    "state": "TX"
  },
  {
    "city": "weatherford",
    "state_code": "TX",
    "placeMasterId": "P02500000FsoGrmYtEDBog9EdvyU83HkwGUnryGT",
    "placeName": "weatherford",
    "state": "TX"
  },
  {
    "city": "fort worth",
    "state_code": "TX",
    "placeMasterId": "P02500000FsoGlMTP5NDTl7DnmQwK3EqQnKzuFlE",
    "placeName": "fort worth",
    "state": "TX"
  },
  {
    "city": "fort worth",
    "state_code": "TX",
    "placeMasterId": "P02500000FsoGlMTP5NDTl7DnmQwK3EqQnKzuFlE",
    "placeName": "fort worth",
    "state": "TX"
  },
  {
    "city": "fort worth",
    "state_code": "TX",
    "placeMasterId": "P02500000FsoGlMTP5NDTl7DnmQwK3EqQnKzuFlE",
    "placeName": "fort worth",
    "state": "TX"
  },
  {
    "city": "rising star",
    "state_code": "TX",
    "placeMasterId": "P02500000FsoGpvYgO3gbkL3NUPzhCujvHgqgF3e",
    "placeName": "rising star",
    "state": "TX"
  },
  {
    "city": "woodson",
    "state_code": "TX",
    "placeMasterId": "P02500000FsoGsD6K2OvAjwyALPWNmkmzgoVSGe7",
    "placeName": "woodson",
    "state": "TX"
  },
  {
    "city": "milano",
    "state_code": "TX",
    "placeMasterId": "P02500000FsoGoDOx9IlBV87HqfqgH2Lvx1M2Xki",
    "placeName": "milano",
    "state": "TX"
  },
  {
    "city": "lott",
    "state_code": "TX",
    "placeMasterId": "P02500000FsoGne12jiS2kj8adQT0d4twOnWCDna",
    "placeName": "lott",
    "state": "TX"
  },
  {
    "city": "marlin",
    "state_code": "TX",
    "placeMasterId": "P02500000FsoGnvhzwVbc7vcwF39qS3ge5yv0YGo",
    "placeName": "marlin",
    "state": "TX"
  },
  {
    "city": "waco",
    "state_code": "TX",
    "placeMasterId": "P02500000FsoGrdiPcoc1zXzT8A8i8nMQbSmxQI8",
    "placeName": "waco",
    "state": "TX"
  },
  {
    "city": "houston",
    "state_code": "TX",
    "placeMasterId": "P02500000FsoGmDYGhkgBsigqbJ0pWBK8GcFdEcU",
    "placeName": "houston",
    "state": "TX"
  },
  {
    "city": "houston",
    "state_code": "TX",
    "placeMasterId": "P02500000FsoGmDYGhkgBsigqbJ0pWBK8GcFdEcU",
    "placeName": "houston",
    "state": "TX"
  },
  {
    "city": "houston",
    "state_code": "TX",
    "placeMasterId": "P02500000FsoGmDYGhkgBsigqbJ0pWBK8GcFdEcU",
    "placeName": "houston",
    "state": "TX"
  },
  {
    "city": "onalaska",
    "state_code": "TX",
    "placeMasterId": "P02500000FsoGovdLAHe6w8L9rjZlpU8938RvUkV",
    "placeName": "onalaska",
    "state": "TX"
  },
  {
    "city": "pinehurst",
    "state_code": "TX",
    "placeMasterId": "P02500000FsoGpDKIN4ngJKpVTMGbeSx2JCsnptJ",
    "placeName": "pinehurst",
    "state": "TX"
  },
  {
    "city": "sugar land",
    "state_code": "TX",
    "placeMasterId": "P02500000FsoGr4KVDEItF90luul2UpoULpBKzGF",
    "placeName": "sugar land",
    "state": "TX"
  },
  {
    "city": "texas city",
    "state_code": "TX",
    "placeMasterId": "P02500000FsoGrDAyocsfvkFwij6SPK8wNksUTtF",
    "placeName": "texas city",
    "state": "TX"
  },
  {
    "city": "normangee",
    "state_code": "TX",
    "placeMasterId": "P02500000FsoGodwNxUUXYvqoG6sw0VUrO2HuXBi",
    "placeName": "normangee",
    "state": "TX"
  },
  {
    "city": "san antonio",
    "state_code": "TX",
    "placeMasterId": "P02500000FsoGqM67CFPxo8mttr1wwNqfYQdpCPu",
    "placeName": "san antonio",
    "state": "TX"
  },
  {
    "city": "san antonio",
    "state_code": "TX",
    "placeMasterId": "P02500000FsoGqM67CFPxo8mttr1wwNqfYQdpCPu",
    "placeName": "san antonio",
    "state": "TX"
  },
  {
    "city": "bishop",
    "state_code": "TX",
    "placeMasterId": "P02500000FsoGiw5HpdP84u3q7d4DYunROwDFWXJ",
    "placeName": "bishop",
    "state": "TX"
  },
  {
    "city": "mcallen",
    "state_code": "TX",
    "placeMasterId": "P02500000FsoGnmrWL71pRKNlREoQXZJVFuPMgE7",
    "placeName": "mcallen",
    "state": "TX"
  },
  {
    "city": "blanco",
    "state_code": "TX",
    "placeMasterId": "P02500000FsoGiw5HpdP84u3q7d4DYuaMFr1EdEA",
    "placeName": "blanco",
    "state": "TX"
  },
  {
    "city": "leander",
    "state_code": "TX",
    "placeMasterId": "P02500000FsoGnDTbvWiggvP4DzQktbwy8TeNizs",
    "placeName": "leander",
    "state": "TX"
  },
  {
    "city": "round mountain",
    "state_code": "TX",
    "placeMasterId": "P02500000FsoGq4P9zSGOQwIYIEL77PAF57HbWpW",
    "placeName": "round mountain",
    "state": "TX"
  },
  {
    "city": "austin",
    "state_code": "TX",
    "placeMasterId": "P02500000FsoGieOKcqFYhhZUW0NNjvrbzzBh3wR",
    "placeName": "austin",
    "state": "TX"
  },
  {
    "city": "la pryor",
    "state_code": "TX",
    "placeMasterId": "P02500000FsoGnDTbvWiggvP4DzQktbgPsJvEW3H",
    "placeName": "la pryor",
    "state": "TX"
  },
  {
    "city": "leakey",
    "state_code": "TX",
    "placeMasterId": "P02500000FsoGnDTbvWiggvP4DzQktbwImqoZwHf",
    "placeName": "leakey",
    "state": "TX"
  },
  {
    "city": "plainview",
    "state_code": "TX",
    "placeMasterId": "P02500000FsoGpDKIN4ngJKpVTMGbeT3jynhZOvB",
    "placeName": "plainview",
    "state": "TX"
  },
  {
    "city": "post",
    "state_code": "TX",
    "placeMasterId": "P02500000FsoGpMAlyTNSzw4gHAc1YxNrgKOuRVj",
    "placeName": "post",
    "state": "TX"
  },
  {
    "city": "colorado city",
    "state_code": "TX",
    "placeMasterId": "P02500000FsoGjw0d3PRct6m3kJU8wLN5cNllwQR",
    "placeName": "colorado city",
    "state": "TX"
  },
  {
    "city": "fort stockton",
    "state_code": "TX",
    "placeMasterId": "P02500000FsoGlDcvTydh4Vycycau8kfH9nANBdb",
    "placeName": "fort stockton",
    "state": "TX"
  },
  {
    "city": "el paso",
    "state_code": "TX",
    "placeMasterId": "P02500000FsoGkn5UfmuL0iF6ZBYePHb6XkiWYkD",
    "placeName": "el paso",
    "state": "TX"
  },
  {
    "city": "denver",
    "state_code": "CO",
    "placeMasterId": "P02500000FsoEmwFjZFziDhEIRiXkIwGQWtD2cc9",
    "placeName": "denver",
    "state": "CO"
  },
  {
    "city": "denver",
    "state_code": "CO",
    "placeMasterId": "P02500000FsoEmwFjZFziDhEIRiXkIwGQWtD2cc9",
    "placeName": "denver",
    "state": "CO"
  },
  {
    "city": "ward",
    "state_code": "CO",
    "placeMasterId": "P02500000FsoEow6Q0o4hq6ejh5Nb3nSmxefSArV",
    "placeName": "ward",
    "state": "CO"
  },
  {
    "city": "winter park",
    "state_code": "CO",
    "placeMasterId": "P02500000FsoEow6Q0o4hq6ejh5Nb3nSplqzCXCb",
    "placeName": "winter park",
    "state": "CO"
  },
  {
    "city": "red feather lakes",
    "state_code": "CO",
    "placeMasterId": "P02500000FsoEoMiVbDlZ5hg2TpzvPpwnTosB7Hn",
    "placeName": "red feather lakes",
    "state": "CO"
  },
  {
    "city": "sheridan lake",
    "state_code": "CO",
    "placeMasterId": "P02500000FsoEoePSo0v8SuAO5SglEoeq1y17xA1",
    "placeName": "sheridan lake",
    "state": "CO"
  },
  {
    "city": "conejos",
    "state_code": "CO",
    "placeMasterId": "P02500000FsoEmwFjZFziDhEIRiXkIwGbom2YrVw",
    "placeName": "conejos",
    "state": "CO"
  },
  {
    "city": "del norte",
    "state_code": "CO",
    "placeMasterId": "P02500000FsoEn56DAeZUuITTFWtADQacZAbceay",
    "placeName": "del norte",
    "state": "CO"
  },
  {
    "city": "lake city",
    "state_code": "CO",
    "placeMasterId": "P02500000FsoEnnKbBdSQLIhLGacFlsPwNUiLaS8",
    "placeName": "lake city",
    "state": "CO"
  },
  {
    "city": "redvale",
    "state_code": "CO",
    "placeMasterId": "P02500000FsoEoMiVbDlZ5hg2TpzvPpxfhbGKCcS",
    "placeName": "redvale",
    "state": "CO"
  },
  {
    "city": "minturn",
    "state_code": "CO",
    "placeMasterId": "P02500000FsoEo51YOQbziVBgsDJ5arAjAsKlKn9",
    "placeName": "minturn",
    "state": "CO"
  },
  {
    "city": "hawk springs",
    "state_code": "WY",
    "placeMasterId": "P02500000FsoH9Bp8oZbcVR5tx2d7D2u17AfdoFb",
    "placeName": "hawk springs",
    "state": "WY"
  },
  {
    "city": "manderson",
    "state_code": "WY",
    "placeMasterId": "P02500000FsoH9KfcPyBPC2L4kqyX7XSkKRMFRg7",
    "placeName": "manderson",
    "state": "WY"
  },
  {
    "city": "firth",
    "state_code": "ID",
    "placeMasterId": "P02500000FsoF0Cy8f7fk7YzVAEfc2UjExGn2Xd0",
    "placeName": "firth",
    "state": "ID"
  },
  {
    "city": "alta",
    "state_code": "WY",
    "placeMasterId": "P02500000FsoH8cREOzITl27CjnFRZ5dnGbqObx8",
    "placeName": "alta",
    "state": "WY"
  },
  {
    "city": "ashton",
    "state_code": "ID",
    "placeMasterId": "P02500000FsoEzmQhqvwO3lFykndMJ1feiq0pfgV",
    "placeName": "ashton",
    "state": "ID"
  },
  {
    "city": "dubois",
    "state_code": "ID",
    "placeMasterId": "P02500000FsoF047f3j5xQxkKMQKC80RyfepThwk",
    "placeName": "dubois",
    "state": "ID"
  },
  {
    "city": "hamer",
    "state_code": "ID",
    "placeMasterId": "P02500000FsoF0Cy8f7fk7YzVAEfc2Um6EHMyXi6",
    "placeName": "hamer",
    "state": "ID"
  },
  {
    "city": "sandpoint",
    "state_code": "ID",
    "placeMasterId": "P02500000FsoF0vCWg6YfYZDNBIOhawdlLyXpQ2W",
    "placeName": "sandpoint",
    "state": "ID"
  },
  {
    "city": "dugway",
    "state_code": "UT",
    "placeMasterId": "P02500000FsoGsddkqaeWnkhgkqYdWDv7a5sESbs",
    "placeName": "dugway",
    "state": "UT"
  },
  {
    "city": "neola",
    "state_code": "UT",
    "placeMasterId": "P02500000FsoGtLs8rZXSEkvYluHj4fnpughafIf",
    "placeName": "neola",
    "state": "UT"
  },
  {
    "city": "orem",
    "state_code": "UT",
    "placeMasterId": "P02500000FsoGtUicSy7EvMAjZid8zA55vj6eyu1",
    "placeName": "orem",
    "state": "UT"
  },
  {
    "city": "woodruff",
    "state_code": "UT",
    "placeMasterId": "P02500000FsoGuCx0Tx0AMMObamMEXbrPo9ztZRP",
    "placeName": "woodruff",
    "state": "UT"
  },
  {
    "city": "ogden",
    "state_code": "UT",
    "placeMasterId": "P02500000FsoGtUicSy7EvMAjZid8zAAtcfI8iZF",
    "placeName": "ogden",
    "state": "UT"
  },
  {
    "city": "elberta",
    "state_code": "UT",
    "placeMasterId": "P02500000FsoGsddkqaeWnkhgkqYdWDugVqkWFJm",
    "placeName": "elberta",
    "state": "UT"
  },
  {
    "city": "fillmore",
    "state_code": "UT",
    "placeMasterId": "P02500000FsoGsmUERzEJULwrYeu3QiI5bGjQ1gJ",
    "placeName": "fillmore",
    "state": "UT"
  },
  {
    "city": "salem",
    "state_code": "UT",
    "placeMasterId": "P02500000FsoGtdZ64Mh1bxPuNWyYteZbBiVIq9J",
    "placeName": "salem",
    "state": "UT"
  },
  {
    "city": "brian head",
    "state_code": "UT",
    "placeMasterId": "P02500000FsoGsLwndnUxQYDL9DrnhFJO8vMxhjs",
    "placeName": "brian head",
    "state": "UT"
  },
  {
    "city": "leeds",
    "state_code": "UT",
    "placeMasterId": "P02500000FsoGtD1fGAxfY9gNy5wJABLFwgHOVbI",
    "placeName": "leeds",
    "state": "UT"
  },
  {
    "city": "phoenix",
    "state_code": "AZ",
    "placeMasterId": "P02500000FsoEZWgqrzjtdEDuvO4SetJca76kZR3",
    "placeName": "phoenix",
    "state": "AZ"
  },
  {
    "city": "phoenix",
    "state_code": "AZ",
    "placeMasterId": "P02500000FsoEZWgqrzjtdEDuvO4SetJca76kZR3",
    "placeName": "phoenix",
    "state": "AZ"
  },
  {
    "city": "chandler",
    "state_code": "AZ",
    "placeMasterId": "P02500000FsoEYNv22p7c8QGWUtJ7MyMb0MOaj2F",
    "placeName": "chandler",
    "state": "AZ"
  },
  {
    "city": "scottsdale",
    "state_code": "AZ",
    "placeMasterId": "P02500000FsoEZoNo4mtT0QiGX0lITs2v218sukG",
    "placeName": "scottsdale",
    "state": "AZ"
  },
  {
    "city": "central",
    "state_code": "AZ",
    "placeMasterId": "P02500000FsoEYNv22p7c8QGWUtJ7MyKP9SeFmZJ",
    "placeName": "central",
    "state": "AZ"
  },
  {
    "city": "benson",
    "state_code": "AZ",
    "placeMasterId": "P02500000FsoEY6E4q1y2lDmAtGcHXzbEU5nzYs2",
    "placeName": "benson",
    "state": "AZ"
  },
  {
    "city": "pirtleville",
    "state_code": "AZ",
    "placeMasterId": "P02500000FsoEZfXKTOJgJpT5jCPsZNfvTvZ8Oux",
    "placeName": "pirtleville",
    "state": "AZ"
  },
  {
    "city": "san manuel",
    "state_code": "AZ",
    "placeMasterId": "P02500000FsoEZoNo4mtT0QiGX0lITs42OuOCxMR",
    "placeName": "san manuel",
    "state": "AZ"
  },
  {
    "city": "fort apache",
    "state_code": "AZ",
    "placeMasterId": "P02500000FsoEYfbzFcHBVcks6VzxBx5giwCV2xA",
    "placeName": "fort apache",
    "state": "AZ"
  },
  {
    "city": "flagstaff",
    "state_code": "AZ",
    "placeMasterId": "P02500000FsoEYoSSr0qyCE02uKLN6RSdBpSqOm4",
    "placeName": "flagstaff",
    "state": "AZ"
  },
  {
    "city": "santo domingo pueblo",
    "state_code": "NM",
    "placeMasterId": "P02500000FsoG0Q0JdxK7hThTSHHpI4fok3h628c",
    "placeName": "santo domingo pueblo",
    "state": "NM"
  },
  {
    "city": "aztec",
    "state_code": "NM",
    "placeMasterId": "P02500000FsoFyHJ9b0fLOT1rP66YcjDUz9wRc7X",
    "placeName": "aztec",
    "state": "NM"
  },
  {
    "city": "la madera",
    "state_code": "NM",
    "placeMasterId": "P02500000FsoFzHEUomhqCfk51mWU09i3Zqtla25",
    "placeName": "la madera",
    "state": "NM"
  },
  {
    "city": "tesuque",
    "state_code": "NM",
    "placeMasterId": "P02500000FsoG0YqnFLtuO4weG5dFCZ2QlBGeMvm",
    "placeName": "tesuque",
    "state": "NM"
  },
  {
    "city": "mesilla",
    "state_code": "NM",
    "placeMasterId": "P02500000FsoFzYvS1ZrPZsEQdPDJp8hWhmggovq",
    "placeName": "mesilla",
    "state": "NM"
  },
  {
    "city": "chaparral",
    "state_code": "NM",
    "placeMasterId": "P02500000FsoFyZ06nnoulfWD0inORhwWB42T7JX",
    "placeName": "chaparral",
    "state": "NM"
  },
  {
    "city": "roswell",
    "state_code": "NM",
    "placeMasterId": "P02500000FsoG08JMRAAYKHD7qeazT5zPlPqKjad",
    "placeName": "roswell",
    "state": "NM"
  },
  {
    "city": "ruidoso downs",
    "state_code": "NM",
    "placeMasterId": "P02500000FsoG08JMRAAYKHD7qeazT63meBzWIHw",
    "placeName": "ruidoso downs",
    "state": "NM"
  },
  {
    "city": "tularosa",
    "state_code": "NM",
    "placeMasterId": "P02500000FsoG0YqnFLtuO4weG5dFCZD7MNIm9uD",
    "placeName": "tularosa",
    "state": "NM"
  },
  {
    "city": "nara visa",
    "state_code": "NM",
    "placeMasterId": "P02500000FsoFzqcPEN0yx4imF1u9e7AFh5KHbuU",
    "placeName": "nara visa",
    "state": "NM"
  },
  {
    "city": "las vegas",
    "state_code": "NV",
    "placeMasterId": "P02500000FsoFuQSGJJ58qFQ9iAmH1VC0RKB5lYR",
    "placeName": "las vegas",
    "state": "NV"
  },
  {
    "city": "las vegas",
    "state_code": "NV",
    "placeMasterId": "P02500000FsoFuQSGJJ58qFQ9iAmH1VC0RKB5lYR",
    "placeName": "las vegas",
    "state": "NV"
  },
  {
    "city": "winnemucca",
    "state_code": "NV",
    "placeMasterId": "P02500000FsoFuzqAitOHaeOqvQ9wfSYt4wmfdjg",
    "placeName": "winnemucca",
    "state": "NV"
  },
  {
    "city": "winnemucca",
    "state_code": "NV",
    "placeMasterId": "P02500000FsoFuzqAitOHaeOqvQ9wfSYt4wmfdjg",
    "placeName": "winnemucca",
    "state": "NV"
  },
  {
    "city": "reno",
    "state_code": "NV",
    "placeMasterId": "P02500000FsoFuZIjuhevWqfKVz7gvzemDKMzraO",
    "placeName": "reno",
    "state": "NV"
  },
  {
    "city": "carson city",
    "state_code": "NV",
    "placeMasterId": "P02500000FsoFu8lJ6VvZT2vo6Y5RCWPoMg8UsQl",
    "placeName": "carson city",
    "state": "NV"
  },
  {
    "city": "battle mountain",
    "state_code": "NV",
    "placeMasterId": "P02500000FsoFu8lJ6VvZT2vo6Y5RCWRKoAJjUZx",
    "placeName": "battle mountain",
    "state": "NV"
  },
  {
    "city": "los angeles",
    "state_code": "CA",
    "placeMasterId": "P02500000FsoEiEJyfAwnXs9Xvv8xEm0Sp2kcekK",
    "placeName": "los angeles",
    "state": "CA"
  },
  {
    "city": "beverly hills",
    "state_code": "CA",
    "placeMasterId": "P02500000FsoEe5m8AgD1cS3UdN7poZE32BSPuWk",
    "placeName": "beverly hills",
    "state": "CA"
  },
  {
    "city": "south gate",
    "state_code": "CA",
    "placeMasterId": "P02500000FsoEl5FWj6UVHt320A3JSZPLkC7yZBZ",
    "placeName": "south gate",
    "state": "CA"
  },
  {
    "city": "torrance",
    "state_code": "CA",
    "placeMasterId": "P02500000FsoElVmxXIDrLgmYPb5ZC2XQh4EoyoQ",
    "placeName": "torrance",
    "state": "CA"
  },
  {
    "city": "torrance",
    "state_code": "CA",
    "placeMasterId": "P02500000FsoElVmxXIDrLgmYPb5ZC2XQh4EoyoQ",
    "placeName": "torrance",
    "state": "CA"
  },
  {
    "city": "whittier",
    "state_code": "CA",
    "placeMasterId": "P02500000FsoEm5ArwsX065lFcqTEq03Op0nFoD0",
    "placeName": "whittier",
    "state": "CA"
  },
  {
    "city": "stanton",
    "state_code": "CA",
    "placeMasterId": "P02500000FsoElMwTvte4f5XNbmk9HY83jniXyQi",
    "placeName": "stanton",
    "state": "CA"
  },
  {
    "city": "glendale",
    "state_code": "CA",
    "placeMasterId": "P02500000FsoEgf0j1ob9zGSd5zLMDNrwH2YihSi",
    "placeName": "glendale",
    "state": "CA"
  },
  {
    "city": "glendale",
    "state_code": "CA",
    "placeMasterId": "P02500000FsoEgf0j1ob9zGSd5zLMDNrwH2YihSi",
    "placeName": "glendale",
    "state": "CA"
  },
  {
    "city": "burbank",
    "state_code": "CA",
    "placeMasterId": "P02500000FsoEeWJYyrwNgFn12oA5Y2JrY905Fai",
    "placeName": "burbank",
    "state": "CA"
  },
  {
    "city": "glendora",
    "state_code": "CA",
    "placeMasterId": "P02500000FsoEgnrCdDAwfrhntngm7sE4YR7bawP",
    "placeName": "glendora",
    "state": "CA"
  },
  {
    "city": "upland",
    "state_code": "CA",
    "placeMasterId": "P02500000FsoEledR8gne2I1jDPQz6WuNMgIoyMS",
    "placeName": "upland",
    "state": "CA"
  },
  {
    "city": "carlsbad",
    "state_code": "CA",
    "placeMasterId": "P02500000FsoEefA2aGWAMr2BqcVVSWiivaOM0iP",
    "placeName": "carlsbad",
    "state": "CA"
  },
  {
    "city": "san marcos",
    "state_code": "CA",
    "placeMasterId": "P02500000FsoEknYZWJKvugYgOXMTdadI5JyMg50",
    "placeName": "san marcos",
    "state": "CA"
  },
  {
    "city": "valley center",
    "state_code": "CA",
    "placeMasterId": "P02500000FsoElwKOLTxDPUW4p27ovVbrTrYbQdk",
    "placeName": "valley center",
    "state": "CA"
  },
  {
    "city": "san diego",
    "state_code": "CA",
    "placeMasterId": "P02500000FsoEkVrcJWBMXU4KmufdobvSE82FU0j",
    "placeName": "san diego",
    "state": "CA"
  },
  {
    "city": "lytle creek",
    "state_code": "CA",
    "placeMasterId": "P02500000FsoEiNASGZWaETOijjUN9GKRWYitGre",
    "placeName": "lytle creek",
    "state": "CA"
  },
  {
    "city": "running springs",
    "state_code": "CA",
    "placeMasterId": "P02500000FsoEkVrcJWBMXU4KmufdobsXstWddWi",
    "placeName": "running springs",
    "state": "CA"
  },
  {
    "city": "riverside",
    "state_code": "CA",
    "placeMasterId": "P02500000FsoEkN18i7bZqsp9z6KDu7ViUSFSn4j",
    "placeName": "riverside",
    "state": "CA"
  },
  {
    "city": "homeland",
    "state_code": "CA",
    "placeMasterId": "P02500000FsoEhEOdROuIjfRKJEj1rLLX5CkSRvk",
    "placeName": "homeland",
    "state": "CA"
  },
  {
    "city": "irvine",
    "state_code": "CA",
    "placeMasterId": "P02500000FsoEhNF72nU5QGgV734RlpjosMp0ILe",
    "placeName": "irvine",
    "state": "CA"
  },
  {
    "city": "huntington beach",
    "state_code": "CA",
    "placeMasterId": "P02500000FsoEhEOdROuIjfRKJEj1rLL32zMdZPI",
    "placeName": "huntington beach",
    "state": "CA"
  },
  {
    "city": "san clemente",
    "state_code": "CA",
    "placeMasterId": "P02500000FsoEkVrcJWBMXU4KmufdobuN91nYaUk",
    "placeName": "san clemente",
    "state": "CA"
  },
  {
    "city": "villa park",
    "state_code": "CA",
    "placeMasterId": "P02500000FsoElwKOLTxDPUW4p27ovVbjWVIxXwU",
    "placeName": "villa park",
    "state": "CA"
  },
  {
    "city": "ducor",
    "state_code": "CA",
    "placeMasterId": "P02500000FsoEfnvrPR8RrezaH7GqkRgN9h09S8X",
    "placeName": "ducor",
    "state": "CA"
  },
  {
    "city": "laton",
    "state_code": "CA",
    "placeMasterId": "P02500000FsoEhnmXqzDRU4Q1WU6hVIuImgi6npI",
    "placeName": "laton",
    "state": "CA"
  },
  {
    "city": "bakersfield",
    "state_code": "CA",
    "placeMasterId": "P02500000FsoEdwveZHdEvqoJpYmPu4r7PsLmxxn",
    "placeName": "bakersfield",
    "state": "CA"
  },
  {
    "city": "benton",
    "state_code": "CA",
    "placeMasterId": "P02500000FsoEe5m8AgD1cS3UdN7poZDghgsOTqC",
    "placeName": "benton",
    "state": "CA"
  },
  {
    "city": "clovis",
    "state_code": "CA",
    "placeMasterId": "P02500000FsoEfEXwzqpJ7G0t3rtB6U95xQOV1RM",
    "placeName": "clovis",
    "state": "CA"
  },
  {
    "city": "madera",
    "state_code": "CA",
    "placeMasterId": "P02500000FsoEiNASGZWaETOijjUN9GL9bMi9Weo",
    "placeName": "madera",
    "state": "CA"
  },
  {
    "city": "orange cove",
    "state_code": "CA",
    "placeMasterId": "P02500000FsoEjVwH5k8rjHM7AEFiRBI9OTiw2R6",
    "placeName": "orange cove",
    "state": "CA"
  },
  {
    "city": "san francisco",
    "state_code": "CA",
    "placeMasterId": "P02500000FsoEkVrcJWBMXU4KmufdobtfKVREvsP",
    "placeName": "san francisco",
    "state": "CA"
  },
  {
    "city": "san francisco",
    "state_code": "CA",
    "placeMasterId": "P02500000FsoEkVrcJWBMXU4KmufdobtfKVREvsP",
    "placeName": "san francisco",
    "state": "CA"
  },
  {
    "city": "san mateo",
    "state_code": "CA",
    "placeMasterId": "P02500000FsoEknYZWJKvugYgOXMTdacl2SleQLW",
    "placeName": "san mateo",
    "state": "CA"
  },
  {
    "city": "knightsen",
    "state_code": "CA",
    "placeMasterId": "P02500000FsoEhW5aeC3s6rvfurPrgK6O4dqGz7K",
    "placeName": "knightsen",
    "state": "CA"
  },
  {
    "city": "san pablo",
    "state_code": "CA",
    "placeMasterId": "P02500000FsoEknYZWJKvugYgOXMTdad6spQ3fr6",
    "placeName": "san pablo",
    "state": "CA"
  },
  {
    "city": "bodega",
    "state_code": "CA",
    "placeMasterId": "P02500000FsoEeNT5NTMazeXqEzofdXuZIlUMhbN",
    "placeName": "bodega",
    "state": "CA"
  },
  {
    "city": "san anselmo",
    "state_code": "CA",
    "placeMasterId": "P02500000FsoEkVrcJWBMXU4KmufdobvEjp8tKsP",
    "placeName": "san anselmo",
    "state": "CA"
  },
  {
    "city": "santa cruz",
    "state_code": "CA",
    "placeMasterId": "P02500000FsoEknYZWJKvugYgOXMTdacPG1pxRmS",
    "placeName": "santa cruz",
    "state": "CA"
  },
  {
    "city": "san jose",
    "state_code": "CA",
    "placeMasterId": "P02500000FsoEkei5uul9E5JVaj13j6FZZ7utLyF",
    "placeName": "san jose",
    "state": "CA"
  },
  {
    "city": "vallecito",
    "state_code": "CA",
    "placeMasterId": "P02500000FsoElnTuk5NQitGu1DmP11IbWx4RqvS",
    "placeName": "vallecito",
    "state": "CA"
  },
  {
    "city": "sonora",
    "state_code": "CA",
    "placeMasterId": "P02500000FsoElE60KV4HyUICnyOjN3kQZqQK8Ro",
    "placeName": "sonora",
    "state": "CA"
  },
  {
    "city": "occidental",
    "state_code": "CA",
    "placeMasterId": "P02500000FsoEjN5nULZ52g6wMPuIWgv6GzJBsSN",
    "placeName": "occidental",
    "state": "CA"
  },
  {
    "city": "hood",
    "state_code": "CA",
    "placeMasterId": "P02500000FsoEhEOdROuIjfRKJEj1rLKikc8zcWh",
    "placeName": "hood",
    "state": "CA"
  },
  {
    "city": "lincoln",
    "state_code": "CA",
    "placeMasterId": "P02500000FsoEhwd1SNnEAffCKIS7PnExh0nvnh5",
    "placeName": "lincoln",
    "state": "CA"
  },
  {
    "city": "roseville",
    "state_code": "CA",
    "placeMasterId": "P02500000FsoEkN18i7bZqsp9z6KDu7Zi1eKXCew",
    "placeName": "roseville",
    "state": "CA"
  },
  {
    "city": "orangevale",
    "state_code": "CA",
    "placeMasterId": "P02500000FsoEjVwH5k8rjHM7AEFiRBJKDp3A1TA",
    "placeName": "orangevale",
    "state": "CA"
  },
  {
    "city": "drytown",
    "state_code": "CA",
    "placeMasterId": "P02500000FsoEfwmL0piEYGEl4vcGevzZ3TiIoqI",
    "placeName": "drytown",
    "state": "CA"
  },
  {
    "city": "rancho cordova",
    "state_code": "CA",
    "placeMasterId": "P02500000FsoEjwThtvsDn55dZfHyAeRbohp8o5x",
    "placeName": "rancho cordova",
    "state": "CA"
  },
  {
    "city": "camptonville",
    "state_code": "CA",
    "placeMasterId": "P02500000FsoEefA2aGWAMr2BqcVVSWjETlMertG",
    "placeName": "camptonville",
    "state": "CA"
  },
  {
    "city": "live oak",
    "state_code": "CA",
    "placeMasterId": "P02500000FsoEi5TV3mN0rGuN86nXKHcw3Eh7obj",
    "placeName": "live oak",
    "state": "CA"
  },
  {
    "city": "olivehurst",
    "state_code": "CA",
    "placeMasterId": "P02500000FsoEjVwH5k8rjHM7AEFiRBHi2kmbUMM",
    "placeName": "olivehurst",
    "state": "CA"
  },
  {
    "city": "willows",
    "state_code": "CA",
    "placeMasterId": "P02500000FsoEmE1LYH6mmh0QQeoekUOINTWwzmm",
    "placeName": "willows",
    "state": "CA"
  },
  {
    "city": "manton",
    "state_code": "CA",
    "placeMasterId": "P02500000FsoEiNASGZWaETOijjUN9GNZih7vxyu",
    "placeName": "manton",
    "state": "CA"
  },
  {
    "city": "honolulu",
    "state_code": "HI",
    "placeMasterId": "P02500000FsoEzdaEFXMbNA0nwzHwOXKc1cb4u6p",
    "placeName": "honolulu",
    "state": "HI"
  },
  {
    "city": "beaverton",
    "state_code": "OR",
    "placeMasterId": "P02500000FsoGOOCWyYI38OokQhK2MN4832yBAV5",
    "placeName": "beaverton",
    "state": "OR"
  },
  {
    "city": "astoria",
    "state_code": "OR",
    "placeMasterId": "P02500000FsoGOFM3N9iGRnZZcsycRskCyyoYUNs",
    "placeName": "astoria",
    "state": "OR"
  },
  {
    "city": "salem",
    "state_code": "OR",
    "placeMasterId": "P02500000FsoGPxVmbudgh0VfGd7dNl8njuxSNWh",
    "placeName": "salem",
    "state": "OR"
  },
  {
    "city": "cascadia",
    "state_code": "OR",
    "placeMasterId": "P02500000FsoGOX30Zwrpp03vEVfSGrQ1B1eqR1w",
    "placeName": "cascadia",
    "state": "OR"
  },
  {
    "city": "gates",
    "state_code": "OR",
    "placeMasterId": "P02500000FsoGOojxmk1PCCYGq8MI5qKxqp0J6X8",
    "placeName": "gates",
    "state": "OR"
  },
  {
    "city": "roseburg",
    "state_code": "OR",
    "placeMasterId": "P02500000FsoGPofJ0W3u0PGUSomDTH2nJ781EUh",
    "placeName": "roseburg",
    "state": "OR"
  },
  {
    "city": "heppner",
    "state_code": "OR",
    "placeMasterId": "P02500000FsoGP6QuzXAyZP2cRl37uoyKxEtQ0VG",
    "placeName": "heppner",
    "state": "OR"
  },
  {
    "city": "seattle",
    "state_code": "WA",
    "placeMasterId": "P02500000FsoH13ZvQyhrLC8y9kwIH7vOQ9mB44J",
    "placeName": "seattle",
    "state": "WA"
  },
  {
    "city": "custer",
    "state_code": "WA",
    "placeMasterId": "P02500000FsoGyuslO2352BTM6Zl1bmDtpWTVsSW",
    "placeName": "custer",
    "state": "WA"
  },
  {
    "city": "darrington",
    "state_code": "WA",
    "placeMasterId": "P02500000FsoGyuslO2352BTM6Zl1bmI1qKCHu29",
    "placeName": "darrington",
    "state": "WA"
  },
  {
    "city": "monrovia",
    "state_code": "MD",
    "placeMasterId": "P02500000FsoFVAdkY8v9Dv6JVRdIknMl3DP5xB5",
    "placeName": "monrovia",
    "state": "MD"
  },
  {
    "city": "whaleyville",
    "state_code": "MD",
    "placeMasterId": "P02500000FsoFWAZ5luxe27oX883E8E2RWAJooJw",
    "placeName": "whaleyville",
    "state": "MD"
  },
  {
    "city": "delmar",
    "state_code": "MD",
    "placeMasterId": "P02500000FsoFU1rviyIrj78v4wrxSsMojyHNOHJ",
    "placeName": "delmar",
    "state": "MD"
  },
  {
    "city": "chesapeake city",
    "state_code": "MD",
    "placeMasterId": "P02500000FsoFTkAyWB9ILueZTKB7dthNLABXNa0",
    "placeName": "chesapeake city",
    "state": "MD"
  },
  {
    "city": "falls church",
    "state_code": "VA",
    "placeMasterId": "P02500000FsoGvdPmVum1EMqLctoPeVdbLS2fQWW",
    "placeName": "falls church",
    "state": "VA"
  },
  {
    "city": "arlington",
    "state_code": "VA",
    "placeMasterId": "P02500000FsoGudURI8jWQA880DOUH59WbK2sySL",
    "placeName": "arlington",
    "state": "VA"
  },
  {
    "city": "front royal",
    "state_code": "VA",
    "placeMasterId": "P02500000FsoGvmGG7JLnuy5WQi9pYzzhBtmQktR",
    "placeName": "front royal",
    "state": "VA"
  },
  {
    "city": "woodstock",
    "state_code": "VA",
    "placeMasterId": "P02500000FsoGy3ntleaMua0JHhgW8q7timnFIFA",
    "placeName": "woodstock",
    "state": "VA"
  },
  {
    "city": "harrisonburg",
    "state_code": "VA",
    "placeMasterId": "P02500000FsoGvv6jihvabZKhEWVFTUZYDMgC9QZ",
    "placeName": "harrisonburg",
    "state": "VA"
  },
  {
    "city": "charles city",
    "state_code": "VA",
    "placeMasterId": "P02500000FsoGvCsLhj2fAZ6pDSm9v2Us3f3L7tL",
    "placeName": "charles city",
    "state": "VA"
  },
  {
    "city": "deltaville",
    "state_code": "VA",
    "placeMasterId": "P02500000FsoGvUZIuWCEXlbAp5Szk1H8h66UOer",
    "placeName": "deltaville",
    "state": "VA"
  },
  {
    "city": "louisa",
    "state_code": "VA",
    "placeMasterId": "P02500000FsoGwLeAWtewfN4DdxXVCxaP5uyxmNE",
    "placeName": "louisa",
    "state": "VA"
  },
  {
    "city": "urbanna",
    "state_code": "VA",
    "placeMasterId": "P02500000FsoGxuxQAG0aDyl8TtL6ELYZDFZCzix",
    "placeName": "urbanna",
    "state": "VA"
  },
  {
    "city": "smithfield",
    "state_code": "VA",
    "placeMasterId": "P02500000FsoGxUPzM4HEAB1c4SIqUseBHvbCPmK",
    "placeName": "smithfield",
    "state": "VA"
  },
  {
    "city": "virginia beach",
    "state_code": "VA",
    "placeMasterId": "P02500000FsoGxuxQAG0aDyl8TtL6ELfzK3Qkryw",
    "placeName": "virginia beach",
    "state": "VA"
  },
  {
    "city": "chester",
    "state_code": "VA",
    "placeMasterId": "P02500000FsoGv41s6KSsTxrePeQk0YEIndRRAJi",
    "placeName": "chester",
    "state": "VA"
  },
  {
    "city": "farmville",
    "state_code": "VA",
    "placeMasterId": "P02500000FsoGvdPmVum1EMqLctoPeVnlMYoHcCN",
    "placeName": "farmville",
    "state": "VA"
  },
  {
    "city": "south hill",
    "state_code": "VA",
    "placeMasterId": "P02500000FsoGxdGSxSr0qmGmsGeGPMp0NRY9jIE",
    "placeName": "south hill",
    "state": "VA"
  },
  {
    "city": "radford",
    "state_code": "VA",
    "placeMasterId": "P02500000FsoGxCj29H7emyXGSpc0ftfF3RDqqdg",
    "placeName": "radford",
    "state": "VA"
  },
  {
    "city": "union hall",
    "state_code": "VA",
    "placeMasterId": "P02500000FsoGxuxQAG0aDyl8TtL6ELWj7t0J4cH",
    "placeName": "union hall",
    "state": "VA"
  },
  {
    "city": "appalachia",
    "state_code": "VA",
    "placeMasterId": "P02500000FsoGuUdxgk9jjYsxCP34ManS6ytTWqF",
    "placeName": "appalachia",
    "state": "VA"
  },
  {
    "city": "hillsville",
    "state_code": "VA",
    "placeMasterId": "P02500000FsoGvv6jihvabZKhEWVFTUYTTBfeSEd",
    "placeName": "hillsville",
    "state": "VA"
  },
  {
    "city": "independence",
    "state_code": "VA",
    "placeMasterId": "P02500000FsoGw3xDK6VNIAZs2KqfNytkpVHBkc1",
    "placeName": "independence",
    "state": "VA"
  },
  {
    "city": "brookneal",
    "state_code": "VA",
    "placeMasterId": "P02500000FsoGuvBOUvt5nMcTbq5K63tsPsuKM0G",
    "placeName": "brookneal",
    "state": "VA"
  },
  {
    "city": "concord",
    "state_code": "VA",
    "placeMasterId": "P02500000FsoGvLipJ7cRrAM01H7ZpWrWBIjniSF",
    "placeName": "concord",
    "state": "VA"
  },
  {
    "city": "bluefield",
    "state_code": "WV",
    "placeMasterId": "P02500000FsoH23VGekkM9OrBmRMDeYN00EeRp6B",
    "placeName": "bluefield",
    "state": "WV"
  },
  {
    "city": "pratt",
    "state_code": "WV",
    "placeMasterId": "P02500000FsoH3coWI75zi0Y6cN9ofwPGYe8rZh8",
    "placeName": "pratt",
    "state": "WV"
  },
  {
    "city": "charleston",
    "state_code": "WV",
    "placeMasterId": "P02500000FsoH2LCDrXtvWbLXO433TXAEFw0vAwR",
    "placeName": "charleston",
    "state": "WV"
  },
  {
    "city": "inwood",
    "state_code": "WV",
    "placeMasterId": "P02500000FsoH33QbsWmqxbZPP7m91yteXKuigXp",
    "placeName": "inwood",
    "state": "WV"
  },
  {
    "city": "prichard",
    "state_code": "WV",
    "placeMasterId": "P02500000FsoH3coWI75zi0Y6cN9ofwVBeUVhyui",
    "placeName": "prichard",
    "state": "WV"
  },
  {
    "city": "bruno",
    "state_code": "WV",
    "placeMasterId": "P02500000FsoH2CLkG9K8q06MaFhdZ2sTludkO8L",
    "placeName": "bruno",
    "state": "WV"
  },
  {
    "city": "red jacket",
    "state_code": "WV",
    "placeMasterId": "P02500000FsoH3coWI75zi0Y6cN9ofwgMb0mlowC",
    "placeName": "red jacket",
    "state": "WV"
  },
  {
    "city": "helen",
    "state_code": "WV",
    "placeMasterId": "P02500000FsoH2ua8H8D4H0KEbJQj7Ub0RBDKSYE",
    "placeName": "helen",
    "state": "WV"
  },
  {
    "city": "reader",
    "state_code": "WV",
    "placeMasterId": "P02500000FsoH3coWI75zi0Y6cN9ofweaY5sLZEh",
    "placeName": "reader",
    "state": "WV"
  },
  {
    "city": "auburn",
    "state_code": "WV",
    "placeMasterId": "P02500000FsoH1uen3MAZSnc0yd0nk45k88PQJHV",
    "placeName": "auburn",
    "state": "WV"
  },
  {
    "city": "cairo",
    "state_code": "WV",
    "placeMasterId": "P02500000FsoH2CLkG9K8q06MaFhdZ2ivqrIkxfy",
    "placeName": "cairo",
    "state": "WV"
  },
  {
    "city": "blacksville",
    "state_code": "WV",
    "placeMasterId": "P02500000FsoH2CLkG9K8q06MaFhdZ2h7rVKWwOY",
    "placeName": "blacksville",
    "state": "WV"
  },
  {
    "city": "carolina",
    "state_code": "WV",
    "placeMasterId": "P02500000FsoH2LCDrXtvWbLXO433TX6vejbSQDF",
    "placeName": "carolina",
    "state": "WV"
  },
  {
    "city": "piedmont",
    "state_code": "WV",
    "placeMasterId": "P02500000FsoH3coWI75zi0Y6cN9ofwPQRYpWe1N",
    "placeName": "piedmont",
    "state": "WV"
  },
  {
    "city": "kernersville",
    "state_code": "NC",
    "placeMasterId": "P02500000FsoG7q190ZKxQiQXEVFYfXzPX3SxBZ4",
    "placeName": "kernersville",
    "state": "NC"
  },
  {
    "city": "sanford",
    "state_code": "NC",
    "placeMasterId": "P02500000FsoG9GTv2X6oIisHGchjmRnsZbTitc8",
    "placeName": "sanford",
    "state": "NC"
  },
  {
    "city": "troy",
    "state_code": "NC",
    "placeMasterId": "P02500000FsoG9h1LqiqAMWbng3jzVuxSfsbyRoZ",
    "placeName": "troy",
    "state": "NC"
  },
  {
    "city": "greensboro",
    "state_code": "NC",
    "placeMasterId": "P02500000FsoG7PTiCNbbMuh0p4DIw54JG0aDyyU",
    "placeName": "greensboro",
    "state": "NC"
  },
  {
    "city": "greensboro",
    "state_code": "NC",
    "placeMasterId": "P02500000FsoG7PTiCNbbMuh0p4DIw54JG0aDyyU",
    "placeName": "greensboro",
    "state": "NC"
  },
  {
    "city": "goldsboro",
    "state_code": "NC",
    "placeMasterId": "P02500000FsoG7PTiCNbbMuh0p4DIw4sd7cbb3Gp",
    "placeName": "goldsboro",
    "state": "NC"
  },
  {
    "city": "goldsboro",
    "state_code": "NC",
    "placeMasterId": "P02500000FsoG7PTiCNbbMuh0p4DIw4sd7cbb3Gp",
    "placeName": "goldsboro",
    "state": "NC"
  },
  {
    "city": "raleigh",
    "state_code": "NC",
    "placeMasterId": "P02500000FsoG8ymxpjxEvWNvf00txSyEKZeGT37",
    "placeName": "raleigh",
    "state": "NC"
  },
  {
    "city": "chocowinity",
    "state_code": "NC",
    "placeMasterId": "P02500000FsoG6YOqa08tFJDy0C8nT8hlM7tTiZ4",
    "placeName": "chocowinity",
    "state": "NC"
  },
  {
    "city": "tarboro",
    "state_code": "NC",
    "placeMasterId": "P02500000FsoG9YAsFKGNfvMcsFOZbQfkFeRBVIA",
    "placeName": "tarboro",
    "state": "NC"
  },
  {
    "city": "hatteras",
    "state_code": "NC",
    "placeMasterId": "P02500000FsoG7YKBnmBO3VwBcsYiqZPTD9rU84I",
    "placeName": "hatteras",
    "state": "NC"
  },
  {
    "city": "plymouth",
    "state_code": "NC",
    "placeMasterId": "P02500000FsoG8pwUELNSEv8krBfU2yi0q688uWT",
    "placeName": "plymouth",
    "state": "NC"
  },
  {
    "city": "lawndale",
    "state_code": "NC",
    "placeMasterId": "P02500000FsoG7yrcbxuk7Jfi2Jaya2RgxMUUiyq",
    "placeName": "lawndale",
    "state": "NC"
  },
  {
    "city": "monroe",
    "state_code": "NC",
    "placeMasterId": "P02500000FsoG8PP3Q9e6B7PERkdEJVSfdzdhhHb",
    "placeName": "monroe",
    "state": "NC"
  },
  {
    "city": "salisbury",
    "state_code": "NC",
    "placeMasterId": "P02500000FsoG9GTv2X6oIisHGchjmRgUuJJuRZp",
    "placeName": "salisbury",
    "state": "NC"
  },
  {
    "city": "charlotte",
    "state_code": "NC",
    "placeMasterId": "P02500000FsoG6YOqa08tFJDy0C8nT8qHEOhlkFv",
    "placeName": "charlotte",
    "state": "NC"
  },
  {
    "city": "charlotte",
    "state_code": "NC",
    "placeMasterId": "P02500000FsoG6YOqa08tFJDy0C8nT8qHEOhlkFv",
    "placeName": "charlotte",
    "state": "NC"
  },
  {
    "city": "charlotte",
    "state_code": "NC",
    "placeMasterId": "P02500000FsoG6YOqa08tFJDy0C8nT8qHEOhlkFv",
    "placeName": "charlotte",
    "state": "NC"
  },
  {
    "city": "spring lake",
    "state_code": "NC",
    "placeMasterId": "P02500000FsoG9YAsFKGNfvMcsFOZbQRzwWzPzGV",
    "placeName": "spring lake",
    "state": "NC"
  },
  {
    "city": "lake waccamaw",
    "state_code": "NC",
    "placeMasterId": "P02500000FsoG7yrcbxuk7Jfi2Jaya2XMInaAG9H",
    "placeName": "lake waccamaw",
    "state": "NC"
  },
  {
    "city": "wallace",
    "state_code": "NC",
    "placeMasterId": "P02500000FsoG9prpS7Px37qyTs5PQPLrR1hBSLE",
    "placeName": "wallace",
    "state": "NC"
  },
  {
    "city": "hudson",
    "state_code": "NC",
    "placeMasterId": "P02500000FsoG7hAfPAlAk7BMQgu8l3hZdcLUHm2",
    "placeName": "hudson",
    "state": "NC"
  },
  {
    "city": "stony point",
    "state_code": "NC",
    "placeMasterId": "P02500000FsoG9YAsFKGNfvMcsFOZbQdn520rILg",
    "placeName": "stony point",
    "state": "NC"
  },
  {
    "city": "taylorsville",
    "state_code": "NC",
    "placeMasterId": "P02500000FsoG9h1LqiqAMWbng3jzVusYb8rQcAG",
    "placeName": "taylorsville",
    "state": "NC"
  },
  {
    "city": "montreat",
    "state_code": "NC",
    "placeMasterId": "P02500000FsoG8PP3Q9e6B7PERkdEJVbD7GISSvr",
    "placeName": "montreat",
    "state": "NC"
  },
  {
    "city": "waynesville",
    "state_code": "NC",
    "placeMasterId": "P02500000FsoG9prpS7Px37qyTs5PQPOU58znHsu",
    "placeName": "waynesville",
    "state": "NC"
  },
  {
    "city": "bethune",
    "state_code": "SC",
    "placeMasterId": "P02500000FsoGbENVGEEiySqQjmPeMSbIS8xQCty",
    "placeName": "bethune",
    "state": "SC"
  },
  {
    "city": "orangeburg",
    "state_code": "SC",
    "placeMasterId": "P02500000FsoGceqHIC0ZqTIAltrpTMLrHUN4oKh",
    "placeName": "orangeburg",
    "state": "SC"
  },
  {
    "city": "fort lawn",
    "state_code": "SC",
    "placeMasterId": "P02500000FsoGbnlPfoXrirp7x1nK0Q46rncw8vF",
    "placeName": "fort lawn",
    "state": "SC"
  },
  {
    "city": "clarkston",
    "state_code": "GA",
    "placeMasterId": "P02500000FsoEw4QIAcvyC8tRrgeUcHxkcWt8UB4",
    "placeName": "clarkston",
    "state": "GA"
  },
  {
    "city": "marietta",
    "state_code": "GA",
    "placeMasterId": "P02500000FsoExM2abC82NY615zlFohL9dHDdiW0",
    "placeName": "marietta",
    "state": "GA"
  },
  {
    "city": "acworth",
    "state_code": "GA",
    "placeMasterId": "P02500000FsoEvMBu9e32l8fZqcvP3q8nh2TXgVK",
    "placeName": "acworth",
    "state": "GA"
  },
  {
    "city": "buchanan",
    "state_code": "GA",
    "placeMasterId": "P02500000FsoEvmjKxpmOowP6G3xenJFhnOMPKhh",
    "placeName": "buchanan",
    "state": "GA"
  },
  {
    "city": "jenkinsburg",
    "state_code": "GA",
    "placeMasterId": "P02500000FsoEx4LdOOyT0LbfUN4PzibMQSbX9ef",
    "placeName": "jenkinsburg",
    "state": "GA"
  },
  {
    "city": "jonesboro",
    "state_code": "GA",
    "placeMasterId": "P02500000FsoExDC6znYFgwqqIBPpuCyZjikuBQM",
    "placeName": "jonesboro",
    "state": "GA"
  },
  {
    "city": "atlanta",
    "state_code": "GA",
    "placeMasterId": "P02500000FsoEvV2Nl2cpRjukeRGoyKXsQZ9lvPs",
    "placeName": "atlanta",
    "state": "GA"
  },
  {
    "city": "rocky ford",
    "state_code": "GA",
    "placeMasterId": "P02500000FsoEyD7SDZakV9Z3urplHdZj5U2viwa",
    "placeName": "rocky ford",
    "state": "GA"
  },
  {
    "city": "baldwin",
    "state_code": "GA",
    "placeMasterId": "P02500000FsoEvV2Nl2cpRjukeRGoyKZGaQauX1E",
    "placeName": "baldwin",
    "state": "GA"
  },
  {
    "city": "braselton",
    "state_code": "GA",
    "placeMasterId": "P02500000FsoEvmjKxpmOowP6G3xenJDJ7XriARo",
    "placeName": "braselton",
    "state": "GA"
  },
  {
    "city": "sautee nacoochee",
    "state_code": "GA",
    "placeMasterId": "P02500000FsoEyLxvoyAXBkoEigBBC7uI9zPLOUi",
    "placeName": "sautee nacoochee",
    "state": "GA"
  },
  {
    "city": "lexington",
    "state_code": "GA",
    "placeMasterId": "P02500000FsoExDC6znYFgwqqIBPpuCzMniVNaJd",
    "placeName": "lexington",
    "state": "GA"
  },
  {
    "city": "ranger",
    "state_code": "GA",
    "placeMasterId": "P02500000FsoEy4GycB0xoYJt73ULN9BrkKWlCpy",
    "placeName": "ranger",
    "state": "GA"
  },
  {
    "city": "south prairie",
    "state_code": "WA",
    "placeMasterId": "P02500000FsoH1LGsdlrQiOdJlNd866SWFQYfg4Y",
    "placeName": "south prairie",
    "state": "WA"
  },
  {
    "city": "tacoma",
    "state_code": "WA",
    "placeMasterId": "P02500000FsoH1LGsdlrQiOdJlNd866Yu1WjXF5B",
    "placeName": "tacoma",
    "state": "WA"
  },
  {
    "city": "university place",
    "state_code": "WA",
    "placeMasterId": "P02500000FsoH1cxpqZ105b7fN0Jxv5EduKNTVdP",
    "placeName": "university place",
    "state": "WA"
  },
  {
    "city": "bucoda",
    "state_code": "WA",
    "placeMasterId": "P02500000FsoGyULKZqJiyNjph8ilsJHo2c7UWSp",
    "placeName": "bucoda",
    "state": "WA"
  },
  {
    "city": "yelm",
    "state_code": "WA",
    "placeMasterId": "P02500000FsoH1uen3MAZSnc0yd0nk41JCb29GJj",
    "placeName": "yelm",
    "state": "WA"
  },
  {
    "city": "klickitat",
    "state_code": "WA",
    "placeMasterId": "P02500000FsoGzlxd0PVn9mwOvRpX4iW84bAKrlc",
    "placeName": "klickitat",
    "state": "WA"
  },
  {
    "city": "entiat",
    "state_code": "WA",
    "placeMasterId": "P02500000FsoGz3jEzQcrimiWuO6RWGilc4RmjWC",
    "placeName": "entiat",
    "state": "WA"
  },
  {
    "city": "okanogan",
    "state_code": "WA",
    "placeMasterId": "P02500000FsoH0d2UcmyVHOPRkJu2XecHdFx6hw0",
    "placeName": "okanogan",
    "state": "WA"
  },
  {
    "city": "ellensburg",
    "state_code": "WA",
    "placeMasterId": "P02500000FsoGz3jEzQcrimiWuO6RWGfe1HlYoxL",
    "placeName": "ellensburg",
    "state": "WA"
  },
  {
    "city": "metaline falls",
    "state_code": "WA",
    "placeMasterId": "P02500000FsoH0CV3obF9DafvKsrmoBdGORkScs2",
    "placeName": "metaline falls",
    "state": "WA"
  },
  {
    "city": "odessa",
    "state_code": "WA",
    "placeMasterId": "P02500000FsoH0UC11OOianAGwVYcdAKkhYNwi0S",
    "placeName": "odessa",
    "state": "WA"
  },
  {
    "city": "spokane",
    "state_code": "WA",
    "placeMasterId": "P02500000FsoH1CQP2NHe1nO8xZHiBcLVG93v2e9",
    "placeName": "spokane",
    "state": "WA"
  },
  {
    "city": "bickleton",
    "state_code": "WA",
    "placeMasterId": "P02500000FsoGyLUqyRjwHmUetKNLxoq8MYC94i0",
    "placeName": "bickleton",
    "state": "WA"
  },
  {
    "city": "egegik",
    "state_code": "AK",
    "placeMasterId": "P02500000FsoEWO4LbH2cW0q5FWTGc79Q635MGwC",
    "placeName": "egegik",
    "state": "AK"
  },
  {
    "city": "napakiak",
    "state_code": "AK",
    "placeMasterId": "P02500000FsoEX6IjcFvXx13xGaCMAZ23yulQMBs",
    "placeName": "napakiak",
    "state": "AK"
  },
  {
    "city": "juneau",
    "state_code": "AK",
    "placeMasterId": "P02500000FsoEWflIo4CBtDKQr9A6R5tlPfwWe7S",
    "placeName": "juneau",
    "state": "AK"
  },
  {
    "city": "elfin cove",
    "state_code": "AK",
    "placeMasterId": "P02500000FsoEWO4LbH2cW0q5FWTGc7AGN9bc8Ht",
    "placeName": "elfin cove",
    "state": "AK"
  },
  {
    "city": "kake",
    "state_code": "AK",
    "placeMasterId": "P02500000FsoEWflIo4CBtDKQr9A6R5vFp05weDw",
    "placeName": "kake",
    "state": "AK"
  },
  {
    "city": "northampton",
    "state_code": "MA",
    "placeMasterId": "P02500000FsoFWjx0BVGmmWnELNQtmBPsU7Chxn9",
    "placeName": "northampton",
    "state": "MA"
  },
  {
    "city": "westfield",
    "state_code": "MA",
    "placeMasterId": "P02500000FsoFWsnTmtqZT82P9BmJgg3efbtGGFE",
    "placeName": "westfield",
    "state": "MA"
  },
  {
    "city": "bernardston",
    "state_code": "MA",
    "placeMasterId": "P02500000FsoHdRGMgby6AmyqHBriMteygZX5Wk6",
    "placeName": "bernardston",
    "state": "MA"
  },
  {
    "city": "millville",
    "state_code": "MA",
    "placeMasterId": "P02500000FsoHe0eH6CHEvBxXURFO0r9496dKO1U",
    "placeName": "millville",
    "state": "MA"
  },
  {
    "city": "northborough",
    "state_code": "MA",
    "placeMasterId": "P02500000FsoHBTMmSuqBV30go29nmsoNnj0gSTC",
    "placeName": "northborough",
    "state": "MA"
  },
  {
    "city": "spencer",
    "state_code": "MA",
    "placeMasterId": "P02500000FsoHBKWIrWGOoRlW0DoNsOVkyH3jNOW",
    "placeName": "spencer",
    "state": "MA"
  },
  {
    "city": "worcester",
    "state_code": "MA",
    "placeMasterId": "P02500000FsoFX1dxOIQM9jHZx07jbAFLDi9kkRa",
    "placeName": "worcester",
    "state": "MA"
  },
  {
    "city": "lynn",
    "state_code": "MA",
    "placeMasterId": "P02500000FsoFWb6Wa6h05vY3XZ5Trh7DsIrKl2t",
    "placeName": "lynn",
    "state": "MA"
  },
  {
    "city": "dedham",
    "state_code": "MA",
    "placeMasterId": "P02500000FsoHBBfpG7gc7qWLCPSxxu4P125HZaY",
    "placeName": "dedham",
    "state": "MA"
  },
  {
    "city": "walpole",
    "state_code": "MA",
    "placeMasterId": "P02500000FsoHBBfpG7gc7qWLCPSxxuCRRIGrpVt",
    "placeName": "walpole",
    "state": "MA"
  },
  {
    "city": "west yarmouth",
    "state_code": "MA",
    "placeMasterId": "P02500000FsoFX1dxOIQM9jHZx07jbAApcEffD8s",
    "placeName": "west yarmouth",
    "state": "MA"
  },
  {
    "city": "somerset",
    "state_code": "MA",
    "placeMasterId": "P02500000FsoHAtys3KX2ke1zamm88vYr8Cj66Qw",
    "placeName": "somerset",
    "state": "MA"
  },
  {
    "city": "taunton",
    "state_code": "MA",
    "placeMasterId": "P02500000FsoFWsnTmtqZT82P9BmJgfv4Optl9Bu",
    "placeName": "taunton",
    "state": "MA"
  },
  {
    "city": "clayville",
    "state_code": "RI",
    "placeMasterId": "P02500000FsoGawgY3R59bGM589ioXTukC24GOA3",
    "placeName": "clayville",
    "state": "RI"
  },
  {
    "city": "providence",
    "state_code": "RI",
    "placeMasterId": "P02500000FsoGb5X1epewHrbFvy4ERyD7lvGA4Im",
    "placeName": "providence",
    "state": "RI"
  },
  {
    "city": "cranston",
    "state_code": "RI",
    "placeMasterId": "P02500000FsoGawgY3R59bGM589ioXTxS6mxJlKr",
    "placeName": "cranston",
    "state": "RI"
  },
  {
    "city": "manchester",
    "state_code": "NH",
    "placeMasterId": "P02500000FsoFuzqAitOHaeOqvQ9wfSewcJ9IWcK",
    "placeName": "manchester",
    "state": "NH"
  },
  {
    "city": "thornton",
    "state_code": "NH",
    "placeMasterId": "P02500000FsoIC6wOFwDv8lSBVVoGlw55CMB3ue6",
    "placeName": "thornton",
    "state": "NH"
  },
  {
    "city": "exeter",
    "state_code": "NH",
    "placeMasterId": "P02500000FsoHBcDG4JPyBeFrbqVDhNIl6jWrwVh",
    "placeName": "exeter",
    "state": "NH"
  },
  {
    "city": "rochester",
    "state_code": "NH",
    "placeMasterId": "P02500000FsoFv8geKHy4HFe1jEVMZww7TZVHyRe",
    "placeName": "rochester",
    "state": "NH"
  },
  {
    "city": "kingston",
    "state_code": "NH",
    "placeMasterId": "P02500000FsoIBgOxRkUZ4xif64m12SpHvt70mrf",
    "placeName": "kingston",
    "state": "NH"
  },
  {
    "city": "harpswell",
    "state_code": "ME",
    "placeMasterId": "P02500000FsoHfR738A35nCPHWYhZ7ksbwBsFerQ",
    "placeName": "harpswell",
    "state": "ME"
  },
  {
    "city": "wells",
    "state_code": "ME",
    "placeMasterId": "P02500000FsoHgijLYjF9ybbqkroKKAGSuz3Sa2C",
    "placeName": "wells",
    "state": "ME"
  },
  {
    "city": "portland",
    "state_code": "ME",
    "placeMasterId": "P02500000FsoFTAn46aq9bVfsG4nRzw9NbsEpjyz",
    "placeName": "portland",
    "state": "ME"
  },
  {
    "city": "auburn",
    "state_code": "ME",
    "placeMasterId": "P02500000FsoFT1waVCGMuuQhSGS25RtwG1WAnjo",
    "placeName": "auburn",
    "state": "ME"
  },
  {
    "city": "andover",
    "state_code": "ME",
    "placeMasterId": "P02500000FsoHeisf7BAAMCBPVUyTZIxMLzOjMZ5",
    "placeName": "andover",
    "state": "ME"
  },
  {
    "city": "turner",
    "state_code": "ME",
    "placeMasterId": "P02500000FsoHgZsrxKfNI0Mfx3SuPfnID1b3zpx",
    "placeName": "turner",
    "state": "ME"
  },
  {
    "city": "jefferson",
    "state_code": "ME",
    "placeMasterId": "P02500000FsoHfZxWjYcsTneSKN2z2FNvFb6il0G",
    "placeName": "jefferson",
    "state": "ME"
  },
  {
    "city": "litchfield",
    "state_code": "ME",
    "placeMasterId": "P02500000FsoHfio0KxCfAOtd8BOOwjZJxX2CCya",
    "placeName": "litchfield",
    "state": "ME"
  },
  {
    "city": "bremen",
    "state_code": "ME",
    "placeMasterId": "P02500000FsoHerj8iZjx2nQaJJJtTnNRvAzxtjV",
    "placeName": "bremen",
    "state": "ME"
  },
  {
    "city": "columbia falls",
    "state_code": "ME",
    "placeMasterId": "P02500000FsoHf9Q5vMtWPzuvuw0jIm5BjIhNaHH",
    "placeName": "columbia falls",
    "state": "ME"
  },
  {
    "city": "southwest harbor",
    "state_code": "ME",
    "placeMasterId": "P02500000FsoHgR2OLw5abP7V9F7UVBODsOv9rcQ",
    "placeName": "southwest harbor",
    "state": "ME"
  },
  {
    "city": "surry",
    "state_code": "ME",
    "placeMasterId": "P02500000FsoHgZsrxKfNI0Mfx3SuPfmNGwagEGk",
    "placeName": "surry",
    "state": "ME"
  },
  {
    "city": "houlton",
    "state_code": "ME",
    "placeMasterId": "P02500000FsoHABkU2Le7Jdo7Zj32aTcv6LMk74D",
    "placeName": "houlton",
    "state": "ME"
  },
  {
    "city": "easton",
    "state_code": "ME",
    "placeMasterId": "P02500000FsoHf9Q5vMtWPzuvuw0jImDOYczIGmD",
    "placeName": "easton",
    "state": "ME"
  },
  {
    "city": "waterville",
    "state_code": "ME",
    "placeMasterId": "P02500000FsoFTAn46aq9bVfsG4nRzwEd0HsMLg3",
    "placeName": "waterville",
    "state": "ME"
  },
  {
    "city": "eustis",
    "state_code": "ME",
    "placeMasterId": "P02500000FsoHfIGZWlTJ6bA6ikM9DGWpRrpCFUP",
    "placeName": "eustis",
    "state": "ME"
  },
  {
    "city": "morrill",
    "state_code": "ME",
    "placeMasterId": "P02500000FsoHfreTwLmRr08nvzjorE7f1YbJQZj",
    "placeName": "morrill",
    "state": "ME"
  },
  {
    "city": "norwich",
    "state_code": "VT",
    "placeMasterId": "P02500000FsoIevuq60oXw6tNnXagosuSac4Cg1Z",
    "placeName": "norwich",
    "state": "VT"
  },
  {
    "city": "proctorsville",
    "state_code": "VT",
    "placeMasterId": "P02500000FsoGuLnU5LZx2xdmOaheS6IzgXqCksb",
    "placeName": "proctorsville",
    "state": "VT"
  },
  {
    "city": "burlington",
    "state_code": "VT",
    "placeMasterId": "P02500000FsoGuCx0Tx0AMMObamMEXbvwMuftXKD",
    "placeName": "burlington",
    "state": "VT"
  },
  {
    "city": "calais",
    "state_code": "VT",
    "placeMasterId": "P02500000FsoIeMWvgQVPBhugaID1AvQ36znamQv",
    "placeName": "calais",
    "state": "VT"
  },
  {
    "city": "orwell",
    "state_code": "VT",
    "placeMasterId": "P02500000FsoIevuq60oXw6tNnXagosstZJjMbIB",
    "placeName": "orwell",
    "state": "VT"
  },
  {
    "city": "ripton",
    "state_code": "VT",
    "placeMasterId": "P02500000FsoIf4lJhPOKci8YbLw6jNIsHOwZwt3",
    "placeName": "ripton",
    "state": "VT"
  },
  {
    "city": "wells",
    "state_code": "VT",
    "placeMasterId": "P02500000FsoIfVIkVb7ggVs50myMSqLV3N1xwHc",
    "placeName": "wells",
    "state": "VT"
  },
  {
    "city": "danville",
    "state_code": "VT",
    "placeMasterId": "P02500000FsoIeVNPHp5BsJ9rO6YR5PmEN2huD0F",
    "placeName": "danville",
    "state": "VT"
  },
  {
    "city": "broad brook",
    "state_code": "CT",
    "placeMasterId": "P02500000FsoEp4wtcCeUWhtuUtj0yHlA0wRh3xd",
    "placeName": "broad brook",
    "state": "CT"
  },
  {
    "city": "hartford",
    "state_code": "CT",
    "placeMasterId": "P02500000FsoEp4wtcCeUWhtuUtj0yHnuNbUVDLP",
    "placeName": "hartford",
    "state": "CT"
  },
  {
    "city": "niantic",
    "state_code": "CT",
    "placeMasterId": "P02500000FsoEpDnNDbEHDJ95Ii4QsmBZUuHqOzD",
    "placeName": "niantic",
    "state": "CT"
  },
  {
    "city": "voluntown",
    "state_code": "CT",
    "placeMasterId": "P02500000FsoHGtWvNym1bsJJKtHgPUv49PBKKi7",
    "placeName": "voluntown",
    "state": "CT"
  },
  {
    "city": "hamden",
    "state_code": "CT",
    "placeMasterId": "P02500000FsoHGbpyBBcSEfoxjGaqaWBg2V0pIIt",
    "placeName": "hamden",
    "state": "CT"
  },
  {
    "city": "waterbury",
    "state_code": "CT",
    "placeMasterId": "P02500000FsoEpVUKQONqaVdQuKlGhkvBzGUwIUs",
    "placeName": "waterbury",
    "state": "CT"
  },
  {
    "city": "goshen",
    "state_code": "CT",
    "placeMasterId": "P02500000FsoHGSzUZn2fY4ZmvSFQg1xgdYyYxYn",
    "placeName": "goshen",
    "state": "CT"
  },
  {
    "city": "norwalk",
    "state_code": "CT",
    "placeMasterId": "P02500000FsoEpMdqozo3tuOG6WPqnGVjKk8zkLb",
    "placeName": "norwalk",
    "state": "CT"
  },
  {
    "city": "east orange",
    "state_code": "NJ",
    "placeMasterId": "P02500000FsoFvqv2LGqziFrtkIES8OnN5sHm4Ly",
    "placeName": "east orange",
    "state": "NJ"
  },
  {
    "city": "short hills",
    "state_code": "NJ",
    "placeMasterId": "P02500000FsoFxZ4la1mPxSnzO2NT4HQgxhgQswN",
    "placeName": "short hills",
    "state": "NJ"
  },
  {
    "city": "allendale",
    "state_code": "NJ",
    "placeMasterId": "P02500000FsoFv8geKHy4HFe1jEVMZwvQz660wBw",
    "placeName": "allendale",
    "state": "NJ"
  },
  {
    "city": "cresskill",
    "state_code": "NJ",
    "placeMasterId": "P02500000FsoFvi4YjsHD1eciwTt2DuSDmcIgEpc",
    "placeName": "cresskill",
    "state": "NJ"
  },
  {
    "city": "ridgefield park",
    "state_code": "NJ",
    "placeMasterId": "P02500000FsoFxQEHydCdGrYoaE239mwn43hlrwF",
    "placeName": "ridgefield park",
    "state": "NJ"
  },
  {
    "city": "port monmouth",
    "state_code": "NJ",
    "placeMasterId": "P02500000FsoFxHNoNEcqaGJdmPgdFIVGbuwLKhB",
    "placeName": "port monmouth",
    "state": "NJ"
  },
  {
    "city": "barrington",
    "state_code": "NJ",
    "placeMasterId": "P02500000FsoFvHX7vgXqxqtCX2qmURNLGNYAizX",
    "placeName": "barrington",
    "state": "NJ"
  },
  {
    "city": "salem",
    "state_code": "NJ",
    "placeMasterId": "P02500000FsoFxZ4la1mPxSnzO2NT4HFXSBhRjft",
    "placeName": "salem",
    "state": "NJ"
  },
  {
    "city": "new york",
    "state_code": "NY",
    "placeMasterId": "P02500000FsoG3hTIW4bBVIKTvxERFLPbpMNP8u9",
    "placeName": "new york",
    "state": "NY"
  },
  {
    "city": "new york",
    "state_code": "NY",
    "placeMasterId": "P02500000FsoG3hTIW4bBVIKTvxERFLPbpMNP8u9",
    "placeName": "new york",
    "state": "NY"
  },
  {
    "city": "new york",
    "state_code": "NY",
    "placeMasterId": "P02500000FsoG3hTIW4bBVIKTvxERFLPbpMNP8u9",
    "placeName": "new york",
    "state": "NY"
  },
  {
    "city": "new york",
    "state_code": "NY",
    "placeMasterId": "P02500000FsoG3hTIW4bBVIKTvxERFLPbpMNP8u9",
    "placeName": "new york",
    "state": "NY"
  },
  {
    "city": "staten island",
    "state_code": "NY",
    "placeMasterId": "P02500000FsoHDBWVhflbkFwmRmIoilOWW8CMZ4T",
    "placeName": "staten island",
    "state": "NY"
  },
  {
    "city": "harrison",
    "state_code": "NY",
    "placeMasterId": "P02500000FsoHDkuQ7G4kUevTf1gUMimYOs4jFws",
    "placeName": "harrison",
    "state": "NY"
  },
  {
    "city": "orangeburg",
    "state_code": "NY",
    "placeMasterId": "P02500000FsoG480jKGKXZ640LOGgyoKBa31vCOa",
    "placeName": "orangeburg",
    "state": "NY"
  },
  {
    "city": "brooklyn",
    "state_code": "NY",
    "placeMasterId": "P02500000FsoHCc8bI5SSzqy5EWv94nnzJKQNSS5",
    "placeName": "brooklyn",
    "state": "NY"
  },
  {
    "city": "east meadow",
    "state_code": "NY",
    "placeMasterId": "P02500000FsoG1zJZHJflG5OOID5QJSrFrSoo8zd",
    "placeName": "east meadow",
    "state": "NY"
  },
  {
    "city": "woodmere",
    "state_code": "NY",
    "placeMasterId": "P02500000FsoG5qASZ1FxoJ05z8PhugqwQGImLM2",
    "placeName": "woodmere",
    "state": "NY"
  },
  {
    "city": "amityville",
    "state_code": "NY",
    "placeMasterId": "P02500000FsoG0qXkS93TlHQzriK51Xse09MjRgC",
    "placeName": "amityville",
    "state": "NY"
  },
  {
    "city": "bay shore",
    "state_code": "NY",
    "placeMasterId": "P02500000FsoG0zOE3XdGRsgAfWfUw2EIaGdyuRs",
    "placeName": "bay shore",
    "state": "NY"
  },
  {
    "city": "oakdale",
    "state_code": "NY",
    "placeMasterId": "P02500000FsoG3zAFirkksUopXZvH4K5epyAWEVI",
    "placeName": "oakdale",
    "state": "NY"
  },
  {
    "city": "aquebogue",
    "state_code": "NY",
    "placeMasterId": "P02500000FsoG0qXkS93TlHQzriK51XxQPgyXqZ5",
    "placeName": "aquebogue",
    "state": "NY"
  },
  {
    "city": "canaan",
    "state_code": "NY",
    "placeMasterId": "P02500000FsoIDxwb65j84ZdRx4IhcIqDxcKydm2",
    "placeName": "canaan",
    "state": "NY"
  },
  {
    "city": "cohoes",
    "state_code": "NY",
    "placeMasterId": "P02500000FsoG1Ym8T7wPCHersm3AZzjA8qS0vpP",
    "placeName": "cohoes",
    "state": "NY"
  },
  {
    "city": "fonda",
    "state_code": "NY",
    "placeMasterId": "P02500000FsoG28A2siFXwgdZ61QqDxIsEUyFrdE",
    "placeName": "fonda",
    "state": "NY"
  },
  {
    "city": "stuyvesant",
    "state_code": "NY",
    "placeMasterId": "P02500000FsoIGxiclPqcVBm6p7YTkabdHFcUSRp",
    "placeName": "stuyvesant",
    "state": "NY"
  },
  {
    "city": "south glens falls",
    "state_code": "NY",
    "placeMasterId": "P02500000FsoG4z5awdnFghX3AGLCRkeG7CtNFF4",
    "placeName": "south glens falls",
    "state": "NY"
  },
  {
    "city": "long lake",
    "state_code": "NY",
    "placeMasterId": "P02500000FsoIFXFqjS4ldBKMn06IdguyPof40KZ",
    "placeName": "long lake",
    "state": "NY"
  },
  {
    "city": "westport",
    "state_code": "NY",
    "placeMasterId": "P02500000FsoIHFPZyD0BsOGSQkFJZZJQQJelBVj",
    "placeName": "westport",
    "state": "NY"
  },
  {
    "city": "willsboro",
    "state_code": "NY",
    "placeMasterId": "P02500000FsoIHFPZyD0BsOGSQkFJZZSmLHux1aY",
    "placeName": "willsboro",
    "state": "NY"
  },
  {
    "city": "cazenovia",
    "state_code": "NY",
    "placeMasterId": "P02500000FsoHCc8bI5SSzqy5EWv94nxVBiyBSl5",
    "placeName": "cazenovia",
    "state": "NY"
  },
  {
    "city": "savannah",
    "state_code": "NY",
    "placeMasterId": "P02500000FsoIGXBBxE7GRO2aPgWE17X6dtivF0r",
    "placeName": "savannah",
    "state": "NY"
  },
  {
    "city": "syracuse",
    "state_code": "NY",
    "placeMasterId": "P02500000FsoG57w4Y2N2NImDy4gcMF3udu0wEbR",
    "placeName": "syracuse",
    "state": "NY"
  },
  {
    "city": "chadwicks",
    "state_code": "NY",
    "placeMasterId": "P02500000FsoG1PverjMcVgPh4xhkfVLqpXzO1Ka",
    "placeName": "chadwicks",
    "state": "NY"
  },
  {
    "city": "sherrill",
    "state_code": "NY",
    "placeMasterId": "P02500000FsoG4qF7LFDT06HsMRzmXGJT7hpPFQM",
    "placeName": "sherrill",
    "state": "NY"
  },
  {
    "city": "fort drum",
    "state_code": "NY",
    "placeMasterId": "P02500000FsoG2H0WU6pKdHsjtpmG8RUpMcHFrna",
    "placeName": "fort drum",
    "state": "NY"
  },
  {
    "city": "antwerp",
    "state_code": "NY",
    "placeMasterId": "P02500000FsoHCc8bI5SSzqy5EWv94no5Tx37pMV",
    "placeName": "antwerp",
    "state": "NY"
  },
  {
    "city": "canton",
    "state_code": "NY",
    "placeMasterId": "P02500000FsoHDBWVhflbkFwmRmIoilPh8J4Rx34",
    "placeName": "canton",
    "state": "NY"
  },
  {
    "city": "fishers landing",
    "state_code": "NY",
    "placeMasterId": "P02500000FsoG2H0WU6pKdHsjtpmG8RUKEyAw4fE",
    "placeName": "fishers landing",
    "state": "NY"
  },
  {
    "city": "hannawa falls",
    "state_code": "NY",
    "placeMasterId": "P02500000FsoG2hXxIIYgh5cGJGoVrucU9yY9YT9",
    "placeName": "hannawa falls",
    "state": "NY"
  },
  {
    "city": "potsdam",
    "state_code": "NY",
    "placeMasterId": "P02500000FsoHDBWVhflbkFwmRmIoilPl6s5vugF",
    "placeName": "potsdam",
    "state": "NY"
  },
  {
    "city": "richville",
    "state_code": "NY",
    "placeMasterId": "P02500000FsoG4YYA8S3tctnWkpIwiHXMbQjZr7c",
    "placeName": "richville",
    "state": "NY"
  },
  {
    "city": "elba",
    "state_code": "NY",
    "placeMasterId": "P02500000FsoHCTI7ggsgJFiuQiZjAJWrygFooKu",
    "placeName": "elba",
    "state": "NY"
  },
  {
    "city": "buffalo",
    "state_code": "NY",
    "placeMasterId": "P02500000FsoG1H5BGKmpp5AWH9MKl12AT3E2vOM",
    "placeName": "buffalo",
    "state": "NY"
  },
  {
    "city": "dresden",
    "state_code": "NY",
    "placeMasterId": "P02500000FsoHDc3wVrUxo3gIrDL4SEVhigvL1cx",
    "placeName": "dresden",
    "state": "NY"
  },
  {
    "city": "retsof",
    "state_code": "NY",
    "placeMasterId": "P02500000FsoG4PhgX3U6wIYLx0xWnnGvWoUIUOI",
    "placeName": "retsof",
    "state": "NY"
  },
  {
    "city": "rochester",
    "state_code": "NY",
    "placeMasterId": "P02500000FsoG4YYA8S3tctnWkpIwiHXc7FWLpT6",
    "placeName": "rochester",
    "state": "NY"
  },
  {
    "city": "sherman",
    "state_code": "NY",
    "placeMasterId": "P02500000FsoHC2kgsV9KFRzO1HXTQqHxDuGIr1p",
    "placeName": "sherman",
    "state": "NY"
  },
  {
    "city": "newfield",
    "state_code": "NY",
    "placeMasterId": "P02500000FsoIFownwFEL0NoiOcn8SffLrvepImS",
    "placeName": "newfield",
    "state": "NY"
  },
  {
    "city": "webster",
    "state_code": "PA",
    "placeMasterId": "P02500000FsoGaESA2SCEAG8D75ziz1xFjieWcWt",
    "placeName": "webster",
    "state": "PA"
  },
  {
    "city": "pittsburgh",
    "state_code": "PA",
    "placeMasterId": "P02500000FsoGXfDZBJo5nRj4eTmCaDENhHWAB15",
    "placeName": "pittsburgh",
    "state": "PA"
  },
  {
    "city": "fairchance",
    "state_code": "PA",
    "placeMasterId": "P02500000FsoGTEylU1ukUp8fkJ4FL1ieqdrTy8q",
    "placeName": "fairchance",
    "state": "PA"
  },
  {
    "city": "star junction",
    "state_code": "PA",
    "placeMasterId": "P02500000FsoGZEWoog9jM3PzUPZnbbSOwhajfk6",
    "placeName": "star junction",
    "state": "PA"
  },
  {
    "city": "meyersdale",
    "state_code": "PA",
    "placeMasterId": "P02500000FsoGW5uJXxSSEq29oXybYp635U8JKUc",
    "placeName": "meyersdale",
    "state": "PA"
  },
  {
    "city": "wyano",
    "state_code": "PA",
    "placeMasterId": "P02500000FsoGanq4S2VMuf6uKLNOczWPKF3vq6Z",
    "placeName": "wyano",
    "state": "PA"
  },
  {
    "city": "johnstown",
    "state_code": "PA",
    "placeMasterId": "P02500000FsoGUx8UimqAk24lO3DGGu9IeQPPEZ3",
    "placeName": "johnstown",
    "state": "PA"
  },
  {
    "city": "wilmore",
    "state_code": "PA",
    "placeMasterId": "P02500000FsoGaezaqdvaE3rjWX1yiV9pM4tE8ZK",
    "placeName": "wilmore",
    "state": "PA"
  },
  {
    "city": "evans city",
    "state_code": "PA",
    "placeMasterId": "P02500000FsoGTEylU1ukUp8fkJ4FL1jtB3MjhPT",
    "placeName": "evans city",
    "state": "PA"
  },
  {
    "city": "west sunbury",
    "state_code": "PA",
    "placeMasterId": "P02500000FsoGaNIddqm0qrNNuuL8tWU7fSymXVo",
    "placeName": "west sunbury",
    "state": "PA"
  },
  {
    "city": "franklin",
    "state_code": "PA",
    "placeMasterId": "P02500000FsoGTWfigp4Js1d1Lvl5A0YskYWQGCf",
    "placeName": "franklin",
    "state": "PA"
  },
  {
    "city": "claysburg",
    "state_code": "PA",
    "placeMasterId": "P02500000FsoGRxMT3SigJPw6VzxU8cbQxmGQU2P",
    "placeName": "claysburg",
    "state": "PA"
  },
  {
    "city": "westover",
    "state_code": "PA",
    "placeMasterId": "P02500000FsoGaW97FFLnXScYiigYo0gPUzkFR7o",
    "placeName": "westover",
    "state": "PA"
  },
  {
    "city": "bradford",
    "state_code": "PA",
    "placeMasterId": "P02500000FsoGRF852TpksPiEUwEOaAktxusUSBM",
    "placeName": "bradford",
    "state": "PA"
  },
  {
    "city": "allport",
    "state_code": "PA",
    "placeMasterId": "P02500000FsoGQWth1UwpRPUMTsVJ1inLoAcRRmi",
    "placeName": "allport",
    "state": "PA"
  },
  {
    "city": "millheim",
    "state_code": "PA",
    "placeMasterId": "P02500000FsoGWEkn9M2EvRHKcMK1TJgnR3O001X",
    "placeName": "millheim",
    "state": "PA"
  },
  {
    "city": "elizabethtown",
    "state_code": "PA",
    "placeMasterId": "P02500000FsoGT68HsdKxoDtUwUipQXM4QtmkiUx",
    "placeName": "elizabethtown",
    "state": "PA"
  },
  {
    "city": "shade gap",
    "state_code": "PA",
    "placeMasterId": "P02500000FsoGYnzO0UQNIFgT4yXXs8ChfC6O1we",
    "placeName": "shade gap",
    "state": "PA"
  },
  {
    "city": "gardners",
    "state_code": "PA",
    "placeMasterId": "P02500000FsoGTfWCIDe6YcsC9k6V4UzdnlB3LwX",
    "placeName": "gardners",
    "state": "PA"
  },
  {
    "city": "gettysburg",
    "state_code": "PA",
    "placeMasterId": "P02500000FsoGToMftcDtFE7MxYRuyzBl7geIaeb",
    "placeName": "gettysburg",
    "state": "PA"
  },
  {
    "city": "millersville",
    "state_code": "PA",
    "placeMasterId": "P02500000FsoGW5uJXxSSEq29oXybYpKz1vPjv76",
    "placeName": "millersville",
    "state": "PA"
  },
  {
    "city": "danville",
    "state_code": "PA",
    "placeMasterId": "P02500000FsoGSWkNT31p3ounjFL9mZqApY6Jsgi",
    "placeName": "danville",
    "state": "PA"
  },
  {
    "city": "macungie",
    "state_code": "PA",
    "placeMasterId": "P02500000FsoGVoDMLAIsrdXoCvHljqQz0tBivEm",
    "placeName": "macungie",
    "state": "PA"
  },
  {
    "city": "pen argyl",
    "state_code": "PA",
    "placeMasterId": "P02500000FsoGXNWbyWeWQFEj2r5MlEh90LZRNqi",
    "placeName": "pen argyl",
    "state": "PA"
  },
  {
    "city": "carbondale",
    "state_code": "PA",
    "placeMasterId": "P02500000FsoGRffVqfZ6wDRkuNGeJdcIzy8CCqN",
    "placeName": "carbondale",
    "state": "PA"
  },
  {
    "city": "forksville",
    "state_code": "PA",
    "placeMasterId": "P02500000FsoGTWfigp4Js1d1Lvl5A0VSQ5Gc8O0",
    "placeName": "forksville",
    "state": "PA"
  },
  {
    "city": "mifflinville",
    "state_code": "PA",
    "placeMasterId": "P02500000FsoGW5uJXxSSEq29oXybYpDljDkNe4E",
    "placeName": "mifflinville",
    "state": "PA"
  },
  {
    "city": "shickshinny",
    "state_code": "PA",
    "placeMasterId": "P02500000FsoGYnzO0UQNIFgT4yXXs8NagUgatjg",
    "placeName": "shickshinny",
    "state": "PA"
  },
  {
    "city": "philadelphia",
    "state_code": "PA",
    "placeMasterId": "P02500000FsoGXWN5ZvEJ6qTtqfQmfiyVODy6MPW",
    "placeName": "philadelphia",
    "state": "PA"
  },
  {
    "city": "philadelphia",
    "state_code": "PA",
    "placeMasterId": "P02500000FsoGXWN5ZvEJ6qTtqfQmfiyVODy6MPW",
    "placeName": "philadelphia",
    "state": "PA"
  },
  {
    "city": "downingtown",
    "state_code": "PA",
    "placeMasterId": "P02500000FsoGSfar4RbbkQ9yX3gZh4DUs7XLi46",
    "placeName": "downingtown",
    "state": "PA"
  },
  {
    "city": "shoemakersville",
    "state_code": "PA",
    "placeMasterId": "P02500000FsoGYwprbt09yqvdsmsxmcaIONRwEme",
    "placeName": "shoemakersville",
    "state": "PA"
  },
  {
    "city": "wilmington",
    "state_code": "DE",
    "placeMasterId": "P02500000FsoEq4sEpygzKuc87a8wLiOkGKX6CVd",
    "placeName": "wilmington",
    "state": "DE"
  },
  {
    "city": "washington",
    "state_code": "DC",
    "placeMasterId": "P02500000FsoEq4sEpygzKuc87a8wLiQYg142PzN",
    "placeName": "washington",
    "state": "DC"
  },
  {
    "city": "washington",
    "state_code": "DC",
    "placeMasterId": "P02500000FsoEq4sEpygzKuc87a8wLiQYg142PzN",
    "placeName": "washington",
    "state": "DC"
  },
  {
    "city": "manassas",
    "state_code": "VA",
    "placeMasterId": "P02500000FsoGwUUe8IEjLyJORlsv7RtCoUDQg1y",
    "placeName": "manassas",
    "state": "VA"
  },
  {
    "city": "chantilly",
    "state_code": "VA",
    "placeMasterId": "P02500000FsoGvCsLhj2fAZ6pDSm9v2TaSBlB9S4",
    "placeName": "chantilly",
    "state": "VA"
  },
  {
    "city": "sterling",
    "state_code": "VA",
    "placeMasterId": "P02500000FsoGxdGSxSr0qmGmsGeGPMyqFJJDJp5",
    "placeName": "sterling",
    "state": "VA"
  },
  {
    "city": "washington",
    "state_code": "DC",
    "placeMasterId": "P02500000FsoEq4sEpygzKuc87a8wLiQYg142PzN",
    "placeName": "washington",
    "state": "DC"
  },
  {
    "city": "accokeek",
    "state_code": "MD",
    "placeMasterId": "P02500000FsoFTAn46aq9bVfsG4nRzwKLSZm2tJG",
    "placeName": "accokeek",
    "state": "MD"
  },
  {
    "city": "bowie",
    "state_code": "MD",
    "placeMasterId": "P02500000FsoFTbKUumZVfJPOfVphjPEWm4ouK7q",
    "placeName": "bowie",
    "state": "MD"
  },
  {
    "city": "glenn dale",
    "state_code": "MD",
    "placeMasterId": "P02500000FsoFUSPMXA2DmusRUNuDCLbBJPD9mKZ",
    "placeName": "glenn dale",
    "state": "MD"
  },
  {
    "city": "rockville",
    "state_code": "MD",
    "placeMasterId": "P02500000FsoFVk1exjEHyK50ih0yOkq6WS8Noai",
    "placeName": "rockville",
    "state": "MD"
  },
  {
    "city": "washington grove",
    "state_code": "MD",
    "placeMasterId": "P02500000FsoFWAZ5luxe27oX883E8E635t2D0pg",
    "placeName": "washington grove",
    "state": "MD"
  },
  {
    "city": "gaithersburg",
    "state_code": "MD",
    "placeMasterId": "P02500000FsoFUSPMXA2DmusRUNuDCLSggAPIqSu",
    "placeName": "gaithersburg",
    "state": "MD"
  },
  {
    "city": "annapolis",
    "state_code": "MD",
    "placeMasterId": "P02500000FsoFTJdXhzPwI6v33t8ruQbBn6PWpnz",
    "placeName": "annapolis",
    "state": "MD"
  },
  {
    "city": "midlothian",
    "state_code": "MD",
    "placeMasterId": "P02500000FsoFVAdkY8v9Dv6JVRdIknKsyKAZJrz",
    "placeName": "midlothian",
    "state": "MD"
  },
  {
    "city": "oglethorpe",
    "state_code": "GA",
    "placeMasterId": "P02500000FsoExma1PNrORLpXVQnVYAS8GOwI4sV",
    "placeName": "oglethorpe",
    "state": "GA"
  },
  {
    "city": "valdosta",
    "state_code": "GA",
    "placeMasterId": "P02500000FsoEymVMd9ttFYXl87DQvb2eUneqOft",
    "placeName": "valdosta",
    "state": "GA"
  },
  {
    "city": "barwick",
    "state_code": "GA",
    "placeMasterId": "P02500000FsoEvdsrMRCc8L9vSFcEsosFoJsh3Sy",
    "placeName": "barwick",
    "state": "GA"
  },
  {
    "city": "geneva",
    "state_code": "GA",
    "placeMasterId": "P02500000FsoEwmegBbotd97JskNaAjpCXzqkukn",
    "placeName": "geneva",
    "state": "GA"
  },
  {
    "city": "tallahassee",
    "state_code": "FL",
    "placeMasterId": "P02500000FsoEuV72XGaKdXCX1kqtatxuQPy6zAD",
    "placeName": "tallahassee",
    "state": "FL"
  },
  {
    "city": "tallahassee",
    "state_code": "FL",
    "placeMasterId": "P02500000FsoEuV72XGaKdXCX1kqtatxuQPy6zAD",
    "placeName": "tallahassee",
    "state": "FL"
  },
  {
    "city": "tallahassee",
    "state_code": "FL",
    "placeMasterId": "P02500000FsoEuV72XGaKdXCX1kqtatxuQPy6zAD",
    "placeName": "tallahassee",
    "state": "FL"
  },
  {
    "city": "havana",
    "state_code": "FL",
    "placeMasterId": "P02500000FsoErn1y4jcPa7YDlKHxHauF7mHQ9C7",
    "placeName": "havana",
    "state": "FL"
  },
  {
    "city": "malone",
    "state_code": "FL",
    "placeMasterId": "P02500000FsoEsmxJIVeuOKGRO0hsf1QnDPkSQAJ",
    "placeName": "malone",
    "state": "FL"
  },
  {
    "city": "ponce de leon",
    "state_code": "FL",
    "placeMasterId": "P02500000FsoEtmseWHhPCWyf0h7o2S3qMG6EART",
    "placeName": "ponce de leon",
    "state": "FL"
  },
  {
    "city": "gainesville",
    "state_code": "FL",
    "placeMasterId": "P02500000FsoErVL0rwSqCv3s9hb7Sc6QcwCAknl",
    "placeName": "gainesville",
    "state": "FL"
  },
  {
    "city": "casselberry",
    "state_code": "FL",
    "placeMasterId": "P02500000FsoEqeG9FZ085JapKpWbzfua4sGC2SQ",
    "placeName": "casselberry",
    "state": "FL"
  },
  {
    "city": "titusville",
    "state_code": "FL",
    "placeMasterId": "P02500000FsoEudxW8fA7K8RhpZCJVOILZeXQb77",
    "placeName": "titusville",
    "state": "FL"
  },
  {
    "city": "orlando",
    "state_code": "FL",
    "placeMasterId": "P02500000FsoEtVBhJUXppKUJP4QyDTHMDbz9uFq",
    "placeName": "orlando",
    "state": "FL"
  },
  {
    "city": "orlando",
    "state_code": "FL",
    "placeMasterId": "P02500000FsoEtVBhJUXppKUJP4QyDTHMDbz9uFq",
    "placeName": "orlando",
    "state": "FL"
  },
  {
    "city": "orlando",
    "state_code": "FL",
    "placeMasterId": "P02500000FsoEtVBhJUXppKUJP4QyDTHMDbz9uFq",
    "placeName": "orlando",
    "state": "FL"
  },
  {
    "city": "hollywood",
    "state_code": "FL",
    "placeMasterId": "P02500000FsoErvsRg8CCGinOZ8dNC5DYkbxOTEU",
    "placeName": "hollywood",
    "state": "FL"
  },
  {
    "city": "miami beach",
    "state_code": "FL",
    "placeMasterId": "P02500000FsoEsvnmtuEh4vVcBp3IZVokjlG7wuw",
    "placeName": "miami beach",
    "state": "FL"
  },
  {
    "city": "miami",
    "state_code": "FL",
    "placeMasterId": "P02500000FsoEsvnmtuEh4vVcBp3IZVnnnRh03zn",
    "placeName": "miami",
    "state": "FL"
  },
  {
    "city": "fort lauderdale",
    "state_code": "FL",
    "placeMasterId": "P02500000FsoErVL0rwSqCv3s9hb7Sc4XvAWhbEe",
    "placeName": "fort lauderdale",
    "state": "FL"
  },
  {
    "city": "west palm beach",
    "state_code": "FL",
    "placeMasterId": "P02500000FsoEuveTLSJghKw3RBt9KN3fVhs2PCt",
    "placeName": "west palm beach",
    "state": "FL"
  },
  {
    "city": "moore haven",
    "state_code": "FL",
    "placeMasterId": "P02500000FsoEt4eGVIoTlWkmzdOiU0Eigl4uxst",
    "placeName": "moore haven",
    "state": "FL"
  },
  {
    "city": "boca raton",
    "state_code": "FL",
    "placeMasterId": "P02500000FsoEqVPfeAQLOiLeX1BC5BUmAvSIYfv",
    "placeName": "boca raton",
    "state": "FL"
  },
  {
    "city": "zephyrhills",
    "state_code": "FL",
    "placeMasterId": "P02500000FsoEvDLQYFTG4XQP2oZz9LokjrYJbSR",
    "placeName": "zephyrhills",
    "state": "FL"
  },
  {
    "city": "riverview",
    "state_code": "FL",
    "placeMasterId": "P02500000FsoEu4Zbj4qyZjT0cJodrQpRW1mD4c8",
    "placeName": "riverview",
    "state": "FL"
  },
  {
    "city": "seminole",
    "state_code": "FL",
    "placeMasterId": "P02500000FsoEuMGYvs0XwvxMDwVTgPW67Y97LNp",
    "placeName": "seminole",
    "state": "FL"
  },
  {
    "city": "fort myers beach",
    "state_code": "FL",
    "placeMasterId": "P02500000FsoErVL0rwSqCv3s9hb7Sc6frdoktkD",
    "placeName": "fort myers beach",
    "state": "FL"
  },
  {
    "city": "beverly hills",
    "state_code": "FL",
    "placeMasterId": "P02500000FsoEqMZC2lqYi76TjCpmAh76DTzC9w9",
    "placeName": "beverly hills",
    "state": "FL"
  },
  {
    "city": "ocala",
    "state_code": "FL",
    "placeMasterId": "P02500000FsoEtMLDi5y38jF8bG5YIyvCqOZlLNH",
    "placeName": "ocala",
    "state": "FL"
  },
  {
    "city": "windermere",
    "state_code": "FL",
    "placeMasterId": "P02500000FsoEvDLQYFTG4XQP2oZz9LmNpFzuOWW",
    "placeName": "windermere",
    "state": "FL"
  },
  {
    "city": "stuart",
    "state_code": "FL",
    "placeMasterId": "P02500000FsoEuV72XGaKdXCX1kqtatufPPVnWYG",
    "placeName": "stuart",
    "state": "FL"
  },
  {
    "city": "moody",
    "state_code": "AL",
    "placeMasterId": "P02500000FsoEUfucMW7CGntzbmKFgEfJ0cMJNlV",
    "placeName": "moody",
    "state": "AL"
  },
  {
    "city": "margaret",
    "state_code": "AL",
    "placeMasterId": "P02500000FsoEUX48l7XPaCeonxyplkJ8KOYgwgS",
    "placeName": "margaret",
    "state": "AL"
  },
  {
    "city": "weogufka",
    "state_code": "AL",
    "placeMasterId": "P02500000FsoEVxWun5JGSD6Yq5R0se05Wvat2MJ",
    "placeName": "weogufka",
    "state": "AL"
  },
  {
    "city": "birmingham",
    "state_code": "AL",
    "placeMasterId": "P02500000FsoESouPWMbzKzijADpoprrGKsxshig",
    "placeName": "birmingham",
    "state": "AL"
  },
  {
    "city": "birmingham",
    "state_code": "AL",
    "placeMasterId": "P02500000FsoESouPWMbzKzijADpoprrGKsxshig",
    "placeName": "birmingham",
    "state": "AL"
  },
  {
    "city": "birmingham",
    "state_code": "AL",
    "placeMasterId": "P02500000FsoESouPWMbzKzijADpoprrGKsxshig",
    "placeName": "birmingham",
    "state": "AL"
  },
  {
    "city": "cottondale",
    "state_code": "AL",
    "placeMasterId": "P02500000FsoETFRqKYLLOnSFZes4ZKyMWNrAubD",
    "placeName": "cottondale",
    "state": "AL"
  },
  {
    "city": "paint rock",
    "state_code": "AL",
    "placeMasterId": "P02500000FsoEUxbZZJGle0OLDP15VDPfp2AhVq0",
    "placeName": "paint rock",
    "state": "AL"
  },
  {
    "city": "albertville",
    "state_code": "AL",
    "placeMasterId": "P02500000FsoESg3vuy2CeOTYMPUOvNUPQ8aLOJn",
    "placeName": "albertville",
    "state": "AL"
  },
  {
    "city": "goshen",
    "state_code": "AL",
    "placeMasterId": "P02500000FsoETopkk8eU9CQwmuFkDIUmdQuMg9u",
    "placeName": "goshen",
    "state": "AL"
  },
  {
    "city": "montgomery",
    "state_code": "AL",
    "placeMasterId": "P02500000FsoEUX48l7XPaCeonxyplkMDm5NRSjd",
    "placeName": "montgomery",
    "state": "AL"
  },
  {
    "city": "montgomery",
    "state_code": "AL",
    "placeMasterId": "P02500000FsoEUX48l7XPaCeonxyplkMDm5NRSjd",
    "placeName": "montgomery",
    "state": "AL"
  },
  {
    "city": "piedmont",
    "state_code": "AL",
    "placeMasterId": "P02500000FsoEUxbZZJGle0OLDP15VDRwWdNRzkA",
    "placeName": "piedmont",
    "state": "AL"
  },
  {
    "city": "weaver",
    "state_code": "AL",
    "placeMasterId": "P02500000FsoEVogRBgjTlbrO2H5ay9hHo7IV7dP",
    "placeName": "weaver",
    "state": "AL"
  },
  {
    "city": "fulton",
    "state_code": "AL",
    "placeMasterId": "P02500000FsoETfzH8k4hSbBlz5uKIo3igFYsyui",
    "placeName": "fulton",
    "state": "AL"
  },
  {
    "city": "robertsdale",
    "state_code": "AL",
    "placeMasterId": "P02500000FsoEV6S3AhqYKbdW1DMVPhopCIuxva9",
    "placeName": "robertsdale",
    "state": "AL"
  },
  {
    "city": "mobile",
    "state_code": "AL",
    "placeMasterId": "P02500000FsoEUX48l7XPaCeonxyplkKNMXCzpeH",
    "placeName": "mobile",
    "state": "AL"
  },
  {
    "city": "phenix city",
    "state_code": "AL",
    "placeMasterId": "P02500000FsoEUxbZZJGle0OLDP15VDUgI6E33CT",
    "placeName": "phenix city",
    "state": "AL"
  },
  {
    "city": "ashland city",
    "state_code": "TN",
    "placeMasterId": "P02500000FsoGfnSmYuhqxgg0RlT1W8QO7NNChzs",
    "placeName": "ashland city",
    "state": "TN"
  },
  {
    "city": "charlotte",
    "state_code": "TN",
    "placeMasterId": "P02500000FsoGg59jlhrQKtAM3O9rL7CsWaVHNva",
    "placeName": "charlotte",
    "state": "TN"
  },
  {
    "city": "smithville",
    "state_code": "TN",
    "placeMasterId": "P02500000FsoGhw9wbrMdGhLcUweIBTxrF8MWdMR",
    "placeName": "smithville",
    "state": "TN"
  },
  {
    "city": "tennessee ridge",
    "state_code": "TN",
    "placeMasterId": "P02500000FsoGi50QDFwPxIanIkzi5yJohW3vK7b",
    "placeName": "tennessee ridge",
    "state": "TN"
  },
  {
    "city": "nashville",
    "state_code": "TN",
    "placeMasterId": "P02500000FsoGhMm2CH3UWIMvHhGcXWZ0CJVUMa1",
    "placeName": "nashville",
    "state": "TN"
  },
  {
    "city": "charleston",
    "state_code": "TN",
    "placeMasterId": "P02500000FsoGg59jlhrQKtAM3O9rL7BSn01F54g",
    "placeName": "charleston",
    "state": "TN"
  },
  {
    "city": "graysville",
    "state_code": "TN",
    "placeMasterId": "P02500000FsoGgeXeBIAZ5I93GdXWz4cmZRJQPus",
    "placeName": "graysville",
    "state": "TN"
  },
  {
    "city": "chattanooga",
    "state_code": "TN",
    "placeMasterId": "P02500000FsoGg59jlhrQKtAM3O9rL7CHHcMaKbF",
    "placeName": "chattanooga",
    "state": "TN"
  },
  {
    "city": "greeneville",
    "state_code": "TN",
    "placeMasterId": "P02500000FsoGgeXeBIAZ5I93GdXWz4h4GvgulyJ",
    "placeName": "greeneville",
    "state": "TN"
  },
  {
    "city": "knoxville",
    "state_code": "TN",
    "placeMasterId": "P02500000FsoGgwEbO5K8SUdOsGEMo3NrnN3KYab",
    "placeName": "knoxville",
    "state": "TN"
  },
  {
    "city": "alamo",
    "state_code": "TN",
    "placeMasterId": "P02500000FsoGfnSmYuhqxgg0RlT1W8VaJwgnAGf",
    "placeName": "alamo",
    "state": "TN"
  },
  {
    "city": "dyersburg",
    "state_code": "TN",
    "placeMasterId": "P02500000FsoGgMqgyV0zi5ehf0qhA5vfMHUWRrC",
    "placeName": "dyersburg",
    "state": "TN"
  },
  {
    "city": "williston",
    "state_code": "TN",
    "placeMasterId": "P02500000FsoGi50QDFwPxIanIkzi5yV9mMRJy7q",
    "placeName": "williston",
    "state": "TN"
  },
  {
    "city": "lexington",
    "state_code": "TN",
    "placeMasterId": "P02500000FsoGgwEbO5K8SUdOsGEMo3XYNh8usGV",
    "placeName": "lexington",
    "state": "TN"
  },
  {
    "city": "byhalia",
    "state_code": "MS",
    "placeMasterId": "P02500000FsoFgaLwnr5yBygFmPGjdzIC4W0pEUb",
    "placeName": "byhalia",
    "state": "MS"
  },
  {
    "city": "courtland",
    "state_code": "MS",
    "placeMasterId": "P02500000FsoFh0tNc2pKFmPmBqIzNS8ui2n05G4",
    "placeName": "courtland",
    "state": "MS"
  },
  {
    "city": "oxford",
    "state_code": "MS",
    "placeMasterId": "P02500000FsoFhryFEQI2NNsp0iNUqObb4Xr6EmR",
    "placeName": "oxford",
    "state": "MS"
  },
  {
    "city": "sherman",
    "state_code": "MS",
    "placeMasterId": "P02500000FsoFiIVg2c1ORBcLQ9PkZrU8rPlNBgn",
    "placeName": "sherman",
    "state": "MS"
  },
  {
    "city": "north carrollton",
    "state_code": "MS",
    "placeMasterId": "P02500000FsoFhryFEQI2NNsp0iNUqON0GOO1FnG",
    "placeName": "north carrollton",
    "state": "MS"
  },
  {
    "city": "conehatta",
    "state_code": "MS",
    "placeMasterId": "P02500000FsoFgs2u0eFXZBAbO1xZSy2bQqNWvzU",
    "placeName": "conehatta",
    "state": "MS"
  },
  {
    "city": "port gibson",
    "state_code": "MS",
    "placeMasterId": "P02500000FsoFi0oiporp3z7zoWiuksmu3NrCybA",
    "placeName": "port gibson",
    "state": "MS"
  },
  {
    "city": "tchula",
    "state_code": "MS",
    "placeMasterId": "P02500000FsoFiIVg2c1ORBcLQ9PkZrZTOez1hY6",
    "placeName": "tchula",
    "state": "MS"
  },
  {
    "city": "jackson",
    "state_code": "MS",
    "placeMasterId": "P02500000FsoFhRQoQEYgJa9IbHLF6vGkcb3WK7F",
    "placeName": "jackson",
    "state": "MS"
  },
  {
    "city": "hattiesburg",
    "state_code": "MS",
    "placeMasterId": "P02500000FsoFhIaKopytcyu7nSzpCQvLj5UT99P",
    "placeName": "hattiesburg",
    "state": "MS"
  },
  {
    "city": "petal",
    "state_code": "MS",
    "placeMasterId": "P02500000FsoFhryFEQI2NNsp0iNUqOYMrZAm4nW",
    "placeName": "petal",
    "state": "MS"
  },
  {
    "city": "picayune",
    "state_code": "MS",
    "placeMasterId": "P02500000FsoFi0oiporp3z7zoWiukstQBt90pJZ",
    "placeName": "picayune",
    "state": "MS"
  },
  {
    "city": "pascagoula",
    "state_code": "MS",
    "placeMasterId": "P02500000FsoFhryFEQI2NNsp0iNUqOTnv5t4GWk",
    "placeName": "pascagoula",
    "state": "MS"
  },
  {
    "city": "gloster",
    "state_code": "MS",
    "placeMasterId": "P02500000FsoFhIaKopytcyu7nSzpCQtW4q4qLdR",
    "placeName": "gloster",
    "state": "MS"
  },
  {
    "city": "maben",
    "state_code": "MS",
    "placeMasterId": "P02500000FsoFhaHI1d8T0BOTP5gf1PkVdwgyvmx",
    "placeName": "maben",
    "state": "MS"
  },
  {
    "city": "attapulgus",
    "state_code": "GA",
    "placeMasterId": "P02500000FsoEvV2Nl2cpRjukeRGoyKVu3DmLtZs",
    "placeName": "attapulgus",
    "state": "GA"
  },
  {
    "city": "leary",
    "state_code": "GA",
    "placeMasterId": "P02500000FsoExM2abC82NY615zlFohKoCeRqCtH",
    "placeName": "leary",
    "state": "GA"
  },
  {
    "city": "parrott",
    "state_code": "GA",
    "placeMasterId": "P02500000FsoExma1PNrORLpXVQnVYASIbLRmexZ",
    "placeName": "parrott",
    "state": "GA"
  },
  {
    "city": "carlisle",
    "state_code": "KY",
    "placeMasterId": "P02500000FsoFNSvxyjkk7Tsu7ayjYLIAXlY3UOj",
    "placeName": "carlisle",
    "state": "KY"
  },
  {
    "city": "millersburg",
    "state_code": "KY",
    "placeMasterId": "P02500000FsoFP2FDc66Ng5ZoxWmKZjN4YCMupvj",
    "placeName": "millersburg",
    "state": "KY"
  },
  {
    "city": "california",
    "state_code": "KY",
    "placeMasterId": "P02500000FsoFNSvxyjkk7Tsu7ayjYLJReA2AbaD",
    "placeName": "california",
    "state": "KY"
  },
  {
    "city": "buckhorn",
    "state_code": "KY",
    "placeMasterId": "P02500000FsoFNK5UNLAxQsdjJmdJdqvn0qolINT",
    "placeName": "buckhorn",
    "state": "KY"
  },
  {
    "city": "tompkinsville",
    "state_code": "KY",
    "placeMasterId": "P02500000FsoFPtK5ETZ5nh2rmOqq2fab0nBEdtW",
    "placeName": "tompkinsville",
    "state": "KY"
  },
  {
    "city": "smiths grove",
    "state_code": "KY",
    "placeMasterId": "P02500000FsoFPbd81gPWQUYWAmA0DgyDe1m5Cz4",
    "placeName": "smiths grove",
    "state": "KY"
  },
  {
    "city": "gracey",
    "state_code": "KY",
    "placeMasterId": "P02500000FsoFOBALzidfYU6m8ehp6nGugCJnBet",
    "placeName": "gracey",
    "state": "KY"
  },
  {
    "city": "magnolia",
    "state_code": "KY",
    "placeMasterId": "P02500000FsoFOtOk0hWazUKe9iQufF1bckEdlIh",
    "placeName": "magnolia",
    "state": "KY"
  },
  {
    "city": "kirkersville",
    "state_code": "OH",
    "placeMasterId": "P02500000FsoGFgZPBN59Dkt7QAFXmUZ7ggzF1Bi",
    "placeName": "kirkersville",
    "state": "OH"
  },
  {
    "city": "urbana",
    "state_code": "OH",
    "placeMasterId": "P02500000FsoGIy2O3UMD1ZW7tqC9jl41OMXuZ7u",
    "placeName": "urbana",
    "state": "OH"
  },
  {
    "city": "utica",
    "state_code": "OH",
    "placeMasterId": "P02500000FsoGJ6sresvziAlIheXZeFMfNHfnn26",
    "placeName": "utica",
    "state": "OH"
  },
  {
    "city": "lancaster",
    "state_code": "OH",
    "placeMasterId": "P02500000FsoGFyGMOAEiaxNT1mwNbTBgnAuIMrI",
    "placeName": "lancaster",
    "state": "OH"
  },
  {
    "city": "thurston",
    "state_code": "OH",
    "placeMasterId": "P02500000FsoGIpBuS5mQKyGx61qjpGlU0w735uG",
    "placeName": "thurston",
    "state": "OH"
  },
  {
    "city": "woodville",
    "state_code": "OH",
    "placeMasterId": "P02500000FsoGJgGm4TF8SZjzutvFICnhDHpu4SY",
    "placeName": "woodville",
    "state": "OH"
  },
  {
    "city": "alvordton",
    "state_code": "OH",
    "placeMasterId": "P02500000FsoGCXwtueNs6XVHkIeLjiRYnb24iSC",
    "placeName": "alvordton",
    "state": "OH"
  },
  {
    "city": "archbold",
    "state_code": "OH",
    "placeMasterId": "P02500000FsoGCpdr7RXRTjzdLvLBYgzuFKKMM77",
    "placeName": "archbold",
    "state": "OH"
  },
  {
    "city": "defiance",
    "state_code": "OH",
    "placeMasterId": "P02500000FsoGE7G9Y0jVf9CCaERwl6SukNtP8GW",
    "placeName": "defiance",
    "state": "OH"
  },
  {
    "city": "napoleon",
    "state_code": "OH",
    "placeMasterId": "P02500000FsoGGpLE0XhQiYqVqf0t4PVMoLMObgf",
    "placeName": "napoleon",
    "state": "OH"
  },
  {
    "city": "perrysburg",
    "state_code": "OH",
    "placeMasterId": "P02500000FsoGHXZc1WaM9Z4NrijycrNMs4DzhE2",
    "placeName": "perrysburg",
    "state": "OH"
  },
  {
    "city": "jerusalem",
    "state_code": "OH",
    "placeMasterId": "P02500000FsoGFXivZyVMX9dwcLu7s0HWklWsx9J",
    "placeName": "jerusalem",
    "state": "OH"
  },
  {
    "city": "old washington",
    "state_code": "OH",
    "placeMasterId": "P02500000FsoGHOj8Q80ZSxpD3uOYiN0y5QfNmL0",
    "placeName": "old washington",
    "state": "OH"
  },
  {
    "city": "cadiz",
    "state_code": "OH",
    "placeMasterId": "P02500000FsoGDP1lX1qaE8yKZAirCeduS76roKL",
    "placeName": "cadiz",
    "state": "OH"
  },
  {
    "city": "bergholz",
    "state_code": "OH",
    "placeMasterId": "P02500000FsoGD7KoKEh0qwTyxY21NfuEUoWmiAy",
    "placeName": "bergholz",
    "state": "OH"
  },
  {
    "city": "powhatan point",
    "state_code": "OH",
    "placeMasterId": "P02500000FsoGHpGZEJjvWlYjTLQoRq1FUnjZezp",
    "placeName": "powhatan point",
    "state": "OH"
  },
  {
    "city": "geneva",
    "state_code": "OH",
    "placeMasterId": "P02500000FsoGEpUXYzcR69Q4bIB2JYHb1QpQwvi",
    "placeName": "geneva",
    "state": "OH"
  },
  {
    "city": "cleveland",
    "state_code": "OH",
    "placeMasterId": "P02500000FsoGDpZCLDZwHwhqybl6w7hFiW8c2lu",
    "placeName": "cleveland",
    "state": "OH"
  },
  {
    "city": "cleveland",
    "state_code": "OH",
    "placeMasterId": "P02500000FsoGDpZCLDZwHwhqybl6w7hFiW8c2lu",
    "placeName": "cleveland",
    "state": "OH"
  },
  {
    "city": "bay village",
    "state_code": "OH",
    "placeMasterId": "P02500000FsoGCpdr7RXRTjzdLvLBYhBakWnCulK",
    "placeName": "bay village",
    "state": "OH"
  },
  {
    "city": "broadview heights",
    "state_code": "OH",
    "placeMasterId": "P02500000FsoGDGBHvdGnXXj9lMNRIAJZgS8vdHK",
    "placeName": "broadview heights",
    "state": "OH"
  },
  {
    "city": "kent",
    "state_code": "OH",
    "placeMasterId": "P02500000FsoGFgZPBN59Dkt7QAFXmUXnKQZyDmw",
    "placeName": "kent",
    "state": "OH"
  },
  {
    "city": "mantua",
    "state_code": "OH",
    "placeMasterId": "P02500000FsoGGFxJaxOHy9rodPdDQS2j2mZeAzL",
    "placeName": "mantua",
    "state": "OH"
  },
  {
    "city": "akron",
    "state_code": "OH",
    "placeMasterId": "P02500000FsoGCXwtueNs6XVHkIeLjiMh8uljxTa",
    "placeName": "akron",
    "state": "OH"
  },
  {
    "city": "rogers",
    "state_code": "OH",
    "placeMasterId": "P02500000FsoGI6xWR6tUty354y7eGoo6jbtBerU",
    "placeName": "rogers",
    "state": "OH"
  },
  {
    "city": "youngstown",
    "state_code": "OH",
    "placeMasterId": "P02500000FsoGJgGm4TF8SZjzutvFICtONAHpkmb",
    "placeName": "youngstown",
    "state": "OH"
  },
  {
    "city": "dundee",
    "state_code": "OH",
    "placeMasterId": "P02500000FsoGEOx6knt52LgYBr8ma58QgQv4js2",
    "placeName": "dundee",
    "state": "OH"
  },
  {
    "city": "malvern",
    "state_code": "OH",
    "placeMasterId": "P02500000FsoGGFxJaxOHy9rodPdDQRxEKxk9ACO",
    "placeName": "malvern",
    "state": "OH"
  },
  {
    "city": "massillon",
    "state_code": "OH",
    "placeMasterId": "P02500000FsoGGOnnCLy4el6zRDydKwGTlhNGYeZ",
    "placeName": "massillon",
    "state": "OH"
  },
  {
    "city": "mount eaton",
    "state_code": "OH",
    "placeMasterId": "P02500000FsoGGgUkP97e1xbL2qfT9vAjjqwqogK",
    "placeName": "mount eaton",
    "state": "OH"
  },
  {
    "city": "robertsville",
    "state_code": "OH",
    "placeMasterId": "P02500000FsoGHy72piJiDMnuH9mEMKVxZdcIo5D",
    "placeName": "robertsville",
    "state": "OH"
  },
  {
    "city": "wilmot",
    "state_code": "OH",
    "placeMasterId": "P02500000FsoGJgGm4TF8SZjzutvFICpr9BZdV6d",
    "placeName": "wilmot",
    "state": "OH"
  },
  {
    "city": "arcadia",
    "state_code": "OH",
    "placeMasterId": "P02500000FsoGCgnNW2xen8kSY6zleCsPLyKOSOd",
    "placeName": "arcadia",
    "state": "OH"
  },
  {
    "city": "mansfield",
    "state_code": "OH",
    "placeMasterId": "P02500000FsoGGFxJaxOHy9rodPdDQRzT3egLih6",
    "placeName": "mansfield",
    "state": "OH"
  },
  {
    "city": "lebanon",
    "state_code": "OH",
    "placeMasterId": "P02500000FsoGFyGMOAEiaxNT1mwNbT86gWoVejA",
    "placeName": "lebanon",
    "state": "OH"
  },
  {
    "city": "cincinnati",
    "state_code": "OH",
    "placeMasterId": "P02500000FsoGDpZCLDZwHwhqybl6w7e8Lps6H4x",
    "placeName": "cincinnati",
    "state": "OH"
  },
  {
    "city": "north star",
    "state_code": "OH",
    "placeMasterId": "P02500000FsoGHFseojQmmMa2G638nsfil8DcmOg",
    "placeName": "north star",
    "state": "OH"
  },
  {
    "city": "dayton",
    "state_code": "OH",
    "placeMasterId": "P02500000FsoGE7G9Y0jVf9CCaERwl6OdIDcWstb",
    "placeName": "dayton",
    "state": "OH"
  },
  {
    "city": "waverly",
    "state_code": "OH",
    "placeMasterId": "P02500000FsoGJFjLGHVmOm0TVSszYjsZkGCivpz",
    "placeName": "waverly",
    "state": "OH"
  },
  {
    "city": "amesville",
    "state_code": "OH",
    "placeMasterId": "P02500000FsoGCgnNW2xen8kSY6zleCguhEdvAW4",
    "placeName": "amesville",
    "state": "OH"
  },
  {
    "city": "buchtel",
    "state_code": "OH",
    "placeMasterId": "P02500000FsoGDP1lX1qaE8yKZAirCeheq5Cnqvk",
    "placeName": "buchtel",
    "state": "OH"
  },
  {
    "city": "glouster",
    "state_code": "OH",
    "placeMasterId": "P02500000FsoGEpUXYzcR69Q4bIB2JYNtnwSHZ9N",
    "placeName": "glouster",
    "state": "OH"
  },
  {
    "city": "graysville",
    "state_code": "OH",
    "placeMasterId": "P02500000FsoGEyL1AOCDmkfFP6WSE2ZhlsTyk4J",
    "placeName": "graysville",
    "state": "OH"
  },
  {
    "city": "wren",
    "state_code": "OH",
    "placeMasterId": "P02500000FsoGJgGm4TF8SZjzutvFICvNsXIu4FL",
    "placeName": "wren",
    "state": "OH"
  },
  {
    "city": "atlanta",
    "state_code": "IN",
    "placeMasterId": "P02500000FsoF93Rk3hSQioAIya5WWrohBYsD4Fm",
    "placeName": "atlanta",
    "state": "IN"
  },
  {
    "city": "cicero",
    "state_code": "IN",
    "placeMasterId": "P02500000FsoF9TzArtBmmbtpO17mGKuya0X7lMD",
    "placeName": "cicero",
    "state": "IN"
  },
  {
    "city": "tipton",
    "state_code": "IN",
    "placeMasterId": "P02500000FsoFCTlCXDJHDE2UG4NYOcfEe0ocEp8",
    "placeName": "tipton",
    "state": "IN"
  },
  {
    "city": "greenwood",
    "state_code": "IN",
    "placeMasterId": "P02500000FsoFAL42UGeUuDMsCtCHjH8gRYbVBYw",
    "placeName": "greenwood",
    "state": "IN"
  },
  {
    "city": "indianapolis",
    "state_code": "IN",
    "placeMasterId": "P02500000FsoFAckzh3o4HPrDoVt7YFuCi8MjR1V",
    "placeName": "indianapolis",
    "state": "IN"
  },
  {
    "city": "schneider",
    "state_code": "IN",
    "placeMasterId": "P02500000FsoFCC4FKQ9hq1Y8eRgiZdw1Keh189C",
    "placeName": "schneider",
    "state": "IN"
  },
  {
    "city": "south bend",
    "state_code": "IN",
    "placeMasterId": "P02500000FsoFCC4FKQ9hq1Y8eRgiZdyg3XsySz8",
    "placeName": "south bend",
    "state": "IN"
  },
  {
    "city": "huntertown",
    "state_code": "IN",
    "placeMasterId": "P02500000FsoFATuW5fEHaoc30hXhdlZ96pOb10J",
    "placeName": "huntertown",
    "state": "IN"
  },
  {
    "city": "kimmell",
    "state_code": "IN",
    "placeMasterId": "P02500000FsoFAlbTISNqy16OcKEXSkGcwD9HGN9",
    "placeName": "kimmell",
    "state": "IN"
  },
  {
    "city": "ligonier",
    "state_code": "IN",
    "placeMasterId": "P02500000FsoFAuRwtqxdecLZQ8ZxNEb2CbXU9C3",
    "placeName": "ligonier",
    "state": "IN"
  },
  {
    "city": "fort wayne",
    "state_code": "IN",
    "placeMasterId": "P02500000FsoFACDYss4iDc7hP4qromiuPZZ994H",
    "placeName": "fort wayne",
    "state": "IN"
  },
  {
    "city": "lanesville",
    "state_code": "IN",
    "placeMasterId": "P02500000FsoFAlbTISNqy16OcKEXSkJ08fPBbI2",
    "placeName": "lanesville",
    "state": "IN"
  },
  {
    "city": "boston",
    "state_code": "IN",
    "placeMasterId": "P02500000FsoF9L8hGUc060eeaCmMLqW8E3N4O13",
    "placeName": "boston",
    "state": "IN"
  },
  {
    "city": "williams",
    "state_code": "IN",
    "placeMasterId": "P02500000FsoFCuIdLP2dH1m0fVPo85mKQXoOrmH",
    "placeName": "williams",
    "state": "IN"
  },
  {
    "city": "leopold",
    "state_code": "IN",
    "placeMasterId": "P02500000FsoHSjmYRsgCdjcm1HxN29uHQQKNl7v",
    "placeName": "leopold",
    "state": "IN"
  },
  {
    "city": "plainville",
    "state_code": "IN",
    "placeMasterId": "P02500000FsoFBuNI7d08Sp3n2ozskfCc3imxtb2",
    "placeName": "plainville",
    "state": "IN"
  },
  {
    "city": "wheatland",
    "state_code": "IN",
    "placeMasterId": "P02500000FsoFCuIdLP2dH1m0fVPo85md7eywcv8",
    "placeName": "wheatland",
    "state": "IN"
  },
  {
    "city": "haubstadt",
    "state_code": "IN",
    "placeMasterId": "P02500000FsoFATuW5fEHaoc30hXhdlStU2Y1TtR",
    "placeName": "haubstadt",
    "state": "IN"
  },
  {
    "city": "evansville",
    "state_code": "IN",
    "placeMasterId": "P02500000FsoF9uWbg4v8qPdLnSA1zo2zspGZniW",
    "placeName": "evansville",
    "state": "IN"
  },
  {
    "city": "idaville",
    "state_code": "IN",
    "placeMasterId": "P02500000FsoFAckzh3o4HPrDoVt7YFrRAQvPaS8",
    "placeName": "idaville",
    "state": "IN"
  },
  {
    "city": "southfield",
    "state_code": "MI",
    "placeMasterId": "P02500000FsoFaantTCqzKkOw2IlBNPSI1Bod2BF",
    "placeName": "southfield",
    "state": "MI"
  },
  {
    "city": "troy",
    "state_code": "MI",
    "placeMasterId": "P02500000FsoFajeN4bQm1Le6q76bHtosaoXIJU9",
    "placeName": "troy",
    "state": "MI"
  },
  {
    "city": "ann arbor",
    "state_code": "MI",
    "placeMasterId": "P02500000FsoFX1dxOIQM9jHZx07jbAPjgnqdjRL",
    "placeName": "ann arbor",
    "state": "MI"
  },
  {
    "city": "grosse ile",
    "state_code": "MI",
    "placeMasterId": "P02500000FsoHk0CKQqWDmQErEXkwHQiX0EJbPaQ",
    "placeName": "grosse ile",
    "state": "MI"
  },
  {
    "city": "harper woods",
    "state_code": "MI",
    "placeMasterId": "P02500000FsoFYaxD1elziKyUmvvKcYXSSGzT54n",
    "placeName": "harper woods",
    "state": "MI"
  },
  {
    "city": "fostoria",
    "state_code": "MI",
    "placeMasterId": "P02500000FsoFYJGForcQL8U9BJEUnZky4crk8hX",
    "placeName": "fostoria",
    "state": "MI"
  },
  {
    "city": "flint",
    "state_code": "MI",
    "placeMasterId": "P02500000FsoFYJGForcQL8U9BJEUnZe6ic6ZYjH",
    "placeName": "flint",
    "state": "MI"
  },
  {
    "city": "flint",
    "state_code": "MI",
    "placeMasterId": "P02500000FsoFYJGForcQL8U9BJEUnZe6ic6ZYjH",
    "placeName": "flint",
    "state": "MI"
  },
  {
    "city": "kingston",
    "state_code": "MI",
    "placeMasterId": "P02500000FsoFZ1UdpqVLm8i1CMxaM1d5hMoFHMX",
    "placeName": "kingston",
    "state": "MI"
  },
  {
    "city": "clarksville",
    "state_code": "MI",
    "placeMasterId": "P02500000FsoFXsip0ft4HKkclsCF46Nbzw912m7",
    "placeName": "clarksville",
    "state": "MI"
  },
  {
    "city": "rosebush",
    "state_code": "MI",
    "placeMasterId": "P02500000FsoFaJ6wGPhPxXuaQg4LYQlTXvbS1MZ",
    "placeName": "rosebush",
    "state": "MI"
  },
  {
    "city": "stanton",
    "state_code": "MI",
    "placeMasterId": "P02500000FsoFaantTCqzKkOw2IlBNPXYSv3XMSy",
    "placeName": "stanton",
    "state": "MI"
  },
  {
    "city": "woodland",
    "state_code": "MI",
    "placeMasterId": "P02500000FsoFb1LKHOaLOY8SRjnR6sgY5punDnT",
    "placeName": "woodland",
    "state": "MI"
  },
  {
    "city": "lansing",
    "state_code": "MI",
    "placeMasterId": "P02500000FsoFZAL7RF58SjxC0BJ0GVtzoDUs0q2",
    "placeName": "lansing",
    "state": "MI"
  },
  {
    "city": "gobles",
    "state_code": "MI",
    "placeMasterId": "P02500000FsoFYS6jQGCD1jjJz7Zui4AOLvn0tEE",
    "placeName": "gobles",
    "state": "MI"
  },
  {
    "city": "marcellus",
    "state_code": "MI",
    "placeMasterId": "P02500000FsoFZS24e2EhpwRXbnzq5UbLmiZbOXO",
    "placeName": "marcellus",
    "state": "MI"
  },
  {
    "city": "morenci",
    "state_code": "MI",
    "placeMasterId": "P02500000FsoFZasYFQoUWXgiPcLFzz2SwY1mOkP",
    "placeName": "morenci",
    "state": "MI"
  },
  {
    "city": "onondaga",
    "state_code": "MI",
    "placeMasterId": "P02500000FsoHm030sObDOpfITuan2I2xEAVBGxa",
    "placeName": "onondaga",
    "state": "MI"
  },
  {
    "city": "howard city",
    "state_code": "MI",
    "placeMasterId": "P02500000FsoFYseAERvZ5XSqOYcARX91sGE2hun",
    "placeName": "howard city",
    "state": "MI"
  },
  {
    "city": "custer",
    "state_code": "MI",
    "placeMasterId": "P02500000FsoFY1ZIc4SqxvznZgXeyam1TBsrJuN",
    "placeName": "custer",
    "state": "MI"
  },
  {
    "city": "hudsonville",
    "state_code": "MI",
    "placeMasterId": "P02500000FsoFYseAERvZ5XSqOYcARX4Lv9YmCYB",
    "placeName": "hudsonville",
    "state": "MI"
  },
  {
    "city": "walkerville",
    "state_code": "MI",
    "placeMasterId": "P02500000FsoFasUqg00YhwtHdvS1COBQvwFHLFt",
    "placeName": "walkerville",
    "state": "MI"
  },
  {
    "city": "eastport",
    "state_code": "MI",
    "placeMasterId": "P02500000FsoFYAPmDT2deXEyNUt4t5JVOj8j1i8",
    "placeName": "eastport",
    "state": "MI"
  },
  {
    "city": "harbor springs",
    "state_code": "MI",
    "placeMasterId": "P02500000FsoFYaxD1elziKyUmvvKcYRhOmYHK15",
    "placeName": "harbor springs",
    "state": "MI"
  },
  {
    "city": "kingsford",
    "state_code": "MI",
    "placeMasterId": "P02500000FsoFZ1UdpqVLm8i1CMxaM1SvvB3Nka9",
    "placeName": "kingsford",
    "state": "MI"
  },
  {
    "city": "bayard",
    "state_code": "IA",
    "placeMasterId": "P02500000FsoFDKq49alzKpVX4wS3rYumAnTyL6w",
    "placeName": "bayard",
    "state": "IA"
  },
  {
    "city": "grand river",
    "state_code": "IA",
    "placeMasterId": "P02500000FsoFFBqGzkHCGdgnWUwUhvk7N5Jd1bZ",
    "placeName": "grand river",
    "state": "IA"
  },
  {
    "city": "lynnville",
    "state_code": "IA",
    "placeMasterId": "P02500000FsoFGBlcDWJh4qP19BMQ5MNuNHJIean",
    "placeName": "lynnville",
    "state": "IA"
  },
  {
    "city": "murray",
    "state_code": "IA",
    "placeMasterId": "P02500000FsoFGl9Wd6cppFNiMQk5jJsp8N7ydIS",
    "placeName": "murray",
    "state": "IA"
  },
  {
    "city": "norwalk",
    "state_code": "IA",
    "placeMasterId": "P02500000FsoFGu00EVCcVqctAF5VdoGJ151en6K",
    "placeName": "norwalk",
    "state": "IA"
  },
  {
    "city": "slater",
    "state_code": "IA",
    "placeMasterId": "P02500000FsoFI2lp3fou0eaHajqqvjCT6LPiDWg",
    "placeName": "slater",
    "state": "IA"
  },
  {
    "city": "carpenter",
    "state_code": "IA",
    "placeMasterId": "P02500000FsoFDlNUxmVLOdF3UNUJb20adjeLZ9Y",
    "placeName": "carpenter",
    "state": "IA"
  },
  {
    "city": "klemme",
    "state_code": "IA",
    "placeMasterId": "P02500000FsoFFu4f0jA7hdufXYfaGNcC4dZUvA3",
    "placeName": "klemme",
    "state": "IA"
  },
  {
    "city": "orchard",
    "state_code": "IA",
    "placeMasterId": "P02500000FsoFH2qTptmPCRs3y3QvYIaMXphmpSX",
    "placeName": "orchard",
    "state": "IA"
  },
  {
    "city": "osage",
    "state_code": "IA",
    "placeMasterId": "P02500000FsoFH2qTptmPCRs3y3QvYIbP0n35Cb5",
    "placeName": "osage",
    "state": "IA"
  },
  {
    "city": "ayrshire",
    "state_code": "IA",
    "placeMasterId": "P02500000FsoFDBzaYCCCeEGMH86dx4YCjA2Vdjh",
    "placeName": "ayrshire",
    "state": "IA"
  },
  {
    "city": "burt",
    "state_code": "IA",
    "placeMasterId": "P02500000FsoFDlNUxmVLOdF3UNUJb20c98OgtSc",
    "placeName": "burt",
    "state": "IA"
  },
  {
    "city": "livermore",
    "state_code": "IA",
    "placeMasterId": "P02500000FsoFGBlcDWJh4qP19BMQ5MOisTHJ08S",
    "placeName": "livermore",
    "state": "IA"
  },
  {
    "city": "hazleton",
    "state_code": "IA",
    "placeMasterId": "P02500000FsoFFKgkb8qyxEvyKJHucQ8LFnWzGZn",
    "placeName": "hazleton",
    "state": "IA"
  },
  {
    "city": "benton",
    "state_code": "IA",
    "placeMasterId": "P02500000FsoFDTgXkzLm1QkhsknTm3GoAFnQYyx",
    "placeName": "benton",
    "state": "IA"
  },
  {
    "city": "castana",
    "state_code": "IA",
    "placeMasterId": "P02500000FsoFDuDyZB585EUEIBpjVWNiZbsBhNZ",
    "placeName": "castana",
    "state": "IA"
  },
  {
    "city": "lester",
    "state_code": "IA",
    "placeMasterId": "P02500000FsoFG2v8c7juOF9qLN10As1UDfLvBZb",
    "placeName": "lester",
    "state": "IA"
  },
  {
    "city": "sibley",
    "state_code": "IA",
    "placeMasterId": "P02500000FsoFI2lp3fou0eaHajqqvjATYORBiqi",
    "placeName": "sibley",
    "state": "IA"
  },
  {
    "city": "estherville",
    "state_code": "IA",
    "placeMasterId": "P02500000FsoFElIqBYXqCpxH73uEySfFqSjsT3z",
    "placeName": "estherville",
    "state": "IA"
  },
  {
    "city": "lake park",
    "state_code": "IA",
    "placeMasterId": "P02500000FsoFFu4f0jA7hdufXYfaGNexiq5cUXT",
    "placeName": "lake park",
    "state": "IA"
  },
  {
    "city": "melvin",
    "state_code": "IA",
    "placeMasterId": "P02500000FsoFGTSZQJTGS2tMko3FuL7NZ1ewvQl",
    "placeName": "melvin",
    "state": "IA"
  },
  {
    "city": "ocheyedan",
    "state_code": "IA",
    "placeMasterId": "P02500000FsoFH2qTptmPCRs3y3QvYIb6Xgbv2fL",
    "placeName": "ocheyedan",
    "state": "IA"
  },
  {
    "city": "ruthven",
    "state_code": "IA",
    "placeMasterId": "P02500000FsoFHl4rqsfKdS5vz7A16kTbIJMGrqr",
    "placeName": "ruthven",
    "state": "IA"
  },
  {
    "city": "kimballton",
    "state_code": "IA",
    "placeMasterId": "P02500000FsoFFu4f0jA7hdufXYfaGNZzICAHKXl",
    "placeName": "kimballton",
    "state": "IA"
  },
  {
    "city": "logan",
    "state_code": "IA",
    "placeMasterId": "P02500000FsoFGBlcDWJh4qP19BMQ5MLJgnl159f",
    "placeName": "logan",
    "state": "IA"
  },
  {
    "city": "modale",
    "state_code": "IA",
    "placeMasterId": "P02500000FsoFGl9Wd6cppFNiMQk5jJqMJoIO5A2",
    "placeName": "modale",
    "state": "IA"
  },
  {
    "city": "shelby",
    "state_code": "IA",
    "placeMasterId": "P02500000FsoFI2lp3fou0eaHajqqvjAHRZV4Ft3",
    "placeName": "shelby",
    "state": "IA"
  },
  {
    "city": "shenandoah",
    "state_code": "IA",
    "placeMasterId": "P02500000FsoFI2lp3fou0eaHajqqvjC0AGmUeXQ",
    "placeName": "shenandoah",
    "state": "IA"
  },
  {
    "city": "strawberry point",
    "state_code": "IA",
    "placeMasterId": "P02500000FsoFIKSmGSyTNr4dCMXgkhuRKHJei5D",
    "placeName": "strawberry point",
    "state": "IA"
  },
  {
    "city": "homestead",
    "state_code": "IA",
    "placeMasterId": "P02500000FsoFFTXECXQldqB987dKWuVW5w7FK6A",
    "placeName": "homestead",
    "state": "IA"
  },
  {
    "city": "keota",
    "state_code": "IA",
    "placeMasterId": "P02500000FsoFFlEBPKaL12fUjkKALtGRCYnZ5ZJ",
    "placeName": "keota",
    "state": "IA"
  },
  {
    "city": "mount auburn",
    "state_code": "IA",
    "placeMasterId": "P02500000FsoFGl9Wd6cppFNiMQk5jJqaGkqV4Vc",
    "placeName": "mount auburn",
    "state": "IA"
  },
  {
    "city": "blakesburg",
    "state_code": "IA",
    "placeMasterId": "P02500000FsoFDTgXkzLm1QkhsknTm3KU6NOJDLs",
    "placeName": "blakesburg",
    "state": "IA"
  },
  {
    "city": "cincinnati",
    "state_code": "IA",
    "placeMasterId": "P02500000FsoFDuDyZB585EUEIBpjVWQxYTp0nqE",
    "placeName": "cincinnati",
    "state": "IA"
  },
  {
    "city": "davenport",
    "state_code": "IA",
    "placeMasterId": "P02500000FsoFEKlPNMoU92DkhcrzEzWs1s9aXUd",
    "placeName": "davenport",
    "state": "IA"
  },
  {
    "city": "horicon",
    "state_code": "WI",
    "placeMasterId": "P02500000FsoH63CdXquLODi4HB1vAGvvzTDXPnC",
    "placeName": "horicon",
    "state": "WI"
  },
  {
    "city": "milwaukee",
    "state_code": "WI",
    "placeMasterId": "P02500000FsoH6lR1YpnGpDvwIEl0iig1pZrPtxd",
    "placeName": "milwaukee",
    "state": "WI"
  },
  {
    "city": "beloit",
    "state_code": "WI",
    "placeMasterId": "P02500000FsoH4TtNuUYhpc19RFEK8skmubv0cfs",
    "placeName": "beloit",
    "state": "WI"
  },
  {
    "city": "cottage grove",
    "state_code": "WI",
    "placeMasterId": "P02500000FsoHET8o8Exfvf9Lg5PZvAkul9f3elP",
    "placeName": "cottage grove",
    "state": "WI"
  },
  {
    "city": "lodi",
    "state_code": "WI",
    "placeMasterId": "P02500000FsoH6Tk4M2dhS1Ragc4AtjuaO2RazZK",
    "placeName": "lodi",
    "state": "WI"
  },
  {
    "city": "hazel green",
    "state_code": "WI",
    "placeMasterId": "P02500000FsoHEkplL27FIrdhHi6Pk9VIvJq3UFj",
    "placeName": "hazel green",
    "state": "WI"
  },
  {
    "city": "doylestown",
    "state_code": "WI",
    "placeMasterId": "P02500000FsoH5Toj8GbCdojN3veFWJCntsLCxKH",
    "placeName": "doylestown",
    "state": "WI"
  },
  {
    "city": "elroy",
    "state_code": "WI",
    "placeMasterId": "P02500000FsoH5Toj8GbCdojN3veFWJPDV2TOzPx",
    "placeName": "elroy",
    "state": "WI"
  },
  {
    "city": "baileys harbor",
    "state_code": "WI",
    "placeMasterId": "P02500000FsoIfmzhiOHG3iMQcPfCHpA9CrZ43jZ",
    "placeName": "baileys harbor",
    "state": "WI"
  },
  {
    "city": "colby",
    "state_code": "WI",
    "placeMasterId": "P02500000FsoH53HIK4rqa0zqeUbzmqHtQuEA9KT",
    "placeName": "colby",
    "state": "WI"
  },
  {
    "city": "gilman",
    "state_code": "WI",
    "placeMasterId": "P02500000FsoHFT49M10AjrrZIlpVIbLvbevPL2K",
    "placeName": "gilman",
    "state": "WI"
  },
  {
    "city": "granton",
    "state_code": "WI",
    "placeMasterId": "P02500000FsoH5lVgL3km11DifYL5LI6llKgeYx4",
    "placeName": "granton",
    "state": "WI"
  },
  {
    "city": "westboro",
    "state_code": "WI",
    "placeMasterId": "P02500000FsoIkmcPpGTk6jvWjpkpAy7EHfPHLc2",
    "placeName": "westboro",
    "state": "WI"
  },
  {
    "city": "fountain city",
    "state_code": "WI",
    "placeMasterId": "P02500000FsoH5cfCjfAzKPyXrjzfQnkGLHFsQpr",
    "placeName": "fountain city",
    "state": "WI"
  },
  {
    "city": "hillsboro",
    "state_code": "WI",
    "placeMasterId": "P02500000FsoH63CdXquLODi4HB1vAGk53zRplR2",
    "placeName": "hillsboro",
    "state": "WI"
  },
  {
    "city": "readstown",
    "state_code": "WI",
    "placeMasterId": "P02500000FsoH7TfPZogCGE9oJIU6HATyITeOl5R",
    "placeName": "readstown",
    "state": "WI"
  },
  {
    "city": "durand",
    "state_code": "WI",
    "placeMasterId": "P02500000FsoH5KyFWs1PxDUCG7Ipbp2Zv6R3DgM",
    "placeName": "durand",
    "state": "WI"
  },
  {
    "city": "whitehall",
    "state_code": "WI",
    "placeMasterId": "P02500000FsoH8KkHCC8uNpcr8AYbk6rrLObDwkD",
    "placeName": "whitehall",
    "state": "WI"
  },
  {
    "city": "oshkosh",
    "state_code": "WI",
    "placeMasterId": "P02500000FsoH7BySN1Wct1fShfnGSBo1VOoxcGU",
    "placeName": "oshkosh",
    "state": "WI"
  },
  {
    "city": "redgranite",
    "state_code": "WI",
    "placeMasterId": "P02500000FsoH7cVtBDFywpOz76pWBemvqBelE26",
    "placeName": "redgranite",
    "state": "WI"
  },
  {
    "city": "pine city",
    "state_code": "MN",
    "placeMasterId": "P02500000FsoFesCDZ6AXwlkA8f7ii6khbUGNDfb",
    "placeName": "pine city",
    "state": "MN"
  },
  {
    "city": "cokato",
    "state_code": "MN",
    "placeMasterId": "P02500000FsoFc1GfVAcqCkqg4QDMUJGjsGk27Zg",
    "placeName": "cokato",
    "state": "MN"
  },
  {
    "city": "dassel",
    "state_code": "MN",
    "placeMasterId": "P02500000FsoFcIxchxmPZxL1g2uCJHuA0H0Z2Er",
    "placeName": "dassel",
    "state": "MN"
  },
  {
    "city": "fairfax",
    "state_code": "MN",
    "placeMasterId": "P02500000FsoFcaeZukvyx9pNHfb28Gs73N4AVMs",
    "placeName": "fairfax",
    "state": "MN"
  },
  {
    "city": "osseo",
    "state_code": "MN",
    "placeMasterId": "P02500000FsoFejLjxhalGAUzKqmIncIRWyJ3oN6",
    "placeName": "osseo",
    "state": "MN"
  },
  {
    "city": "minneapolis",
    "state_code": "MN",
    "placeMasterId": "P02500000FsoFeIoJ9VrPCMlSvPk349D9alJlgNT",
    "placeName": "minneapolis",
    "state": "MN"
  },
  {
    "city": "cloquet",
    "state_code": "MN",
    "placeMasterId": "P02500000FsoFc1GfVAcqCkqg4QDMUJDKCFPk3Aw",
    "placeName": "cloquet",
    "state": "MN"
  },
  {
    "city": "marble",
    "state_code": "MN",
    "placeMasterId": "P02500000FsoFe9xpY7HcVlWI7bOd9elzbfHQW8W",
    "placeName": "marble",
    "state": "MN"
  },
  {
    "city": "adams",
    "state_code": "MN",
    "placeMasterId": "P02500000FsoFbABnsnA859NdFY8r1MxLmU1AoJZ",
    "placeName": "adams",
    "state": "MN"
  },
  {
    "city": "lyle",
    "state_code": "MN",
    "placeMasterId": "P02500000FsoFe17LwihppAH7Jn3DFAXUrKYde8Y",
    "placeName": "lyle",
    "state": "MN"
  },
  {
    "city": "wanamingo",
    "state_code": "MN",
    "placeMasterId": "P02500000FsoFg0y2OGmpRZhYZ9t401fMRUNQ10K",
    "placeName": "wanamingo",
    "state": "MN"
  },
  {
    "city": "alden",
    "state_code": "MN",
    "placeMasterId": "P02500000FsoFb1LKHOaLOY8SRjnR6spSiOVDd8Y",
    "placeName": "alden",
    "state": "MN"
  },
  {
    "city": "granada",
    "state_code": "MN",
    "placeMasterId": "P02500000FsoFd1C0iwfL0xYth6dHrjtl93MbC47",
    "placeName": "granada",
    "state": "MN"
  },
  {
    "city": "henderson",
    "state_code": "MN",
    "placeMasterId": "P02500000FsoFdIsxvjouOA3FIjK7giVUyXGtA3B",
    "placeName": "henderson",
    "state": "MN"
  },
  {
    "city": "new richland",
    "state_code": "MN",
    "placeMasterId": "P02500000FsoFeaVGMJ0yZZFoX2Qst7xJOghayx3",
    "placeName": "new richland",
    "state": "MN"
  },
  {
    "city": "nicollet",
    "state_code": "MN",
    "placeMasterId": "P02500000FsoFejLjxhalGAUzKqmIncDXECkMxBw",
    "placeName": "nicollet",
    "state": "MN"
  },
  {
    "city": "waldorf",
    "state_code": "MN",
    "placeMasterId": "P02500000FsoFg0y2OGmpRZhYZ9t401iifksr0ya",
    "placeName": "waldorf",
    "state": "MN"
  },
  {
    "city": "chandler",
    "state_code": "MN",
    "placeMasterId": "P02500000FsoFbsQBtm33W9bVGbrwZp14m1It8mV",
    "placeName": "chandler",
    "state": "MN"
  },
  {
    "city": "ivanhoe",
    "state_code": "MN",
    "placeMasterId": "P02500000FsoFdRjRX8Oh4lIQ6XfXbD1bWqRNX1s",
    "placeName": "ivanhoe",
    "state": "MN"
  },
  {
    "city": "lakefield",
    "state_code": "MN",
    "placeMasterId": "P02500000FsoFdjQOjvYGRxmliAMNQBePC9PICkx",
    "placeName": "lakefield",
    "state": "MN"
  },
  {
    "city": "storden",
    "state_code": "MN",
    "placeMasterId": "P02500000FsoFfjH5BTdG4NDCxXCEB35GnDtq92g",
    "placeName": "storden",
    "state": "MN"
  },
  {
    "city": "atwater",
    "state_code": "MN",
    "placeMasterId": "P02500000FsoFbABnsnA859NdFY8r1N8XXKgZ0I1",
    "placeName": "atwater",
    "state": "MN"
  },
  {
    "city": "chokio",
    "state_code": "MN",
    "placeMasterId": "P02500000FsoFc1GfVAcqCkqg4QDMUJDVg54WsWm",
    "placeName": "chokio",
    "state": "MN"
  },
  {
    "city": "raymond",
    "state_code": "MN",
    "placeMasterId": "P02500000FsoFf12hAUkKdMzKwTT8cb7cVG0C1d3",
    "placeName": "raymond",
    "state": "MN"
  },
  {
    "city": "spicer",
    "state_code": "MN",
    "placeMasterId": "P02500000FsoFfaQba53TNly29iqoGYaCw8VO0y7",
    "placeName": "spicer",
    "state": "MN"
  },
  {
    "city": "garfield",
    "state_code": "MN",
    "placeMasterId": "P02500000FsoFcsLX7Y5YKMJitIHrxFPCc67Vy3c",
    "placeName": "garfield",
    "state": "MN"
  },
  {
    "city": "jenkins",
    "state_code": "MN",
    "placeMasterId": "P02500000FsoFdRjRX8Oh4lIQ6XfXbD77fA66brR",
    "placeName": "jenkins",
    "state": "MN"
  },
  {
    "city": "breckenridge",
    "state_code": "MN",
    "placeMasterId": "P02500000FsoFbajEgytU8x79ezB6kqEr0XN88MZ",
    "placeName": "breckenridge",
    "state": "MN"
  },
  {
    "city": "fergus falls",
    "state_code": "MN",
    "placeMasterId": "P02500000FsoFcjV3W9Vldl4Y5TwS2l1Z3gihGWb",
    "placeName": "fergus falls",
    "state": "MN"
  },
  {
    "city": "hawley",
    "state_code": "MN",
    "placeMasterId": "P02500000FsoFdA2UKLF7hYo4UuyhmEKJV1ki8y9",
    "placeName": "hawley",
    "state": "MN"
  },
  {
    "city": "angle inlet",
    "state_code": "MN",
    "placeMasterId": "P02500000FsoFbABnsnA859NdFY8r1N6IRKIEQr8",
    "placeName": "angle inlet",
    "state": "MN"
  },
  {
    "city": "lennox",
    "state_code": "SD",
    "placeMasterId": "P02500000FsoGeegxjk5ZSsic1GhgEDWSPSrMFNI",
    "placeName": "lennox",
    "state": "SD"
  },
  {
    "city": "olivet",
    "state_code": "SD",
    "placeMasterId": "P02500000FsoGewNuwXF8q5CxctOW3CECtWekCZv",
    "placeName": "olivet",
    "state": "SD"
  },
  {
    "city": "sioux falls",
    "state_code": "SD",
    "placeMasterId": "P02500000FsoGfE4s9KOiDHhJEW5LsAy2czuKme9",
    "placeName": "sioux falls",
    "state": "SD"
  },
  {
    "city": "bryant",
    "state_code": "SD",
    "placeMasterId": "P02500000FsoGdnc67McrLHFZCOdAlHEb3ROod03",
    "placeName": "bryant",
    "state": "SD"
  },
  {
    "city": "frankfort",
    "state_code": "SD",
    "placeMasterId": "P02500000FsoGeE9WvYMDP4z5bpfQUkSJFLQgIzu",
    "placeName": "frankfort",
    "state": "SD"
  },
  {
    "city": "hecla",
    "state_code": "SD",
    "placeMasterId": "P02500000FsoGeN00Www05gEGPe0qPEo7Fy5IDfn",
    "placeName": "hecla",
    "state": "SD"
  },
  {
    "city": "ipswich",
    "state_code": "SD",
    "placeMasterId": "P02500000FsoGeVqU8LVmmHTRDSMGJj7C2ceFBt1",
    "placeName": "ipswich",
    "state": "SD"
  },
  {
    "city": "pierpont",
    "state_code": "SD",
    "placeMasterId": "P02500000FsoGf5EOXvovWgS8QhjvxggZr2yeIny",
    "placeName": "pierpont",
    "state": "SD"
  },
  {
    "city": "selby",
    "state_code": "SD",
    "placeMasterId": "P02500000FsoGfE4s9KOiDHhJEW5LsB52PXkqzgs",
    "placeName": "selby",
    "state": "SD"
  },
  {
    "city": "mobridge",
    "state_code": "SD",
    "placeMasterId": "P02500000FsoGenXRL8fM9Txmp5368huseZ9Og9o",
    "placeName": "mobridge",
    "state": "SD"
  },
  {
    "city": "dupree",
    "state_code": "SD",
    "placeMasterId": "P02500000FsoGe5J3K9mQiTjuo1K0aFyC2dsOgqn",
    "placeName": "dupree",
    "state": "SD"
  },
  {
    "city": "herreid",
    "state_code": "SD",
    "placeMasterId": "P02500000FsoGeN00Www05gEGPe0qPEhqObqcg74",
    "placeName": "herreid",
    "state": "SD"
  },
  {
    "city": "rapid city",
    "state_code": "SD",
    "placeMasterId": "P02500000FsoGfE4s9KOiDHhJEW5LsAx3cR9wHuM",
    "placeName": "rapid city",
    "state": "SD"
  },
  {
    "city": "pringle",
    "state_code": "SD",
    "placeMasterId": "P02500000FsoGewNuwXF8q5CxctOW3CMGcck9Gcz",
    "placeName": "pringle",
    "state": "SD"
  },
  {
    "city": "mcleod",
    "state_code": "ND",
    "placeMasterId": "P02500000FsoGBY1YgsLNIKn47cEQMHhmCwtmVO4",
    "placeName": "mcleod",
    "state": "ND"
  },
  {
    "city": "mantador",
    "state_code": "ND",
    "placeMasterId": "P02500000FsoGBY1YgsLNIKn47cEQMHsXGuDzaEa",
    "placeName": "mantador",
    "state": "ND"
  },
  {
    "city": "mapleton",
    "state_code": "ND",
    "placeMasterId": "P02500000FsoGBgs2IGv9yw2EvQZqGm0bBby2jGK",
    "placeName": "mapleton",
    "state": "ND"
  },
  {
    "city": "fargo",
    "state_code": "ND",
    "placeMasterId": "P02500000FsoGApnAftSRrKZC6YVKnpnJRNiYL2k",
    "placeName": "fargo",
    "state": "ND"
  },
  {
    "city": "grand forks afb",
    "state_code": "ND",
    "placeMasterId": "P02500000FsoGAydeHI2EXvoMuMqkiKNH1N6PS9O",
    "placeName": "grand forks afb",
    "state": "ND"
  },
  {
    "city": "hatton",
    "state_code": "ND",
    "placeMasterId": "P02500000FsoGBGKbU5Bnv8IiVzXaXJ0ECf3EYFY",
    "placeName": "hatton",
    "state": "ND"
  },
  {
    "city": "milton",
    "state_code": "ND",
    "placeMasterId": "P02500000FsoGBgs2IGv9yw2EvQZqGm7onfMajFy",
    "placeName": "milton",
    "state": "ND"
  },
  {
    "city": "thompson",
    "state_code": "ND",
    "placeMasterId": "P02500000FsoGCGFwhrEIjL0w8fxVujciLmjMUbu",
    "placeName": "thompson",
    "state": "ND"
  },
  {
    "city": "maddock",
    "state_code": "ND",
    "placeMasterId": "P02500000FsoGBY1YgsLNIKn47cEQMHu3REyCJDO",
    "placeName": "maddock",
    "state": "ND"
  },
  {
    "city": "new rockford",
    "state_code": "ND",
    "placeMasterId": "P02500000FsoGBpiVtfUwfXHPjEvGBGPP3o0HjUW",
    "placeName": "new rockford",
    "state": "ND"
  },
  {
    "city": "oberon",
    "state_code": "ND",
    "placeMasterId": "P02500000FsoGBpiVtfUwfXHPjEvGBGb0WeKdNKh",
    "placeName": "oberon",
    "state": "ND"
  },
  {
    "city": "lamoure",
    "state_code": "ND",
    "placeMasterId": "P02500000FsoGBPB55TlabjXtJnt0RnNHbFYbEor",
    "placeName": "lamoure",
    "state": "ND"
  },
  {
    "city": "litchville",
    "state_code": "ND",
    "placeMasterId": "P02500000FsoGBY1YgsLNIKn47cEQMHk5a6kYFtL",
    "placeName": "litchville",
    "state": "ND"
  },
  {
    "city": "selfridge",
    "state_code": "ND",
    "placeMasterId": "P02500000FsoGC7PT6SeW2jllKrc60FJMXE0CqoP",
    "placeName": "selfridge",
    "state": "ND"
  },
  {
    "city": "dickinson",
    "state_code": "ND",
    "placeMasterId": "P02500000FsoGAY6DT6IsU84qUvoUyrGuYs7tVtq",
    "placeName": "dickinson",
    "state": "ND"
  },
  {
    "city": "burlington",
    "state_code": "ND",
    "placeMasterId": "P02500000FsoGAPFjrhj5nWpfh7T54MmqV0k1ywk",
    "placeName": "burlington",
    "state": "ND"
  },
  {
    "city": "wales",
    "state_code": "MA",
    "placeMasterId": "P02500000FsoHeRBhuO0ayzh3tsHdkKFtn0pqG0c",
    "placeName": "wales",
    "state": "MA"
  },
  {
    "city": "pittsfield",
    "state_code": "MA",
    "placeMasterId": "P02500000FsoFWb6Wa6h05vY3XZ5TrhIO4o8Yxdc",
    "placeName": "pittsfield",
    "state": "MA"
  },
  {
    "city": "westminster",
    "state_code": "MA",
    "placeMasterId": "P02500000FsoHea2BVmaNfawEhgd3eogIQIRC0vV",
    "placeName": "westminster",
    "state": "MA"
  }
]