[
  {
    "city": "bolton landing",
    "state_code": "NY",
    "placeMasterId": "P02500000FsoG18EhewD38TvLTL0uqWeMDUCTnWx",
    "placeName": "bolton landing",
    "state": "NY"
  },
  {
    "city": "johnsburg",
    "state_code": "NY",
    "placeMasterId": "P02500000FsoIFFYtWevCFyq1BNPSoiBmYs0k3se",
    "placeName": "johnsburg",
    "state": "NY"
  },
  {
    "city": "salem",
    "state_code": "NY",
    "placeMasterId": "P02500000FsoHDc3wVrUxo3gIrDL4SEOSOiIO0Sf",
    "placeName": "salem",
    "state": "NY"
  },
  {
    "city": "saratoga springs",
    "state_code": "NY",
    "placeMasterId": "P02500000FsoG4hOdjqdgJV2hYdeMclxuXm1O8f9",
    "placeName": "saratoga springs",
    "state": "NY"
  },
  {
    "city": "saranac",
    "state_code": "NY",
    "placeMasterId": "P02500000FsoIGXBBxE7GRO2aPgWE17UIwN3povF",
    "placeName": "saranac",
    "state": "NY"
  },
  {
    "city": "little falls",
    "state_code": "NY",
    "placeMasterId": "P02500000FsoG3GvrhsrpRUaxWWCBVsHK2wUJPfV",
    "placeName": "little falls",
    "state": "NY"
  },
  {
    "city": "old forge",
    "state_code": "NY",
    "placeMasterId": "P02500000FsoG480jKGKXZ640LOGgyoQl7reW7Ti",
    "placeName": "old forge",
    "state": "NY"
  },
  {
    "city": "verona",
    "state_code": "NY",
    "placeMasterId": "P02500000FsoIH6Z6MoQPBn1Hcvttf4yBP8rITlG",
    "placeName": "verona",
    "state": "NY"
  },
  {
    "city": "carthage",
    "state_code": "NY",
    "placeMasterId": "P02500000FsoG1PverjMcVgPh4xhkfVNojZSUx7d",
    "placeName": "carthage",
    "state": "NY"
  },
  {
    "city": "andes",
    "state_code": "NY",
    "placeMasterId": "P02500000FsoHCBbATtj6w3EYp5stLKp0KKLrvTn",
    "placeName": "andes",
    "state": "NY"
  },
  {
    "city": "endicott",
    "state_code": "NY",
    "placeMasterId": "P02500000FsoG28A2siFXwgdZ61QqDxBRwSE3LNN",
    "placeName": "endicott",
    "state": "NY"
  },
  {
    "city": "harpersfield",
    "state_code": "NY",
    "placeMasterId": "P02500000FsoIF6iPvGLPZNaqNZ42uDgsVhDP0K1",
    "placeName": "harpersfield",
    "state": "NY"
  },
  {
    "city": "masonville",
    "state_code": "NY",
    "placeMasterId": "P02500000FsoIFg6KKqeYJmZXaoRiYBDN5XV2QOd",
    "placeName": "masonville",
    "state": "NY"
  },
  {
    "city": "willet",
    "state_code": "NY",
    "placeMasterId": "P02500000FsoIHFPZyD0BsOGSQkFJZZPttZK5evO",
    "placeName": "willet",
    "state": "NY"
  },
  {
    "city": "silver creek",
    "state_code": "NY",
    "placeMasterId": "P02500000FsoG4z5awdnFghX3AGLCRkXuAYlmKbb",
    "placeName": "silver creek",
    "state": "NY"
  },
  {
    "city": "yorkshire",
    "state_code": "NY",
    "placeMasterId": "P02500000FsoHBtuDH6ZXYqkDDTC3WM7zxxJwo9p",
    "placeName": "yorkshire",
    "state": "NY"
  },
  {
    "city": "buffalo",
    "state_code": "NY",
    "placeMasterId": "P02500000FsoG1H5BGKmpp5AWH9MKl12AT3E2vOM",
    "placeName": "buffalo",
    "state": "NY"
  },
  {
    "city": "niagara falls",
    "state_code": "NY",
    "placeMasterId": "P02500000FsoG3qJm7TAyBtZejlZr9poKSoSQyCo",
    "placeName": "niagara falls",
    "state": "NY"
  },
  {
    "city": "brockport",
    "state_code": "NY",
    "placeMasterId": "P02500000FsoG1H5BGKmpp5AWH9MKl17BXcsabuI",
    "placeName": "brockport",
    "state": "NY"
  },
  {
    "city": "silver springs",
    "state_code": "NY",
    "placeMasterId": "P02500000FsoG4z5awdnFghX3AGLCRkZIkgCLVZk",
    "placeName": "silver springs",
    "state": "NY"
  },
  {
    "city": "rochester",
    "state_code": "NY",
    "placeMasterId": "P02500000FsoG4YYA8S3tctnWkpIwiHXc7FWLpT6",
    "placeName": "rochester",
    "state": "NY"
  },
  {
    "city": "randolph",
    "state_code": "NY",
    "placeMasterId": "P02500000FsoHBtuDH6ZXYqkDDTC3WM6DKBqhwNS",
    "placeName": "randolph",
    "state": "NY"
  },
  {
    "city": "greenock",
    "state_code": "PA",
    "placeMasterId": "P02500000FsoGTxD9V0nfvpMXlMnKtTiHmaTkKcx",
    "placeName": "greenock",
    "state": "PA"
  },
  {
    "city": "new brighton",
    "state_code": "PA",
    "placeMasterId": "P02500000FsoGWfIDxXlazF0r1nMHCmgLqNoGGMa",
    "placeName": "new brighton",
    "state": "PA"
  },
  {
    "city": "carnegie",
    "state_code": "PA",
    "placeMasterId": "P02500000FsoGRoVzS48tcogviBc4E7zgLkYkfVO",
    "placeName": "carnegie",
    "state": "PA"
  },
  {
    "city": "duquesne",
    "state_code": "PA",
    "placeMasterId": "P02500000FsoGSfar4RbbkQ9yX3gZh4MQGuqVKDW",
    "placeName": "duquesne",
    "state": "PA"
  },
  {
    "city": "lemont furnace",
    "state_code": "PA",
    "placeMasterId": "P02500000FsoGVNfvWyZWnpoHnUFW0NH6CccLP0b",
    "placeName": "lemont furnace",
    "state": "PA"
  },
  {
    "city": "ronco",
    "state_code": "PA",
    "placeMasterId": "P02500000FsoGYEbTau7EXqhlrj9sEAm5WZReyv8",
    "placeName": "ronco",
    "state": "PA"
  },
  {
    "city": "stockdale",
    "state_code": "PA",
    "placeMasterId": "P02500000FsoGZEWoog9jM3PzUPZnbbS3ztyBZzv",
    "placeName": "stockdale",
    "state": "PA"
  },
  {
    "city": "garrett",
    "state_code": "PA",
    "placeMasterId": "P02500000FsoGTfWCIDe6YcsC9k6V4UyEcfErHiM",
    "placeName": "garrett",
    "state": "PA"
  },
  {
    "city": "leechburg",
    "state_code": "PA",
    "placeMasterId": "P02500000FsoGVNfvWyZWnpoHnUFW0NQE3pdst6E",
    "placeName": "leechburg",
    "state": "PA"
  },
  {
    "city": "cherry tree",
    "state_code": "PA",
    "placeMasterId": "P02500000FsoGRoVzS48tcogviBc4E86Kzen6Dz3",
    "placeName": "cherry tree",
    "state": "PA"
  },
  {
    "city": "elderton",
    "state_code": "PA",
    "placeMasterId": "P02500000FsoGSxHoHElB7ceK8gNPW36LKxEGqva",
    "placeName": "elderton",
    "state": "PA"
  },
  {
    "city": "ebensburg",
    "state_code": "PA",
    "placeMasterId": "P02500000FsoGSxHoHElB7ceK8gNPW33a0FmmmjD",
    "placeName": "ebensburg",
    "state": "PA"
  },
  {
    "city": "eau claire",
    "state_code": "PA",
    "placeMasterId": "P02500000FsoGSxHoHElB7ceK8gNPW2zQumu7k9Q",
    "placeName": "eau claire",
    "state": "PA"
  },
  {
    "city": "foxburg",
    "state_code": "PA",
    "placeMasterId": "P02500000FsoGTWfigp4Js1d1Lvl5A0YlqYsxIUf",
    "placeName": "foxburg",
    "state": "PA"
  },
  {
    "city": "clark",
    "state_code": "PA",
    "placeMasterId": "P02500000FsoGRxMT3SigJPw6VzxU8cUJTv3Mv00",
    "placeName": "clark",
    "state": "PA"
  },
  {
    "city": "hawthorn",
    "state_code": "PA",
    "placeMasterId": "P02500000FsoGUEu6hnxFJ1qtMzUAiSLt4NDqTpY",
    "placeName": "hawthorn",
    "state": "PA"
  },
  {
    "city": "columbus",
    "state_code": "PA",
    "placeMasterId": "P02500000FsoGSF3QGFsFgcQS7ceJxb5SumOHT0Y",
    "placeName": "columbus",
    "state": "PA"
  },
  {
    "city": "conneautville",
    "state_code": "PA",
    "placeMasterId": "P02500000FsoGSF3QGFsFgcQS7ceJxb6W20dEKUr",
    "placeName": "conneautville",
    "state": "PA"
  },
  {
    "city": "chest springs",
    "state_code": "PA",
    "placeMasterId": "P02500000FsoGRxMT3SigJPw6VzxU8cRt7qb4r4o",
    "placeName": "chest springs",
    "state": "PA"
  },
  {
    "city": "duncansville",
    "state_code": "PA",
    "placeMasterId": "P02500000FsoGSfar4RbbkQ9yX3gZh4RQXqz2As1",
    "placeName": "duncansville",
    "state": "PA"
  },
  {
    "city": "state college",
    "state_code": "PA",
    "placeMasterId": "P02500000FsoGZEWoog9jM3PzUPZnbbV5xEIqcbj",
    "placeName": "state college",
    "state": "PA"
  },
  {
    "city": "morrisdale",
    "state_code": "PA",
    "placeMasterId": "P02500000FsoGWNbGkkc1c2WVQAfRNnv0goT1LYP",
    "placeName": "morrisdale",
    "state": "PA"
  },
  {
    "city": "mcalisterville",
    "state_code": "PA",
    "placeMasterId": "P02500000FsoGVfMsjlj6B2IdP6wLpM542VcjsBt",
    "placeName": "mcalisterville",
    "state": "PA"
  },
  {
    "city": "new cumberland",
    "state_code": "PA",
    "placeMasterId": "P02500000FsoGWo8hYwLNfqG1pbhh7H3ETwJ8tJq",
    "placeName": "new cumberland",
    "state": "PA"
  },
  {
    "city": "fawn grove",
    "state_code": "PA",
    "placeMasterId": "P02500000FsoGTNpF5QUXBQNqY7PfFW8asFlOI7I",
    "placeName": "fawn grove",
    "state": "PA"
  },
  {
    "city": "willow street",
    "state_code": "PA",
    "placeMasterId": "P02500000FsoGaezaqdvaE3rjWX1yiV9LaMHb1PF",
    "placeName": "willow street",
    "state": "PA"
  },
  {
    "city": "milton",
    "state_code": "PA",
    "placeMasterId": "P02500000FsoGWEkn9M2EvRHKcMK1TJbiS06WXtR",
    "placeName": "milton",
    "state": "PA"
  },
  {
    "city": "trevorton",
    "state_code": "PA",
    "placeMasterId": "P02500000FsoGZnujEGSs6SOghexTFYpKN8p8otp",
    "placeName": "trevorton",
    "state": "PA"
  },
  {
    "city": "orwigsburg",
    "state_code": "PA",
    "placeMasterId": "P02500000FsoGXEg8N84jjdzYF2jwqkKiUYGGbLp",
    "placeName": "orwigsburg",
    "state": "PA"
  },
  {
    "city": "schuylkill haven",
    "state_code": "PA",
    "placeMasterId": "P02500000FsoGYWIQnhGnv3C7TLqi39Xihz9K4im",
    "placeName": "schuylkill haven",
    "state": "PA"
  },
  {
    "city": "tower city",
    "state_code": "PA",
    "placeMasterId": "P02500000FsoGZf4Fcrt5Pr9Vtqc3L4ddzIvSq17",
    "placeName": "tower city",
    "state": "PA"
  },
  {
    "city": "tuscarora",
    "state_code": "PA",
    "placeMasterId": "P02500000FsoGZnujEGSs6SOghexTFYs4nxtc8Qj",
    "placeName": "tuscarora",
    "state": "PA"
  },
  {
    "city": "effort",
    "state_code": "PA",
    "placeMasterId": "P02500000FsoGSxHoHElB7ceK8gNPW33pkASNXx7",
    "placeName": "effort",
    "state": "PA"
  },
  {
    "city": "mountainhome",
    "state_code": "PA",
    "placeMasterId": "P02500000FsoGWNbGkkc1c2WVQAfRNo0n4jI5Lm9",
    "placeName": "mountainhome",
    "state": "PA"
  },
  {
    "city": "brookhaven",
    "state_code": "PA",
    "placeMasterId": "P02500000FsoGRNyYdsPXZ0xPIkZoUez7G4PtZzs",
    "placeName": "brookhaven",
    "state": "PA"
  },
  {
    "city": "drexel hill",
    "state_code": "PA",
    "placeMasterId": "P02500000FsoGSfar4RbbkQ9yX3gZh4EfDQ4fmYH",
    "placeName": "drexel hill",
    "state": "PA"
  },
  {
    "city": "glenside",
    "state_code": "PA",
    "placeMasterId": "P02500000FsoGToMftcDtFE7MxYRuyzPZ2OwsSHI",
    "placeName": "glenside",
    "state": "PA"
  },
  {
    "city": "philadelphia",
    "state_code": "PA",
    "placeMasterId": "P02500000FsoGXWN5ZvEJ6qTtqfQmfiyVODy6MPW",
    "placeName": "philadelphia",
    "state": "PA"
  },
  {
    "city": "philadelphia",
    "state_code": "PA",
    "placeMasterId": "P02500000FsoGXWN5ZvEJ6qTtqfQmfiyVODy6MPW",
    "placeName": "philadelphia",
    "state": "PA"
  },
  {
    "city": "philadelphia",
    "state_code": "PA",
    "placeMasterId": "P02500000FsoGXWN5ZvEJ6qTtqfQmfiyVODy6MPW",
    "placeName": "philadelphia",
    "state": "PA"
  },
  {
    "city": "mohnton",
    "state_code": "PA",
    "placeMasterId": "P02500000FsoGWNbGkkc1c2WVQAfRNnsdaSR4T2d",
    "placeName": "mohnton",
    "state": "PA"
  },
  {
    "city": "new berlinville",
    "state_code": "PA",
    "placeMasterId": "P02500000FsoGWfIDxXlazF0r1nMHCmfQakbqs07",
    "placeName": "new berlinville",
    "state": "PA"
  },
  {
    "city": "newark",
    "state_code": "DE",
    "placeMasterId": "P02500000FsoEpnBHdBXPxi7mVxS6WjgBdcgmBIC",
    "placeName": "newark",
    "state": "DE"
  },
  {
    "city": "washington",
    "state_code": "DC",
    "placeMasterId": "P02500000FsoEq4sEpygzKuc87a8wLiQYg142PzN",
    "placeName": "washington",
    "state": "DC"
  },
  {
    "city": "washington",
    "state_code": "DC",
    "placeMasterId": "P02500000FsoEq4sEpygzKuc87a8wLiQYg142PzN",
    "placeName": "washington",
    "state": "DC"
  },
  {
    "city": "warrenton",
    "state_code": "VA",
    "placeMasterId": "P02500000FsoGxuxQAG0aDyl8TtL6ELm6GtlIkDU",
    "placeName": "warrenton",
    "state": "VA"
  },
  {
    "city": "washington",
    "state_code": "DC",
    "placeMasterId": "P02500000FsoEq4sEpygzKuc87a8wLiQYg142PzN",
    "placeName": "washington",
    "state": "DC"
  },
  {
    "city": "waldorf",
    "state_code": "MD",
    "placeMasterId": "P02500000FsoFWAZ5luxe27oX883E8DuydyscPeG",
    "placeName": "waldorf",
    "state": "MD"
  },
  {
    "city": "deale",
    "state_code": "MD",
    "placeMasterId": "P02500000FsoFU1rviyIrj78v4wrxSsRaCRILGsi",
    "placeName": "deale",
    "state": "MD"
  },
  {
    "city": "columbia",
    "state_code": "MD",
    "placeMasterId": "P02500000FsoFTt1S7Zj52VtkH8WXYOEwCcMwnjR",
    "placeName": "columbia",
    "state": "MD"
  },
  {
    "city": "odenton",
    "state_code": "MD",
    "placeMasterId": "P02500000FsoFVJUE9XUvuWLUJFyifHm7mFNWXfg",
    "placeName": "odenton",
    "state": "MD"
  },
  {
    "city": "catonsville",
    "state_code": "MD",
    "placeMasterId": "P02500000FsoFTkAyWB9ILueZTKB7dtn47MEh54y",
    "placeName": "catonsville",
    "state": "MD"
  },
  {
    "city": "baltimore",
    "state_code": "MD",
    "placeMasterId": "P02500000FsoFTSU1JNziyiADrhUHous91WaBH4V",
    "placeName": "baltimore",
    "state": "MD"
  },
  {
    "city": "frostburg",
    "state_code": "MD",
    "placeMasterId": "P02500000FsoFUSPMXA2DmusRUNuDCLTSHuKHHYc",
    "placeName": "frostburg",
    "state": "MD"
  },
  {
    "city": "mount savage",
    "state_code": "MD",
    "placeMasterId": "P02500000FsoFVAdkY8v9Dv6JVRdIknbMhgKGzbd",
    "placeName": "mount savage",
    "state": "MD"
  },
  {
    "city": "galena",
    "state_code": "MD",
    "placeMasterId": "P02500000FsoFUJYsvlSR6JdGgZYnHrKWtJSJHtN",
    "placeName": "galena",
    "state": "MD"
  },
  {
    "city": "smithsburg",
    "state_code": "MD",
    "placeMasterId": "P02500000FsoFVk1exjEHyK50ih0yOl1imaLpUvn",
    "placeName": "smithsburg",
    "state": "MD"
  },
  {
    "city": "dayton",
    "state_code": "VA",
    "placeMasterId": "P02500000FsoGvUZIuWCEXlbAp5Szk1INas3AugE",
    "placeName": "dayton",
    "state": "VA"
  },
  {
    "city": "mandaree",
    "state_code": "ND",
    "placeMasterId": "P02500000FsoGBY1YgsLNIKn47cEQMHnUCKPaO7y",
    "placeName": "mandaree",
    "state": "ND"
  },
  {
    "city": "martin",
    "state_code": "ND",
    "placeMasterId": "P02500000FsoGBY1YgsLNIKn47cEQMHqVvq9O5pK",
    "placeName": "martin",
    "state": "ND"
  },
  {
    "city": "portal",
    "state_code": "ND",
    "placeMasterId": "P02500000FsoGByYzV44jM8WaX3Gg5kudSfrk2oW",
    "placeName": "portal",
    "state": "ND"
  },
  {
    "city": "wolf point",
    "state_code": "MT",
    "placeMasterId": "P02500000FsoFqiRqd04iyd3cp3nPKlbwIfWwg4a",
    "placeName": "wolf point",
    "state": "MT"
  },
  {
    "city": "brady",
    "state_code": "MT",
    "placeMasterId": "P02500000FsoForRdmqZW2osMNVIyUOadakqgEKX",
    "placeName": "brady",
    "state": "MT"
  },
  {
    "city": "alder",
    "state_code": "MT",
    "placeMasterId": "P02500000FsoFoibABRzjMDdBZgxYZuHXhXCp9QQ",
    "placeName": "alder",
    "state": "MT"
  },
  {
    "city": "huson",
    "state_code": "MT",
    "placeMasterId": "P02500000FsoFpZg1npSRTp6EOZ242qfbcW2CNdz",
    "placeName": "huson",
    "state": "MT"
  },
  {
    "city": "barrington",
    "state_code": "IL",
    "placeMasterId": "P02500000FsoF1dQuh5RazZRFCM7n9ORYKVGBIO1",
    "placeName": "barrington",
    "state": "IL"
  },
  {
    "city": "fox lake",
    "state_code": "IL",
    "placeMasterId": "P02500000FsoF3UR7XEwnvNcVducDzlLVVMYRboa",
    "placeName": "fox lake",
    "state": "IL"
  },
  {
    "city": "golf",
    "state_code": "IL",
    "placeMasterId": "P02500000FsoF3uyYLQg9zBM23LeTjERFB7Yfv6l",
    "placeName": "golf",
    "state": "IL"
  },
  {
    "city": "mchenry",
    "state_code": "IL",
    "placeMasterId": "P02500000FsoF5LRKNOS0rBnm5T6eq88Yiaf8drr",
    "placeName": "mchenry",
    "state": "IL"
  },
  {
    "city": "wheeling",
    "state_code": "IL",
    "placeMasterId": "P02500000FsoF8lkmquIrLbfxMxOght2BrpUVGt5",
    "placeName": "wheeling",
    "state": "IL"
  },
  {
    "city": "west chicago",
    "state_code": "IL",
    "placeMasterId": "P02500000FsoF8cuJFVj4f0QmZ93GnOhrlISAcFD",
    "placeName": "west chicago",
    "state": "IL"
  },
  {
    "city": "chicago ridge",
    "state_code": "IL",
    "placeMasterId": "P02500000FsoF2LfIi4KWQZf7DPqshqMqBbPOYiF",
    "placeName": "chicago ridge",
    "state": "IL"
  },
  {
    "city": "harvey",
    "state_code": "IL",
    "placeMasterId": "P02500000FsoF4CfVYDpjMNqNeyLJYD9ItsgJ3l4",
    "placeName": "harvey",
    "state": "IL"
  },
  {
    "city": "hickory hills",
    "state_code": "IL",
    "placeMasterId": "P02500000FsoF4CfVYDpjMNqNeyLJYDCGlQ8tAbl",
    "placeName": "hickory hills",
    "state": "IL"
  },
  {
    "city": "aurora",
    "state_code": "IL",
    "placeMasterId": "P02500000FsoF1UaR5groIyC4OXmNEu6g7d0TmeM",
    "placeName": "aurora",
    "state": "IL"
  },
  {
    "city": "newark",
    "state_code": "IL",
    "placeMasterId": "P02500000FsoF6CWBzluiynGouLBAJ4Kcd0prA27",
    "placeName": "newark",
    "state": "IL"
  },
  {
    "city": "shabbona",
    "state_code": "IL",
    "placeMasterId": "P02500000FsoF7cyy1jgZqniYwSdLPy7bHPan7IU",
    "placeName": "shabbona",
    "state": "IL"
  },
  {
    "city": "westmont",
    "state_code": "IL",
    "placeMasterId": "P02500000FsoF8lkmquIrLbfxMxOght0qaEIVUR7",
    "placeName": "westmont",
    "state": "IL"
  },
  {
    "city": "chicago",
    "state_code": "IL",
    "placeMasterId": "P02500000FsoF2LfIi4KWQZf7DPqshqNB04VNil1",
    "placeName": "chicago",
    "state": "IL"
  },
  {
    "city": "chicago",
    "state_code": "IL",
    "placeMasterId": "P02500000FsoF2LfIi4KWQZf7DPqshqNB04VNil1",
    "placeName": "chicago",
    "state": "IL"
  },
  {
    "city": "elmwood park",
    "state_code": "IL",
    "placeMasterId": "P02500000FsoF3CkAKRnEYB8A2HvOAmZxNwOqVoj",
    "placeName": "elmwood park",
    "state": "IL"
  },
  {
    "city": "ashkum",
    "state_code": "IL",
    "placeMasterId": "P02500000FsoF1LjxUII1cMwtajQxKPipuvLCl6D",
    "placeName": "ashkum",
    "state": "IL"
  },
  {
    "city": "wellington",
    "state_code": "IL",
    "placeMasterId": "P02500000FsoF8cuJFVj4f0QmZ93GnOh51u9snKj",
    "placeName": "wellington",
    "state": "IL"
  },
  {
    "city": "apple river",
    "state_code": "IL",
    "placeMasterId": "P02500000FsoF1LjxUII1cMwtajQxKPjl7zAIQG7",
    "placeName": "apple river",
    "state": "IL"
  },
  {
    "city": "ashton",
    "state_code": "IL",
    "placeMasterId": "P02500000FsoF1LjxUII1cMwtajQxKPmLKOia0In",
    "placeName": "ashton",
    "state": "IL"
  },
  {
    "city": "rapids city",
    "state_code": "IL",
    "placeMasterId": "P02500000FsoF73b3c9NR6OjrjDFfm0az4MK1OQN",
    "placeName": "rapids city",
    "state": "IL"
  },
  {
    "city": "mark",
    "state_code": "IL",
    "placeMasterId": "P02500000FsoF5d8HaBbaEOI7h5nUf6qse7m1sL0",
    "placeName": "mark",
    "state": "IL"
  },
  {
    "city": "mineral",
    "state_code": "IL",
    "placeMasterId": "P02500000FsoF5lylBaBMuzXIUu8uZbEtBeESFGz",
    "placeName": "mineral",
    "state": "IL"
  },
  {
    "city": "streator",
    "state_code": "IL",
    "placeMasterId": "P02500000FsoF83WOpvPvubS5Ltfb9RCfG6EsdQ0",
    "placeName": "streator",
    "state": "IL"
  },
  {
    "city": "industry",
    "state_code": "IL",
    "placeMasterId": "P02500000FsoF4dCwMPZ5QBZu4PNZHgFCl47wOSA",
    "placeName": "industry",
    "state": "IL"
  },
  {
    "city": "keithsburg",
    "state_code": "IL",
    "placeMasterId": "P02500000FsoF4m3Pxo8s6mp4sDizCAcv47xyzIl",
    "placeName": "keithsburg",
    "state": "IL"
  },
  {
    "city": "victoria",
    "state_code": "IL",
    "placeMasterId": "P02500000FsoF8LDM2iZVHnwQxWMQyPw0hztyvV0",
    "placeName": "victoria",
    "state": "IL"
  },
  {
    "city": "eureka",
    "state_code": "IL",
    "placeMasterId": "P02500000FsoF3UR7XEwnvNcVducDzlGtwfkYrX8",
    "placeName": "eureka",
    "state": "IL"
  },
  {
    "city": "creve coeur",
    "state_code": "IL",
    "placeMasterId": "P02500000FsoF2mCjWG3sUNOdcqt8RJRni6FzcbY",
    "placeName": "creve coeur",
    "state": "IL"
  },
  {
    "city": "ellsworth",
    "state_code": "IL",
    "placeMasterId": "P02500000FsoF3CkAKRnEYB8A2HvOAmc8JZ7VprW",
    "placeName": "ellsworth",
    "state": "IL"
  },
  {
    "city": "butler",
    "state_code": "IL",
    "placeMasterId": "P02500000FsoF23yLVHAx3NAlbnA2srbHISIG5yr",
    "placeName": "butler",
    "state": "IL"
  },
  {
    "city": "hartford",
    "state_code": "IL",
    "placeMasterId": "P02500000FsoF43p1wpFwfmbCr9ztdipmr9bdX81",
    "placeName": "hartford",
    "state": "IL"
  },
  {
    "city": "kane",
    "state_code": "IL",
    "placeMasterId": "P02500000FsoF4m3Pxo8s6mp4sDizCAdlH4KG8Lc",
    "placeName": "kane",
    "state": "IL"
  },
  {
    "city": "baldwin",
    "state_code": "IL",
    "placeMasterId": "P02500000FsoF1UaR5groIyC4OXmNEu5BiKJFQLC",
    "placeName": "baldwin",
    "state": "IL"
  },
  {
    "city": "freeburg",
    "state_code": "IL",
    "placeMasterId": "P02500000FsoF3dHb8dWabyrgRixduFgWOS5RPOL",
    "placeName": "freeburg",
    "state": "IL"
  },
  {
    "city": "germantown",
    "state_code": "IL",
    "placeMasterId": "P02500000FsoF3m84k26NIa6rFXJ3ok1Zwntkxq5",
    "placeName": "germantown",
    "state": "IL"
  },
  {
    "city": "greenville",
    "state_code": "IL",
    "placeMasterId": "P02500000FsoF43p1wpFwfmbCr9ztdioE6g2oAjC",
    "placeName": "greenville",
    "state": "IL"
  },
  {
    "city": "pierron",
    "state_code": "IL",
    "placeMasterId": "P02500000FsoF6uka0knePnUgvOuFrWBmtongUsq",
    "placeName": "pierron",
    "state": "IL"
  },
  {
    "city": "steeleville",
    "state_code": "IL",
    "placeMasterId": "P02500000FsoF7ufvEWq9E0CuY5KBEwqmKmTCeTA",
    "placeName": "steeleville",
    "state": "IL"
  },
  {
    "city": "carthage",
    "state_code": "IL",
    "placeMasterId": "P02500000FsoF2Cop6fkjjyPwPbVSnM08WgVjy6Z",
    "placeName": "carthage",
    "state": "IL"
  },
  {
    "city": "elvaston",
    "state_code": "IL",
    "placeMasterId": "P02500000FsoF3CkAKRnEYB8A2HvOAmaWqaK2eeE",
    "placeName": "elvaston",
    "state": "IL"
  },
  {
    "city": "liberty",
    "state_code": "IL",
    "placeMasterId": "P02500000FsoF53kNAbIRTzJQTqPp19PisrbViSy",
    "placeName": "liberty",
    "state": "IL"
  },
  {
    "city": "oblong",
    "state_code": "IL",
    "placeMasterId": "P02500000FsoF6LMfbAUVfOVzi9WaDYilajPAyhY",
    "placeName": "oblong",
    "state": "IL"
  },
  {
    "city": "parkersburg",
    "state_code": "IL",
    "placeMasterId": "P02500000FsoF6d3cnxe52b0LJmDQ2XV2vkOkWqH",
    "placeName": "parkersburg",
    "state": "IL"
  },
  {
    "city": "edinburg",
    "state_code": "IL",
    "placeMasterId": "P02500000FsoF3CkAKRnEYB8A2HvOAmXrQiPBEQd",
    "placeName": "edinburg",
    "state": "IL"
  },
  {
    "city": "pawnee",
    "state_code": "IL",
    "placeMasterId": "P02500000FsoF6d3cnxe52b0LJmDQ2XUGd10aVZH",
    "placeName": "pawnee",
    "state": "IL"
  },
  {
    "city": "beardstown",
    "state_code": "IL",
    "placeMasterId": "P02500000FsoF1UaR5groIyC4OXmNEu6wp4Pw5GJ",
    "placeName": "beardstown",
    "state": "IL"
  },
  {
    "city": "benton",
    "state_code": "IL",
    "placeMasterId": "P02500000FsoF1mHOIU1NgAgQ0ATD3sqYiuygFnZ",
    "placeName": "benton",
    "state": "IL"
  },
  {
    "city": "noble",
    "state_code": "IL",
    "placeMasterId": "P02500000FsoF6CWBzluiynGouLBAJ4MeQgMAeFF",
    "placeName": "noble",
    "state": "IL"
  },
  {
    "city": "energy",
    "state_code": "IL",
    "placeMasterId": "P02500000FsoF3LadvqN1EmNKq6Go5Gx68OTBJYi",
    "placeName": "energy",
    "state": "IL"
  },
  {
    "city": "vienna",
    "state_code": "IL",
    "placeMasterId": "P02500000FsoF8U3pe79HyPBblKhqsuIykPKfS42",
    "placeName": "vienna",
    "state": "IL"
  },
  {
    "city": "crystal city",
    "state_code": "MO",
    "placeMasterId": "P02500000FsoFk0fPHMwogOYR3tYlVk1R2DmE2CO",
    "placeName": "crystal city",
    "state": "MO"
  },
  {
    "city": "fenton",
    "state_code": "MO",
    "placeMasterId": "P02500000FsoFkRCq5YgAkCHxTKb1FD9hewMmI3f",
    "placeName": "fenton",
    "state": "MO"
  },
  {
    "city": "herculaneum",
    "state_code": "MO",
    "placeMasterId": "P02500000FsoFl9RE6XZ6BCVpUOK6nevy6SExv91",
    "placeName": "herculaneum",
    "state": "MO"
  },
  {
    "city": "knox city",
    "state_code": "MO",
    "placeMasterId": "P02500000FsoFlZyeujISF0FLtpMMX84vo2lD5hr",
    "placeName": "knox city",
    "state": "MO"
  },
  {
    "city": "shelbyville",
    "state_code": "MO",
    "placeMasterId": "P02500000FsoFnZpLMHNRrPfn9CCDHzQCjUYXwLi",
    "placeName": "shelbyville",
    "state": "MO"
  },
  {
    "city": "livonia",
    "state_code": "MO",
    "placeMasterId": "P02500000FsoFlrfc7WS1cCjhVS3CM6t9qBZeEL8",
    "placeName": "livonia",
    "state": "MO"
  },
  {
    "city": "ellington",
    "state_code": "MO",
    "placeMasterId": "P02500000FsoFkIMMUA6O3b2mfWFbKimcFmJWq32",
    "placeName": "ellington",
    "state": "MO"
  },
  {
    "city": "marquand",
    "state_code": "MO",
    "placeMasterId": "P02500000FsoFm0W5iv1oInysJGOcGbLqwhilYld",
    "placeName": "marquand",
    "state": "MO"
  },
  {
    "city": "dutchtown",
    "state_code": "MO",
    "placeMasterId": "P02500000FsoFk9VsslWbMznbrhuBQENQX9DELQc",
    "placeName": "dutchtown",
    "state": "MO"
  },
  {
    "city": "anniston",
    "state_code": "MO",
    "placeMasterId": "P02500000FsoFij36qnkkUzLrpaS0JKjrNBBMtQ5",
    "placeName": "anniston",
    "state": "MO"
  },
  {
    "city": "gideon",
    "state_code": "MO",
    "placeMasterId": "P02500000FsoFkitnILpk7OmJ4xHr4BulknSm1Np",
    "placeName": "gideon",
    "state": "MO"
  },
  {
    "city": "matthews",
    "state_code": "MO",
    "placeMasterId": "P02500000FsoFm9MZKJbazPE374k2B5h1Bzhxh4O",
    "placeName": "matthews",
    "state": "MO"
  },
  {
    "city": "ellsinore",
    "state_code": "MO",
    "placeMasterId": "P02500000FsoFk9VsslWbMznbrhuBQEVgHJMl4IU",
    "placeName": "ellsinore",
    "state": "MO"
  },
  {
    "city": "lexington",
    "state_code": "MO",
    "placeMasterId": "P02500000FsoFlrfc7WS1cCjhVS3CM6vWDGUeuAN",
    "placeName": "lexington",
    "state": "MO"
  },
  {
    "city": "platte city",
    "state_code": "MO",
    "placeMasterId": "P02500000FsoFn0RQwh4J70h5vwoXe1pPhLhlvIq",
    "placeName": "platte city",
    "state": "MO"
  },
  {
    "city": "kansas city",
    "state_code": "MO",
    "placeMasterId": "P02500000FsoFlR8BJKifYP0B610wcdmJLAheztV",
    "placeName": "kansas city",
    "state": "MO"
  },
  {
    "city": "archie",
    "state_code": "MO",
    "placeMasterId": "P02500000FsoFij36qnkkUzLrpaS0JKerqfgh6fb",
    "placeName": "archie",
    "state": "MO"
  },
  {
    "city": "milo",
    "state_code": "MO",
    "placeMasterId": "P02500000FsoFm9MZKJbazPE374k2B5fD8BWkTax",
    "placeName": "milo",
    "state": "MO"
  },
  {
    "city": "osceola",
    "state_code": "MO",
    "placeMasterId": "P02500000FsoFmikTjtujjoCkKK7hp38KtzyhRMk",
    "placeName": "osceola",
    "state": "MO"
  },
  {
    "city": "urich",
    "state_code": "MO",
    "placeMasterId": "P02500000FsoFo9DFlrgaboeUMRZsvwjBybIpuqY",
    "placeName": "urich",
    "state": "MO"
  },
  {
    "city": "carthage",
    "state_code": "MO",
    "placeMasterId": "P02500000FsoFja7yTBDScaoueSWVmGpLo6mfkcz",
    "placeName": "carthage",
    "state": "MO"
  },
  {
    "city": "hermann",
    "state_code": "MO",
    "placeMasterId": "P02500000FsoFl0akV8zJUbGegZygtAh7xJqnUE1",
    "placeName": "hermann",
    "state": "MO"
  },
  {
    "city": "lake ozark",
    "state_code": "MO",
    "placeMasterId": "P02500000FsoFlip8W7sEvbUWhdhmRcQNHmdCNeN",
    "placeName": "lake ozark",
    "state": "MO"
  },
  {
    "city": "armstrong",
    "state_code": "MO",
    "placeMasterId": "P02500000FsoFij36qnkkUzLrpaS0JKkDQ9UXLxc",
    "placeName": "armstrong",
    "state": "MO"
  },
  {
    "city": "pilot grove",
    "state_code": "MO",
    "placeMasterId": "P02500000FsoFn0RQwh4J70h5vwoXe1lrubbQDt7",
    "placeName": "pilot grove",
    "state": "MO"
  },
  {
    "city": "rocheport",
    "state_code": "MO",
    "placeMasterId": "P02500000FsoFnI8O9UDsUDBRXZVNT0cAqY29XdX",
    "placeName": "rocheport",
    "state": "MO"
  },
  {
    "city": "cole camp",
    "state_code": "MO",
    "placeMasterId": "P02500000FsoFjiyS4ZnFJC45SGrvglIbOtuDTAr",
    "placeName": "cole camp",
    "state": "MO"
  },
  {
    "city": "ash grove",
    "state_code": "MO",
    "placeMasterId": "P02500000FsoFirtaSCKXBab2dOnQDp0u8cjpKVe",
    "placeName": "ash grove",
    "state": "MO"
  },
  {
    "city": "conway",
    "state_code": "MO",
    "placeMasterId": "P02500000FsoFjrovfyN1znJGG5DLbFbSz2PklaQ",
    "placeName": "conway",
    "state": "MO"
  },
  {
    "city": "basehor",
    "state_code": "KS",
    "placeMasterId": "P02500000FsoFJBXdsqRBVSXg1EcCDeCcyC5n4h5",
    "placeName": "basehor",
    "state": "KS"
  },
  {
    "city": "bendena",
    "state_code": "KS",
    "placeMasterId": "P02500000FsoFJTEb5daksf21crJ22ct852lB1pl",
    "placeName": "bendena",
    "state": "KS"
  },
  {
    "city": "richmond",
    "state_code": "KS",
    "placeMasterId": "P02500000FsoFMBJfYAYfw4gKtHryLvxnNVQNvxb",
    "placeName": "richmond",
    "state": "KS"
  },
  {
    "city": "kansas city",
    "state_code": "KS",
    "placeMasterId": "P02500000FsoFKthN7bMbkfTleylD9WcwenSSDwE",
    "placeName": "kansas city",
    "state": "KS"
  },
  {
    "city": "eskridge",
    "state_code": "KS",
    "placeMasterId": "P02500000FsoFK2cVVDttd40iq6ghgaQHfZdIQqN",
    "placeName": "eskridge",
    "state": "KS"
  },
  {
    "city": "olsburg",
    "state_code": "KS",
    "placeMasterId": "P02500000FsoFLkmEjypJsGwoTqpicSqhQwWk4YJ",
    "placeName": "olsburg",
    "state": "KS"
  },
  {
    "city": "arma",
    "state_code": "KS",
    "placeMasterId": "P02500000FsoFJBXdsqRBVSXg1EcCDe7kSXPlpm5",
    "placeName": "arma",
    "state": "KS"
  },
  {
    "city": "bronson",
    "state_code": "KS",
    "placeMasterId": "P02500000FsoFJTEb5daksf21crJ22cxCgFYjOmA",
    "placeName": "bronson",
    "state": "KS"
  },
  {
    "city": "pittsburg",
    "state_code": "KS",
    "placeMasterId": "P02500000FsoFLtciLNP6YsBzHfB8WxDv9qN2eEN",
    "placeName": "pittsburg",
    "state": "KS"
  },
  {
    "city": "stark",
    "state_code": "KS",
    "placeMasterId": "P02500000FsoFMT0ckxiFJHAgUuYoAujuOD60BTh",
    "placeName": "stark",
    "state": "KS"
  },
  {
    "city": "toronto",
    "state_code": "KS",
    "placeMasterId": "P02500000FsoFMbr6MMI1zsPrIiuE5P6n3wbqSnl",
    "placeName": "toronto",
    "state": "KS"
  },
  {
    "city": "haysville",
    "state_code": "KS",
    "placeMasterId": "P02500000FsoFKc0PuoD2NSzQ3M4NKXssZvJkV3v",
    "placeName": "haysville",
    "state": "KS"
  },
  {
    "city": "kechi",
    "state_code": "KS",
    "placeMasterId": "P02500000FsoFKthN7bMbkfTleylD9WcW0Ebhnfm",
    "placeName": "kechi",
    "state": "KS"
  },
  {
    "city": "wichita",
    "state_code": "KS",
    "placeMasterId": "P02500000FsoFMtY3Z9RbN4uCuLb3uNnBOyNlFLT",
    "placeName": "wichita",
    "state": "KS"
  },
  {
    "city": "altamont",
    "state_code": "KS",
    "placeMasterId": "P02500000FsoFJBXdsqRBVSXg1EcCDeBfEt4uCBJ",
    "placeName": "altamont",
    "state": "KS"
  },
  {
    "city": "caney",
    "state_code": "KS",
    "placeMasterId": "P02500000FsoFJc54h2AXZGHCQfeRx7LQKGGcbOq",
    "placeName": "caney",
    "state": "KS"
  },
  {
    "city": "barnard",
    "state_code": "KS",
    "placeMasterId": "P02500000FsoFJKO7UF0yC3mqp2xc88ZbR4RC2gM",
    "placeName": "barnard",
    "state": "KS"
  },
  {
    "city": "downs",
    "state_code": "KS",
    "placeMasterId": "P02500000FsoFK2cVVDttd40iq6ghgaNikELGl4F",
    "placeName": "downs",
    "state": "KS"
  },
  {
    "city": "herington",
    "state_code": "KS",
    "placeMasterId": "P02500000FsoFKc0PuoD2NSzQ3M4NKXsjsDMbjxt",
    "placeName": "herington",
    "state": "KS"
  },
  {
    "city": "hope",
    "state_code": "KS",
    "placeMasterId": "P02500000FsoFKc0PuoD2NSzQ3M4NKXuDI2Psj2n",
    "placeName": "hope",
    "state": "KS"
  },
  {
    "city": "bazine",
    "state_code": "KS",
    "placeMasterId": "P02500000FsoFJKO7UF0yC3mqp2xc88WOTgoP2DW",
    "placeName": "bazine",
    "state": "KS"
  },
  {
    "city": "burdett",
    "state_code": "KS",
    "placeMasterId": "P02500000FsoFJc54h2AXZGHCQfeRx7EgrMqEXrZ",
    "placeName": "burdett",
    "state": "KS"
  },
  {
    "city": "hays",
    "state_code": "KS",
    "placeMasterId": "P02500000FsoFKc0PuoD2NSzQ3M4NKXs1W7g58ZY",
    "placeName": "hays",
    "state": "KS"
  },
  {
    "city": "ellis",
    "state_code": "KS",
    "placeMasterId": "P02500000FsoFK2cVVDttd40iq6ghgaPXSkADci8",
    "placeName": "ellis",
    "state": "KS"
  },
  {
    "city": "gorham",
    "state_code": "KS",
    "placeMasterId": "P02500000FsoFKT9wJPdFgrkFFXixQ3Tnr6aecoh",
    "placeName": "gorham",
    "state": "KS"
  },
  {
    "city": "norton",
    "state_code": "KS",
    "placeMasterId": "P02500000FsoFLkmEjypJsGwoTqpicSqLDCbYLE1",
    "placeName": "norton",
    "state": "KS"
  },
  {
    "city": "grainfield",
    "state_code": "KS",
    "placeMasterId": "P02500000FsoFKT9wJPdFgrkFFXixQ3T4Ncab23Z",
    "placeName": "grainfield",
    "state": "KS"
  },
  {
    "city": "plains",
    "state_code": "KS",
    "placeMasterId": "P02500000FsoFLtciLNP6YsBzHfB8WxES0yS1mbp",
    "placeName": "plains",
    "state": "KS"
  },
  {
    "city": "liberal",
    "state_code": "KS",
    "placeMasterId": "P02500000FsoFL2XqizwORGiwSn6d411f2hQBGBK",
    "placeName": "liberal",
    "state": "KS"
  },
  {
    "city": "bennington",
    "state_code": "NE",
    "placeMasterId": "P02500000FsoFr8zHRBo52Qn9EUpf4EciYkFSqv3",
    "placeName": "bennington",
    "state": "NE"
  },
  {
    "city": "boys town",
    "state_code": "NE",
    "placeMasterId": "P02500000FsoFr8zHRBo52Qn9EUpf4EgHGuLdg4i",
    "placeName": "boys town",
    "state": "NE"
  },
  {
    "city": "fort calhoun",
    "state_code": "NE",
    "placeMasterId": "P02500000FsoFrrDfSAh0TR11FYYkcgVvRjt8Rrd",
    "placeName": "fort calhoun",
    "state": "NE"
  },
  {
    "city": "omaha",
    "state_code": "NE",
    "placeMasterId": "P02500000FsoFszzUHLJHyEyPg3K5ubV6FuzuT2T",
    "placeName": "omaha",
    "state": "NE"
  },
  {
    "city": "dorchester",
    "state_code": "NE",
    "placeMasterId": "P02500000FsoFriNBqm7DmplqRkDKiC7wLfoPfZg",
    "placeName": "dorchester",
    "state": "NE"
  },
  {
    "city": "gresham",
    "state_code": "NE",
    "placeMasterId": "P02500000FsoFs0493ZGnA2GC3MuAXAsNSnuDj7a",
    "placeName": "gresham",
    "state": "NE"
  },
  {
    "city": "julian",
    "state_code": "NE",
    "placeMasterId": "P02500000FsoFsQbZrl09DpziSnwQGdxTAyrubwa",
    "placeName": "julian",
    "state": "NE"
  },
  {
    "city": "steele city",
    "state_code": "NE",
    "placeMasterId": "P02500000FsoFtZNOgvcQidx6tIhlYYz6n8N2nGi",
    "placeName": "steele city",
    "state": "NE"
  },
  {
    "city": "steinauer",
    "state_code": "NE",
    "placeMasterId": "P02500000FsoFtiDsIKCDPFCHh73BT3IMNr8YwHJ",
    "placeName": "steinauer",
    "state": "NE"
  },
  {
    "city": "syracuse",
    "state_code": "NE",
    "placeMasterId": "P02500000FsoFtiDsIKCDPFCHh73BT3JJyKHlAqF",
    "placeName": "syracuse",
    "state": "NE"
  },
  {
    "city": "walton",
    "state_code": "NE",
    "placeMasterId": "P02500000FsoFtr4Ltim05qRSUvObNXn66cmFOe8",
    "placeName": "walton",
    "state": "NE"
  },
  {
    "city": "lincoln",
    "state_code": "NE",
    "placeMasterId": "P02500000FsoFsZS3T9ZvuREtGcHqB8DyQVvTvuI",
    "placeName": "lincoln",
    "state": "NE"
  },
  {
    "city": "dodge",
    "state_code": "NE",
    "placeMasterId": "P02500000FsoFriNBqm7DmplqRkDKiC1cDCOvqPL",
    "placeName": "dodge",
    "state": "NE"
  },
  {
    "city": "petersburg",
    "state_code": "NE",
    "placeMasterId": "P02500000FsoFt8pxsjt4eqDaTrfVp5rQkafF7HK",
    "placeName": "petersburg",
    "state": "NE"
  },
  {
    "city": "belden",
    "state_code": "NE",
    "placeMasterId": "P02500000FsoFr08npnEILpXyQgUF9kKbxeTg2FX",
    "placeName": "belden",
    "state": "NE"
  },
  {
    "city": "crofton",
    "state_code": "NE",
    "placeMasterId": "P02500000FsoFrZWiFNXR6EWfdvrunhjv6cPRUaa",
    "placeName": "crofton",
    "state": "NE"
  },
  {
    "city": "riverdale",
    "state_code": "NE",
    "placeMasterId": "P02500000FsoFtHgRU8SrLRSlHg0vjaCJ3Yodqpl",
    "placeName": "riverdale",
    "state": "NE"
  },
  {
    "city": "edison",
    "state_code": "NE",
    "placeMasterId": "P02500000FsoFriNBqm7DmplqRkDKiCCZ29F8CSj",
    "placeName": "edison",
    "state": "NE"
  },
  {
    "city": "holdrege",
    "state_code": "NE",
    "placeMasterId": "P02500000FsoFs8ucexqZqdVMrBFaRfNsuKMnZXg",
    "placeName": "holdrege",
    "state": "NE"
  },
  {
    "city": "wilcox",
    "state_code": "NE",
    "placeMasterId": "P02500000FsoFtzupV7LmmRgdIjk1I20KFaE80za",
    "placeName": "wilcox",
    "state": "NE"
  },
  {
    "city": "maywood",
    "state_code": "NE",
    "placeMasterId": "P02500000FsoFsiIX4Y9ib2U44QdG5cjyMfxwboN",
    "placeName": "maywood",
    "state": "NE"
  },
  {
    "city": "moorefield",
    "state_code": "NE",
    "placeMasterId": "P02500000FsoFsr90fwjVHdjEsEyg06zhyS5pNlB",
    "placeName": "moorefield",
    "state": "NE"
  },
  {
    "city": "ogallala",
    "state_code": "NE",
    "placeMasterId": "P02500000FsoFszzUHLJHyEyPg3K5ubUn5sXOFmv",
    "placeName": "ogallala",
    "state": "NE"
  },
  {
    "city": "ellsworth",
    "state_code": "NE",
    "placeMasterId": "P02500000FsoI9XhnOnpmlx332takN7AVk4mZetU",
    "placeName": "ellsworth",
    "state": "NE"
  },
  {
    "city": "ama",
    "state_code": "LA",
    "placeMasterId": "P02500000FsoFQB12RGifAtXDO1XfreRKpv4hlSI",
    "placeName": "ama",
    "state": "LA"
  },
  {
    "city": "bourg",
    "state_code": "LA",
    "placeMasterId": "P02500000FsoFQShze3sEY61YzeEVgd8SUtcasWR",
    "placeName": "bourg",
    "state": "LA"
  },
  {
    "city": "carencro",
    "state_code": "LA",
    "placeMasterId": "P02500000FsoFQbYTFSS1EhGjnSZvb7b47PTGU3n",
    "placeName": "carencro",
    "state": "LA"
  },
  {
    "city": "erath",
    "state_code": "LA",
    "placeMasterId": "P02500000FsoFR25u3eBNIV0GCtcBKaZ41VO5Uaf",
    "placeName": "erath",
    "state": "LA"
  },
  {
    "city": "milton",
    "state_code": "LA",
    "placeMasterId": "P02500000FsoFRtAlg1e5Q6TJ1lggnWx2sJ5gHHS",
    "placeName": "milton",
    "state": "LA"
  },
  {
    "city": "deridder",
    "state_code": "LA",
    "placeMasterId": "P02500000FsoFQkOwqr1nvIVubGvLVbxTIAf63VW",
    "placeName": "deridder",
    "state": "LA"
  },
  {
    "city": "reeves",
    "state_code": "LA",
    "placeMasterId": "P02500000FsoFSSYg5bxEAVS0F14MRUGAmXyflhk",
    "placeName": "reeves",
    "state": "LA"
  },
  {
    "city": "athens",
    "state_code": "LA",
    "placeMasterId": "P02500000FsoFQB12RGifAtXDO1XfreWBUfbJBmM",
    "placeName": "athens",
    "state": "LA"
  },
  {
    "city": "goldonna",
    "state_code": "LA",
    "placeMasterId": "P02500000FsoFRJmrGRKwfhUboWJ19ZI05AjjNai",
    "placeName": "goldonna",
    "state": "LA"
  },
  {
    "city": "evergreen",
    "state_code": "LA",
    "placeMasterId": "P02500000FsoFR25u3eBNIV0GCtcBKaiWFx3Qetu",
    "placeName": "evergreen",
    "state": "LA"
  },
  {
    "city": "plaucheville",
    "state_code": "LA",
    "placeMasterId": "P02500000FsoFSJiCUDNRTuCpRCiwWzumd4wDRBc",
    "placeName": "plaucheville",
    "state": "LA"
  },
  {
    "city": "eudora",
    "state_code": "AR",
    "placeMasterId": "P02500000FsoEbNh3i9F6Z2PBMwYtVG8upkQwrYG",
    "placeName": "eudora",
    "state": "AR"
  },
  {
    "city": "de queen",
    "state_code": "AR",
    "placeMasterId": "P02500000FsoEbEqa6kfJsRA0Z8DTalnGGUpZcwV",
    "placeName": "de queen",
    "state": "AR"
  },
  {
    "city": "carlisle",
    "state_code": "AR",
    "placeMasterId": "P02500000FsoEax9ctxVkVEfexVWdln1ymRHyPCS",
    "placeName": "carlisle",
    "state": "AR"
  },
  {
    "city": "higginson",
    "state_code": "AR",
    "placeMasterId": "P02500000FsoEboEUWKyScq8hmNb9EjIg8YAUpfo",
    "placeName": "higginson",
    "state": "AR"
  },
  {
    "city": "roe",
    "state_code": "AR",
    "placeMasterId": "P02500000FsoEcx0JLVak7e66CsMUWeFsa8tDQ6i",
    "placeName": "roe",
    "state": "AR"
  },
  {
    "city": "marvell",
    "state_code": "AR",
    "placeMasterId": "P02500000FsoEcNcOvvHbNF7Ozcyosgho9EZ7Prn",
    "placeName": "marvell",
    "state": "AR"
  },
  {
    "city": "tyronza",
    "state_code": "AR",
    "placeMasterId": "P02500000FsoEdNXk9hK6BRpccJOkG7LLodNpCAT",
    "placeName": "tyronza",
    "state": "AR"
  },
  {
    "city": "piggott",
    "state_code": "AR",
    "placeMasterId": "P02500000FsoEcfJM8iRAkRbkbFfehfTitmXFzvT",
    "placeName": "piggott",
    "state": "AR"
  },
  {
    "city": "cave springs",
    "state_code": "AR",
    "placeMasterId": "P02500000FsoEb606VM5XBpuplJs3gHNMFpZ5urK",
    "placeName": "cave springs",
    "state": "AR"
  },
  {
    "city": "charleston",
    "state_code": "AR",
    "placeMasterId": "P02500000FsoEax9ctxVkVEfexVWdln0mayKNKhr",
    "placeName": "charleston",
    "state": "AR"
  },
  {
    "city": "hartford",
    "state_code": "AR",
    "placeMasterId": "P02500000FsoEboEUWKyScq8hmNb9EjIIFCWMtEn",
    "placeName": "hartford",
    "state": "AR"
  },
  {
    "city": "chickasha",
    "state_code": "OK",
    "placeMasterId": "P02500000FsoGKXLdgqhqaBD2jlzkl9EaZAP0gKB",
    "placeName": "chickasha",
    "state": "OK"
  },
  {
    "city": "meridian",
    "state_code": "OK",
    "placeMasterId": "P02500000FsoGMFVMvbdGpO98NW8lh1fYvevW5iA",
    "placeName": "meridian",
    "state": "OK"
  },
  {
    "city": "paoli",
    "state_code": "OK",
    "placeMasterId": "P02500000FsoGMotHLBwPZn7palWRKyy4BLZLT5I",
    "placeName": "paoli",
    "state": "OK"
  },
  {
    "city": "oklahoma city",
    "state_code": "OK",
    "placeMasterId": "P02500000FsoGMg2njnMctBsemxB1QUgVkw3g3BI",
    "placeName": "oklahoma city",
    "state": "OK"
  },
  {
    "city": "oklahoma city",
    "state_code": "OK",
    "placeMasterId": "P02500000FsoGMg2njnMctBsemxB1QUgVkw3g3BI",
    "placeName": "oklahoma city",
    "state": "OK"
  },
  {
    "city": "milburn",
    "state_code": "OK",
    "placeMasterId": "P02500000FsoGMOLqX0D3VzOJBKUBbW4M9Ee1OCv",
    "placeName": "milburn",
    "state": "OK"
  },
  {
    "city": "martha",
    "state_code": "OK",
    "placeMasterId": "P02500000FsoGMOLqX0D3VzOJBKUBbVuW4ZL75lj",
    "placeName": "martha",
    "state": "OK"
  },
  {
    "city": "mountain park",
    "state_code": "OK",
    "placeMasterId": "P02500000FsoGMOLqX0D3VzOJBKUBbVzq1k9ucm2",
    "placeName": "mountain park",
    "state": "OK"
  },
  {
    "city": "hammon",
    "state_code": "OK",
    "placeMasterId": "P02500000FsoGLXGyuckLONvGMSPg8Zef0maHA83",
    "placeName": "hammon",
    "state": "OK"
  },
  {
    "city": "seiling",
    "state_code": "OK",
    "placeMasterId": "P02500000FsoGNFQi9NfldarM0CYh4SDDs3kCkp6",
    "placeName": "seiling",
    "state": "OK"
  },
  {
    "city": "thomas",
    "state_code": "OK",
    "placeMasterId": "P02500000FsoGNfy8xZP7hOasPdawnvP4Q7QDkYz",
    "placeName": "thomas",
    "state": "OK"
  },
  {
    "city": "lucien",
    "state_code": "OK",
    "placeMasterId": "P02500000FsoGM6etKD3U8mtxZhnLmXEOw9uxstA",
    "placeName": "lucien",
    "state": "OK"
  },
  {
    "city": "tulsa",
    "state_code": "OK",
    "placeMasterId": "P02500000FsoGNfy8xZP7hOasPdawnvKembwKfLR",
    "placeName": "tulsa",
    "state": "OK"
  },
  {
    "city": "tulsa",
    "state_code": "OK",
    "placeMasterId": "P02500000FsoGNfy8xZP7hOasPdawnvKembwKfLR",
    "placeName": "tulsa",
    "state": "OK"
  },
  {
    "city": "tulsa",
    "state_code": "OK",
    "placeMasterId": "P02500000FsoGNfy8xZP7hOasPdawnvKembwKfLR",
    "placeName": "tulsa",
    "state": "OK"
  },
  {
    "city": "tulsa",
    "state_code": "OK",
    "placeMasterId": "P02500000FsoGNfy8xZP7hOasPdawnvKembwKfLR",
    "placeName": "tulsa",
    "state": "OK"
  },
  {
    "city": "tulsa",
    "state_code": "OK",
    "placeMasterId": "P02500000FsoGNfy8xZP7hOasPdawnvKembwKfLR",
    "placeName": "tulsa",
    "state": "OK"
  },
  {
    "city": "tulsa",
    "state_code": "OK",
    "placeMasterId": "P02500000FsoGNfy8xZP7hOasPdawnvKembwKfLR",
    "placeName": "tulsa",
    "state": "OK"
  },
  {
    "city": "park hill",
    "state_code": "OK",
    "placeMasterId": "P02500000FsoGMotHLBwPZn7palWRKz1IgjCUCBE",
    "placeName": "park hill",
    "state": "OK"
  },
  {
    "city": "warner",
    "state_code": "OK",
    "placeMasterId": "P02500000FsoGNxf6AMYh4b5E1GHmctxAFFbwNc1",
    "placeName": "warner",
    "state": "OK"
  },
  {
    "city": "caney",
    "state_code": "OK",
    "placeMasterId": "P02500000FsoGKXLdgqhqaBD2jlzkl93dUqRhKCf",
    "placeName": "caney",
    "state": "OK"
  },
  {
    "city": "whitesboro",
    "state_code": "OK",
    "placeMasterId": "P02500000FsoGO6VZll8TlCKOp4dCXOLmMfjtxjx",
    "placeName": "whitesboro",
    "state": "OK"
  },
  {
    "city": "deer creek",
    "state_code": "OK",
    "placeMasterId": "P02500000FsoGKp2atdrPxNhOLOgaa7tdgGPVeEv",
    "placeName": "deer creek",
    "state": "OK"
  },
  {
    "city": "prague",
    "state_code": "OK",
    "placeMasterId": "P02500000FsoGMotHLBwPZn7palWRKzA3mqY59eY",
    "placeName": "prague",
    "state": "OK"
  },
  {
    "city": "poteau",
    "state_code": "OK",
    "placeMasterId": "P02500000FsoGMxjkwaWCGON0OZrrFTQHgmryJWV",
    "placeName": "poteau",
    "state": "OK"
  },
  {
    "city": "plano",
    "state_code": "TX",
    "placeMasterId": "P02500000FsoGpMAlyTNSzw4gHAc1YxIwpOpGjrg",
    "placeName": "plano",
    "state": "TX"
  },
  {
    "city": "sachse",
    "state_code": "TX",
    "placeMasterId": "P02500000FsoGq4P9zSGOQwIYIEL77PDYoQZmK16",
    "placeName": "sachse",
    "state": "TX"
  },
  {
    "city": "hutchins",
    "state_code": "TX",
    "placeMasterId": "P02500000FsoGmMOkJ9FyZJw1P7MFQfhuP0DzVDt",
    "placeName": "hutchins",
    "state": "TX"
  },
  {
    "city": "dallas",
    "state_code": "TX",
    "placeMasterId": "P02500000FsoGkMY3rbAywuVa9kWOfoNE7vnQ9N4",
    "placeName": "dallas",
    "state": "TX"
  },
  {
    "city": "dallas",
    "state_code": "TX",
    "placeMasterId": "P02500000FsoGkMY3rbAywuVa9kWOfoNE7vnQ9N4",
    "placeName": "dallas",
    "state": "TX"
  },
  {
    "city": "dallas",
    "state_code": "TX",
    "placeMasterId": "P02500000FsoGkMY3rbAywuVa9kWOfoNE7vnQ9N4",
    "placeName": "dallas",
    "state": "TX"
  },
  {
    "city": "blossom",
    "state_code": "TX",
    "placeMasterId": "P02500000FsoGj4vlR1yulVJ0vRPdTOvVBN4xyfI",
    "placeName": "blossom",
    "state": "TX"
  },
  {
    "city": "savoy",
    "state_code": "TX",
    "placeMasterId": "P02500000FsoGqUwandzkUk24hfNMqsJifAn6alT",
    "placeName": "savoy",
    "state": "TX"
  },
  {
    "city": "trenton",
    "state_code": "TX",
    "placeMasterId": "P02500000FsoGrUrw1Q2FIwkIKLnIEIveayahaug",
    "placeName": "trenton",
    "state": "TX"
  },
  {
    "city": "atlanta",
    "state_code": "TX",
    "placeMasterId": "P02500000FsoGieOKcqFYhhZUW0NNjvqL01LFqEk",
    "placeName": "atlanta",
    "state": "TX"
  },
  {
    "city": "linden",
    "state_code": "TX",
    "placeMasterId": "P02500000FsoGnMK5WvITNWeF1nmAo6AJnE8UcGq",
    "placeName": "linden",
    "state": "TX"
  },
  {
    "city": "tyler",
    "state_code": "TX",
    "placeMasterId": "P02500000FsoGrUrw1Q2FIwkIKLnIEIqxT9CHRU3",
    "placeName": "tyler",
    "state": "TX"
  },
  {
    "city": "bullard",
    "state_code": "TX",
    "placeMasterId": "P02500000FsoGjMcidp8U8hnMX46TINsNLPlN9Ah",
    "placeName": "bullard",
    "state": "TX"
  },
  {
    "city": "hawkins",
    "state_code": "TX",
    "placeMasterId": "P02500000FsoGlvrJUxWcVWCUzgJzhCbCzpAVz4o",
    "placeName": "hawkins",
    "state": "TX"
  },
  {
    "city": "buffalo",
    "state_code": "TX",
    "placeMasterId": "P02500000FsoGjMcidp8U8hnMX46TINjXMUeX0rs",
    "placeName": "buffalo",
    "state": "TX"
  },
  {
    "city": "arlington",
    "state_code": "TX",
    "placeMasterId": "P02500000FsoGiVXr1Rfm16KJiC1xpRRvnErdMUM",
    "placeName": "arlington",
    "state": "TX"
  },
  {
    "city": "itasca",
    "state_code": "TX",
    "placeMasterId": "P02500000FsoGmVFDuXplFvBCCvhfL9s7VXD1tG9",
    "placeName": "itasca",
    "state": "TX"
  },
  {
    "city": "fort worth",
    "state_code": "TX",
    "placeMasterId": "P02500000FsoGlMTP5NDTl7DnmQwK3EqQnKzuFlE",
    "placeName": "fort worth",
    "state": "TX"
  },
  {
    "city": "fort worth",
    "state_code": "TX",
    "placeMasterId": "P02500000FsoGlMTP5NDTl7DnmQwK3EqQnKzuFlE",
    "placeName": "fort worth",
    "state": "TX"
  },
  {
    "city": "fort worth",
    "state_code": "TX",
    "placeMasterId": "P02500000FsoGlMTP5NDTl7DnmQwK3EqQnKzuFlE",
    "placeName": "fort worth",
    "state": "TX"
  },
  {
    "city": "denton",
    "state_code": "TX",
    "placeMasterId": "P02500000FsoGkVOXSzkldVkkxYroaIiDEuDBMlN",
    "placeName": "denton",
    "state": "TX"
  },
  {
    "city": "montague",
    "state_code": "TX",
    "placeMasterId": "P02500000FsoGoMFQkhKyBjMSeUC6BWeGjJGIzOb",
    "placeName": "montague",
    "state": "TX"
  },
  {
    "city": "tioga",
    "state_code": "TX",
    "placeMasterId": "P02500000FsoGrM1SQ1SScLV7WXRsJod0Q6vrwNA",
    "placeName": "tioga",
    "state": "TX"
  },
  {
    "city": "wichita falls",
    "state_code": "TX",
    "placeMasterId": "P02500000FsoGs4FqR0LO3LizXbAxsGR17JZqdwE",
    "placeName": "wichita falls",
    "state": "TX"
  },
  {
    "city": "holliday",
    "state_code": "TX",
    "placeMasterId": "P02500000FsoGmDYGhkgBsigqbJ0pWBHvvnAPFiQ",
    "placeName": "holliday",
    "state": "TX"
  },
  {
    "city": "graham",
    "state_code": "TX",
    "placeMasterId": "P02500000FsoGleAMIAN38Ji9O3d9sDf3p0K1dkM",
    "placeName": "graham",
    "state": "TX"
  },
  {
    "city": "killeen",
    "state_code": "TX",
    "placeMasterId": "P02500000FsoGmmwB7KzKd7fXoYOVA8fb8UwhbkY",
    "placeName": "killeen",
    "state": "TX"
  },
  {
    "city": "bremond",
    "state_code": "TX",
    "placeMasterId": "P02500000FsoGjDmF2QYhS6YBjFl3NtIjXtoRSDb",
    "placeName": "bremond",
    "state": "TX"
  },
  {
    "city": "waco",
    "state_code": "TX",
    "placeMasterId": "P02500000FsoGrdiPcoc1zXzT8A8i8nMQbSmxQI8",
    "placeName": "waco",
    "state": "TX"
  },
  {
    "city": "goldthwaite",
    "state_code": "TX",
    "placeMasterId": "P02500000FsoGleAMIAN38Ji9O3d9sDdFKQ2P8av",
    "placeName": "goldthwaite",
    "state": "TX"
  },
  {
    "city": "mullin",
    "state_code": "TX",
    "placeMasterId": "P02500000FsoGoMFQkhKyBjMSeUC6BWjoMLhefBv",
    "placeName": "mullin",
    "state": "TX"
  },
  {
    "city": "houston",
    "state_code": "TX",
    "placeMasterId": "P02500000FsoGmDYGhkgBsigqbJ0pWBK8GcFdEcU",
    "placeName": "houston",
    "state": "TX"
  },
  {
    "city": "houston",
    "state_code": "TX",
    "placeMasterId": "P02500000FsoGmDYGhkgBsigqbJ0pWBK8GcFdEcU",
    "placeName": "houston",
    "state": "TX"
  },
  {
    "city": "conroe",
    "state_code": "TX",
    "placeMasterId": "P02500000FsoGk4r6eo1PZi1EY7pYqpW1YjRM0qs",
    "placeName": "conroe",
    "state": "TX"
  },
  {
    "city": "new waverly",
    "state_code": "TX",
    "placeMasterId": "P02500000FsoGodwNxUUXYvqoG6sw0VSw0vXE1eG",
    "placeName": "new waverly",
    "state": "TX"
  },
  {
    "city": "oakhurst",
    "state_code": "TX",
    "placeMasterId": "P02500000FsoGommrYt4KFX5z3vELuzoxQkwn98m",
    "placeName": "oakhurst",
    "state": "TX"
  },
  {
    "city": "san felipe",
    "state_code": "TX",
    "placeMasterId": "P02500000FsoGqDFdaqqB7XXj62gX1tg3vIHmkjN",
    "placeName": "san felipe",
    "state": "TX"
  },
  {
    "city": "santa fe",
    "state_code": "TX",
    "placeMasterId": "P02500000FsoGqUwandzkUk24hfNMqsEzznrno0l",
    "placeName": "santa fe",
    "state": "TX"
  },
  {
    "city": "baytown",
    "state_code": "TX",
    "placeMasterId": "P02500000FsoGinEoEEpLOIofJoineQFkwWY9J4P",
    "placeName": "baytown",
    "state": "TX"
  },
  {
    "city": "channelview",
    "state_code": "TX",
    "placeMasterId": "P02500000FsoGjeJfqcI3VuHi8gnJ7Mcc5ZrJSL6",
    "placeName": "channelview",
    "state": "TX"
  },
  {
    "city": "kemah",
    "state_code": "TX",
    "placeMasterId": "P02500000FsoGme5hVwPXwWQN0k35FeL3AvjZrpB",
    "placeName": "kemah",
    "state": "TX"
  },
  {
    "city": "league city",
    "state_code": "TX",
    "placeMasterId": "P02500000FsoGnMK5WvITNWeF1nmAo631rTpln2H",
    "placeName": "league city",
    "state": "TX"
  },
  {
    "city": "deweyville",
    "state_code": "TX",
    "placeMasterId": "P02500000FsoGkVOXSzkldVkkxYroaIlkO1CL8FL",
    "placeName": "deweyville",
    "state": "TX"
  },
  {
    "city": "silsbee",
    "state_code": "TX",
    "placeMasterId": "P02500000FsoGqdn4P2ZXBLHFVTimlMmUQIT40kV",
    "placeName": "silsbee",
    "state": "TX"
  },
  {
    "city": "goliad",
    "state_code": "TX",
    "placeMasterId": "P02500000FsoGleAMIAN38Ji9O3d9sDdw9IpGT7u",
    "placeName": "goliad",
    "state": "TX"
  },
  {
    "city": "von ormy",
    "state_code": "TX",
    "placeMasterId": "P02500000FsoGrdiPcoc1zXzT8A8i8nMJFuSrwLi",
    "placeName": "von ormy",
    "state": "TX"
  },
  {
    "city": "beeville",
    "state_code": "TX",
    "placeMasterId": "P02500000FsoGiw5HpdP84u3q7d4DYuXkdYTESO3",
    "placeName": "beeville",
    "state": "TX"
  },
  {
    "city": "san antonio",
    "state_code": "TX",
    "placeMasterId": "P02500000FsoGqM67CFPxo8mttr1wwNqfYQdpCPu",
    "placeName": "san antonio",
    "state": "TX"
  },
  {
    "city": "san antonio",
    "state_code": "TX",
    "placeMasterId": "P02500000FsoGqM67CFPxo8mttr1wwNqfYQdpCPu",
    "placeName": "san antonio",
    "state": "TX"
  },
  {
    "city": "san antonio",
    "state_code": "TX",
    "placeMasterId": "P02500000FsoGqM67CFPxo8mttr1wwNqfYQdpCPu",
    "placeName": "san antonio",
    "state": "TX"
  },
  {
    "city": "edroy",
    "state_code": "TX",
    "placeMasterId": "P02500000FsoGkn5UfmuL0iF6ZBYePHX3YUuYy6g",
    "placeName": "edroy",
    "state": "TX"
  },
  {
    "city": "robstown",
    "state_code": "TX",
    "placeMasterId": "P02500000FsoGpvYgO3gbkL3NUPzhCunYIom5rqR",
    "placeName": "robstown",
    "state": "TX"
  },
  {
    "city": "fredericksburg",
    "state_code": "TX",
    "placeMasterId": "P02500000FsoGlDcvTydh4Vycycau8kfh3MgwLIp",
    "placeName": "fredericksburg",
    "state": "TX"
  },
  {
    "city": "hutto",
    "state_code": "TX",
    "placeMasterId": "P02500000FsoGmDYGhkgBsigqbJ0pWBGcPVb45EV",
    "placeName": "hutto",
    "state": "TX"
  },
  {
    "city": "johnson city",
    "state_code": "TX",
    "placeMasterId": "P02500000FsoGme5hVwPXwWQN0k35FeDP5QUmjnY",
    "placeName": "johnson city",
    "state": "TX"
  },
  {
    "city": "llano",
    "state_code": "TX",
    "placeMasterId": "P02500000FsoGnVAZ8JsG47tPpc7aiaUY6qizyHf",
    "placeName": "llano",
    "state": "TX"
  },
  {
    "city": "staples",
    "state_code": "TX",
    "placeMasterId": "P02500000FsoGr4KVDEItF90luul2UpjJDgkaBgx",
    "placeName": "staples",
    "state": "TX"
  },
  {
    "city": "uvalde",
    "state_code": "TX",
    "placeMasterId": "P02500000FsoGrdiPcoc1zXzT8A8i8nCbyxPWAVL",
    "placeName": "uvalde",
    "state": "TX"
  },
  {
    "city": "el indio",
    "state_code": "TX",
    "placeMasterId": "P02500000FsoGkn5UfmuL0iF6ZBYePHYRGZL1PlK",
    "placeName": "el indio",
    "state": "TX"
  },
  {
    "city": "channing",
    "state_code": "TX",
    "placeMasterId": "P02500000FsoGjeJfqcI3VuHi8gnJ7MZnj04v4GL",
    "placeName": "channing",
    "state": "TX"
  },
  {
    "city": "dimmitt",
    "state_code": "TX",
    "placeMasterId": "P02500000FsoGkeF14OKYK6zvlNDEUmzinRwXxUI",
    "placeName": "dimmitt",
    "state": "TX"
  },
  {
    "city": "lefors",
    "state_code": "TX",
    "placeMasterId": "P02500000FsoGnMK5WvITNWeF1nmAo62OpuyPdCb",
    "placeName": "lefors",
    "state": "TX"
  },
  {
    "city": "quail",
    "state_code": "TX",
    "placeMasterId": "P02500000FsoGpV1FZrxFgXJr4yxRTRnYg405932",
    "placeName": "quail",
    "state": "TX"
  },
  {
    "city": "quitaque",
    "state_code": "TX",
    "placeMasterId": "P02500000FsoGpV1FZrxFgXJr4yxRTRoViBCA0EO",
    "placeName": "quitaque",
    "state": "TX"
  },
  {
    "city": "coahoma",
    "state_code": "TX",
    "placeMasterId": "P02500000FsoGjw0d3PRct6m3kJU8wLNNJJuxpKN",
    "placeName": "coahoma",
    "state": "TX"
  },
  {
    "city": "lueders",
    "state_code": "TX",
    "placeMasterId": "P02500000FsoGnmrWL71pRKNlREoQXZC0A5d1VFa",
    "placeName": "lueders",
    "state": "TX"
  },
  {
    "city": "redford",
    "state_code": "TX",
    "placeMasterId": "P02500000FsoGpmiCmf6p3joCgbeHIQNii3XMx4o",
    "placeName": "redford",
    "state": "TX"
  },
  {
    "city": "san elizario",
    "state_code": "TX",
    "placeMasterId": "P02500000FsoGqM67CFPxo8mttr1wwNsytBQ8HUa",
    "placeName": "san elizario",
    "state": "TX"
  },
  {
    "city": "el paso",
    "state_code": "TX",
    "placeMasterId": "P02500000FsoGkn5UfmuL0iF6ZBYePHb6XkiWYkD",
    "placeName": "el paso",
    "state": "TX"
  },
  {
    "city": "el paso",
    "state_code": "TX",
    "placeMasterId": "P02500000FsoGkn5UfmuL0iF6ZBYePHb6XkiWYkD",
    "placeName": "el paso",
    "state": "TX"
  },
  {
    "city": "aurora",
    "state_code": "CO",
    "placeMasterId": "P02500000FsoEmViIl4GM9tUm2HVUZT8wZbsyrI4",
    "placeName": "aurora",
    "state": "CO"
  },
  {
    "city": "bennett",
    "state_code": "CO",
    "placeMasterId": "P02500000FsoEmeYmMSq8qUjwq5quTxSv6Ok6PXc",
    "placeName": "bennett",
    "state": "CO"
  },
  {
    "city": "elizabeth",
    "state_code": "CO",
    "placeMasterId": "P02500000FsoEnDwgm39Hatie3LEa7uxNDl5o0Td",
    "placeName": "elizabeth",
    "state": "CO"
  },
  {
    "city": "strasburg",
    "state_code": "CO",
    "placeMasterId": "P02500000FsoEoePSo0v8SuAO5SglEohGRiDOIab",
    "placeName": "strasburg",
    "state": "CO"
  },
  {
    "city": "denver",
    "state_code": "CO",
    "placeMasterId": "P02500000FsoEmwFjZFziDhEIRiXkIwGQWtD2cc9",
    "placeName": "denver",
    "state": "CO"
  },
  {
    "city": "denver",
    "state_code": "CO",
    "placeMasterId": "P02500000FsoEmwFjZFziDhEIRiXkIwGQWtD2cc9",
    "placeName": "denver",
    "state": "CO"
  },
  {
    "city": "denver",
    "state_code": "CO",
    "placeMasterId": "P02500000FsoEmwFjZFziDhEIRiXkIwGQWtD2cc9",
    "placeName": "denver",
    "state": "CO"
  },
  {
    "city": "fraser",
    "state_code": "CO",
    "placeMasterId": "P02500000FsoEnDwgm39Hatie3LEa7uzxhC1bAcy",
    "placeName": "fraser",
    "state": "CO"
  },
  {
    "city": "granby",
    "state_code": "CO",
    "placeMasterId": "P02500000FsoEnMnANRj4HUxor9a02PNG70G823t",
    "placeName": "granby",
    "state": "CO"
  },
  {
    "city": "platteville",
    "state_code": "CO",
    "placeMasterId": "P02500000FsoEoMiVbDlZ5hg2TpzvPpwF6wYPKer",
    "placeName": "platteville",
    "state": "CO"
  },
  {
    "city": "haxtun",
    "state_code": "CO",
    "placeMasterId": "P02500000FsoEneU7aEsdehSASmGprO2mo4Io9DP",
    "placeName": "haxtun",
    "state": "CO"
  },
  {
    "city": "victor",
    "state_code": "CO",
    "placeMasterId": "P02500000FsoEow6Q0o4hq6ejh5Nb3nP64bzkabL",
    "placeName": "victor",
    "state": "CO"
  },
  {
    "city": "colorado springs",
    "state_code": "CO",
    "placeMasterId": "P02500000FsoEmwFjZFziDhEIRiXkIwGl9Aki2Up",
    "placeName": "colorado springs",
    "state": "CO"
  },
  {
    "city": "la junta",
    "state_code": "CO",
    "placeMasterId": "P02500000FsoEnnKbBdSQLIhLGacFlsTAR2OxDL3",
    "placeName": "la junta",
    "state": "CO"
  },
  {
    "city": "lewis",
    "state_code": "CO",
    "placeMasterId": "P02500000FsoEnnKbBdSQLIhLGacFlsW1bA0WAVj",
    "placeName": "lewis",
    "state": "CO"
  },
  {
    "city": "rico",
    "state_code": "CO",
    "placeMasterId": "P02500000FsoEoVYzCcLLmIvDHeLLKKHkhYldI0e",
    "placeName": "rico",
    "state": "CO"
  },
  {
    "city": "towaoc",
    "state_code": "CO",
    "placeMasterId": "P02500000FsoEonFwPPUv9VPYtH2B9J5PwGfyZiy",
    "placeName": "towaoc",
    "state": "CO"
  },
  {
    "city": "montrose",
    "state_code": "CO",
    "placeMasterId": "P02500000FsoEo51YOQbziVBgsDJ5arApe3FjaKI",
    "placeName": "montrose",
    "state": "CO"
  },
  {
    "city": "big horn",
    "state_code": "WY",
    "placeMasterId": "P02500000FsoH8lHi0NsGRdMNXbarTZuWRzhc6Oe",
    "placeName": "big horn",
    "state": "WY"
  },
  {
    "city": "cora",
    "state_code": "WY",
    "placeMasterId": "P02500000FsoH8u8BbmS38EbYLPwHO4JY42Cn5US",
    "placeName": "cora",
    "state": "WY"
  },
  {
    "city": "la barge",
    "state_code": "WY",
    "placeMasterId": "P02500000FsoH9KfcPyBPC2L4kqyX7XJmDVjVg9U",
    "placeName": "la barge",
    "state": "WY"
  },
  {
    "city": "meridian",
    "state_code": "ID",
    "placeMasterId": "P02500000FsoF0dVZTJP6BMj1ZfhrlxqarQXhqOE",
    "placeName": "meridian",
    "state": "ID"
  },
  {
    "city": "payette",
    "state_code": "ID",
    "placeMasterId": "P02500000FsoF0mM34hysrxyCNU3HgSFcS3xSNK2",
    "placeName": "payette",
    "state": "ID"
  },
  {
    "city": "nampa",
    "state_code": "ID",
    "placeMasterId": "P02500000FsoF0mM34hysrxyCNU3HgSDf4i6gENc",
    "placeName": "nampa",
    "state": "ID"
  },
  {
    "city": "eagle mountain",
    "state_code": "UT",
    "placeMasterId": "P02500000FsoGsddkqaeWnkhgkqYdWDwiBDuqDww",
    "placeName": "eagle mountain",
    "state": "UT"
  },
  {
    "city": "coalville",
    "state_code": "UT",
    "placeMasterId": "P02500000FsoGsUnHFC4k79SVx2DDbjd38afLPgY",
    "placeName": "coalville",
    "state": "UT"
  },
  {
    "city": "kamas",
    "state_code": "UT",
    "placeMasterId": "P02500000FsoGt4BBemNsrYRDAHatFgzauRZqA5t",
    "placeName": "kamas",
    "state": "UT"
  },
  {
    "city": "syracuse",
    "state_code": "UT",
    "placeMasterId": "P02500000FsoGtvG3H9qaz9uFz9fOidHF5vq3Id9",
    "placeName": "syracuse",
    "state": "UT"
  },
  {
    "city": "montezuma creek",
    "state_code": "UT",
    "placeMasterId": "P02500000FsoGtLs8rZXSEkvYluHj4fpx88EA5QS",
    "placeName": "montezuma creek",
    "state": "UT"
  },
  {
    "city": "delta",
    "state_code": "UT",
    "placeMasterId": "P02500000FsoGsddkqaeWnkhgkqYdWDtpRjhOn3b",
    "placeName": "delta",
    "state": "UT"
  },
  {
    "city": "wales",
    "state_code": "UT",
    "placeMasterId": "P02500000FsoGtvG3H9qaz9uFz9fOidI44J4F89m",
    "placeName": "wales",
    "state": "UT"
  },
  {
    "city": "kanab",
    "state_code": "UT",
    "placeMasterId": "P02500000FsoGt4BBemNsrYRDAHatFh37aFGLxHO",
    "placeName": "kanab",
    "state": "UT"
  },
  {
    "city": "phoenix",
    "state_code": "AZ",
    "placeMasterId": "P02500000FsoEZWgqrzjtdEDuvO4SetJca76kZR3",
    "placeName": "phoenix",
    "state": "AZ"
  },
  {
    "city": "cave creek",
    "state_code": "AZ",
    "placeMasterId": "P02500000FsoEYF4YRQXpRp1Lh4xhSU10wjQ25M2",
    "placeName": "cave creek",
    "state": "AZ"
  },
  {
    "city": "tacna",
    "state_code": "AZ",
    "placeMasterId": "P02500000FsoEa64lHa32NdCc8dS8Iqmob6mbkMT",
    "placeName": "tacna",
    "state": "AZ"
  },
  {
    "city": "clifton",
    "state_code": "AZ",
    "placeMasterId": "P02500000FsoEYNv22p7c8QGWUtJ7MyNzCuLtenq",
    "placeName": "clifton",
    "state": "AZ"
  },
  {
    "city": "sierra vista",
    "state_code": "AZ",
    "placeMasterId": "P02500000FsoEZoNo4mtT0QiGX0lITs5FFhgu3gk",
    "placeName": "sierra vista",
    "state": "AZ"
  },
  {
    "city": "rio rico",
    "state_code": "AZ",
    "placeMasterId": "P02500000FsoEZWgqrzjtdEDuvO4SetKukrUKxy5",
    "placeName": "rio rico",
    "state": "AZ"
  },
  {
    "city": "tucson",
    "state_code": "AZ",
    "placeMasterId": "P02500000FsoEa64lHa32NdCc8dS8IqpdZHyNtyf",
    "placeName": "tucson",
    "state": "AZ"
  },
  {
    "city": "tucson",
    "state_code": "AZ",
    "placeMasterId": "P02500000FsoEa64lHa32NdCc8dS8IqpdZHyNtyf",
    "placeName": "tucson",
    "state": "AZ"
  },
  {
    "city": "tucson",
    "state_code": "AZ",
    "placeMasterId": "P02500000FsoEa64lHa32NdCc8dS8IqpdZHyNtyf",
    "placeName": "tucson",
    "state": "AZ"
  },
  {
    "city": "flagstaff",
    "state_code": "AZ",
    "placeMasterId": "P02500000FsoEYoSSr0qyCE02uKLN6RSdBpSqOm4",
    "placeName": "flagstaff",
    "state": "AZ"
  },
  {
    "city": "bagdad",
    "state_code": "AZ",
    "placeMasterId": "P02500000FsoEY6E4q1y2lDmAtGcHXzbe6SlXVcb",
    "placeName": "bagdad",
    "state": "AZ"
  },
  {
    "city": "dennehotso",
    "state_code": "AZ",
    "placeMasterId": "P02500000FsoEYNv22p7c8QGWUtJ7MyNxqHH348Z",
    "placeName": "dennehotso",
    "state": "AZ"
  },
  {
    "city": "cedar crest",
    "state_code": "NM",
    "placeMasterId": "P02500000FsoFyZ06nnoulfWD0inORhploQsxuK9",
    "placeName": "cedar crest",
    "state": "NM"
  },
  {
    "city": "jemez pueblo",
    "state_code": "NM",
    "placeMasterId": "P02500000FsoFzHEUomhqCfk51mWU09lfJdSxoYQ",
    "placeName": "jemez pueblo",
    "state": "NM"
  },
  {
    "city": "cochiti lake",
    "state_code": "NM",
    "placeMasterId": "P02500000FsoFyZ06nnoulfWD0inORi2FHgoGpQ9",
    "placeName": "cochiti lake",
    "state": "NM"
  },
  {
    "city": "springer",
    "state_code": "NM",
    "placeMasterId": "P02500000FsoG0Q0JdxK7hThTSHHpI4mrX5YCnUm",
    "placeName": "springer",
    "state": "NM"
  },
  {
    "city": "datil",
    "state_code": "NM",
    "placeMasterId": "P02500000FsoFyhqaPCOhSGlNoX8oMCIRAC8x26u",
    "placeName": "datil",
    "state": "NM"
  },
  {
    "city": "truth or consequences",
    "state_code": "NM",
    "placeMasterId": "P02500000FsoG0YqnFLtuO4weG5dFCZ9jMmGsHKX",
    "placeName": "truth or consequences",
    "state": "NM"
  },
  {
    "city": "animas",
    "state_code": "NM",
    "placeMasterId": "P02500000FsoFyHJ9b0fLOT1rP66Ycj6wYx5fCeu",
    "placeName": "animas",
    "state": "NM"
  },
  {
    "city": "fairacres",
    "state_code": "NM",
    "placeMasterId": "P02500000FsoFyqh40ayU8s0YcLUEGglDpTznc3T",
    "placeName": "fairacres",
    "state": "NM"
  },
  {
    "city": "organ",
    "state_code": "NM",
    "placeMasterId": "P02500000FsoFzqcPEN0yx4imF1u9e7GGz9FSeIW",
    "placeName": "organ",
    "state": "NM"
  },
  {
    "city": "rodeo",
    "state_code": "NM",
    "placeMasterId": "P02500000FsoG08JMRAAYKHD7qeazT65T3cNx15w",
    "placeName": "rodeo",
    "state": "NM"
  },
  {
    "city": "pinon",
    "state_code": "NM",
    "placeMasterId": "P02500000FsoFzqcPEN0yx4imF1u9e7IwD76Q7TD",
    "placeName": "pinon",
    "state": "NM"
  },
  {
    "city": "pahrump",
    "state_code": "NV",
    "placeMasterId": "P02500000FsoFui9DW6EiDRuVJnT6qToBQ0zzs0k",
    "placeName": "pahrump",
    "state": "NV"
  },
  {
    "city": "las vegas",
    "state_code": "NV",
    "placeMasterId": "P02500000FsoFuQSGJJ58qFQ9iAmH1VC0RKB5lYR",
    "placeName": "las vegas",
    "state": "NV"
  },
  {
    "city": "las vegas",
    "state_code": "NV",
    "placeMasterId": "P02500000FsoFuQSGJJ58qFQ9iAmH1VC0RKB5lYR",
    "placeName": "las vegas",
    "state": "NV"
  },
  {
    "city": "glenbrook",
    "state_code": "NV",
    "placeMasterId": "P02500000FsoFuQSGJJ58qFQ9iAmH1VE3ttQ3wcN",
    "placeName": "glenbrook",
    "state": "NV"
  },
  {
    "city": "los angeles",
    "state_code": "CA",
    "placeMasterId": "P02500000FsoEiEJyfAwnXs9Xvv8xEm0Sp2kcekK",
    "placeName": "los angeles",
    "state": "CA"
  },
  {
    "city": "los angeles",
    "state_code": "CA",
    "placeMasterId": "P02500000FsoEiEJyfAwnXs9Xvv8xEm0Sp2kcekK",
    "placeName": "los angeles",
    "state": "CA"
  },
  {
    "city": "malibu",
    "state_code": "CA",
    "placeMasterId": "P02500000FsoEiW0vry6Mv4dtXXpn3kgLKxFR72p",
    "placeName": "malibu",
    "state": "CA"
  },
  {
    "city": "marina del rey",
    "state_code": "CA",
    "placeMasterId": "P02500000FsoEiW0vry6Mv4dtXXpn3kfuYt9uBmX",
    "placeName": "marina del rey",
    "state": "CA"
  },
  {
    "city": "inglewood",
    "state_code": "CA",
    "placeMasterId": "P02500000FsoEhEOdROuIjfRKJEj1rLNsoCk4oxk",
    "placeName": "inglewood",
    "state": "CA"
  },
  {
    "city": "los alamitos",
    "state_code": "CA",
    "placeMasterId": "P02500000FsoEiEJyfAwnXs9Xvv8xElxezw8ih54",
    "placeName": "los alamitos",
    "state": "CA"
  },
  {
    "city": "duarte",
    "state_code": "CA",
    "placeMasterId": "P02500000FsoEfwmL0piEYGEl4vcGew0nURHScF5",
    "placeName": "duarte",
    "state": "CA"
  },
  {
    "city": "claremont",
    "state_code": "CA",
    "placeMasterId": "P02500000FsoEf5hTOSFWQeliG3XlBzq8gewzD2v",
    "placeName": "claremont",
    "state": "CA"
  },
  {
    "city": "covina",
    "state_code": "CA",
    "placeMasterId": "P02500000FsoEfNOQbFP5nrG3rgEb0yY9hyiOQqA",
    "placeName": "covina",
    "state": "CA"
  },
  {
    "city": "lakeside",
    "state_code": "CA",
    "placeMasterId": "P02500000FsoEhnmXqzDRU4Q1WU6hVIpC3zTHj3F",
    "placeName": "lakeside",
    "state": "CA"
  },
  {
    "city": "rancho santa fe",
    "state_code": "CA",
    "placeMasterId": "P02500000FsoEk5KBVKS0TgKoNTdO58ptWPwJPCo",
    "placeName": "rancho santa fe",
    "state": "CA"
  },
  {
    "city": "san diego",
    "state_code": "CA",
    "placeMasterId": "P02500000FsoEkVrcJWBMXU4KmufdobvSE82FU0j",
    "placeName": "san diego",
    "state": "CA"
  },
  {
    "city": "san diego",
    "state_code": "CA",
    "placeMasterId": "P02500000FsoEkVrcJWBMXU4KmufdobvSE82FU0j",
    "placeName": "san diego",
    "state": "CA"
  },
  {
    "city": "seeley",
    "state_code": "CA",
    "placeMasterId": "P02500000FsoEkwP37huibHnrCLhtY53klVmVu86",
    "placeName": "seeley",
    "state": "CA"
  },
  {
    "city": "big bear city",
    "state_code": "CA",
    "placeMasterId": "P02500000FsoEeEcbm4moJ3IfRBTFj3XMLpL4kTp",
    "placeName": "big bear city",
    "state": "CA"
  },
  {
    "city": "highland",
    "state_code": "CA",
    "placeMasterId": "P02500000FsoEh5Y9q0KW34C9VQNbwqzsiTvnnlK",
    "placeName": "highland",
    "state": "CA"
  },
  {
    "city": "riverside",
    "state_code": "CA",
    "placeMasterId": "P02500000FsoEkN18i7bZqsp9z6KDu7ViUSFSn4j",
    "placeName": "riverside",
    "state": "CA"
  },
  {
    "city": "riverside",
    "state_code": "CA",
    "placeMasterId": "P02500000FsoEkN18i7bZqsp9z6KDu7ViUSFSn4j",
    "placeName": "riverside",
    "state": "CA"
  },
  {
    "city": "aguanga",
    "state_code": "CA",
    "placeMasterId": "P02500000FsoEdfEhMUTfYeJyDw5a565lEJUeP58",
    "placeName": "aguanga",
    "state": "CA"
  },
  {
    "city": "garden grove",
    "state_code": "CA",
    "placeMasterId": "P02500000FsoEgWAFQQ1NIfDSIAzwItXKd1qktLQ",
    "placeName": "garden grove",
    "state": "CA"
  },
  {
    "city": "orange",
    "state_code": "CA",
    "placeMasterId": "P02500000FsoEjN5nULZ52g6wMPuIWgyRxHqSV9r",
    "placeName": "orange",
    "state": "CA"
  },
  {
    "city": "fillmore",
    "state_code": "CA",
    "placeMasterId": "P02500000FsoEgNJlp1Rac3yHUMeWOP9cbtSBHUf",
    "placeName": "fillmore",
    "state": "CA"
  },
  {
    "city": "santa barbara",
    "state_code": "CA",
    "placeMasterId": "P02500000FsoEkei5uul9E5JVaj13j6J6FwOz9kT",
    "placeName": "santa barbara",
    "state": "CA"
  },
  {
    "city": "kettleman city",
    "state_code": "CA",
    "placeMasterId": "P02500000FsoEhW5aeC3s6rvfurPrgK5Ri99kSfm",
    "placeName": "kettleman city",
    "state": "CA"
  },
  {
    "city": "porterville",
    "state_code": "CA",
    "placeMasterId": "P02500000FsoEjwThtvsDn55dZfHyAeQYGROQJou",
    "placeName": "porterville",
    "state": "CA"
  },
  {
    "city": "visalia",
    "state_code": "CA",
    "placeMasterId": "P02500000FsoElwKOLTxDPUW4p27ovVdrUcQhlXE",
    "placeName": "visalia",
    "state": "CA"
  },
  {
    "city": "visalia",
    "state_code": "CA",
    "placeMasterId": "P02500000FsoElwKOLTxDPUW4p27ovVdrUcQhlXE",
    "placeName": "visalia",
    "state": "CA"
  },
  {
    "city": "san luis obispo",
    "state_code": "CA",
    "placeMasterId": "P02500000FsoEkei5uul9E5JVaj13j6HHJUo0WSE",
    "placeName": "san luis obispo",
    "state": "CA"
  },
  {
    "city": "mojave",
    "state_code": "CA",
    "placeMasterId": "P02500000FsoEinht4lFwIH8F9AWcsjVGHKIfFtU",
    "placeName": "mojave",
    "state": "CA"
  },
  {
    "city": "inyokern",
    "state_code": "CA",
    "placeMasterId": "P02500000FsoEhEOdROuIjfRKJEj1rLOgXjfLqoh",
    "placeName": "inyokern",
    "state": "CA"
  },
  {
    "city": "keene",
    "state_code": "CA",
    "placeMasterId": "P02500000FsoEhW5aeC3s6rvfurPrgK6wmRqTqMl",
    "placeName": "keene",
    "state": "CA"
  },
  {
    "city": "firebaugh",
    "state_code": "CA",
    "placeMasterId": "P02500000FsoEgNJlp1Rac3yHUMeWOP6WGlP5HwP",
    "placeName": "firebaugh",
    "state": "CA"
  },
  {
    "city": "los banos",
    "state_code": "CA",
    "placeMasterId": "P02500000FsoEiEJyfAwnXs9Xvv8xElx8PcSeY2u",
    "placeName": "los banos",
    "state": "CA"
  },
  {
    "city": "orosi",
    "state_code": "CA",
    "placeMasterId": "P02500000FsoEjVwH5k8rjHM7AEFiRBLiEyLva1n",
    "placeName": "orosi",
    "state": "CA"
  },
  {
    "city": "reedley",
    "state_code": "CA",
    "placeMasterId": "P02500000FsoEkEAf6j1nAHZzBHynzd9pkjkaDII",
    "placeName": "reedley",
    "state": "CA"
  },
  {
    "city": "fresno",
    "state_code": "CA",
    "placeMasterId": "P02500000FsoEgf0j1ob9zGSd5zLMDNqyCZUrC3I",
    "placeName": "fresno",
    "state": "CA"
  },
  {
    "city": "salinas",
    "state_code": "CA",
    "placeMasterId": "P02500000FsoEkVrcJWBMXU4KmufdobvIsLSCpDQ",
    "placeName": "salinas",
    "state": "CA"
  },
  {
    "city": "monterey",
    "state_code": "CA",
    "placeMasterId": "P02500000FsoEiwYMg9piysNPwys2nDn50aOedzy",
    "placeName": "monterey",
    "state": "CA"
  },
  {
    "city": "redwood city",
    "state_code": "CA",
    "placeMasterId": "P02500000FsoEkEAf6j1nAHZzBHynzdC6HiHxNvU",
    "placeName": "redwood city",
    "state": "CA"
  },
  {
    "city": "san bruno",
    "state_code": "CA",
    "placeMasterId": "P02500000FsoEkVrcJWBMXU4KmufdobxtAYdttYR",
    "placeName": "san bruno",
    "state": "CA"
  },
  {
    "city": "san francisco",
    "state_code": "CA",
    "placeMasterId": "P02500000FsoEkVrcJWBMXU4KmufdobtfKVREvsP",
    "placeName": "san francisco",
    "state": "CA"
  },
  {
    "city": "crockett",
    "state_code": "CA",
    "placeMasterId": "P02500000FsoEfWEuCdysUSVEfUa0vSwE5qEKWIs",
    "placeName": "crockett",
    "state": "CA"
  },
  {
    "city": "fremont",
    "state_code": "CA",
    "placeMasterId": "P02500000FsoEgWAFQQ1NIfDSIAzwItWg8B5R7Dt",
    "placeName": "fremont",
    "state": "CA"
  },
  {
    "city": "berkeley",
    "state_code": "CA",
    "placeMasterId": "P02500000FsoEeEcbm4moJ3IfRBTFj3Xr6gOP3lm",
    "placeName": "berkeley",
    "state": "CA"
  },
  {
    "city": "san rafael",
    "state_code": "CA",
    "placeMasterId": "P02500000FsoEknYZWJKvugYgOXMTdad2OEL2CK9",
    "placeName": "san rafael",
    "state": "CA"
  },
  {
    "city": "point reyes station",
    "state_code": "CA",
    "placeMasterId": "P02500000FsoEjwThtvsDn55dZfHyAeO8CuRSH0u",
    "placeName": "point reyes station",
    "state": "CA"
  },
  {
    "city": "san jose",
    "state_code": "CA",
    "placeMasterId": "P02500000FsoEkei5uul9E5JVaj13j6FZZ7utLyF",
    "placeName": "san jose",
    "state": "CA"
  },
  {
    "city": "stockton",
    "state_code": "CA",
    "placeMasterId": "P02500000FsoElE60KV4HyUICnyOjN3mM5drQo04",
    "placeName": "stockton",
    "state": "CA"
  },
  {
    "city": "merced",
    "state_code": "CA",
    "placeMasterId": "P02500000FsoEierPTMg9bft4LMBCyF4pk8W4LC4",
    "placeName": "merced",
    "state": "CA"
  },
  {
    "city": "cloverdale",
    "state_code": "CA",
    "placeMasterId": "P02500000FsoEf5hTOSFWQeliG3XlBzokAY7VFrf",
    "placeName": "cloverdale",
    "state": "CA"
  },
  {
    "city": "hopland",
    "state_code": "CA",
    "placeMasterId": "P02500000FsoEh5Y9q0KW34C9VQNbwr1aautqqqe",
    "placeName": "hopland",
    "state": "CA"
  },
  {
    "city": "middletown",
    "state_code": "CA",
    "placeMasterId": "P02500000FsoEinht4lFwIH8F9AWcsjSCdDDrA2Z",
    "placeName": "middletown",
    "state": "CA"
  },
  {
    "city": "burnt ranch",
    "state_code": "CA",
    "placeMasterId": "P02500000FsoEefA2aGWAMr2BqcVVSWeiWFdpWdJ",
    "placeName": "burnt ranch",
    "state": "CA"
  },
  {
    "city": "el dorado hills",
    "state_code": "CA",
    "placeMasterId": "P02500000FsoEg5cocEI1ErTvsjxgZQPfOceAQBk",
    "placeName": "el dorado hills",
    "state": "CA"
  },
  {
    "city": "weed",
    "state_code": "CA",
    "placeMasterId": "P02500000FsoElwKOLTxDPUW4p27ovVdXYkbdJws",
    "placeName": "weed",
    "state": "CA"
  },
  {
    "city": "kurtistown",
    "state_code": "HI",
    "placeMasterId": "P02500000FsoEzLtH2kD1zxWSLMb6ZYWfSoWBeOm",
    "placeName": "kurtistown",
    "state": "HI"
  },
  {
    "city": "canby",
    "state_code": "OR",
    "placeMasterId": "P02500000FsoGOOCWyYI38OokQhK2MNEaNDycEco",
    "placeName": "canby",
    "state": "OR"
  },
  {
    "city": "gresham",
    "state_code": "OR",
    "placeMasterId": "P02500000FsoGOxaRO8bBsnnRdwhi0KZIB5J6s9t",
    "placeName": "gresham",
    "state": "OR"
  },
  {
    "city": "scappoose",
    "state_code": "OR",
    "placeMasterId": "P02500000FsoGPxVmbudgh0VfGd7dNlDYTqXOmsf",
    "placeName": "scappoose",
    "state": "OR"
  },
  {
    "city": "troutdale",
    "state_code": "OR",
    "placeMasterId": "P02500000FsoGQFCjohnG4D00sFoTCjwC8IKQsYv",
    "placeName": "troutdale",
    "state": "OR"
  },
  {
    "city": "portland",
    "state_code": "OR",
    "placeMasterId": "P02500000FsoGPfopP7U7Jo1Jf0QnYmTaqhg2Hwh",
    "placeName": "portland",
    "state": "OR"
  },
  {
    "city": "lincoln city",
    "state_code": "OR",
    "placeMasterId": "P02500000FsoGPFHOavklG0HnFZOXpJOAQXEdP76",
    "placeName": "lincoln city",
    "state": "OR"
  },
  {
    "city": "toledo",
    "state_code": "OR",
    "placeMasterId": "P02500000FsoGQ6MGDJDTNbkq4RT3IFf41kdpj0l",
    "placeName": "toledo",
    "state": "OR"
  },
  {
    "city": "eugene",
    "state_code": "OR",
    "placeMasterId": "P02500000FsoGOojxmk1PCCYGq8MI5qABIfZ8O2m",
    "placeName": "eugene",
    "state": "OR"
  },
  {
    "city": "athena",
    "state_code": "OR",
    "placeMasterId": "P02500000FsoGOFM3N9iGRnZZcsycRso9yGjXypR",
    "placeName": "athena",
    "state": "OR"
  },
  {
    "city": "helix",
    "state_code": "OR",
    "placeMasterId": "P02500000FsoGOxaRO8bBsnnRdwhi0KdyBwtwCuc",
    "placeName": "helix",
    "state": "OR"
  },
  {
    "city": "north powder",
    "state_code": "OR",
    "placeMasterId": "P02500000FsoGPfopP7U7Jo1Jf0QnYmTjolGsO2j",
    "placeName": "north powder",
    "state": "OR"
  },
  {
    "city": "renton",
    "state_code": "WA",
    "placeMasterId": "P02500000FsoH0ujRpa84eatnLwasMdUmishnjiO",
    "placeName": "renton",
    "state": "WA"
  },
  {
    "city": "seattle",
    "state_code": "WA",
    "placeMasterId": "P02500000FsoH13ZvQyhrLC8y9kwIH7vOQ9mB44J",
    "placeName": "seattle",
    "state": "WA"
  },
  {
    "city": "seattle",
    "state_code": "WA",
    "placeMasterId": "P02500000FsoH13ZvQyhrLC8y9kwIH7vOQ9mB44J",
    "placeName": "seattle",
    "state": "WA"
  },
  {
    "city": "gold bar",
    "state_code": "WA",
    "placeMasterId": "P02500000FsoGzUGfncMDmaS3Jp8hFjeZUJjJzxA",
    "placeName": "gold bar",
    "state": "WA"
  },
  {
    "city": "langley",
    "state_code": "WA",
    "placeMasterId": "P02500000FsoGzuo6bo5ZqOBZjGAwzCqi5Z7v1Rf",
    "placeName": "langley",
    "state": "WA"
  },
  {
    "city": "oak harbor",
    "state_code": "WA",
    "placeMasterId": "P02500000FsoH0UC11OOianAGwVYcdAMJoujJsHT",
    "placeName": "oak harbor",
    "state": "WA"
  },
  {
    "city": "puyallup",
    "state_code": "WA",
    "placeMasterId": "P02500000FsoH0ujRpa84eatnLwasMdN1YTtCRxU",
    "placeName": "puyallup",
    "state": "WA"
  },
  {
    "city": "olympia",
    "state_code": "WA",
    "placeMasterId": "P02500000FsoH0d2UcmyVHOPRkJu2Xed29tfTdi7",
    "placeName": "olympia",
    "state": "WA"
  },
  {
    "city": "hoodsport",
    "state_code": "WA",
    "placeMasterId": "P02500000FsoGzUGfncMDmaS3Jp8hFjnmsIWvwKt",
    "placeName": "hoodsport",
    "state": "WA"
  },
  {
    "city": "humptulips",
    "state_code": "WA",
    "placeMasterId": "P02500000FsoGzUGfncMDmaS3Jp8hFjnPwd2zCnA",
    "placeName": "humptulips",
    "state": "WA"
  },
  {
    "city": "mckenna",
    "state_code": "WA",
    "placeMasterId": "P02500000FsoH03eaDCfMWzQkX4WMthGxv0BQ7ou",
    "placeName": "mckenna",
    "state": "WA"
  },
  {
    "city": "longview",
    "state_code": "WA",
    "placeMasterId": "P02500000FsoGzuo6bo5ZqOBZjGAwzD03lzVv9c6",
    "placeName": "longview",
    "state": "WA"
  },
  {
    "city": "bridgeport",
    "state_code": "WA",
    "placeMasterId": "P02500000FsoGyULKZqJiyNjph8ilsJEFGfzpjut",
    "placeName": "bridgeport",
    "state": "WA"
  },
  {
    "city": "yakima",
    "state_code": "WA",
    "placeMasterId": "P02500000FsoH1loJRxammCMqAofNpZiywt4eY6R",
    "placeName": "yakima",
    "state": "WA"
  },
  {
    "city": "parker",
    "state_code": "WA",
    "placeMasterId": "P02500000FsoH0d2UcmyVHOPRkJu2XemkoRdXeSZ",
    "placeName": "parker",
    "state": "WA"
  },
  {
    "city": "deer park",
    "state_code": "WA",
    "placeMasterId": "P02500000FsoGyuslO2352BTM6Zl1bmLnhu45UWX",
    "placeName": "deer park",
    "state": "WA"
  },
  {
    "city": "spokane",
    "state_code": "WA",
    "placeMasterId": "P02500000FsoH1CQP2NHe1nO8xZHiBcLVG93v2e9",
    "placeName": "spokane",
    "state": "WA"
  },
  {
    "city": "dixie",
    "state_code": "WA",
    "placeMasterId": "P02500000FsoGz3jEzQcrimiWuO6RWGVJPzy5P5j",
    "placeName": "dixie",
    "state": "WA"
  },
  {
    "city": "anchorage",
    "state_code": "AK",
    "placeMasterId": "P02500000FsoEVxWun5JGSD6Yq5R0se5X03Bxqi1",
    "placeName": "anchorage",
    "state": "AK"
  },
  {
    "city": "gakona",
    "state_code": "AK",
    "placeMasterId": "P02500000FsoEWWupCfcPCc5G3KogWbW77vAfjtU",
    "placeName": "gakona",
    "state": "AK"
  },
  {
    "city": "platinum",
    "state_code": "AK",
    "placeMasterId": "P02500000FsoEXNzgp357KDYIsCtBzXk6TBuoeyA",
    "placeName": "platinum",
    "state": "AK"
  },
  {
    "city": "red devil",
    "state_code": "AK",
    "placeMasterId": "P02500000FsoEXNzgp357KDYIsCtBzXmgBLKeD3A",
    "placeName": "red devil",
    "state": "AK"
  },
  {
    "city": "stebbins",
    "state_code": "AK",
    "placeMasterId": "P02500000FsoEXfge1qEghQ2eTpa1oWTSKGu7Aef",
    "placeName": "stebbins",
    "state": "AK"
  },
  {
    "city": "lenox",
    "state_code": "GA",
    "placeMasterId": "P02500000FsoExM2abC82NY615zlFohKX3AZG6pI",
    "placeName": "lenox",
    "state": "GA"
  },
  {
    "city": "willacoochee",
    "state_code": "GA",
    "placeMasterId": "P02500000FsoEyvLqEYTfw9mvvvYqq5QOLUodxKY",
    "placeName": "willacoochee",
    "state": "GA"
  },
  {
    "city": "lumpkin",
    "state_code": "GA",
    "placeMasterId": "P02500000FsoExM2abC82NY615zlFohMbQMmtRLk",
    "placeName": "lumpkin",
    "state": "GA"
  },
  {
    "city": "mayo",
    "state_code": "FL",
    "placeMasterId": "P02500000FsoEsvnmtuEh4vVcBp3IZVn5HocpVnX",
    "placeName": "mayo",
    "state": "FL"
  },
  {
    "city": "crescent city",
    "state_code": "FL",
    "placeMasterId": "P02500000FsoEqn6cqxZuluq08ds1uAJhvDXcuWE",
    "placeName": "crescent city",
    "state": "FL"
  },
  {
    "city": "daytona beach",
    "state_code": "FL",
    "placeMasterId": "P02500000FsoEr4na3kjU97KLkGYrj8xivEZhdJx",
    "placeName": "daytona beach",
    "state": "FL"
  },
  {
    "city": "greenville",
    "state_code": "FL",
    "placeMasterId": "P02500000FsoErn1y4jcPa7YDlKHxHapQQLQwK6m",
    "placeName": "greenville",
    "state": "FL"
  },
  {
    "city": "pensacola",
    "state_code": "FL",
    "placeMasterId": "P02500000FsoEte2Aut7cVvjUCsmO7xi1ABLGBK0",
    "placeName": "pensacola",
    "state": "FL"
  },
  {
    "city": "fort walton beach",
    "state_code": "FL",
    "placeMasterId": "P02500000FsoErVL0rwSqCv3s9hb7Sc4zBC2il8s",
    "placeName": "fort walton beach",
    "state": "FL"
  },
  {
    "city": "sorrento",
    "state_code": "FL",
    "placeMasterId": "P02500000FsoEuMGYvs0XwvxMDwVTgPVZp7enQz8",
    "placeName": "sorrento",
    "state": "FL"
  },
  {
    "city": "orlando",
    "state_code": "FL",
    "placeMasterId": "P02500000FsoEtVBhJUXppKUJP4QyDTHMDbz9uFq",
    "placeName": "orlando",
    "state": "FL"
  },
  {
    "city": "homestead",
    "state_code": "FL",
    "placeMasterId": "P02500000FsoErvsRg8CCGinOZ8dNC5FcyBHlPvk",
    "placeName": "homestead",
    "state": "FL"
  },
  {
    "city": "pompano beach",
    "state_code": "FL",
    "placeMasterId": "P02500000FsoEtvj87gHBt8DpoVTDwwP6HVzAGAM",
    "placeName": "pompano beach",
    "state": "FL"
  },
  {
    "city": "pompano beach",
    "state_code": "FL",
    "placeMasterId": "P02500000FsoEtvj87gHBt8DpoVTDwwP6HVzAGAM",
    "placeName": "pompano beach",
    "state": "FL"
  },
  {
    "city": "miami",
    "state_code": "FL",
    "placeMasterId": "P02500000FsoEsvnmtuEh4vVcBp3IZVnnnRh03zn",
    "placeName": "miami",
    "state": "FL"
  },
  {
    "city": "miami",
    "state_code": "FL",
    "placeMasterId": "P02500000FsoEsvnmtuEh4vVcBp3IZVnnnRh03zn",
    "placeName": "miami",
    "state": "FL"
  },
  {
    "city": "miami",
    "state_code": "FL",
    "placeMasterId": "P02500000FsoEsvnmtuEh4vVcBp3IZVnnnRh03zn",
    "placeName": "miami",
    "state": "FL"
  },
  {
    "city": "delray beach",
    "state_code": "FL",
    "placeMasterId": "P02500000FsoEqvx6SM9hSW5AwSDRoedShzoxbKs",
    "placeName": "delray beach",
    "state": "FL"
  },
  {
    "city": "delray beach",
    "state_code": "FL",
    "placeMasterId": "P02500000FsoEqvx6SM9hSW5AwSDRoedShzoxbKs",
    "placeName": "delray beach",
    "state": "FL"
  },
  {
    "city": "wesley chapel",
    "state_code": "FL",
    "placeMasterId": "P02500000FsoEv4UwwqtTNwBEF0EZErMXpzJ5a9p",
    "placeName": "wesley chapel",
    "state": "FL"
  },
  {
    "city": "tampa",
    "state_code": "FL",
    "placeMasterId": "P02500000FsoEudxW8fA7K8RhpZCJVOG5RK5OQjD",
    "placeName": "tampa",
    "state": "FL"
  },
  {
    "city": "tampa",
    "state_code": "FL",
    "placeMasterId": "P02500000FsoEudxW8fA7K8RhpZCJVOG5RK5OQjD",
    "placeName": "tampa",
    "state": "FL"
  },
  {
    "city": "clearwater",
    "state_code": "FL",
    "placeMasterId": "P02500000FsoEqn6cqxZuluq08ds1uAGuY1C0NsC",
    "placeName": "clearwater",
    "state": "FL"
  },
  {
    "city": "bonita springs",
    "state_code": "FL",
    "placeMasterId": "P02500000FsoEqMZC2lqYi76TjCpmAh9BAHiIVL4",
    "placeName": "bonita springs",
    "state": "FL"
  },
  {
    "city": "bradenton",
    "state_code": "FL",
    "placeMasterId": "P02500000FsoEqVPfeAQLOiLeX1BC5BUGpFKoSYy",
    "placeName": "bradenton",
    "state": "FL"
  },
  {
    "city": "crystal river",
    "state_code": "FL",
    "placeMasterId": "P02500000FsoEqvx6SM9hSW5AwSDRoehshXE6Xvs",
    "placeName": "crystal river",
    "state": "FL"
  },
  {
    "city": "tarpon springs",
    "state_code": "FL",
    "placeMasterId": "P02500000FsoEudxW8fA7K8RhpZCJVOHFZ6zSPs8",
    "placeName": "tarpon springs",
    "state": "FL"
  },
  {
    "city": "fruitland park",
    "state_code": "FL",
    "placeMasterId": "P02500000FsoErVL0rwSqCv3s9hb7Sc7rXbcty2E",
    "placeName": "fruitland park",
    "state": "FL"
  },
  {
    "city": "fort pierce",
    "state_code": "FL",
    "placeMasterId": "P02500000FsoErMUXGXt3WJohLtFhY7n1iT0LCoC",
    "placeName": "fort pierce",
    "state": "FL"
  },
  {
    "city": "fairfield",
    "state_code": "AL",
    "placeMasterId": "P02500000FsoETX8nXLUulzwbBHYuOJiNF58Oax8",
    "placeName": "fairfield",
    "state": "AL"
  },
  {
    "city": "fultondale",
    "state_code": "AL",
    "placeMasterId": "P02500000FsoETfzH8k4hSbBlz5uKIo4BldZ0tM1",
    "placeName": "fultondale",
    "state": "AL"
  },
  {
    "city": "livingston",
    "state_code": "AL",
    "placeMasterId": "P02500000FsoEUODf9ixctbPe09dPrFub5QkFYqQ",
    "placeName": "livingston",
    "state": "AL"
  },
  {
    "city": "vernon",
    "state_code": "AL",
    "placeMasterId": "P02500000FsoEVogRBgjTlbrO2H5ay9fGbyhlXh7",
    "placeName": "vernon",
    "state": "AL"
  },
  {
    "city": "decatur",
    "state_code": "AL",
    "placeMasterId": "P02500000FsoETOIJvwv85OhQNTDUTpKFE3l04az",
    "placeName": "decatur",
    "state": "AL"
  },
  {
    "city": "huntsville",
    "state_code": "AL",
    "placeMasterId": "P02500000FsoEU6Whwvo3WOvIOWwa2HFC064RRO9",
    "placeName": "huntsville",
    "state": "AL"
  },
  {
    "city": "gadsden",
    "state_code": "AL",
    "placeMasterId": "P02500000FsoETfzH8k4hSbBlz5uKIo6YFvxq7aX",
    "placeName": "gadsden",
    "state": "AL"
  },
  {
    "city": "fort payne",
    "state_code": "AL",
    "placeMasterId": "P02500000FsoETX8nXLUulzwbBHYuOJl1urCFUhN",
    "placeName": "fort payne",
    "state": "AL"
  },
  {
    "city": "billingsley",
    "state_code": "AL",
    "placeMasterId": "P02500000FsoESouPWMbzKzijADpoprsM4yzDPMg",
    "placeName": "billingsley",
    "state": "AL"
  },
  {
    "city": "hayneville",
    "state_code": "AL",
    "placeMasterId": "P02500000FsoETxgELXEGpng7aibA7mnDe3FIzlv",
    "placeName": "hayneville",
    "state": "AL"
  },
  {
    "city": "loxley",
    "state_code": "AL",
    "placeMasterId": "P02500000FsoEUODf9ixctbPe09dPrFvQdChUVaB",
    "placeName": "loxley",
    "state": "AL"
  },
  {
    "city": "boykin",
    "state_code": "AL",
    "placeMasterId": "P02500000FsoESouPWMbzKzijADpoprudd1IgoKN",
    "placeName": "boykin",
    "state": "AL"
  },
  {
    "city": "dover",
    "state_code": "TN",
    "placeMasterId": "P02500000FsoGgMqgyV0zi5ehf0qhA5x2ivmFVBM",
    "placeName": "dover",
    "state": "TN"
  },
  {
    "city": "franklin",
    "state_code": "TN",
    "placeMasterId": "P02500000FsoGgeXeBIAZ5I93GdXWz4bcRW7fCRp",
    "placeName": "franklin",
    "state": "TN"
  },
  {
    "city": "pikeville",
    "state_code": "TN",
    "placeMasterId": "P02500000FsoGhVcVnfdHCtc65Vc2S10zVB34dNK",
    "placeName": "pikeville",
    "state": "TN"
  },
  {
    "city": "signal mountain",
    "state_code": "TN",
    "placeMasterId": "P02500000FsoGhnJT0Smqa66Rh8IsGzcv50yDR55",
    "placeName": "signal mountain",
    "state": "TN"
  },
  {
    "city": "tellico plains",
    "state_code": "TN",
    "placeMasterId": "P02500000FsoGhw9wbrMdGhLcUweIBUBTf3JhQ0U",
    "placeName": "tellico plains",
    "state": "TN"
  },
  {
    "city": "elgin",
    "state_code": "TN",
    "placeMasterId": "P02500000FsoGgMqgyV0zi5ehf0qhA605SER93sU",
    "placeName": "elgin",
    "state": "TN"
  },
  {
    "city": "new tazewell",
    "state_code": "TN",
    "placeMasterId": "P02500000FsoGhMm2CH3UWIMvHhGcXWdiZVMkyKo",
    "placeName": "new tazewell",
    "state": "TN"
  },
  {
    "city": "parrottsville",
    "state_code": "TN",
    "placeMasterId": "P02500000FsoGhVcVnfdHCtc65Vc2S0ujm3HO0MJ",
    "placeName": "parrottsville",
    "state": "TN"
  },
  {
    "city": "petros",
    "state_code": "TN",
    "placeMasterId": "P02500000FsoGhVcVnfdHCtc65Vc2S0tcNB1KRWG",
    "placeName": "petros",
    "state": "TN"
  },
  {
    "city": "knoxville",
    "state_code": "TN",
    "placeMasterId": "P02500000FsoGgwEbO5K8SUdOsGEMo3NrnN3KYab",
    "placeName": "knoxville",
    "state": "TN"
  },
  {
    "city": "brownsville",
    "state_code": "TN",
    "placeMasterId": "P02500000FsoGg59jlhrQKtAM3O9rL7856sg2mU7",
    "placeName": "brownsville",
    "state": "TN"
  },
  {
    "city": "memphis",
    "state_code": "TN",
    "placeMasterId": "P02500000FsoGh554zTtv95sZg4ZmiXoGr41AEmS",
    "placeName": "memphis",
    "state": "TN"
  },
  {
    "city": "mckenzie",
    "state_code": "TN",
    "placeMasterId": "P02500000FsoGh554zTtv95sZg4ZmiXnoCWNyePQ",
    "placeName": "mckenzie",
    "state": "TN"
  },
  {
    "city": "eva",
    "state_code": "TN",
    "placeMasterId": "P02500000FsoGgVhAZtamOgtsSpC74aDSzI7xiSc",
    "placeName": "eva",
    "state": "TN"
  },
  {
    "city": "iron city",
    "state_code": "TN",
    "placeMasterId": "P02500000FsoGgnO7mgkLltOE4RswtZ5ORAZBfEm",
    "placeName": "iron city",
    "state": "TN"
  },
  {
    "city": "crowder",
    "state_code": "MS",
    "placeMasterId": "P02500000FsoFh0tNc2pKFmPmBqIzNSB8Nl9xY8J",
    "placeName": "crowder",
    "state": "MS"
  },
  {
    "city": "sledge",
    "state_code": "MS",
    "placeMasterId": "P02500000FsoFi9fCRDRbkaNAcL4KfNExyTR0rON",
    "placeName": "sledge",
    "state": "MS"
  },
  {
    "city": "moorhead",
    "state_code": "MS",
    "placeMasterId": "P02500000FsoFhj7ld1iFgmdeCu24vu4qVO4Md1V",
    "placeName": "moorhead",
    "state": "MS"
  },
  {
    "city": "pace",
    "state_code": "MS",
    "placeMasterId": "P02500000FsoFi0oiporp3z7zoWiukskclrQdnah",
    "placeName": "pace",
    "state": "MS"
  },
  {
    "city": "baldwyn",
    "state_code": "MS",
    "placeMasterId": "P02500000FsoFgaLwnr5yBygFmPGjdzAHtEzwgpQ",
    "placeName": "baldwyn",
    "state": "MS"
  },
  {
    "city": "edwards",
    "state_code": "MS",
    "placeMasterId": "P02500000FsoFh0tNc2pKFmPmBqIzNSKZYOOHN2Q",
    "placeName": "edwards",
    "state": "MS"
  },
  {
    "city": "georgetown",
    "state_code": "MS",
    "placeMasterId": "P02500000FsoFh9jrDRP6wNewzeePHwhVNxsYnI0",
    "placeName": "georgetown",
    "state": "MS"
  },
  {
    "city": "raymond",
    "state_code": "MS",
    "placeMasterId": "P02500000FsoFi0oiporp3z7zoWiukstQEg6kMQw",
    "placeName": "raymond",
    "state": "MS"
  },
  {
    "city": "jackson",
    "state_code": "MS",
    "placeMasterId": "P02500000FsoFhRQoQEYgJa9IbHLF6vGkcb3WK7F",
    "placeName": "jackson",
    "state": "MS"
  },
  {
    "city": "jackson",
    "state_code": "MS",
    "placeMasterId": "P02500000FsoFhRQoQEYgJa9IbHLF6vGkcb3WK7F",
    "placeName": "jackson",
    "state": "MS"
  },
  {
    "city": "beaumont",
    "state_code": "MS",
    "placeMasterId": "P02500000FsoFgaLwnr5yBygFmPGjdzDvznVSusJ",
    "placeName": "beaumont",
    "state": "MS"
  },
  {
    "city": "woodville",
    "state_code": "MS",
    "placeMasterId": "P02500000FsoFiaCdFPAxoO6h1m6aOqEFyA7ZnAl",
    "placeName": "woodville",
    "state": "MS"
  },
  {
    "city": "starkville",
    "state_code": "MS",
    "placeMasterId": "P02500000FsoFiIVg2c1ORBcLQ9PkZrUOb7YvOfw",
    "placeName": "starkville",
    "state": "MS"
  },
  {
    "city": "sasser",
    "state_code": "GA",
    "placeMasterId": "P02500000FsoEyD7SDZakV9Z3urplHdbEVJHLqT6",
    "placeName": "sasser",
    "state": "GA"
  },
  {
    "city": "buckner",
    "state_code": "KY",
    "placeMasterId": "P02500000FsoFNK5UNLAxQsdjJmdJdqwuNQGyOvt",
    "placeName": "buckner",
    "state": "KY"
  },
  {
    "city": "lebanon",
    "state_code": "KY",
    "placeMasterId": "P02500000FsoFObhmnuN1cHqIY5k4qGQMoIDV1oS",
    "placeName": "lebanon",
    "state": "KY"
  },
  {
    "city": "radcliff",
    "state_code": "KY",
    "placeMasterId": "P02500000FsoFPJwAotFx3I4AZ9TAOiOBfvJsj7s",
    "placeName": "radcliff",
    "state": "KY"
  },
  {
    "city": "louisville",
    "state_code": "KY",
    "placeMasterId": "P02500000FsoFOkYGPIwoIt5TLu5UkkhkzCsPo64",
    "placeName": "louisville",
    "state": "KY"
  },
  {
    "city": "louisville",
    "state_code": "KY",
    "placeMasterId": "P02500000FsoFOkYGPIwoIt5TLu5UkkhkzCsPo64",
    "placeName": "louisville",
    "state": "KY"
  },
  {
    "city": "stanton",
    "state_code": "KY",
    "placeMasterId": "P02500000FsoFPkTbd4zJ75ngyaVQ8BKdIupNcEh",
    "placeName": "stanton",
    "state": "KY"
  },
  {
    "city": "brodhead",
    "state_code": "KY",
    "placeMasterId": "P02500000FsoFNBF0lwbAkHOYVyHtjMacqOhf27Y",
    "placeName": "brodhead",
    "state": "KY"
  },
  {
    "city": "lexington",
    "state_code": "KY",
    "placeMasterId": "P02500000FsoFOkYGPIwoIt5TLu5UkkeaJQ4MXLq",
    "placeName": "lexington",
    "state": "KY"
  },
  {
    "city": "augusta",
    "state_code": "KY",
    "placeMasterId": "P02500000FsoFNBF0lwbAkHOYVyHtjMXIcAUTvml",
    "placeName": "augusta",
    "state": "KY"
  },
  {
    "city": "warfield",
    "state_code": "KY",
    "placeMasterId": "P02500000FsoFQ2AYps8sUII2aDCFx9xwmWDyhZT",
    "placeName": "warfield",
    "state": "KY"
  },
  {
    "city": "ezel",
    "state_code": "KY",
    "placeMasterId": "P02500000FsoFNtTOmvU6BHcQX20zHoPHB7zD3Ox",
    "placeName": "ezel",
    "state": "KY"
  },
  {
    "city": "blackey",
    "state_code": "KY",
    "placeMasterId": "P02500000FsoFNBF0lwbAkHOYVyHtjMbJYvy3q4y",
    "placeName": "blackey",
    "state": "KY"
  },
  {
    "city": "bardwell",
    "state_code": "KY",
    "placeMasterId": "P02500000FsoFN2OXAY1O3g9Ni9wTosDg5Zg30NB",
    "placeName": "bardwell",
    "state": "KY"
  },
  {
    "city": "henderson",
    "state_code": "KY",
    "placeMasterId": "P02500000FsoFOK0pb7DSF5LwwT3F1HY7ZQDTx34",
    "placeName": "henderson",
    "state": "KY"
  },
  {
    "city": "princeton",
    "state_code": "KY",
    "placeMasterId": "P02500000FsoFPJwAotFx3I4AZ9TAOi8mKSlzX8e",
    "placeName": "princeton",
    "state": "KY"
  },
  {
    "city": "waverly",
    "state_code": "KY",
    "placeMasterId": "P02500000FsoFPtK5ETZ5nh2rmOqq2fgkGpLEoIl",
    "placeName": "waverly",
    "state": "KY"
  },
  {
    "city": "somerset",
    "state_code": "KY",
    "placeMasterId": "P02500000FsoFPbd81gPWQUYWAmA0Dh35CA94czD",
    "placeName": "somerset",
    "state": "KY"
  },
  {
    "city": "munfordville",
    "state_code": "KY",
    "placeMasterId": "P02500000FsoFP2FDc66Ng5ZoxWmKZjSDfaJTeMl",
    "placeName": "munfordville",
    "state": "KY"
  },
  {
    "city": "sonora",
    "state_code": "KY",
    "placeMasterId": "P02500000FsoFPbd81gPWQUYWAmA0Dgwo23zRpu9",
    "placeName": "sonora",
    "state": "KY"
  },
  {
    "city": "martinsburg",
    "state_code": "OH",
    "placeMasterId": "P02500000FsoGGOnnCLy4el6zRDydKwLmf1tyIch",
    "placeName": "martinsburg",
    "state": "OH"
  },
  {
    "city": "marysville",
    "state_code": "OH",
    "placeMasterId": "P02500000FsoGGOnnCLy4el6zRDydKwMcKAl2sjG",
    "placeName": "marysville",
    "state": "OH"
  },
  {
    "city": "ostrander",
    "state_code": "OH",
    "placeMasterId": "P02500000FsoGHOj8Q80ZSxpD3uOYiN4RcnEPe82",
    "placeName": "ostrander",
    "state": "OH"
  },
  {
    "city": "westerville",
    "state_code": "OH",
    "placeMasterId": "P02500000FsoGJFjLGHVmOm0TVSszYjozA5qZBjY",
    "placeName": "westerville",
    "state": "OH"
  },
  {
    "city": "pickerington",
    "state_code": "OH",
    "placeMasterId": "P02500000FsoGHXZc1WaM9Z4NrijycrS0l96aCE4",
    "placeName": "pickerington",
    "state": "OH"
  },
  {
    "city": "toledo",
    "state_code": "OH",
    "placeMasterId": "P02500000FsoGIpBuS5mQKyGx61qjpGheGoHOM1s",
    "placeName": "toledo",
    "state": "OH"
  },
  {
    "city": "fultonham",
    "state_code": "OH",
    "placeMasterId": "P02500000FsoGEge3xb2ePYAtnTpcP407mNd1KVQ",
    "placeName": "fultonham",
    "state": "OH"
  },
  {
    "city": "new concord",
    "state_code": "OH",
    "placeMasterId": "P02500000FsoGGyBhbwHDPA5geTMIytqO4n6GhKy",
    "placeName": "new concord",
    "state": "OH"
  },
  {
    "city": "senecaville",
    "state_code": "OH",
    "placeMasterId": "P02500000FsoGIOeTdu34HAXQgaoU5na8QrO1k9d",
    "placeName": "senecaville",
    "state": "OH"
  },
  {
    "city": "hanoverton",
    "state_code": "OH",
    "placeMasterId": "P02500000FsoGFG1yNBLn9x9b0jDI31IWzI7Mg0M",
    "placeName": "hanoverton",
    "state": "OH"
  },
  {
    "city": "sebring",
    "state_code": "OH",
    "placeMasterId": "P02500000FsoGIOeTdu34HAXQgaoU5nTYq2XVKkg",
    "placeName": "sebring",
    "state": "OH"
  },
  {
    "city": "smithville",
    "state_code": "OH",
    "placeMasterId": "P02500000FsoGIOeTdu34HAXQgaoU5nfszzx92Mq",
    "placeName": "smithville",
    "state": "OH"
  },
  {
    "city": "sulphur springs",
    "state_code": "OH",
    "placeMasterId": "P02500000FsoGIpBuS5mQKyGx61qjpGdLDXy1muB",
    "placeName": "sulphur springs",
    "state": "OH"
  },
  {
    "city": "mason",
    "state_code": "OH",
    "placeMasterId": "P02500000FsoGGOnnCLy4el6zRDydKwH6WI2audh",
    "placeName": "mason",
    "state": "OH"
  },
  {
    "city": "seven mile",
    "state_code": "OH",
    "placeMasterId": "P02500000FsoGIOeTdu34HAXQgaoU5nYcqAs3ARO",
    "placeName": "seven mile",
    "state": "OH"
  },
  {
    "city": "cincinnati",
    "state_code": "OH",
    "placeMasterId": "P02500000FsoGDpZCLDZwHwhqybl6w7e8Lps6H4x",
    "placeName": "cincinnati",
    "state": "OH"
  },
  {
    "city": "cincinnati",
    "state_code": "OH",
    "placeMasterId": "P02500000FsoGDpZCLDZwHwhqybl6w7e8Lps6H4x",
    "placeName": "cincinnati",
    "state": "OH"
  },
  {
    "city": "cincinnati",
    "state_code": "OH",
    "placeMasterId": "P02500000FsoGDpZCLDZwHwhqybl6w7e8Lps6H4x",
    "placeName": "cincinnati",
    "state": "OH"
  },
  {
    "city": "cincinnati",
    "state_code": "OH",
    "placeMasterId": "P02500000FsoGDpZCLDZwHwhqybl6w7e8Lps6H4x",
    "placeName": "cincinnati",
    "state": "OH"
  },
  {
    "city": "clifton",
    "state_code": "OH",
    "placeMasterId": "P02500000FsoGDpZCLDZwHwhqybl6w7jHuNAw9rQ",
    "placeName": "clifton",
    "state": "OH"
  },
  {
    "city": "buckland",
    "state_code": "OH",
    "placeMasterId": "P02500000FsoGDP1lX1qaE8yKZAirCeYEstYSPtU",
    "placeName": "buckland",
    "state": "OH"
  },
  {
    "city": "elgin",
    "state_code": "OH",
    "placeMasterId": "P02500000FsoGEXnaMCSriwvizfUCUZT1OspfCPJ",
    "placeName": "elgin",
    "state": "OH"
  },
  {
    "city": "forest",
    "state_code": "OH",
    "placeMasterId": "P02500000FsoGEge3xb2ePYAtnTpcP3tm6Kl4PyM",
    "placeName": "forest",
    "state": "OH"
  },
  {
    "city": "new hampshire",
    "state_code": "OH",
    "placeMasterId": "P02500000FsoGGyBhbwHDPA5geTMIytsfB2W59hF",
    "placeName": "new hampshire",
    "state": "OH"
  },
  {
    "city": "scott",
    "state_code": "OH",
    "placeMasterId": "P02500000FsoGIFo02VTHaZIFsmT4BJH2HXG7sQS",
    "placeName": "scott",
    "state": "OH"
  },
  {
    "city": "wapakoneta",
    "state_code": "OH",
    "placeMasterId": "P02500000FsoGJFjLGHVmOm0TVSszYjgYNoaz91A",
    "placeName": "wapakoneta",
    "state": "OH"
  },
  {
    "city": "arcadia",
    "state_code": "IN",
    "placeMasterId": "P02500000FsoF9CIDf62DPPPTmOQwRM8WKmGrteg",
    "placeName": "arcadia",
    "state": "IN"
  },
  {
    "city": "colfax",
    "state_code": "IN",
    "placeMasterId": "P02500000FsoF9cpeTHlZTD90BpTCApGcbgRNnid",
    "placeName": "colfax",
    "state": "IN"
  },
  {
    "city": "rossville",
    "state_code": "IN",
    "placeMasterId": "P02500000FsoFC3Dlj1Zv9QIxqdLIf9ZmbZpep0N",
    "placeName": "rossville",
    "state": "IN"
  },
  {
    "city": "paragon",
    "state_code": "IN",
    "placeMasterId": "P02500000FsoFBcgKupqZ5cZRRCJ2vgUBloGs8Vx",
    "placeName": "paragon",
    "state": "IN"
  },
  {
    "city": "crown point",
    "state_code": "IN",
    "placeMasterId": "P02500000FsoF9lg84gLM9oOAzdoc5Jbnq14luzN",
    "placeName": "crown point",
    "state": "IN"
  },
  {
    "city": "hammond",
    "state_code": "IN",
    "placeMasterId": "P02500000FsoFATuW5fEHaoc30hXhdlTShZesZR8",
    "placeName": "hammond",
    "state": "IN"
  },
  {
    "city": "hanna",
    "state_code": "IN",
    "placeMasterId": "P02500000FsoFATuW5fEHaoc30hXhdlUTf6SLxmu",
    "placeName": "hanna",
    "state": "IN"
  },
  {
    "city": "la porte",
    "state_code": "IN",
    "placeMasterId": "P02500000FsoFAlbTISNqy16OcKEXSkGZS3ejGTm",
    "placeName": "la porte",
    "state": "IN"
  },
  {
    "city": "north judson",
    "state_code": "IN",
    "placeMasterId": "P02500000FsoFBTprJRGmP1KGdNxd1C8vb6MovHg",
    "placeName": "north judson",
    "state": "IN"
  },
  {
    "city": "portage",
    "state_code": "IN",
    "placeMasterId": "P02500000FsoFBuNI7d08Sp3n2ozskfBGzuAUaZP",
    "placeName": "portage",
    "state": "IN"
  },
  {
    "city": "gary",
    "state_code": "IN",
    "placeMasterId": "P02500000FsoFAL42UGeUuDMsCtCHjH6C1Ea8Vf2",
    "placeName": "gary",
    "state": "IN"
  },
  {
    "city": "gary",
    "state_code": "IN",
    "placeMasterId": "P02500000FsoFAL42UGeUuDMsCtCHjH6C1Ea8Vf2",
    "placeName": "gary",
    "state": "IN"
  },
  {
    "city": "bourbon",
    "state_code": "IN",
    "placeMasterId": "P02500000FsoF9L8hGUc060eeaCmMLqWrnyWTSXz",
    "placeName": "bourbon",
    "state": "IN"
  },
  {
    "city": "culver",
    "state_code": "IN",
    "placeMasterId": "P02500000FsoF9lg84gLM9oOAzdoc5JchUanJXoS",
    "placeName": "culver",
    "state": "IN"
  },
  {
    "city": "butler",
    "state_code": "IN",
    "placeMasterId": "P02500000FsoF9L8hGUc060eeaCmMLqZ120YWZjM",
    "placeName": "butler",
    "state": "IN"
  },
  {
    "city": "fort wayne",
    "state_code": "IN",
    "placeMasterId": "P02500000FsoFACDYss4iDc7hP4qromiuPZZ994H",
    "placeName": "fort wayne",
    "state": "IN"
  },
  {
    "city": "delphi",
    "state_code": "IN",
    "placeMasterId": "P02500000FsoF9lg84gLM9oOAzdoc5JfZl0xvADH",
    "placeName": "delphi",
    "state": "IN"
  },
  {
    "city": "flora",
    "state_code": "IN",
    "placeMasterId": "P02500000FsoFA3N5HTUvX0sWbGVRuINh7jBhN8m",
    "placeName": "flora",
    "state": "IN"
  },
  {
    "city": "gas city",
    "state_code": "IN",
    "placeMasterId": "P02500000FsoFACDYss4iDc7hP4qromopNxetDn7",
    "placeName": "gas city",
    "state": "IN"
  },
  {
    "city": "marion",
    "state_code": "IN",
    "placeMasterId": "P02500000FsoFB3IQVFXQLDakDwvNHixP4HZSRQd",
    "placeName": "marion",
    "state": "IN"
  },
  {
    "city": "mexico",
    "state_code": "IN",
    "placeMasterId": "P02500000FsoFBC8u6e7D1opv1lGnCDNZbTi1CvO",
    "placeName": "mexico",
    "state": "IN"
  },
  {
    "city": "west college corner",
    "state_code": "IN",
    "placeMasterId": "P02500000FsoFClS9k0SqaQWprh4ODbR5mw4WHQe",
    "placeName": "west college corner",
    "state": "IN"
  },
  {
    "city": "campbellsburg",
    "state_code": "IN",
    "placeMasterId": "P02500000FsoF9TzArtBmmbtpO17mGKvnaj3LtLC",
    "placeName": "campbellsburg",
    "state": "IN"
  },
  {
    "city": "scottsburg",
    "state_code": "IN",
    "placeMasterId": "P02500000FsoFCC4FKQ9hq1Y8eRgiZdvTotKQJ9d",
    "placeName": "scottsburg",
    "state": "IN"
  },
  {
    "city": "lewisville",
    "state_code": "IN",
    "placeMasterId": "P02500000FsoFAuRwtqxdecLZQ8ZxNEbY1ThWHsp",
    "placeName": "lewisville",
    "state": "IN"
  },
  {
    "city": "shirley",
    "state_code": "IN",
    "placeMasterId": "P02500000FsoFCC4FKQ9hq1Y8eRgiZdyix3rq7FF",
    "placeName": "shirley",
    "state": "IN"
  },
  {
    "city": "birdseye",
    "state_code": "IN",
    "placeMasterId": "P02500000FsoF9CIDf62DPPPTmOQwRMB8dJwjR16",
    "placeName": "birdseye",
    "state": "IN"
  },
  {
    "city": "westphalia",
    "state_code": "IN",
    "placeMasterId": "P02500000FsoFClS9k0SqaQWprh4ODbQfRrniXoA",
    "placeName": "westphalia",
    "state": "IN"
  },
  {
    "city": "carbon",
    "state_code": "IN",
    "placeMasterId": "P02500000FsoF9TzArtBmmbtpO17mGKy7A0EgOpX",
    "placeName": "carbon",
    "state": "IN"
  },
  {
    "city": "lafayette",
    "state_code": "IN",
    "placeMasterId": "P02500000FsoFAlbTISNqy16OcKEXSkFmTbTx15f",
    "placeName": "lafayette",
    "state": "IN"
  },
  {
    "city": "perrysville",
    "state_code": "IN",
    "placeMasterId": "P02500000FsoFBlWoWEQLmDocF0eSqAovfLoVQNo",
    "placeName": "perrysville",
    "state": "IN"
  },
  {
    "city": "birmingham",
    "state_code": "MI",
    "placeMasterId": "P02500000FsoFXSBOCU9iDX16MR9zKdRM8n7LMIv",
    "placeName": "birmingham",
    "state": "MI"
  },
  {
    "city": "lincoln park",
    "state_code": "MI",
    "placeMasterId": "P02500000FsoFZJBb2dev9LCMnzeQB0787g1tpbd",
    "placeName": "lincoln park",
    "state": "MI"
  },
  {
    "city": "luna pier",
    "state_code": "MI",
    "placeMasterId": "P02500000FsoFZJBb2dev9LCMnzeQB0HlyJtbH4A",
    "placeName": "luna pier",
    "state": "MI"
  },
  {
    "city": "westland",
    "state_code": "MI",
    "placeMasterId": "P02500000FsoFasUqg00YhwtHdvS1COQSpIBnXjg",
    "placeName": "westland",
    "state": "MI"
  },
  {
    "city": "riverview",
    "state_code": "MI",
    "placeMasterId": "P02500000FsoFaJ6wGPhPxXuaQg4LYQhbCp3S0u1",
    "placeName": "riverview",
    "state": "MI"
  },
  {
    "city": "southgate",
    "state_code": "MI",
    "placeMasterId": "P02500000FsoFaRxProHCe99lEUPlSvGIaNhbojk",
    "placeName": "southgate",
    "state": "MI"
  },
  {
    "city": "detroit",
    "state_code": "MI",
    "placeMasterId": "P02500000FsoFY1ZIc4SqxvznZgXeyauoH5nCTkI",
    "placeName": "detroit",
    "state": "MI"
  },
  {
    "city": "detroit",
    "state_code": "MI",
    "placeMasterId": "P02500000FsoFY1ZIc4SqxvznZgXeyauoH5nCTkI",
    "placeName": "detroit",
    "state": "MI"
  },
  {
    "city": "oxford",
    "state_code": "MI",
    "placeMasterId": "P02500000FsoFa1Pz3cXqaLQEp3NVjRwZIiyKiXU",
    "placeName": "oxford",
    "state": "MI"
  },
  {
    "city": "novi",
    "state_code": "MI",
    "placeMasterId": "P02500000FsoFZjj1qpOHD8vtDQgfuTRrSsQgCcu",
    "placeName": "novi",
    "state": "MI"
  },
  {
    "city": "fenton",
    "state_code": "MI",
    "placeMasterId": "P02500000FsoFYJGForcQL8U9BJEUnZbSY0Mym6U",
    "placeName": "fenton",
    "state": "MI"
  },
  {
    "city": "bridgeport",
    "state_code": "MI",
    "placeMasterId": "P02500000FsoFXSBOCU9iDX16MR9zKdTLRUrodSJ",
    "placeName": "bridgeport",
    "state": "MI"
  },
  {
    "city": "turner",
    "state_code": "MI",
    "placeMasterId": "P02500000FsoFajeN4bQm1Le6q76bHtw3ooZXeWp",
    "placeName": "turner",
    "state": "MI"
  },
  {
    "city": "ashley",
    "state_code": "MI",
    "placeMasterId": "P02500000FsoFXAUQzh08qKWkkoT9Vee91lA0w09",
    "placeName": "ashley",
    "state": "MI"
  },
  {
    "city": "east lansing",
    "state_code": "MI",
    "placeMasterId": "P02500000FsoFYAPmDT2deXEyNUt4t5GifxPdGE0",
    "placeName": "east lansing",
    "state": "MI"
  },
  {
    "city": "eaton rapids",
    "state_code": "MI",
    "placeMasterId": "P02500000FsoFYJGForcQL8U9BJEUnZUanlbvVRk",
    "placeName": "eaton rapids",
    "state": "MI"
  },
  {
    "city": "bloomingdale",
    "state_code": "MI",
    "placeMasterId": "P02500000FsoFXSBOCU9iDX16MR9zKdKJEYmPzZC",
    "placeName": "bloomingdale",
    "state": "MI"
  },
  {
    "city": "cassopolis",
    "state_code": "MI",
    "placeMasterId": "P02500000FsoFXjsLPHJHajVRy3qp9c9YdUp1SS3",
    "placeName": "cassopolis",
    "state": "MI"
  },
  {
    "city": "riverside",
    "state_code": "MI",
    "placeMasterId": "P02500000FsoHmr7sUm3vWR8LImfIVECILVo8DeP",
    "placeName": "riverside",
    "state": "MI"
  },
  {
    "city": "litchfield",
    "state_code": "MI",
    "placeMasterId": "P02500000FsoFZAL7RF58SjxC0BJ0GVwSaNxCegz",
    "placeName": "litchfield",
    "state": "MI"
  },
  {
    "city": "montgomery",
    "state_code": "MI",
    "placeMasterId": "P02500000FsoFZasYFQoUWXgiPcLFzyvF0BN3MrJ",
    "placeName": "montgomery",
    "state": "MI"
  },
  {
    "city": "lowell",
    "state_code": "MI",
    "placeMasterId": "P02500000FsoFZJBb2dev9LCMnzeQB0FhUrxXEXy",
    "placeName": "lowell",
    "state": "MI"
  },
  {
    "city": "holland",
    "state_code": "MI",
    "placeMasterId": "P02500000FsoFYjngd3LmOwDfakGkX2k5V3FcLjc",
    "placeName": "holland",
    "state": "MI"
  },
  {
    "city": "holton",
    "state_code": "MI",
    "placeMasterId": "P02500000FsoHkHtHddfn9cjCqARm6PQtOFV8zCN",
    "placeName": "holton",
    "state": "MI"
  },
  {
    "city": "jenison",
    "state_code": "MI",
    "placeMasterId": "P02500000FsoFZ1UdpqVLm8i1CMxaM1V625Fytz6",
    "placeName": "jenison",
    "state": "MI"
  },
  {
    "city": "ludington",
    "state_code": "MI",
    "placeMasterId": "P02500000FsoFZJBb2dev9LCMnzeQB06sbpFj6xY",
    "placeName": "ludington",
    "state": "MI"
  },
  {
    "city": "saugatuck",
    "state_code": "MI",
    "placeMasterId": "P02500000FsoFaRxProHCe99lEUPlSv7pTqbIg4l",
    "placeName": "saugatuck",
    "state": "MI"
  },
  {
    "city": "grand rapids",
    "state_code": "MI",
    "placeMasterId": "P02500000FsoFYaxD1elziKyUmvvKcYHhKO7uwq1",
    "placeName": "grand rapids",
    "state": "MI"
  },
  {
    "city": "honor",
    "state_code": "MI",
    "placeMasterId": "P02500000FsoFYjngd3LmOwDfakGkX2uGJk67LrM",
    "placeName": "honor",
    "state": "MI"
  },
  {
    "city": "kalkaska",
    "state_code": "MI",
    "placeMasterId": "P02500000FsoFZ1UdpqVLm8i1CMxaM1UNdVRbov9",
    "placeName": "kalkaska",
    "state": "MI"
  },
  {
    "city": "manton",
    "state_code": "MI",
    "placeMasterId": "P02500000FsoFZS24e2EhpwRXbnzq5USfkzw861Z",
    "placeName": "manton",
    "state": "MI"
  },
  {
    "city": "suttons bay",
    "state_code": "MI",
    "placeMasterId": "P02500000FsoFaantTCqzKkOw2IlBNPdwPKgbyKA",
    "placeName": "suttons bay",
    "state": "MI"
  },
  {
    "city": "charlevoix",
    "state_code": "MI",
    "placeMasterId": "P02500000FsoFXjsLPHJHajVRy3qp9cAnacQsExp",
    "placeName": "charlevoix",
    "state": "MI"
  },
  {
    "city": "petoskey",
    "state_code": "MI",
    "placeMasterId": "P02500000FsoFa1Pz3cXqaLQEp3NVjS7DtQ294qn",
    "placeName": "petoskey",
    "state": "MI"
  },
  {
    "city": "michigamme",
    "state_code": "MI",
    "placeMasterId": "P02500000FsoFZasYFQoUWXgiPcLFzyxb0Xvn3oV",
    "placeName": "michigamme",
    "state": "MI"
  },
  {
    "city": "ankeny",
    "state_code": "IA",
    "placeMasterId": "P02500000FsoFDBzaYCCCeEGMH86dx4cE7i57Y8Q",
    "placeName": "ankeny",
    "state": "IA"
  },
  {
    "city": "elkhart",
    "state_code": "IA",
    "placeMasterId": "P02500000FsoFElIqBYXqCpxH73uEySbvHbQynny",
    "placeName": "elkhart",
    "state": "IA"
  },
  {
    "city": "polk city",
    "state_code": "IA",
    "placeMasterId": "P02500000FsoFHTNue5VlGFbaNUTBHlffYMYFxMl",
    "placeName": "polk city",
    "state": "IA"
  },
  {
    "city": "stanhope",
    "state_code": "IA",
    "placeMasterId": "P02500000FsoFIBcIf4OghFpSOYCGqDYvKAurvKP",
    "placeName": "stanhope",
    "state": "IA"
  },
  {
    "city": "somers",
    "state_code": "IA",
    "placeMasterId": "P02500000FsoFIBcIf4OghFpSOYCGqDYKmawwwID",
    "placeName": "somers",
    "state": "IA"
  },
  {
    "city": "allison",
    "state_code": "IA",
    "placeMasterId": "P02500000FsoFD396wncPxd1BTJlE2aDjVqMSTF5",
    "placeName": "allison",
    "state": "IA"
  },
  {
    "city": "janesville",
    "state_code": "IA",
    "placeMasterId": "P02500000FsoFFlEBPKaL12fUjkKALtDuggVqA5m",
    "placeName": "janesville",
    "state": "IA"
  },
  {
    "city": "mount ayr",
    "state_code": "IA",
    "placeMasterId": "P02500000FsoFGl9Wd6cppFNiMQk5jJsWdHhyvg6",
    "placeName": "mount ayr",
    "state": "IA"
  },
  {
    "city": "alton",
    "state_code": "IA",
    "placeMasterId": "P02500000FsoFD396wncPxd1BTJlE2aCAEk6s5we",
    "placeName": "alton",
    "state": "IA"
  },
  {
    "city": "battle creek",
    "state_code": "IA",
    "placeMasterId": "P02500000FsoFDKq49alzKpVX4wS3rYu3Oz8y9q1",
    "placeName": "battle creek",
    "state": "IA"
  },
  {
    "city": "cherokee",
    "state_code": "IA",
    "placeMasterId": "P02500000FsoFDuDyZB585EUEIBpjVWPxwyfOk8P",
    "placeName": "cherokee",
    "state": "IA"
  },
  {
    "city": "correctionville",
    "state_code": "IA",
    "placeMasterId": "P02500000FsoFEBuvlyEhSQyZtoWZKVANPB3Ylia",
    "placeName": "correctionville",
    "state": "IA"
  },
  {
    "city": "schaller",
    "state_code": "IA",
    "placeMasterId": "P02500000FsoFHtvLSHF7K3L6mvVR1Eoo227CMgq",
    "placeName": "schaller",
    "state": "IA"
  },
  {
    "city": "primghar",
    "state_code": "IA",
    "placeMasterId": "P02500000FsoFHTNue5VlGFbaNUTBHlgP9H2h4DY",
    "placeName": "primghar",
    "state": "IA"
  },
  {
    "city": "rock rapids",
    "state_code": "IA",
    "placeMasterId": "P02500000FsoFHl4rqsfKdS5vz7A16kQI8qtwK53",
    "placeName": "rock rapids",
    "state": "IA"
  },
  {
    "city": "gillett grove",
    "state_code": "IA",
    "placeMasterId": "P02500000FsoFF2znOLhPa2Rcigb4nRQ2mwB4MJA",
    "placeName": "gillett grove",
    "state": "IA"
  },
  {
    "city": "wallingford",
    "state_code": "IA",
    "placeMasterId": "P02500000FsoFIc9jTG82l3YynzEWZgiP1hwCWEu",
    "placeName": "wallingford",
    "state": "IA"
  },
  {
    "city": "lake city",
    "state_code": "IA",
    "placeMasterId": "P02500000FsoFFu4f0jA7hdufXYfaGNb0p6nzAlp",
    "placeName": "lake city",
    "state": "IA"
  },
  {
    "city": "hancock",
    "state_code": "IA",
    "placeMasterId": "P02500000FsoFFKgkb8qyxEvyKJHucQ5obZ4j0Sn",
    "placeName": "hancock",
    "state": "IA"
  },
  {
    "city": "garber",
    "state_code": "IA",
    "placeMasterId": "P02500000FsoFF2znOLhPa2Rcigb4nRNWIjcxYy5",
    "placeName": "garber",
    "state": "IA"
  },
  {
    "city": "holy cross",
    "state_code": "IA",
    "placeMasterId": "P02500000FsoFFTXECXQldqB987dKWuT3Bbc4Llj",
    "placeName": "holy cross",
    "state": "IA"
  },
  {
    "city": "north buena vista",
    "state_code": "IA",
    "placeMasterId": "P02500000FsoFH2qTptmPCRs3y3QvYIbULotfaNG",
    "placeName": "north buena vista",
    "state": "IA"
  },
  {
    "city": "sabula",
    "state_code": "IA",
    "placeMasterId": "P02500000FsoFHl4rqsfKdS5vz7A16kTMBHHqj6u",
    "placeName": "sabula",
    "state": "IA"
  },
  {
    "city": "lime springs",
    "state_code": "IA",
    "placeMasterId": "P02500000FsoFG2v8c7juOF9qLN10Aryp86HHxvj",
    "placeName": "lime springs",
    "state": "IA"
  },
  {
    "city": "luzerne",
    "state_code": "IA",
    "placeMasterId": "P02500000FsoFGBlcDWJh4qP19BMQ5MMXCVqsTAD",
    "placeName": "luzerne",
    "state": "IA"
  },
  {
    "city": "williamsburg",
    "state_code": "IA",
    "placeMasterId": "P02500000FsoFItqgg3Hc8G3KPbvMOfPOR2cU6qa",
    "placeName": "williamsburg",
    "state": "IA"
  },
  {
    "city": "wyoming",
    "state_code": "IA",
    "placeMasterId": "P02500000FsoFItqgg3Hc8G3KPbvMOfVCehJiCsA",
    "placeName": "wyoming",
    "state": "IA"
  },
  {
    "city": "cedar rapids",
    "state_code": "IA",
    "placeMasterId": "P02500000FsoFDuDyZB585EUEIBpjVWPCEPVewtT",
    "placeName": "cedar rapids",
    "state": "IA"
  },
  {
    "city": "plano",
    "state_code": "IA",
    "placeMasterId": "P02500000FsoFHKXR2gvyZeMPZg7lNHJFTcDkhJZ",
    "placeName": "plano",
    "state": "IA"
  },
  {
    "city": "stockport",
    "state_code": "IA",
    "placeMasterId": "P02500000FsoFIBcIf4OghFpSOYCGqDZJiNjzeEn",
    "placeName": "stockport",
    "state": "IA"
  },
  {
    "city": "new berlin",
    "state_code": "WI",
    "placeMasterId": "P02500000FsoH737ylcwqCQQHtrRqXhN9VsJNJFi",
    "placeName": "new berlin",
    "state": "WI"
  },
  {
    "city": "mukwonago",
    "state_code": "WI",
    "placeMasterId": "P02500000FsoHG2S3lbJJUGqGW1DAwYls9sCPKsk",
    "placeName": "mukwonago",
    "state": "WI"
  },
  {
    "city": "rochester",
    "state_code": "WI",
    "placeMasterId": "P02500000FsoH7lMMmbpldQe9uvAw698vazpVYi8",
    "placeName": "rochester",
    "state": "WI"
  },
  {
    "city": "wales",
    "state_code": "WI",
    "placeMasterId": "P02500000FsoH8KkHCC8uNpcr8AYbk6daluG9A8m",
    "placeName": "wales",
    "state": "WI"
  },
  {
    "city": "williams bay",
    "state_code": "WI",
    "placeMasterId": "P02500000FsoH8Taknaih4Qs1vyu1ebAyJt2hfxz",
    "placeName": "williams bay",
    "state": "WI"
  },
  {
    "city": "rewey",
    "state_code": "WI",
    "placeMasterId": "P02500000FsoH7cVtBDFywpOz76pWBeuRUB2OrWS",
    "placeName": "rewey",
    "state": "WI"
  },
  {
    "city": "woodford",
    "state_code": "WI",
    "placeMasterId": "P02500000FsoH8cREOzITl27CjnFRZ5PYEkkn56B",
    "placeName": "woodford",
    "state": "WI"
  },
  {
    "city": "madison",
    "state_code": "WI",
    "placeMasterId": "P02500000FsoH6caXxRDU8cglUQPaoEDC1yqNdF5",
    "placeName": "madison",
    "state": "WI"
  },
  {
    "city": "madison",
    "state_code": "WI",
    "placeMasterId": "P02500000FsoH6caXxRDU8cglUQPaoEDC1yqNdF5",
    "placeName": "madison",
    "state": "WI"
  },
  {
    "city": "madison",
    "state_code": "WI",
    "placeMasterId": "P02500000FsoH6caXxRDU8cglUQPaoEDC1yqNdF5",
    "placeName": "madison",
    "state": "WI"
  },
  {
    "city": "bagley",
    "state_code": "WI",
    "placeMasterId": "P02500000FsoHFT49M10AjrrZIlpVIbEq35xgPpx",
    "placeName": "bagley",
    "state": "WI"
  },
  {
    "city": "rosholt",
    "state_code": "WI",
    "placeMasterId": "P02500000FsoH7lMMmbpldQe9uvAw69AARNz4ybW",
    "placeName": "rosholt",
    "state": "WI"
  },
  {
    "city": "kennan",
    "state_code": "WI",
    "placeMasterId": "P02500000FsoHFbucxPZxQT6k6aAvD5abVoMclhF",
    "placeName": "kennan",
    "state": "WI"
  },
  {
    "city": "land o'lakes",
    "state_code": "WI",
    "placeMasterId": "P02500000FsoIhvgrlKw2Mj22faqSxAjX7C4oMZM",
    "placeName": "land o'lakes",
    "state": "WI"
  },
  {
    "city": "sparta",
    "state_code": "WI",
    "placeMasterId": "P02500000FsoH7uCqO0PYK1tKijWM0dhSt2FEapX",
    "placeName": "sparta",
    "state": "WI"
  },
  {
    "city": "boyd",
    "state_code": "WI",
    "placeMasterId": "P02500000FsoH4cjrVt8UWDGKF3Zk3NDI69aBFdr",
    "placeName": "boyd",
    "state": "WI"
  },
  {
    "city": "ladysmith",
    "state_code": "WI",
    "placeMasterId": "P02500000FsoH6Ktake3ulQCPsnikzFTOXrRp04N",
    "placeName": "ladysmith",
    "state": "WI"
  },
  {
    "city": "luck",
    "state_code": "WI",
    "placeMasterId": "P02500000FsoHFbucxPZxQT6k6aAvD5bTHceUpOo",
    "placeName": "luck",
    "state": "WI"
  },
  {
    "city": "port wing",
    "state_code": "WI",
    "placeMasterId": "P02500000FsoIjV07OhHfvKixVWe3yYk0T3mpabE",
    "placeName": "port wing",
    "state": "WI"
  },
  {
    "city": "sarona",
    "state_code": "WI",
    "placeMasterId": "P02500000FsoIjmh4bURFIXDJ79KtnXZ8sZbVfaa",
    "placeName": "sarona",
    "state": "WI"
  },
  {
    "city": "shell lake",
    "state_code": "WI",
    "placeMasterId": "P02500000FsoH7uCqO0PYK1tKijWM0dXUaOBGWpB",
    "placeName": "shell lake",
    "state": "WI"
  },
  {
    "city": "embarrass",
    "state_code": "WI",
    "placeMasterId": "P02500000FsoH5Toj8GbCdojN3veFWJU7sWxKMyP",
    "placeName": "embarrass",
    "state": "WI"
  },
  {
    "city": "plainfield",
    "state_code": "WI",
    "placeMasterId": "P02500000FsoHGBIXMzt6As5RJpYar36EqMDJnBm",
    "placeName": "plainfield",
    "state": "WI"
  },
  {
    "city": "poy sippi",
    "state_code": "WI",
    "placeMasterId": "P02500000FsoIjM9dnIhtEjTmhiIe44RoNzWuvjA",
    "placeName": "poy sippi",
    "state": "WI"
  },
  {
    "city": "princeton",
    "state_code": "WI",
    "placeMasterId": "P02500000FsoH7TfPZogCGE9oJIU6HAWn5N23PwV",
    "placeName": "princeton",
    "state": "WI"
  },
  {
    "city": "van dyne",
    "state_code": "WI",
    "placeMasterId": "P02500000FsoH8BtnanZ7hENgKMDBpcQx9Bbsgby",
    "placeName": "van dyne",
    "state": "WI"
  },
  {
    "city": "braham",
    "state_code": "MN",
    "placeMasterId": "P02500000FsoFbajEgytU8x79ezB6kq7Y7rs0gDN",
    "placeName": "braham",
    "state": "MN"
  },
  {
    "city": "elko new market",
    "state_code": "MN",
    "placeMasterId": "P02500000FsoFcRo6JMMCGYaCTrFcDmMpx20rXzV",
    "placeName": "elko new market",
    "state": "MN"
  },
  {
    "city": "elko new market",
    "state_code": "MN",
    "placeMasterId": "P02500000FsoFcRo6JMMCGYaCTrFcDmMpx20rXzV",
    "placeName": "elko new market",
    "state": "MN"
  },
  {
    "city": "maple lake",
    "state_code": "MN",
    "placeMasterId": "P02500000FsoFe9xpY7HcVlWI7bOd9elS0XIdthz",
    "placeName": "maple lake",
    "state": "MN"
  },
  {
    "city": "mound",
    "state_code": "MN",
    "placeMasterId": "P02500000FsoFeRemkuRBsy0djE5SydebDNjcxOO",
    "placeName": "mound",
    "state": "MN"
  },
  {
    "city": "rogers",
    "state_code": "MN",
    "placeMasterId": "P02500000FsoFf9tAltK7JyEVkHoYX5RHWWAymlO",
    "placeName": "rogers",
    "state": "MN"
  },
  {
    "city": "minneapolis",
    "state_code": "MN",
    "placeMasterId": "P02500000FsoFeIoJ9VrPCMlSvPk349D9alJlgNT",
    "placeName": "minneapolis",
    "state": "MN"
  },
  {
    "city": "minneapolis",
    "state_code": "MN",
    "placeMasterId": "P02500000FsoFeIoJ9VrPCMlSvPk349D9alJlgNT",
    "placeName": "minneapolis",
    "state": "MN"
  },
  {
    "city": "minneapolis",
    "state_code": "MN",
    "placeMasterId": "P02500000FsoFeIoJ9VrPCMlSvPk349D9alJlgNT",
    "placeName": "minneapolis",
    "state": "MN"
  },
  {
    "city": "two harbors",
    "state_code": "MN",
    "placeMasterId": "P02500000FsoFfs7YmsD2kySNlLXe5XOIlnISOon",
    "placeName": "two harbors",
    "state": "MN"
  },
  {
    "city": "calumet",
    "state_code": "MN",
    "placeMasterId": "P02500000FsoFbsQBtm33W9bVGbrwZoqjNZBLKnR",
    "placeName": "calumet",
    "state": "MN"
  },
  {
    "city": "gilbert",
    "state_code": "MN",
    "placeMasterId": "P02500000FsoFcsLX7Y5YKMJitIHrxFWSJKHaicI",
    "placeName": "gilbert",
    "state": "MN"
  },
  {
    "city": "nashwauk",
    "state_code": "MN",
    "placeMasterId": "P02500000FsoFeaVGMJ0yZZFoX2Qst7s99XSMdmb",
    "placeName": "nashwauk",
    "state": "MN"
  },
  {
    "city": "duluth",
    "state_code": "MN",
    "placeMasterId": "P02500000FsoFcRo6JMMCGYaCTrFcDmMBFYsYM4N",
    "placeName": "duluth",
    "state": "MN"
  },
  {
    "city": "conger",
    "state_code": "MN",
    "placeMasterId": "P02500000FsoFc1GfVAcqCkqg4QDMUJGgCOf6ia9",
    "placeName": "conger",
    "state": "MN"
  },
  {
    "city": "le sueur",
    "state_code": "MN",
    "placeMasterId": "P02500000FsoFdsGsLK838Z1wVyhnKg8wQ17VrJM",
    "placeName": "le sueur",
    "state": "MN"
  },
  {
    "city": "dunnell",
    "state_code": "MN",
    "placeMasterId": "P02500000FsoFcIxchxmPZxL1g2uCJI6Fml9Wawl",
    "placeName": "dunnell",
    "state": "MN"
  },
  {
    "city": "ihlen",
    "state_code": "MN",
    "placeMasterId": "P02500000FsoFdRjRX8Oh4lIQ6XfXbCuGsWGHjkd",
    "placeName": "ihlen",
    "state": "MN"
  },
  {
    "city": "kenneth",
    "state_code": "MN",
    "placeMasterId": "P02500000FsoFdaZv8WyTlMXauM0xVhHrRRuGGk6",
    "placeName": "kenneth",
    "state": "MN"
  },
  {
    "city": "revere",
    "state_code": "MN",
    "placeMasterId": "P02500000FsoFf9tAltK7JyEVkHoYX5RvtuzWVSF",
    "placeName": "revere",
    "state": "MN"
  },
  {
    "city": "benson",
    "state_code": "MN",
    "placeMasterId": "P02500000FsoFbRsl5aJhSLryrApgqLscAujcFE5",
    "placeName": "benson",
    "state": "MN"
  },
  {
    "city": "morton",
    "state_code": "MN",
    "placeMasterId": "P02500000FsoFeIoJ9VrPCMlSvPk349HwNYDhafX",
    "placeName": "morton",
    "state": "MN"
  },
  {
    "city": "vesta",
    "state_code": "MN",
    "placeMasterId": "P02500000FsoFg0y2OGmpRZhYZ9t401cQ0idloIl",
    "placeName": "vesta",
    "state": "MN"
  },
  {
    "city": "barrett",
    "state_code": "MN",
    "placeMasterId": "P02500000FsoFbJ2HUBjulkco3MUGvrP4kgv2Klv",
    "placeName": "barrett",
    "state": "MN"
  },
  {
    "city": "collegeville",
    "state_code": "MN",
    "placeMasterId": "P02500000FsoHqQHoZgUYhSFhO5IkHTSgWnLYxVy",
    "placeName": "collegeville",
    "state": "MN"
  },
  {
    "city": "dalton",
    "state_code": "MN",
    "placeMasterId": "P02500000FsoFcA796ZCctM5qsEYmOngRUjaFxoG",
    "placeName": "dalton",
    "state": "MN"
  },
  {
    "city": "foreston",
    "state_code": "MN",
    "placeMasterId": "P02500000FsoFcsLX7Y5YKMJitIHrxFNTwt19GDZ",
    "placeName": "foreston",
    "state": "MN"
  },
  {
    "city": "sauk rapids",
    "state_code": "MN",
    "placeMasterId": "P02500000FsoFfRa7ygTghAirLuVOM4EToK8CwmU",
    "placeName": "sauk rapids",
    "state": "MN"
  },
  {
    "city": "starbuck",
    "state_code": "MN",
    "placeMasterId": "P02500000FsoFfjH5BTdG4NDCxXCEB2q7zh37dpa",
    "placeName": "starbuck",
    "state": "MN"
  },
  {
    "city": "bluffton",
    "state_code": "MN",
    "placeMasterId": "P02500000FsoFbajEgytU8x79ezB6kq8rLtn2ZSP",
    "placeName": "bluffton",
    "state": "MN"
  },
  {
    "city": "henning",
    "state_code": "MN",
    "placeMasterId": "P02500000FsoFdIsxvjouOA3FIjK7gibIZKBSvDD",
    "placeName": "henning",
    "state": "MN"
  },
  {
    "city": "kent",
    "state_code": "MN",
    "placeMasterId": "P02500000FsoFdaZv8WyTlMXauM0xVhIN7JlRx4x",
    "placeName": "kent",
    "state": "MN"
  },
  {
    "city": "ulen",
    "state_code": "MN",
    "placeMasterId": "P02500000FsoFfs7YmsD2kySNlLXe5XGFiLeZqgG",
    "placeName": "ulen",
    "state": "MN"
  },
  {
    "city": "white earth",
    "state_code": "MN",
    "placeMasterId": "P02500000FsoFgIezb3wOomBuAmZtp0KU8huBpFi",
    "placeName": "white earth",
    "state": "MN"
  },
  {
    "city": "hines",
    "state_code": "MN",
    "placeMasterId": "P02500000FsoHt8Mt2DSTkru0eVrgamSzZ78Et7a",
    "placeName": "hines",
    "state": "MN"
  },
  {
    "city": "ranier",
    "state_code": "MN",
    "placeMasterId": "P02500000FsoFf12hAUkKdMzKwTT8cb43RqPW9br",
    "placeName": "ranier",
    "state": "MN"
  },
  {
    "city": "viking",
    "state_code": "MN",
    "placeMasterId": "P02500000FsoFg0y2OGmpRZhYZ9t401eR7wgvUcP",
    "placeName": "viking",
    "state": "MN"
  },
  {
    "city": "trent",
    "state_code": "SD",
    "placeMasterId": "P02500000FsoGfMvLkiyUtswU2KQlmfNwXYhq4Rz",
    "placeName": "trent",
    "state": "SD"
  },
  {
    "city": "volga",
    "state_code": "SD",
    "placeMasterId": "P02500000FsoGfVlpM7YHaUBeq8mBh9kzEcdF9QA",
    "placeName": "volga",
    "state": "SD"
  },
  {
    "city": "astoria",
    "state_code": "SD",
    "placeMasterId": "P02500000FsoGdVv8uZTHy4lDalwKwIhN73FvyRx",
    "placeName": "astoria",
    "state": "SD"
  },
  {
    "city": "willow lake",
    "state_code": "SD",
    "placeMasterId": "P02500000FsoGfVlpM7YHaUBeq8mBh9pdsVByZRA",
    "placeName": "willow lake",
    "state": "SD"
  },
  {
    "city": "pickstown",
    "state_code": "SD",
    "placeMasterId": "P02500000FsoGf5EOXvovWgS8QhjvxgVqn77wmU2",
    "placeName": "pickstown",
    "state": "SD"
  },
  {
    "city": "stratford",
    "state_code": "SD",
    "placeMasterId": "P02500000FsoGfMvLkiyUtswU2KQlmfIZmTIvdbs",
    "placeName": "stratford",
    "state": "SD"
  },
  {
    "city": "okaton",
    "state_code": "SD",
    "placeMasterId": "P02500000FsoGewNuwXF8q5CxctOW3CJDXb8RLza",
    "placeName": "okaton",
    "state": "SD"
  },
  {
    "city": "presho",
    "state_code": "SD",
    "placeMasterId": "P02500000FsoGf5EOXvovWgS8QhjvxgftJ3XKjg0",
    "placeName": "presho",
    "state": "SD"
  },
  {
    "city": "whitehorse",
    "state_code": "SD",
    "placeMasterId": "P02500000FsoGfVlpM7YHaUBeq8mBh9qUlckHPxf",
    "placeName": "whitehorse",
    "state": "SD"
  },
  {
    "city": "porcupine",
    "state_code": "SD",
    "placeMasterId": "P02500000FsoGf5EOXvovWgS8QhjvxgdlukWmsiR",
    "placeName": "porcupine",
    "state": "SD"
  },
  {
    "city": "page",
    "state_code": "ND",
    "placeMasterId": "P02500000FsoGBpiVtfUwfXHPjEvGBGYSk1fnRts",
    "placeName": "page",
    "state": "ND"
  },
  {
    "city": "walhalla",
    "state_code": "ND",
    "placeMasterId": "P02500000FsoGCP6QJFo5PwG6wUIvpDvKXI4n5ef",
    "placeName": "walhalla",
    "state": "ND"
  },
  {
    "city": "lawton",
    "state_code": "ND",
    "placeMasterId": "P02500000FsoGBY1YgsLNIKn47cEQMHerOP8irCf",
    "placeName": "lawton",
    "state": "ND"
  },
  {
    "city": "munich",
    "state_code": "ND",
    "placeMasterId": "P02500000FsoGBgs2IGv9yw2EvQZqGmGxHFBsCpf",
    "placeName": "munich",
    "state": "ND"
  },
  {
    "city": "dazey",
    "state_code": "ND",
    "placeMasterId": "P02500000FsoGAgwh4UsfAjK1Ik9utLOAPnUe5qR",
    "placeName": "dazey",
    "state": "ND"
  },
  {
    "city": "fullerton",
    "state_code": "ND",
    "placeMasterId": "P02500000FsoGAydeHI2EXvoMuMqkiK97E9TAO5l",
    "placeName": "fullerton",
    "state": "ND"
  },
  {
    "city": "jud",
    "state_code": "ND",
    "placeMasterId": "P02500000FsoGBPB55TlabjXtJnt0RnJiH2lABmQ",
    "placeName": "jud",
    "state": "ND"
  },
  {
    "city": "pettibone",
    "state_code": "ND",
    "placeMasterId": "P02500000FsoGByYzV44jM8WaX3Gg5ko28pb9Eqy",
    "placeName": "pettibone",
    "state": "ND"
  },
  {
    "city": "new salem",
    "state_code": "ND",
    "placeMasterId": "P02500000FsoGBpiVtfUwfXHPjEvGBGTVMGGeiAf",
    "placeName": "new salem",
    "state": "ND"
  },
  {
    "city": "medora",
    "state_code": "ND",
    "placeMasterId": "P02500000FsoGBgs2IGv9yw2EvQZqGm9JAnsGBot",
    "placeName": "medora",
    "state": "ND"
  },
  {
    "city": "vienna",
    "state_code": "VA",
    "placeMasterId": "P02500000FsoGxuxQAG0aDyl8TtL6ELh7dHoOve2",
    "placeName": "vienna",
    "state": "VA"
  },
  {
    "city": "arrington",
    "state_code": "VA",
    "placeMasterId": "P02500000FsoGudURI8jWQA880DOUH59D9iXqAlR",
    "placeName": "arrington",
    "state": "VA"
  },
  {
    "city": "amelia court house",
    "state_code": "VA",
    "placeMasterId": "P02500000FsoGudURI8jWQA880DOUH53nL2QoF5X",
    "placeName": "amelia court house",
    "state": "VA"
  },
  {
    "city": "mineral",
    "state_code": "VA",
    "placeMasterId": "P02500000FsoGwdL7jgoW2ZYZFaEL1wL3ihwXa6P",
    "placeName": "mineral",
    "state": "VA"
  },
  {
    "city": "greenbackville",
    "state_code": "VA",
    "placeMasterId": "P02500000FsoGvmGG7JLnuy5WQi9pZ0CIom0R0uu",
    "placeName": "greenbackville",
    "state": "VA"
  },
  {
    "city": "tangier",
    "state_code": "VA",
    "placeMasterId": "P02500000FsoGxm6wYrQnXNVxg4zgJrCeKaXNhzs",
    "placeName": "tangier",
    "state": "VA"
  },
  {
    "city": "wachapreague",
    "state_code": "VA",
    "placeMasterId": "P02500000FsoGxuxQAG0aDyl8TtL6ELhyqqsspuf",
    "placeName": "wachapreague",
    "state": "VA"
  },
  {
    "city": "newport news",
    "state_code": "VA",
    "placeMasterId": "P02500000FsoGwmBbL5OIjAnk3OZkwQlvDbncqYB",
    "placeName": "newport news",
    "state": "VA"
  },
  {
    "city": "newport news",
    "state_code": "VA",
    "placeMasterId": "P02500000FsoGwmBbL5OIjAnk3OZkwQlvDbncqYB",
    "placeName": "newport news",
    "state": "VA"
  },
  {
    "city": "yorktown",
    "state_code": "VA",
    "placeMasterId": "P02500000FsoGy3ntleaMua0JHhgW8q4paQ08CpQ",
    "placeName": "yorktown",
    "state": "VA"
  },
  {
    "city": "sedley",
    "state_code": "VA",
    "placeMasterId": "P02500000FsoGxUPzM4HEAB1c4SIqUsW65OtioqQ",
    "placeName": "sedley",
    "state": "VA"
  },
  {
    "city": "stony creek",
    "state_code": "VA",
    "placeMasterId": "P02500000FsoGxdGSxSr0qmGmsGeGPMy0wWK9KJf",
    "placeName": "stony creek",
    "state": "VA"
  },
  {
    "city": "la crosse",
    "state_code": "VA",
    "placeMasterId": "P02500000FsoGwCngvV59ylp2q9C5IT8y3N7tQ4F",
    "placeName": "la crosse",
    "state": "VA"
  },
  {
    "city": "dublin",
    "state_code": "VA",
    "placeMasterId": "P02500000FsoGvUZIuWCEXlbAp5Szk1MKnXsrVSS",
    "placeName": "dublin",
    "state": "VA"
  },
  {
    "city": "cleveland",
    "state_code": "VA",
    "placeMasterId": "P02500000FsoGvCsLhj2fAZ6pDSm9v2d86X3DOUs",
    "placeName": "cleveland",
    "state": "VA"
  },
  {
    "city": "dungannon",
    "state_code": "VA",
    "placeMasterId": "P02500000FsoGvUZIuWCEXlbAp5Szk1O8zeisuQq",
    "placeName": "dungannon",
    "state": "VA"
  },
  {
    "city": "pound",
    "state_code": "VA",
    "placeMasterId": "P02500000FsoGxCj29H7emyXGSpc0ftm1VM0jY91",
    "placeName": "pound",
    "state": "VA"
  },
  {
    "city": "staunton",
    "state_code": "VA",
    "placeMasterId": "P02500000FsoGxdGSxSr0qmGmsGeGPMxSK1sFl7P",
    "placeName": "staunton",
    "state": "VA"
  },
  {
    "city": "covington",
    "state_code": "VA",
    "placeMasterId": "P02500000FsoGvLipJ7cRrAM01H7ZpWzpRzCkWsh",
    "placeName": "covington",
    "state": "VA"
  },
  {
    "city": "altavista",
    "state_code": "VA",
    "placeMasterId": "P02500000FsoGuUdxgk9jjYsxCP34MamCzH11XdO",
    "placeName": "altavista",
    "state": "VA"
  },
  {
    "city": "bartley",
    "state_code": "WV",
    "placeMasterId": "P02500000FsoH23VGekkM9OrBmRMDeYLA782QupG",
    "placeName": "bartley",
    "state": "WV"
  },
  {
    "city": "bradshaw",
    "state_code": "WV",
    "placeMasterId": "P02500000FsoH23VGekkM9OrBmRMDeYUXPcHh8oK",
    "placeName": "bradshaw",
    "state": "WV"
  },
  {
    "city": "charleston",
    "state_code": "WV",
    "placeMasterId": "P02500000FsoH2LCDrXtvWbLXO433TXAEFw0vAwR",
    "placeName": "charleston",
    "state": "WV"
  },
  {
    "city": "eccles",
    "state_code": "WV",
    "placeMasterId": "P02500000FsoH2U2hSwTiDCaiBsOTO1e9K9oMAke",
    "placeName": "eccles",
    "state": "WV"
  },
  {
    "city": "jane lew",
    "state_code": "WV",
    "placeMasterId": "P02500000FsoH33QbsWmqxbZPP7m91ywqCfvDCMf",
    "placeName": "jane lew",
    "state": "WV"
  },
  {
    "city": "franklinville",
    "state_code": "NC",
    "placeMasterId": "P02500000FsoG7GdEaz1ogJRq1Frt1aYTcazSfPf",
    "placeName": "franklinville",
    "state": "NC"
  },
  {
    "city": "seagrove",
    "state_code": "NC",
    "placeMasterId": "P02500000FsoG9GTv2X6oIisHGchjmRrhnzKqwoM",
    "placeName": "seagrove",
    "state": "NC"
  },
  {
    "city": "bailey",
    "state_code": "NC",
    "placeMasterId": "P02500000FsoG5z0wAPpkUuFGmwl7pBJgcXbV6mV",
    "placeName": "bailey",
    "state": "NC"
  },
  {
    "city": "enfield",
    "state_code": "NC",
    "placeMasterId": "P02500000FsoG6ywHOBsFJ6xUPdB3Cbvkh9qZ8Xp",
    "placeName": "enfield",
    "state": "NC"
  },
  {
    "city": "roxobel",
    "state_code": "NC",
    "placeMasterId": "P02500000FsoG97dRR8X1c7d6SoMJrxSFB0hJrfU",
    "placeName": "roxobel",
    "state": "NC"
  },
  {
    "city": "colerain",
    "state_code": "NC",
    "placeMasterId": "P02500000FsoG6hFKBOifvuT8o0UDNdArS4TVEj6",
    "placeName": "colerain",
    "state": "NC"
  },
  {
    "city": "winfall",
    "state_code": "NC",
    "placeMasterId": "P02500000FsoGA7YmeuZWQKLK5UmFFO0KDFvbdOo",
    "placeName": "winfall",
    "state": "NC"
  },
  {
    "city": "harrisburg",
    "state_code": "NC",
    "placeMasterId": "P02500000FsoG7YKBnmBO3VwBcsYiqZNUgSGd42Z",
    "placeName": "harrisburg",
    "state": "NC"
  },
  {
    "city": "locust",
    "state_code": "NC",
    "placeMasterId": "P02500000FsoG87i6DMUWnuusq7wOUWoU5Q9ljfn",
    "placeName": "locust",
    "state": "NC"
  },
  {
    "city": "matthews",
    "state_code": "NC",
    "placeMasterId": "P02500000FsoG8GYZol4JUWA3dwHoP16WCkT5qN1",
    "placeName": "matthews",
    "state": "NC"
  },
  {
    "city": "monroe",
    "state_code": "NC",
    "placeMasterId": "P02500000FsoG8PP3Q9e6B7PERkdEJVSfdzdhhHb",
    "placeName": "monroe",
    "state": "NC"
  },
  {
    "city": "peachland",
    "state_code": "NC",
    "placeMasterId": "P02500000FsoG8h60cwnfYJta3NK48UPQGxtyWrl",
    "placeName": "peachland",
    "state": "NC"
  },
  {
    "city": "charlotte",
    "state_code": "NC",
    "placeMasterId": "P02500000FsoG6YOqa08tFJDy0C8nT8qHEOhlkFv",
    "placeName": "charlotte",
    "state": "NC"
  },
  {
    "city": "ellerbe",
    "state_code": "NC",
    "placeMasterId": "P02500000FsoG6ywHOBsFJ6xUPdB3CbmydViqUOQ",
    "placeName": "ellerbe",
    "state": "NC"
  },
  {
    "city": "faison",
    "state_code": "NC",
    "placeMasterId": "P02500000FsoG77mkzaS1ziCfDRWT76Efeccf5q7",
    "placeName": "faison",
    "state": "NC"
  },
  {
    "city": "dover",
    "state_code": "NC",
    "placeMasterId": "P02500000FsoG6q5nmnIScViJbopdI7TeGD7nzPx",
    "placeName": "dover",
    "state": "NC"
  },
  {
    "city": "newland",
    "state_code": "NC",
    "placeMasterId": "P02500000FsoG8YFX1YDsriePFYyeE04B4OK6fv3",
    "placeName": "newland",
    "state": "NC"
  },
  {
    "city": "fletcher",
    "state_code": "NC",
    "placeMasterId": "P02500000FsoG77mkzaS1ziCfDRWT76EEF20eCkG",
    "placeName": "fletcher",
    "state": "NC"
  },
  {
    "city": "weaverville",
    "state_code": "NC",
    "placeMasterId": "P02500000FsoG9yiJ3Vzjjj69HgQpKtZePuwcho7",
    "placeName": "weaverville",
    "state": "NC"
  },
  {
    "city": "hendersonville",
    "state_code": "NC",
    "placeMasterId": "P02500000FsoG7YKBnmBO3VwBcsYiqZQ3Z79YnTA",
    "placeName": "hendersonville",
    "state": "NC"
  },
  {
    "city": "gaston",
    "state_code": "SC",
    "placeMasterId": "P02500000FsoGbnlPfoXrirp7x1nK0Q1z3M6OvCA",
    "placeName": "gaston",
    "state": "SC"
  },
  {
    "city": "mayesville",
    "state_code": "SC",
    "placeMasterId": "P02500000FsoGcN9K5Or0TGnpAHAzeNWblLZyKVt",
    "placeName": "mayesville",
    "state": "SC"
  },
  {
    "city": "neeses",
    "state_code": "SC",
    "placeMasterId": "P02500000FsoGcVzngnQn9s2zy5WPYrq16vNhSgK",
    "placeName": "neeses",
    "state": "SC"
  },
  {
    "city": "columbia",
    "state_code": "SC",
    "placeMasterId": "P02500000FsoGbW4ST1OILfKmLP6UBRJpkapmyqZ",
    "placeName": "columbia",
    "state": "SC"
  },
  {
    "city": "lyman",
    "state_code": "SC",
    "placeMasterId": "P02500000FsoGcEIqU0HDmfYeMSpZjtFaulKNLss",
    "placeName": "lyman",
    "state": "SC"
  },
  {
    "city": "greenwood",
    "state_code": "SC",
    "placeMasterId": "P02500000FsoGbwbtHD7ePT4Ikq8juuLzI2FNCwA",
    "placeName": "greenwood",
    "state": "SC"
  },
  {
    "city": "simpsonville",
    "state_code": "SC",
    "placeMasterId": "P02500000FsoGd5Ni6NjvuH1hBKu5CpRM6AbUbyr",
    "placeName": "simpsonville",
    "state": "SC"
  },
  {
    "city": "graniteville",
    "state_code": "SC",
    "placeMasterId": "P02500000FsoGbnlPfoXrirp7x1nK0QH3tr74zXE",
    "placeName": "graniteville",
    "state": "SC"
  },
  {
    "city": "hilton head island",
    "state_code": "SC",
    "placeMasterId": "P02500000FsoGbwbtHD7ePT4Ikq8juuRd6ggWZfg",
    "placeName": "hilton head island",
    "state": "SC"
  },
  {
    "city": "mansfield",
    "state_code": "GA",
    "placeMasterId": "P02500000FsoExUt4Cahp49LBto6fjBi1AohFmuL",
    "placeName": "mansfield",
    "state": "GA"
  },
  {
    "city": "peachtree corners",
    "state_code": "GA",
    "placeMasterId": "P02500000FsoExvQV0mRB7x4iJF8vSenxSTbGpl2",
    "placeName": "peachtree corners",
    "state": "GA"
  },
  {
    "city": "lindale",
    "state_code": "GA",
    "placeMasterId": "P02500000FsoExM2abC82NY615zlFohLNsBlUHr1",
    "placeName": "lindale",
    "state": "GA"
  },
  {
    "city": "senoia",
    "state_code": "GA",
    "placeMasterId": "P02500000FsoEyLxvoyAXBkoEigBBC7ucnSM38eV",
    "placeName": "senoia",
    "state": "GA"
  },
  {
    "city": "atlanta",
    "state_code": "GA",
    "placeMasterId": "P02500000FsoEvV2Nl2cpRjukeRGoyKXsQZ9lvPs",
    "placeName": "atlanta",
    "state": "GA"
  },
  {
    "city": "atlanta",
    "state_code": "GA",
    "placeMasterId": "P02500000FsoEvV2Nl2cpRjukeRGoyKXsQZ9lvPs",
    "placeName": "atlanta",
    "state": "GA"
  },
  {
    "city": "atlanta",
    "state_code": "GA",
    "placeMasterId": "P02500000FsoEvV2Nl2cpRjukeRGoyKXsQZ9lvPs",
    "placeName": "atlanta",
    "state": "GA"
  },
  {
    "city": "mount vernon",
    "state_code": "GA",
    "placeMasterId": "P02500000FsoExdjXnzHbkkaMhcS5dg7YgqQqP4i",
    "placeName": "mount vernon",
    "state": "GA"
  },
  {
    "city": "pulaski",
    "state_code": "GA",
    "placeMasterId": "P02500000FsoExvQV0mRB7x4iJF8vSerrEld7Fat",
    "placeName": "pulaski",
    "state": "GA"
  },
  {
    "city": "reidsville",
    "state_code": "GA",
    "placeMasterId": "P02500000FsoEy4GycB0xoYJt73ULN9DxBjNiQMi",
    "placeName": "reidsville",
    "state": "GA"
  },
  {
    "city": "cornelia",
    "state_code": "GA",
    "placeMasterId": "P02500000FsoEw4QIAcvyC8tRrgeUcI1iXjDxMJP",
    "placeName": "cornelia",
    "state": "GA"
  },
  {
    "city": "demorest",
    "state_code": "GA",
    "placeMasterId": "P02500000FsoEwM7FNQ5XZLNnTJLKRGiLB1gA1e6",
    "placeName": "demorest",
    "state": "GA"
  },
  {
    "city": "epworth",
    "state_code": "GA",
    "placeMasterId": "P02500000FsoEwUxiyofKFwcyH7gkLl8TFHZEI6o",
    "placeName": "epworth",
    "state": "GA"
  },
  {
    "city": "oakwood",
    "state_code": "GA",
    "placeMasterId": "P02500000FsoExma1PNrORLpXVQnVYAQhBFZbrGj",
    "placeName": "oakwood",
    "state": "GA"
  },
  {
    "city": "good hope",
    "state_code": "GA",
    "placeMasterId": "P02500000FsoEwmegBbotd97JskNaAjswcP4051U",
    "placeName": "good hope",
    "state": "GA"
  },
  {
    "city": "sharon",
    "state_code": "GA",
    "placeMasterId": "P02500000FsoEyLxvoyAXBkoEigBBC7v3A7TQvid",
    "placeName": "sharon",
    "state": "GA"
  },
  {
    "city": "tignall",
    "state_code": "GA",
    "placeMasterId": "P02500000FsoEyUoPQMkJsM3PWUWb6cKrKG1AGE9",
    "placeName": "tignall",
    "state": "GA"
  },
  {
    "city": "plainville",
    "state_code": "GA",
    "placeMasterId": "P02500000FsoExvQV0mRB7x4iJF8vSeoG3cKd1Yw",
    "placeName": "plainville",
    "state": "GA"
  },
  {
    "city": "resaca",
    "state_code": "GA",
    "placeMasterId": "P02500000FsoEy4GycB0xoYJt73ULN9FgmvdFVQQ",
    "placeName": "resaca",
    "state": "GA"
  },
  {
    "city": "trenton",
    "state_code": "GA",
    "placeMasterId": "P02500000FsoEydet1lK6YxIaKIs116ivzpHoYgm",
    "placeName": "trenton",
    "state": "GA"
  },
  {
    "city": "drake",
    "state_code": "ND",
    "placeMasterId": "P02500000FsoGAgwh4UsfAjK1Ik9utLRIUkegKlc",
    "placeName": "drake",
    "state": "ND"
  },
  {
    "city": "danville",
    "state_code": "GA",
    "placeMasterId": "P02500000FsoEwDGlm1Vksk8cfUzuWmP7CWfTWM0",
    "placeName": "danville",
    "state": "GA"
  },
  {
    "city": "marshallville",
    "state_code": "GA",
    "placeMasterId": "P02500000FsoExUt4Cahp49LBto6fjBfwWsZo6V1",
    "placeName": "marshallville",
    "state": "GA"
  },
  {
    "city": "rentz",
    "state_code": "GA",
    "placeMasterId": "P02500000FsoEyD7SDZakV9Z3urplHdXFHgYGLGC",
    "placeName": "rentz",
    "state": "GA"
  },
  {
    "city": "macon",
    "state_code": "GA",
    "placeMasterId": "P02500000FsoExUt4Cahp49LBto6fjBgwFvKC0bb",
    "placeName": "macon",
    "state": "GA"
  },
  {
    "city": "baconton",
    "state_code": "GA",
    "placeMasterId": "P02500000FsoEvdsrMRCc8L9vSFcEsoqVpd8zGDA",
    "placeName": "baconton",
    "state": "GA"
  },
  {
    "city": "leslie",
    "state_code": "GA",
    "placeMasterId": "P02500000FsoExDC6znYFgwqqIBPpuCyb5iWYBZE",
    "placeName": "leslie",
    "state": "GA"
  },
  {
    "city": "ty ty",
    "state_code": "GA",
    "placeMasterId": "P02500000FsoEydet1lK6YxIaKIs116gsitJFiMK",
    "placeName": "ty ty",
    "state": "GA"
  },
  {
    "city": "raiford",
    "state_code": "FL",
    "placeMasterId": "P02500000FsoEtvj87gHBt8DpoVTDwwQiMrrLMZA",
    "placeName": "raiford",
    "state": "FL"
  },
  {
    "city": "east palatka",
    "state_code": "FL",
    "placeMasterId": "P02500000FsoErDe3f9JGpiZWY4uHddNvbMphFHe",
    "placeName": "east palatka",
    "state": "FL"
  },
  {
    "city": "ormond beach",
    "state_code": "FL",
    "placeMasterId": "P02500000FsoEtMLDi5y38jF8bG5YIyyN2Pk1bUU",
    "placeName": "ormond beach",
    "state": "FL"
  },
  {
    "city": "jacksonville",
    "state_code": "FL",
    "placeMasterId": "P02500000FsoEs4ivHWlyxK2ZMwyn6Zc9nJdRTGT",
    "placeName": "jacksonville",
    "state": "FL"
  },
  {
    "city": "atlantic beach",
    "state_code": "FL",
    "placeMasterId": "P02500000FsoEqDiiRNGm1VrIvOUMGCkvjbtifwa",
    "placeName": "atlantic beach",
    "state": "FL"
  },
  {
    "city": "neptune beach",
    "state_code": "FL",
    "placeMasterId": "P02500000FsoEtDUk6hOGS7zxnRk8OUa99IrlY1f",
    "placeName": "neptune beach",
    "state": "FL"
  },
  {
    "city": "tallahassee",
    "state_code": "FL",
    "placeMasterId": "P02500000FsoEuV72XGaKdXCX1kqtatxuQPy6zAD",
    "placeName": "tallahassee",
    "state": "FL"
  },
  {
    "city": "pensacola",
    "state_code": "FL",
    "placeMasterId": "P02500000FsoEte2Aut7cVvjUCsmO7xi1ABLGBK0",
    "placeName": "pensacola",
    "state": "FL"
  },
  {
    "city": "gainesville",
    "state_code": "FL",
    "placeMasterId": "P02500000FsoErVL0rwSqCv3s9hb7Sc6QcwCAknl",
    "placeName": "gainesville",
    "state": "FL"
  },
  {
    "city": "gainesville",
    "state_code": "FL",
    "placeMasterId": "P02500000FsoErVL0rwSqCv3s9hb7Sc6QcwCAknl",
    "placeName": "gainesville",
    "state": "FL"
  },
  {
    "city": "lake mary",
    "state_code": "FL",
    "placeMasterId": "P02500000FsoEsVGM5iVL17m5mO12q2hjXO6xgb8",
    "placeName": "lake mary",
    "state": "FL"
  },
  {
    "city": "mount dora",
    "state_code": "FL",
    "placeMasterId": "P02500000FsoEt4eGVIoTlWkmzdOiU0C2Ux66SmU",
    "placeName": "mount dora",
    "state": "FL"
  },
  {
    "city": "orlando",
    "state_code": "FL",
    "placeMasterId": "P02500000FsoEtVBhJUXppKUJP4QyDTHMDbz9uFq",
    "placeName": "orlando",
    "state": "FL"
  },
  {
    "city": "orlando",
    "state_code": "FL",
    "placeMasterId": "P02500000FsoEtVBhJUXppKUJP4QyDTHMDbz9uFq",
    "placeName": "orlando",
    "state": "FL"
  },
  {
    "city": "vero beach",
    "state_code": "FL",
    "placeMasterId": "P02500000FsoEuveTLSJghKw3RBt9KMzs5ZihiYU",
    "placeName": "vero beach",
    "state": "FL"
  },
  {
    "city": "tavernier",
    "state_code": "FL",
    "placeMasterId": "P02500000FsoEudxW8fA7K8RhpZCJVOFxjfcxnFo",
    "placeName": "tavernier",
    "state": "FL"
  },
  {
    "city": "pompano beach",
    "state_code": "FL",
    "placeMasterId": "P02500000FsoEtvj87gHBt8DpoVTDwwP6HVzAGAM",
    "placeName": "pompano beach",
    "state": "FL"
  },
  {
    "city": "miami",
    "state_code": "FL",
    "placeMasterId": "P02500000FsoEsvnmtuEh4vVcBp3IZVnnnRh03zn",
    "placeName": "miami",
    "state": "FL"
  },
  {
    "city": "miami",
    "state_code": "FL",
    "placeMasterId": "P02500000FsoEsvnmtuEh4vVcBp3IZVnnnRh03zn",
    "placeName": "miami",
    "state": "FL"
  },
  {
    "city": "west palm beach",
    "state_code": "FL",
    "placeMasterId": "P02500000FsoEuveTLSJghKw3RBt9KN3fVhs2PCt",
    "placeName": "west palm beach",
    "state": "FL"
  },
  {
    "city": "north palm beach",
    "state_code": "FL",
    "placeMasterId": "P02500000FsoEtMLDi5y38jF8bG5YIytvg0uwNW9",
    "placeName": "north palm beach",
    "state": "FL"
  },
  {
    "city": "boca raton",
    "state_code": "FL",
    "placeMasterId": "P02500000FsoEqVPfeAQLOiLeX1BC5BUmAvSIYfv",
    "placeName": "boca raton",
    "state": "FL"
  },
  {
    "city": "canal point",
    "state_code": "FL",
    "placeMasterId": "P02500000FsoEqeG9FZ085JapKpWbzfrtBR1Y9oX",
    "placeName": "canal point",
    "state": "FL"
  },
  {
    "city": "lutz",
    "state_code": "FL",
    "placeMasterId": "P02500000FsoEsmxJIVeuOKGRO0hsf1SfA84faQT",
    "placeName": "lutz",
    "state": "FL"
  },
  {
    "city": "tampa",
    "state_code": "FL",
    "placeMasterId": "P02500000FsoEudxW8fA7K8RhpZCJVOG5RK5OQjD",
    "placeName": "tampa",
    "state": "FL"
  },
  {
    "city": "lakeland",
    "state_code": "FL",
    "placeMasterId": "P02500000FsoEsMPsUJvYKWWuyZfcvYKMAG7ePey",
    "placeName": "lakeland",
    "state": "FL"
  },
  {
    "city": "osprey",
    "state_code": "FL",
    "placeMasterId": "P02500000FsoEtMLDi5y38jF8bG5YIywxP74yc49",
    "placeName": "osprey",
    "state": "FL"
  },
  {
    "city": "sarasota",
    "state_code": "FL",
    "placeMasterId": "P02500000FsoEu4Zbj4qyZjT0cJodrQpDdnRoRQk",
    "placeName": "sarasota",
    "state": "FL"
  },
  {
    "city": "spring hill",
    "state_code": "FL",
    "placeMasterId": "P02500000FsoEuV72XGaKdXCX1kqtattjqNbN4Jx",
    "placeName": "spring hill",
    "state": "FL"
  },
  {
    "city": "palm harbor",
    "state_code": "FL",
    "placeMasterId": "P02500000FsoEte2Aut7cVvjUCsmO7xedVWUcnCa",
    "placeName": "palm harbor",
    "state": "FL"
  },
  {
    "city": "safety harbor",
    "state_code": "FL",
    "placeMasterId": "P02500000FsoEu4Zbj4qyZjT0cJodrQpO8I0beDa",
    "placeName": "safety harbor",
    "state": "FL"
  },
  {
    "city": "clermont",
    "state_code": "FL",
    "placeMasterId": "P02500000FsoEqn6cqxZuluq08ds1uADJnAMoLQV",
    "placeName": "clermont",
    "state": "FL"
  },
  {
    "city": "leesburg",
    "state_code": "FL",
    "placeMasterId": "P02500000FsoEse6ph757hj1GaCMSkX3MQvznHB8",
    "placeName": "leesburg",
    "state": "FL"
  },
  {
    "city": "fort pierce",
    "state_code": "FL",
    "placeMasterId": "P02500000FsoErMUXGXt3WJohLtFhY7n1iT0LCoC",
    "placeName": "fort pierce",
    "state": "FL"
  },
  {
    "city": "harpersville",
    "state_code": "AL",
    "placeMasterId": "P02500000FsoETxgELXEGpng7aibA7mowcobXB2U",
    "placeName": "harpersville",
    "state": "AL"
  },
  {
    "city": "woodstock",
    "state_code": "AL",
    "placeMasterId": "P02500000FsoEVxWun5JGSD6Yq5R0sdzZQcD2XGT",
    "placeName": "woodstock",
    "state": "AL"
  },
  {
    "city": "birmingham",
    "state_code": "AL",
    "placeMasterId": "P02500000FsoESouPWMbzKzijADpoprrGKsxshig",
    "placeName": "birmingham",
    "state": "AL"
  },
  {
    "city": "aliceville",
    "state_code": "AL",
    "placeMasterId": "P02500000FsoESg3vuy2CeOTYMPUOvNSN9cT27iW",
    "placeName": "aliceville",
    "state": "AL"
  },
  {
    "city": "bear creek",
    "state_code": "AL",
    "placeMasterId": "P02500000FsoESouPWMbzKzijADpoprsguMAFAyO",
    "placeName": "bear creek",
    "state": "AL"
  },
  {
    "city": "carbon hill",
    "state_code": "AL",
    "placeMasterId": "P02500000FsoET6bMj9lYiCD4lqWeeqa6wbga21D",
    "placeName": "carbon hill",
    "state": "AL"
  },
  {
    "city": "courtland",
    "state_code": "AL",
    "placeMasterId": "P02500000FsoETFRqKYLLOnSFZes4ZKwQC5rXe22",
    "placeName": "courtland",
    "state": "AL"
  },
  {
    "city": "mooresville",
    "state_code": "AL",
    "placeMasterId": "P02500000FsoEUfucMW7CGntzbmKFgEeRSiWLbca",
    "placeName": "mooresville",
    "state": "AL"
  },
  {
    "city": "deer park",
    "state_code": "AL",
    "placeMasterId": "P02500000FsoETOIJvwv85OhQNTDUTpKTju0uiBQ",
    "placeName": "deer park",
    "state": "AL"
  },
  {
    "city": "fairhope",
    "state_code": "AL",
    "placeMasterId": "P02500000FsoETX8nXLUulzwbBHYuOJlafqUdo70",
    "placeName": "fairhope",
    "state": "AL"
  },
  {
    "city": "mobile",
    "state_code": "AL",
    "placeMasterId": "P02500000FsoEUX48l7XPaCeonxyplkKNMXCzpeH",
    "placeName": "mobile",
    "state": "AL"
  },
  {
    "city": "hendersonville",
    "state_code": "TN",
    "placeMasterId": "P02500000FsoGgeXeBIAZ5I93GdXWz4pL1URdjxq",
    "placeName": "hendersonville",
    "state": "TN"
  },
  {
    "city": "murfreesboro",
    "state_code": "TN",
    "placeMasterId": "P02500000FsoGhMm2CH3UWIMvHhGcXWWVtkn4xRN",
    "placeName": "murfreesboro",
    "state": "TN"
  },
  {
    "city": "dayton",
    "state_code": "TN",
    "placeMasterId": "P02500000FsoGgMqgyV0zi5ehf0qhA5vgnl43Uzz",
    "placeName": "dayton",
    "state": "TN"
  },
  {
    "city": "decatur",
    "state_code": "TN",
    "placeMasterId": "P02500000FsoGgMqgyV0zi5ehf0qhA5xT3zASUIj",
    "placeName": "decatur",
    "state": "TN"
  },
  {
    "city": "palmer",
    "state_code": "TN",
    "placeMasterId": "P02500000FsoGhVcVnfdHCtc65Vc2S0oTWuyaYch",
    "placeName": "palmer",
    "state": "TN"
  },
  {
    "city": "chattanooga",
    "state_code": "TN",
    "placeMasterId": "P02500000FsoGg59jlhrQKtAM3O9rL7CHHcMaKbF",
    "placeName": "chattanooga",
    "state": "TN"
  },
  {
    "city": "rockwood",
    "state_code": "TN",
    "placeMasterId": "P02500000FsoGhnJT0Smqa66Rh8IsGzeMLlZMIcx",
    "placeName": "rockwood",
    "state": "TN"
  },
  {
    "city": "winfield",
    "state_code": "TN",
    "placeMasterId": "P02500000FsoGiDqtoeWCdtpy6ZL80SjztonNQaf",
    "placeName": "winfield",
    "state": "TN"
  },
  {
    "city": "kenton",
    "state_code": "TN",
    "placeMasterId": "P02500000FsoGgnO7mgkLltOE4RswtZAkeDdEOai",
    "placeName": "kenton",
    "state": "TN"
  },
  {
    "city": "sharon",
    "state_code": "TN",
    "placeMasterId": "P02500000FsoGhnJT0Smqa66Rh8IsGzYoEIT6j3C",
    "placeName": "sharon",
    "state": "TN"
  },
  {
    "city": "hazlehurst",
    "state_code": "MS",
    "placeMasterId": "P02500000FsoFhIaKopytcyu7nSzpCQyx8z6aNpd",
    "placeName": "hazlehurst",
    "state": "MS"
  },
  {
    "city": "raleigh",
    "state_code": "MS",
    "placeMasterId": "P02500000FsoFi0oiporp3z7zoWiukstDbnIZP9Z",
    "placeName": "raleigh",
    "state": "MS"
  },
  {
    "city": "terry",
    "state_code": "MS",
    "placeMasterId": "P02500000FsoFiRM9e0bB7mrWDxlAULuqVSyN1sX",
    "placeName": "terry",
    "state": "MS"
  },
  {
    "city": "hattiesburg",
    "state_code": "MS",
    "placeMasterId": "P02500000FsoFhIaKopytcyu7nSzpCQvLj5UT99P",
    "placeName": "hattiesburg",
    "state": "MS"
  },
  {
    "city": "magnolia",
    "state_code": "MS",
    "placeMasterId": "P02500000FsoFhaHI1d8T0BOTP5gf1PmGw7PO3yB",
    "placeName": "magnolia",
    "state": "MS"
  },
  {
    "city": "mathiston",
    "state_code": "MS",
    "placeMasterId": "P02500000FsoFhaHI1d8T0BOTP5gf1PmVId6vaUo",
    "placeName": "mathiston",
    "state": "MS"
  },
  {
    "city": "westport",
    "state_code": "KY",
    "placeMasterId": "P02500000FsoFPtK5ETZ5nh2rmOqq2fnPZNAwakB",
    "placeName": "westport",
    "state": "KY"
  },
  {
    "city": "willisburg",
    "state_code": "KY",
    "placeMasterId": "P02500000FsoFQ2AYps8sUII2aDCFxA7G7w4VwUY",
    "placeName": "willisburg",
    "state": "KY"
  },
  {
    "city": "louisville",
    "state_code": "KY",
    "placeMasterId": "P02500000FsoFOkYGPIwoIt5TLu5UkkhkzCsPo64",
    "placeName": "louisville",
    "state": "KY"
  },
  {
    "city": "owenton",
    "state_code": "KY",
    "placeMasterId": "P02500000FsoFPB5hDUgAMgozlL7kUDqVpJUc52p",
    "placeName": "owenton",
    "state": "KY"
  },
  {
    "city": "sharpsburg",
    "state_code": "KY",
    "placeMasterId": "P02500000FsoFPbd81gPWQUYWAmA0Dgsp0f6ungY",
    "placeName": "sharpsburg",
    "state": "KY"
  },
  {
    "city": "lexington",
    "state_code": "KY",
    "placeMasterId": "P02500000FsoFOkYGPIwoIt5TLu5UkkeaJQ4MXLq",
    "placeName": "lexington",
    "state": "KY"
  },
  {
    "city": "evarts",
    "state_code": "KY",
    "placeMasterId": "P02500000FsoFNtTOmvU6BHcQX20zHoUwb0DBD68",
    "placeName": "evarts",
    "state": "KY"
  },
  {
    "city": "independence",
    "state_code": "KY",
    "placeMasterId": "P02500000FsoFOK0pb7DSF5LwwT3F1HfuaGuCFLA",
    "placeName": "independence",
    "state": "KY"
  },
  {
    "city": "ashland",
    "state_code": "KY",
    "placeMasterId": "P02500000FsoFN2OXAY1O3g9Ni9wTos9CI8wvMlS",
    "placeName": "ashland",
    "state": "KY"
  },
  {
    "city": "sedalia",
    "state_code": "KY",
    "placeMasterId": "P02500000FsoFPbd81gPWQUYWAmA0Dgvh9i3V8sV",
    "placeName": "sedalia",
    "state": "KY"
  },
  {
    "city": "greenville",
    "state_code": "KY",
    "placeMasterId": "P02500000FsoFOBALzidfYU6m8ehp6nNCt1yNHaO",
    "placeName": "greenville",
    "state": "KY"
  },
  {
    "city": "clay",
    "state_code": "KY",
    "placeMasterId": "P02500000FsoFNbmRa8KWo584vPK9SpeMzr7juLO",
    "placeName": "clay",
    "state": "KY"
  },
  {
    "city": "science hill",
    "state_code": "KY",
    "placeMasterId": "P02500000FsoFPSmeQHpjjtJLMxoaJCd4ivXOtIQ",
    "placeName": "science hill",
    "state": "KY"
  },
  {
    "city": "leitchfield",
    "state_code": "KY",
    "placeMasterId": "P02500000FsoFObhmnuN1cHqIY5k4qGJBDpcHkMr",
    "placeName": "leitchfield",
    "state": "KY"
  },
  {
    "city": "columbus",
    "state_code": "OH",
    "placeMasterId": "P02500000FsoGDyPfwc9iyXx1mQ6Wqc0NMzPNh3d",
    "placeName": "columbus",
    "state": "OH"
  },
  {
    "city": "mount gilead",
    "state_code": "OH",
    "placeMasterId": "P02500000FsoGGgUkP97e1xbL2qfT9vDHGBYZbZS",
    "placeName": "mount gilead",
    "state": "OH"
  },
  {
    "city": "genoa",
    "state_code": "OH",
    "placeMasterId": "P02500000FsoGEpUXYzcR69Q4bIB2JYFHoCsQObv",
    "placeName": "genoa",
    "state": "OH"
  },
  {
    "city": "rocky ridge",
    "state_code": "OH",
    "placeMasterId": "P02500000FsoGI6xWR6tUty354y7eGotev2iP3No",
    "placeName": "rocky ridge",
    "state": "OH"
  },
  {
    "city": "whitehouse",
    "state_code": "OH",
    "placeMasterId": "P02500000FsoGJXQIT4fLlyUp75ZpNiaf6uyFlox",
    "placeName": "whitehouse",
    "state": "OH"
  },
  {
    "city": "lewisville",
    "state_code": "OH",
    "placeMasterId": "P02500000FsoGFyGMOAEiaxNT1mwNbTHyFqbbFco",
    "placeName": "lewisville",
    "state": "OH"
  },
  {
    "city": "salesville",
    "state_code": "OH",
    "placeMasterId": "P02500000FsoGIOeTdu34HAXQgaoU5nS4FHyHgLr",
    "placeName": "salesville",
    "state": "OH"
  },
  {
    "city": "cleveland",
    "state_code": "OH",
    "placeMasterId": "P02500000FsoGDpZCLDZwHwhqybl6w7hFiW8c2lu",
    "placeName": "cleveland",
    "state": "OH"
  },
  {
    "city": "akron",
    "state_code": "OH",
    "placeMasterId": "P02500000FsoGCXwtueNs6XVHkIeLjiMh8uljxTa",
    "placeName": "akron",
    "state": "OH"
  },
  {
    "city": "loudonville",
    "state_code": "OH",
    "placeMasterId": "P02500000FsoGG76pzYoVHYcdpbHnVxeokgoa4Ng",
    "placeName": "loudonville",
    "state": "OH"
  },
  {
    "city": "wakeman",
    "state_code": "OH",
    "placeMasterId": "P02500000FsoGJFjLGHVmOm0TVSszYjiJnmiZbx7",
    "placeName": "wakeman",
    "state": "OH"
  },
  {
    "city": "cleves",
    "state_code": "OH",
    "placeMasterId": "P02500000FsoGDpZCLDZwHwhqybl6w7goYeiwnZC",
    "placeName": "cleves",
    "state": "OH"
  },
  {
    "city": "owensville",
    "state_code": "OH",
    "placeMasterId": "P02500000FsoGHXZc1WaM9Z4NrijycrGxIHB5pNH",
    "placeName": "owensville",
    "state": "OH"
  },
  {
    "city": "williamsburg",
    "state_code": "OH",
    "placeMasterId": "P02500000FsoGJXQIT4fLlyUp75ZpNideO7MfOhi",
    "placeName": "williamsburg",
    "state": "OH"
  },
  {
    "city": "cincinnati",
    "state_code": "OH",
    "placeMasterId": "P02500000FsoGDpZCLDZwHwhqybl6w7e8Lps6H4x",
    "placeName": "cincinnati",
    "state": "OH"
  },
  {
    "city": "casstown",
    "state_code": "OH",
    "placeMasterId": "P02500000FsoGDXsF8QQMukDVMz4H791JRvddLMB",
    "placeName": "casstown",
    "state": "OH"
  },
  {
    "city": "springfield",
    "state_code": "OH",
    "placeMasterId": "P02500000FsoGIgLQqhCdeN1mIDVJumI8k4ObkdO",
    "placeName": "springfield",
    "state": "OH"
  },
  {
    "city": "chesapeake",
    "state_code": "OH",
    "placeMasterId": "P02500000FsoGDgiijp09bLSgAnPh1dSNttirHAr",
    "placeName": "chesapeake",
    "state": "OH"
  },
  {
    "city": "ironton",
    "state_code": "OH",
    "placeMasterId": "P02500000FsoGFXivZyVMX9dwcLu7s0Da68L26Kx",
    "placeName": "ironton",
    "state": "OH"
  },
  {
    "city": "ada",
    "state_code": "OH",
    "placeMasterId": "P02500000FsoGCXwtueNs6XVHkIeLjiTIoivFcHZ",
    "placeName": "ada",
    "state": "OH"
  },
  {
    "city": "mount blanchard",
    "state_code": "OH",
    "placeMasterId": "P02500000FsoGGgUkP97e1xbL2qfT9v8bOMFO9f8",
    "placeName": "mount blanchard",
    "state": "OH"
  },
  {
    "city": "carmel",
    "state_code": "IN",
    "placeMasterId": "P02500000FsoF9TzArtBmmbtpO17mGKroGWc40k6",
    "placeName": "carmel",
    "state": "IN"
  },
  {
    "city": "fishers",
    "state_code": "IN",
    "placeMasterId": "P02500000FsoFA3N5HTUvX0sWbGVRuIOnY1YnAvr",
    "placeName": "fishers",
    "state": "IN"
  },
  {
    "city": "zionsville",
    "state_code": "IN",
    "placeMasterId": "P02500000FsoFCuIdLP2dH1m0fVPo85rMTEjLWux",
    "placeName": "zionsville",
    "state": "IN"
  },
  {
    "city": "amo",
    "state_code": "IN",
    "placeMasterId": "P02500000FsoF9CIDf62DPPPTmOQwRM80SOL6d85",
    "placeName": "amo",
    "state": "IN"
  },
  {
    "city": "new palestine",
    "state_code": "IN",
    "placeMasterId": "P02500000FsoFBTprJRGmP1KGdNxd1C5TjwkNRCS",
    "placeName": "new palestine",
    "state": "IN"
  },
  {
    "city": "nineveh",
    "state_code": "IN",
    "placeMasterId": "P02500000FsoHTarQ4G8ulL5oqA1sV5yfckhYxtp",
    "placeName": "nineveh",
    "state": "IN"
  },
  {
    "city": "rushville",
    "state_code": "IN",
    "placeMasterId": "P02500000FsoFC3Dlj1Zv9QIxqdLIf9ZkeV9XGMu",
    "placeName": "rushville",
    "state": "IN"
  },
  {
    "city": "indianapolis",
    "state_code": "IN",
    "placeMasterId": "P02500000FsoFAckzh3o4HPrDoVt7YFuCi8MjR1V",
    "placeName": "indianapolis",
    "state": "IN"
  },
  {
    "city": "indianapolis",
    "state_code": "IN",
    "placeMasterId": "P02500000FsoFAckzh3o4HPrDoVt7YFuCi8MjR1V",
    "placeName": "indianapolis",
    "state": "IN"
  },
  {
    "city": "hobart",
    "state_code": "IN",
    "placeMasterId": "P02500000FsoFAckzh3o4HPrDoVt7YFr3jqlL6KK",
    "placeName": "hobart",
    "state": "IN"
  },
  {
    "city": "kingsbury",
    "state_code": "IN",
    "placeMasterId": "P02500000FsoFAlbTISNqy16OcKEXSkD4ofh6VSD",
    "placeName": "kingsbury",
    "state": "IN"
  },
  {
    "city": "bristol",
    "state_code": "IN",
    "placeMasterId": "P02500000FsoF9L8hGUc060eeaCmMLqUtVjViyRU",
    "placeName": "bristol",
    "state": "IN"
  },
  {
    "city": "knox",
    "state_code": "IN",
    "placeMasterId": "P02500000FsoFAlbTISNqy16OcKEXSkFRjKOT1Wg",
    "placeName": "knox",
    "state": "IN"
  },
  {
    "city": "north liberty",
    "state_code": "IN",
    "placeMasterId": "P02500000FsoFBcgKupqZ5cZRRCJ2vgSLUiE0K6p",
    "placeName": "north liberty",
    "state": "IN"
  },
  {
    "city": "andrews",
    "state_code": "IN",
    "placeMasterId": "P02500000FsoF93Rk3hSQioAIya5WWrnUZJ4ulAA",
    "placeName": "andrews",
    "state": "IN"
  },
  {
    "city": "monroeville",
    "state_code": "IN",
    "placeMasterId": "P02500000FsoFBC8u6e7D1opv1lGnCDNdVgAnsGq",
    "placeName": "monroeville",
    "state": "IN"
  },
  {
    "city": "rome city",
    "state_code": "IN",
    "placeMasterId": "P02500000FsoFBuNI7d08Sp3n2ozskfETNlFPuOQ",
    "placeName": "rome city",
    "state": "IN"
  },
  {
    "city": "zanesville",
    "state_code": "IN",
    "placeMasterId": "P02500000FsoFCuIdLP2dH1m0fVPo85q4mNjoYPZ",
    "placeName": "zanesville",
    "state": "IN"
  },
  {
    "city": "fort wayne",
    "state_code": "IN",
    "placeMasterId": "P02500000FsoFACDYss4iDc7hP4qromiuPZZ994H",
    "placeName": "fort wayne",
    "state": "IN"
  },
  {
    "city": "denver",
    "state_code": "IN",
    "placeMasterId": "P02500000FsoF9lg84gLM9oOAzdoc5JfkUvuB9Sm",
    "placeName": "denver",
    "state": "IN"
  },
  {
    "city": "van buren",
    "state_code": "IN",
    "placeMasterId": "P02500000FsoFCTlCXDJHDE2UG4NYOckEHj4bvqw",
    "placeName": "van buren",
    "state": "IN"
  },
  {
    "city": "westport",
    "state_code": "IN",
    "placeMasterId": "P02500000FsoFClS9k0SqaQWprh4ODbSK7eXCE5Y",
    "placeName": "westport",
    "state": "IN"
  },
  {
    "city": "eaton",
    "state_code": "IN",
    "placeMasterId": "P02500000FsoFA3N5HTUvX0sWbGVRuIME42xCCKM",
    "placeName": "eaton",
    "state": "IN"
  },
  {
    "city": "parker city",
    "state_code": "IN",
    "placeMasterId": "P02500000FsoFBlWoWEQLmDocF0eSqArfGDZNxMf",
    "placeName": "parker city",
    "state": "IN"
  },
  {
    "city": "yorktown",
    "state_code": "IN",
    "placeMasterId": "P02500000FsoFCuIdLP2dH1m0fVPo85qMoIMxJC6",
    "placeName": "yorktown",
    "state": "IN"
  },
  {
    "city": "avoca",
    "state_code": "IN",
    "placeMasterId": "P02500000FsoF9CIDf62DPPPTmOQwRMCWqFMyLYF",
    "placeName": "avoca",
    "state": "IN"
  },
  {
    "city": "cannelburg",
    "state_code": "IN",
    "placeMasterId": "P02500000FsoF9TzArtBmmbtpO17mGKu7ROSK5UU",
    "placeName": "cannelburg",
    "state": "IN"
  },
  {
    "city": "boonville",
    "state_code": "IN",
    "placeMasterId": "P02500000FsoF9CIDf62DPPPTmOQwRMDeTXBO8en",
    "placeName": "boonville",
    "state": "IN"
  },
  {
    "city": "chandler",
    "state_code": "IN",
    "placeMasterId": "P02500000FsoF9TzArtBmmbtpO17mGKuXdukbuLL",
    "placeName": "chandler",
    "state": "IN"
  },
  {
    "city": "griffin",
    "state_code": "IN",
    "placeMasterId": "P02500000FsoFAL42UGeUuDMsCtCHjH9iSvyuMlb",
    "placeName": "griffin",
    "state": "IN"
  },
  {
    "city": "lewis",
    "state_code": "IN",
    "placeMasterId": "P02500000FsoHSjmYRsgCdjcm1HxN29vLmrAvJQo",
    "placeName": "lewis",
    "state": "IN"
  },
  {
    "city": "merom",
    "state_code": "IN",
    "placeMasterId": "P02500000FsoFB3IQVFXQLDakDwvNHizcnxIg1ys",
    "placeName": "merom",
    "state": "IN"
  },
  {
    "city": "west terre haute",
    "state_code": "IN",
    "placeMasterId": "P02500000FsoFClS9k0SqaQWprh4ODbRDtIEMjyA",
    "placeName": "west terre haute",
    "state": "IN"
  },
  {
    "city": "armada",
    "state_code": "MI",
    "placeMasterId": "P02500000FsoFXAUQzh08qKWkkoT9VeYxuAzioTX",
    "placeName": "armada",
    "state": "MI"
  },
  {
    "city": "clawson",
    "state_code": "MI",
    "placeMasterId": "P02500000FsoFXjsLPHJHajVRy3qp9cCBu6h1Wgt",
    "placeName": "clawson",
    "state": "MI"
  },
  {
    "city": "monroe",
    "state_code": "MI",
    "placeMasterId": "P02500000FsoFZasYFQoUWXgiPcLFzz3GVkMkBTY",
    "placeName": "monroe",
    "state": "MI"
  },
  {
    "city": "highland park",
    "state_code": "MI",
    "placeMasterId": "P02500000FsoFYjngd3LmOwDfakGkX2mGU0gfpQd",
    "placeName": "highland park",
    "state": "MI"
  },
  {
    "city": "detroit",
    "state_code": "MI",
    "placeMasterId": "P02500000FsoFY1ZIc4SqxvznZgXeyauoH5nCTkI",
    "placeName": "detroit",
    "state": "MI"
  },
  {
    "city": "detroit",
    "state_code": "MI",
    "placeMasterId": "P02500000FsoFY1ZIc4SqxvznZgXeyauoH5nCTkI",
    "placeName": "detroit",
    "state": "MI"
  },
  {
    "city": "detroit",
    "state_code": "MI",
    "placeMasterId": "P02500000FsoFY1ZIc4SqxvznZgXeyauoH5nCTkI",
    "placeName": "detroit",
    "state": "MI"
  },
  {
    "city": "sterling heights",
    "state_code": "MI",
    "placeMasterId": "P02500000FsoFaantTCqzKkOw2IlBNPew0W6kvCi",
    "placeName": "sterling heights",
    "state": "MI"
  },
  {
    "city": "wixom",
    "state_code": "MI",
    "placeMasterId": "P02500000FsoFb1LKHOaLOY8SRjnR6sbfoxXSFDq",
    "placeName": "wixom",
    "state": "MI"
  },
  {
    "city": "clio",
    "state_code": "MI",
    "placeMasterId": "P02500000FsoFXsip0ft4HKkclsCF46WLUPVXOUX",
    "placeName": "clio",
    "state": "MI"
  },
  {
    "city": "croswell",
    "state_code": "MI",
    "placeMasterId": "P02500000FsoFXsip0ft4HKkclsCF46b8ZqTuqLc",
    "placeName": "croswell",
    "state": "MI"
  },
  {
    "city": "north branch",
    "state_code": "MI",
    "placeMasterId": "P02500000FsoFZjj1qpOHD8vtDQgfuTQo0pVM1xa",
    "placeName": "north branch",
    "state": "MI"
  },
  {
    "city": "vernon",
    "state_code": "MI",
    "placeMasterId": "P02500000FsoFajeN4bQm1Le6q76bHtvlpBZXEQg",
    "placeName": "vernon",
    "state": "MI"
  },
  {
    "city": "omer",
    "state_code": "MI",
    "placeMasterId": "P02500000FsoFZsZVSDy3tkB41F25oxhR4U32Y3C",
    "placeName": "omer",
    "state": "MI"
  },
  {
    "city": "dewitt",
    "state_code": "MI",
    "placeMasterId": "P02500000FsoFY1ZIc4SqxvznZgXeyarol1oii9E",
    "placeName": "dewitt",
    "state": "MI"
  },
  {
    "city": "grand ledge",
    "state_code": "MI",
    "placeMasterId": "P02500000FsoFYaxD1elziKyUmvvKcYPTmTwBywz",
    "placeName": "grand ledge",
    "state": "MI"
  },
  {
    "city": "perry",
    "state_code": "MI",
    "placeMasterId": "P02500000FsoFaAGSf17dGwfPcrivdwKAX0ZZokb",
    "placeName": "perry",
    "state": "MI"
  },
  {
    "city": "bellevue",
    "state_code": "MI",
    "placeMasterId": "P02500000FsoFXSBOCU9iDX16MR9zKdLNo1x06Gy",
    "placeName": "bellevue",
    "state": "MI"
  },
  {
    "city": "south haven",
    "state_code": "MI",
    "placeMasterId": "P02500000FsoFaRxProHCe99lEUPlSvGvi9nEils",
    "placeName": "south haven",
    "state": "MI"
  },
  {
    "city": "vermontville",
    "state_code": "MI",
    "placeMasterId": "P02500000FsoFajeN4bQm1Le6q76bHu0jsGjWR3t",
    "placeName": "vermontville",
    "state": "MI"
  },
  {
    "city": "buchanan",
    "state_code": "MI",
    "placeMasterId": "P02500000FsoFXb1rnsjUu8GHAFVPF7dzDsj8mKT",
    "placeName": "buchanan",
    "state": "MI"
  },
  {
    "city": "britton",
    "state_code": "MI",
    "placeMasterId": "P02500000FsoFXb1rnsjUu8GHAFVPF7hHzDtLGwM",
    "placeName": "britton",
    "state": "MI"
  },
  {
    "city": "stockbridge",
    "state_code": "MI",
    "placeMasterId": "P02500000FsoFaantTCqzKkOw2IlBNPUY7uCvq6S",
    "placeName": "stockbridge",
    "state": "MI"
  },
  {
    "city": "newaygo",
    "state_code": "MI",
    "placeMasterId": "P02500000FsoFZjj1qpOHD8vtDQgfuTKPgtCkSBq",
    "placeName": "newaygo",
    "state": "MI"
  },
  {
    "city": "pierson",
    "state_code": "MI",
    "placeMasterId": "P02500000FsoFa1Pz3cXqaLQEp3NVjSBijv2QWr6",
    "placeName": "pierson",
    "state": "MI"
  },
  {
    "city": "fennville",
    "state_code": "MI",
    "placeMasterId": "P02500000FsoFYJGForcQL8U9BJEUnZeE4EmORWT",
    "placeName": "fennville",
    "state": "MI"
  },
  {
    "city": "grand rapids",
    "state_code": "MI",
    "placeMasterId": "P02500000FsoFYaxD1elziKyUmvvKcYHhKO7uwq1",
    "placeName": "grand rapids",
    "state": "MI"
  },
  {
    "city": "grand rapids",
    "state_code": "MI",
    "placeMasterId": "P02500000FsoFYaxD1elziKyUmvvKcYHhKO7uwq1",
    "placeName": "grand rapids",
    "state": "MI"
  },
  {
    "city": "filer city",
    "state_code": "MI",
    "placeMasterId": "P02500000FsoFYS6jQGCD1jjJz7Zui3wjAuEbKL1",
    "placeName": "filer city",
    "state": "MI"
  },
  {
    "city": "alpena",
    "state_code": "MI",
    "placeMasterId": "P02500000FsoFX1dxOIQM9jHZx07jbAKaa0kNpeS",
    "placeName": "alpena",
    "state": "MI"
  },
  {
    "city": "hubbell",
    "state_code": "MI",
    "placeMasterId": "P02500000FsoFYseAERvZ5XSqOYcARXBVYrT6F9o",
    "placeName": "hubbell",
    "state": "MI"
  },
  {
    "city": "lake linden",
    "state_code": "MI",
    "placeMasterId": "P02500000FsoFZAL7RF58SjxC0BJ0GVqEnKz1dUo",
    "placeName": "lake linden",
    "state": "MI"
  },
  {
    "city": "white pine",
    "state_code": "MI",
    "placeMasterId": "P02500000FsoFb1LKHOaLOY8SRjnR6sdhU0EERZ6",
    "placeName": "white pine",
    "state": "MI"
  },
  {
    "city": "adel",
    "state_code": "IA",
    "placeMasterId": "P02500000FsoFD396wncPxd1BTJlE2aEUZD53jOc",
    "placeName": "adel",
    "state": "IA"
  },
  {
    "city": "ames",
    "state_code": "IA",
    "placeMasterId": "P02500000FsoFDBzaYCCCeEGMH86dx4YC6hJTgCq",
    "placeName": "ames",
    "state": "IA"
  },
  {
    "city": "ankeny",
    "state_code": "IA",
    "placeMasterId": "P02500000FsoFDBzaYCCCeEGMH86dx4cE7i57Y8Q",
    "placeName": "ankeny",
    "state": "IA"
  },
  {
    "city": "gibson",
    "state_code": "IA",
    "placeMasterId": "P02500000FsoFF2znOLhPa2Rcigb4nRMW62qw2Dx",
    "placeName": "gibson",
    "state": "IA"
  },
  {
    "city": "leighton",
    "state_code": "IA",
    "placeMasterId": "P02500000FsoFG2v8c7juOF9qLN10ArzFvHPQlEb",
    "placeName": "leighton",
    "state": "IA"
  },
  {
    "city": "madrid",
    "state_code": "IA",
    "placeMasterId": "P02500000FsoFGKc5outTlReBwzhpzqiBNtslwXA",
    "placeName": "madrid",
    "state": "IA"
  },
  {
    "city": "redfield",
    "state_code": "IA",
    "placeMasterId": "P02500000FsoFHcEOFU5XwqqlBIobCG4ey8Iy1BR",
    "placeName": "redfield",
    "state": "IA"
  },
  {
    "city": "russell",
    "state_code": "IA",
    "placeMasterId": "P02500000FsoFHtvLSHF7K3L6mvVR1EmZnL0VvjH",
    "placeName": "russell",
    "state": "IA"
  },
  {
    "city": "waukee",
    "state_code": "IA",
    "placeMasterId": "P02500000FsoFIc9jTG82l3YynzEWZgkNCP4AfDA",
    "placeName": "waukee",
    "state": "IA"
  },
  {
    "city": "leland",
    "state_code": "IA",
    "placeMasterId": "P02500000FsoFG2v8c7juOF9qLN10ArzLOIhhZWV",
    "placeName": "leland",
    "state": "IA"
  },
  {
    "city": "riceville",
    "state_code": "IA",
    "placeMasterId": "P02500000FsoFHcEOFU5XwqqlBIobCG5pUe0mlo7",
    "placeName": "riceville",
    "state": "IA"
  },
  {
    "city": "gilmore city",
    "state_code": "IA",
    "placeMasterId": "P02500000FsoFF2znOLhPa2Rcigb4nROfyuFPrEn",
    "placeName": "gilmore city",
    "state": "IA"
  },
  {
    "city": "marathon",
    "state_code": "IA",
    "placeMasterId": "P02500000FsoFGTSZQJTGS2tMko3FuL6kWGBcmZJ",
    "placeName": "marathon",
    "state": "IA"
  },
  {
    "city": "beaman",
    "state_code": "IA",
    "placeMasterId": "P02500000FsoFDTgXkzLm1QkhsknTm3HNtPs3btq",
    "placeName": "beaman",
    "state": "IA"
  },
  {
    "city": "dunkerton",
    "state_code": "IA",
    "placeMasterId": "P02500000FsoFETbsylOGpdSvVRDP9TtJuBCG85E",
    "placeName": "dunkerton",
    "state": "IA"
  },
  {
    "city": "aurelia",
    "state_code": "IA",
    "placeMasterId": "P02500000FsoFDBzaYCCCeEGMH86dx4brPdBw9a8",
    "placeName": "aurelia",
    "state": "IA"
  },
  {
    "city": "brunsville",
    "state_code": "IA",
    "placeMasterId": "P02500000FsoFDcX1MNvYi1zsgZ8tgXemhDDFAVA",
    "placeName": "brunsville",
    "state": "IA"
  },
  {
    "city": "rodney",
    "state_code": "IA",
    "placeMasterId": "P02500000FsoFHl4rqsfKdS5vz7A16kTfZCvBpW5",
    "placeName": "rodney",
    "state": "IA"
  },
  {
    "city": "terril",
    "state_code": "IA",
    "placeMasterId": "P02500000FsoFIKSmGSyTNr4dCMXgkhxGk90Po2m",
    "placeName": "terril",
    "state": "IA"
  },
  {
    "city": "webb",
    "state_code": "IA",
    "placeMasterId": "P02500000FsoFIl0D4ehpReo9bnZwUB29NqbQhRU",
    "placeName": "webb",
    "state": "IA"
  },
  {
    "city": "irwin",
    "state_code": "IA",
    "placeMasterId": "P02500000FsoFFlEBPKaL12fUjkKALtD1EMIs5aI",
    "placeName": "irwin",
    "state": "IA"
  },
  {
    "city": "scranton",
    "state_code": "IA",
    "placeMasterId": "P02500000FsoFI2lp3fou0eaHajqqvjA9R59GTQQ",
    "placeName": "scranton",
    "state": "IA"
  },
  {
    "city": "malvern",
    "state_code": "IA",
    "placeMasterId": "P02500000FsoFGTSZQJTGS2tMko3FuL4nLDIGd9K",
    "placeName": "malvern",
    "state": "IA"
  },
  {
    "city": "farragut",
    "state_code": "IA",
    "placeMasterId": "P02500000FsoFEu9Jmx7ctRCRusFesx0BjA4Y2yk",
    "placeName": "farragut",
    "state": "IA"
  },
  {
    "city": "hawkeye",
    "state_code": "IA",
    "placeMasterId": "P02500000FsoFFTXECXQldqB987dKWuURVia3B6R",
    "placeName": "hawkeye",
    "state": "IA"
  },
  {
    "city": "ainsworth",
    "state_code": "IA",
    "placeMasterId": "P02500000FsoFD396wncPxd1BTJlE2aC3gSomsV9",
    "placeName": "ainsworth",
    "state": "IA"
  },
  {
    "city": "garrison",
    "state_code": "IA",
    "placeMasterId": "P02500000FsoFF2znOLhPa2Rcigb4nROTVyId7Ld",
    "placeName": "garrison",
    "state": "IA"
  },
  {
    "city": "monticello",
    "state_code": "IA",
    "placeMasterId": "P02500000FsoFGl9Wd6cppFNiMQk5jJrMsYCA61g",
    "placeName": "monticello",
    "state": "IA"
  },
  {
    "city": "oxford junction",
    "state_code": "IA",
    "placeMasterId": "P02500000FsoFHBgxRIMBt37ElrmLSmwvOr6BYMJ",
    "placeName": "oxford junction",
    "state": "IA"
  },
  {
    "city": "vinton",
    "state_code": "IA",
    "placeMasterId": "P02500000FsoFIc9jTG82l3YynzEWZghawq2J9IS",
    "placeName": "vinton",
    "state": "IA"
  },
  {
    "city": "brighton",
    "state_code": "IA",
    "placeMasterId": "P02500000FsoFDTgXkzLm1QkhsknTm3JXERcXOaF",
    "placeName": "brighton",
    "state": "IA"
  },
  {
    "city": "bonaparte",
    "state_code": "IA",
    "placeMasterId": "P02500000FsoFDTgXkzLm1QkhsknTm3Kv3oeWgmC",
    "placeName": "bonaparte",
    "state": "IA"
  },
  {
    "city": "goose lake",
    "state_code": "IA",
    "placeMasterId": "P02500000FsoFFBqGzkHCGdgnWUwUhvjW0MZJR3u",
    "placeName": "goose lake",
    "state": "IA"
  },
  {
    "city": "le claire",
    "state_code": "IA",
    "placeMasterId": "P02500000FsoFFu4f0jA7hdufXYfaGNfcj2bmX1d",
    "placeName": "le claire",
    "state": "IA"
  },
  {
    "city": "davenport",
    "state_code": "IA",
    "placeMasterId": "P02500000FsoFEKlPNMoU92DkhcrzEzWs1s9aXUd",
    "placeName": "davenport",
    "state": "IA"
  },
  {
    "city": "lannon",
    "state_code": "WI",
    "placeMasterId": "P02500000FsoH6Tk4M2dhS1Ragc4AtjsdcJkSwjG",
    "placeName": "lannon",
    "state": "WI"
  },
  {
    "city": "big bend",
    "state_code": "WI",
    "placeMasterId": "P02500000FsoHFbucxPZxQT6k6aAvD5iLSTXp9oz",
    "placeName": "big bend",
    "state": "WI"
  },
  {
    "city": "darien",
    "state_code": "WI",
    "placeMasterId": "P02500000FsoHFtbaACjWnfb5iCrl24Rrrd9rrLj",
    "placeName": "darien",
    "state": "WI"
  },
  {
    "city": "kenosha",
    "state_code": "WI",
    "placeMasterId": "P02500000FsoH6C379FU84oxF4zNL4lBdr6f6YX2",
    "placeName": "kenosha",
    "state": "WI"
  },
  {
    "city": "gratiot",
    "state_code": "WI",
    "placeMasterId": "P02500000FsoHF2WiXpGog482tKnFZ8FLEZOofwY",
    "placeName": "gratiot",
    "state": "WI"
  },
  {
    "city": "platteville",
    "state_code": "WI",
    "placeMasterId": "P02500000FsoH7TfPZogCGE9oJIU6HAPafhedgnG",
    "placeName": "platteville",
    "state": "WI"
  },
  {
    "city": "beaver dam",
    "state_code": "WI",
    "placeMasterId": "P02500000FsoH4TtNuUYhpc19RFEK8sk7WEIeM0v",
    "placeName": "beaver dam",
    "state": "WI"
  },
  {
    "city": "dalton",
    "state_code": "WI",
    "placeMasterId": "P02500000FsoH5KyFWs1PxDUCG7Ipboq7r3eMozG",
    "placeName": "dalton",
    "state": "WI"
  },
  {
    "city": "poynette",
    "state_code": "WI",
    "placeMasterId": "P02500000FsoH7TfPZogCGE9oJIU6HAcqY8t8QbY",
    "placeName": "poynette",
    "state": "WI"
  },
  {
    "city": "black creek",
    "state_code": "WI",
    "placeMasterId": "P02500000FsoHFKDfkcQO3GcOUxU5O6vdQwAcdG1",
    "placeName": "black creek",
    "state": "WI"
  },
  {
    "city": "greenleaf",
    "state_code": "WI",
    "placeMasterId": "P02500000FsoH5lVgL3km11DifYL5LICwsu6nksv",
    "placeName": "greenleaf",
    "state": "WI"
  },
  {
    "city": "dorchester",
    "state_code": "WI",
    "placeMasterId": "P02500000FsoH5Toj8GbCdojN3veFWJCujm3E5j5",
    "placeName": "dorchester",
    "state": "WI"
  },
  {
    "city": "owen",
    "state_code": "WI",
    "placeMasterId": "P02500000FsoH7BySN1Wct1fShfnGSBpCSCUZ8i0",
    "placeName": "owen",
    "state": "WI"
  },
  {
    "city": "butternut",
    "state_code": "WI",
    "placeMasterId": "P02500000FsoH4uQoigI3tPkfqgGZsLnrm8eR3vu",
    "placeName": "butternut",
    "state": "WI"
  },
  {
    "city": "clam lake",
    "state_code": "WI",
    "placeMasterId": "P02500000FsoH4uQoigI3tPkfqgGZsLugw8WazVu",
    "placeName": "clam lake",
    "state": "WI"
  },
  {
    "city": "laona",
    "state_code": "WI",
    "placeMasterId": "P02500000FsoIhvgrlKw2Mj22faqSxAjVhnAyzsT",
    "placeName": "laona",
    "state": "WI"
  },
  {
    "city": "chaseburg",
    "state_code": "WI",
    "placeMasterId": "P02500000FsoH53HIK4rqa0zqeUbzmq5uDSEzgOe",
    "placeName": "chaseburg",
    "state": "WI"
  },
  {
    "city": "cochrane",
    "state_code": "WI",
    "placeMasterId": "P02500000FsoH53HIK4rqa0zqeUbzmq7Qs8E7yuu",
    "placeName": "cochrane",
    "state": "WI"
  },
  {
    "city": "taylor",
    "state_code": "WI",
    "placeMasterId": "P02500000FsoH833JzOzL0d8VWXrlv84Qqdj6fHh",
    "placeName": "taylor",
    "state": "WI"
  },
  {
    "city": "osseo",
    "state_code": "WI",
    "placeMasterId": "P02500000FsoH7BySN1Wct1fShfnGSBqt2A4jtHZ",
    "placeName": "osseo",
    "state": "WI"
  },
  {
    "city": "prairie farm",
    "state_code": "WI",
    "placeMasterId": "P02500000FsoHEKIKWqNtF3uAsH4A0gFs2MbsWpR",
    "placeName": "prairie farm",
    "state": "WI"
  },
  {
    "city": "balsam lake",
    "state_code": "WI",
    "placeMasterId": "P02500000FsoHFT49M10AjrrZIlpVIbLVMhQTtzN",
    "placeName": "balsam lake",
    "state": "WI"
  },
  {
    "city": "trego",
    "state_code": "WI",
    "placeMasterId": "P02500000FsoIkUvScTKAjXRB8D3zLzMSyBpSEOT",
    "placeName": "trego",
    "state": "WI"
  },
  {
    "city": "center city",
    "state_code": "MN",
    "placeMasterId": "P02500000FsoFbsQBtm33W9bVGbrwZozvAvPEsOO",
    "placeName": "center city",
    "state": "MN"
  },
  {
    "city": "burnsville",
    "state_code": "MN",
    "placeMasterId": "P02500000FsoFbsQBtm33W9bVGbrwZonhfbhTVJR",
    "placeName": "burnsville",
    "state": "MN"
  },
  {
    "city": "howard lake",
    "state_code": "MN",
    "placeMasterId": "P02500000FsoFdRjRX8Oh4lIQ6XfXbCti5hhpVMT",
    "placeName": "howard lake",
    "state": "MN"
  },
  {
    "city": "lester prairie",
    "state_code": "MN",
    "placeMasterId": "P02500000FsoFdsGsLK838Z1wVyhnKg25ruHYZuN",
    "placeName": "lester prairie",
    "state": "MN"
  },
  {
    "city": "norwood young america",
    "state_code": "MN",
    "placeMasterId": "P02500000FsoFejLjxhalGAUzKqmIncDuBn0VzSr",
    "placeName": "norwood young america",
    "state": "MN"
  },
  {
    "city": "watkins",
    "state_code": "MN",
    "placeMasterId": "P02500000FsoFg9oVzfMc8AwjMyETuW1PSLqs3sI",
    "placeName": "watkins",
    "state": "MN"
  },
  {
    "city": "minneapolis",
    "state_code": "MN",
    "placeMasterId": "P02500000FsoFeIoJ9VrPCMlSvPk349D9alJlgNT",
    "placeName": "minneapolis",
    "state": "MN"
  },
  {
    "city": "claremont",
    "state_code": "MN",
    "placeMasterId": "P02500000FsoFc1GfVAcqCkqg4QDMUJB7CxVzJ0Y",
    "placeName": "claremont",
    "state": "MN"
  },
  {
    "city": "dexter",
    "state_code": "MN",
    "placeMasterId": "P02500000FsoFcIxchxmPZxL1g2uCJHyM2pVq3jk",
    "placeName": "dexter",
    "state": "MN"
  },
  {
    "city": "rose creek",
    "state_code": "MN",
    "placeMasterId": "P02500000FsoFfIjeNHtu0ZTgY69yRZjRaqnvmRK",
    "placeName": "rose creek",
    "state": "MN"
  },
  {
    "city": "easton",
    "state_code": "MN",
    "placeMasterId": "P02500000FsoFcRo6JMMCGYaCTrFcDmNhaNTFRUc",
    "placeName": "easton",
    "state": "MN"
  },
  {
    "city": "lismore",
    "state_code": "MN",
    "placeMasterId": "P02500000FsoFdsGsLK838Z1wVyhnKg8PtMpFDQ4",
    "placeName": "lismore",
    "state": "MN"
  },
  {
    "city": "danvers",
    "state_code": "MN",
    "placeMasterId": "P02500000FsoFcIxchxmPZxL1g2uCJHw0lpP1Xtz",
    "placeName": "danvers",
    "state": "MN"
  },
  {
    "city": "donnelly",
    "state_code": "MN",
    "placeMasterId": "P02500000FsoFcIxchxmPZxL1g2uCJI6BCMRPeq6",
    "placeName": "donnelly",
    "state": "MN"
  },
  {
    "city": "minneota",
    "state_code": "MN",
    "placeMasterId": "P02500000FsoFeRemkuRBsy0djE5SydSra7p5IPu",
    "placeName": "minneota",
    "state": "MN"
  },
  {
    "city": "redwood falls",
    "state_code": "MN",
    "placeMasterId": "P02500000FsoFf9tAltK7JyEVkHoYX5QS2V36STc",
    "placeName": "redwood falls",
    "state": "MN"
  },
  {
    "city": "melrose",
    "state_code": "MN",
    "placeMasterId": "P02500000FsoFeIoJ9VrPCMlSvPk3498rhFwf6wR",
    "placeName": "melrose",
    "state": "MN"
  },
  {
    "city": "ada",
    "state_code": "MN",
    "placeMasterId": "P02500000FsoFb1LKHOaLOY8SRjnR6sgdiFTddDx",
    "placeName": "ada",
    "state": "MN"
  },
  {
    "city": "vergas",
    "state_code": "MN",
    "placeMasterId": "P02500000FsoFg0y2OGmpRZhYZ9t401bBMzMfmu7",
    "placeName": "vergas",
    "state": "MN"
  },
  {
    "city": "waubun",
    "state_code": "MN",
    "placeMasterId": "P02500000FsoFg9oVzfMc8AwjMyETuW12Q90dwjV",
    "placeName": "waubun",
    "state": "MN"
  },
  {
    "city": "lake bronson",
    "state_code": "MN",
    "placeMasterId": "P02500000FsoFdaZv8WyTlMXauM0xVhRxyMdzTN1",
    "placeName": "lake bronson",
    "state": "MN"
  },
  {
    "city": "elkton",
    "state_code": "SD",
    "placeMasterId": "P02500000FsoGe5J3K9mQiTjuo1K0aG1jZkk4mx7",
    "placeName": "elkton",
    "state": "SD"
  },
  {
    "city": "yankton",
    "state_code": "SD",
    "placeMasterId": "P02500000FsoGfecIxW84H5Qpdx7bbe8jZDZDFCS",
    "placeName": "yankton",
    "state": "SD"
  },
  {
    "city": "corona",
    "state_code": "SD",
    "placeMasterId": "P02500000FsoGdwSZilCe1sUk0Cyaflj7poGsCf4",
    "placeName": "corona",
    "state": "SD"
  },
  {
    "city": "erwin",
    "state_code": "SD",
    "placeMasterId": "P02500000FsoGe5J3K9mQiTjuo1K0aG71Gnmbhku",
    "placeName": "erwin",
    "state": "SD"
  },
  {
    "city": "florence",
    "state_code": "SD",
    "placeMasterId": "P02500000FsoGe5J3K9mQiTjuo1K0aGDIzKWUdvB",
    "placeName": "florence",
    "state": "SD"
  },
  {
    "city": "waubay",
    "state_code": "SD",
    "placeMasterId": "P02500000FsoGfecIxW84H5Qpdx7bbdzLWmmRQqm",
    "placeName": "waubay",
    "state": "SD"
  },
  {
    "city": "alexandria",
    "state_code": "SD",
    "placeMasterId": "P02500000FsoGdVv8uZTHy4lDalwKwISpW9oGlC5",
    "placeName": "alexandria",
    "state": "SD"
  },
  {
    "city": "dimock",
    "state_code": "SD",
    "placeMasterId": "P02500000FsoGe5J3K9mQiTjuo1K0aG4e32u32py",
    "placeName": "dimock",
    "state": "SD"
  },
  {
    "city": "pierre",
    "state_code": "SD",
    "placeMasterId": "P02500000FsoGf5EOXvovWgS8QhjvxghdejEF3s0",
    "placeName": "pierre",
    "state": "SD"
  },
  {
    "city": "arthur",
    "state_code": "ND",
    "placeMasterId": "P02500000FsoGAGPGGJ9J6vaUtJ7f9sJZ2MJnF4n",
    "placeName": "arthur",
    "state": "ND"
  },
  {
    "city": "ayr",
    "state_code": "ND",
    "placeMasterId": "P02500000FsoGAGPGGJ9J6vaUtJ7f9sVTHU37L5v",
    "placeName": "ayr",
    "state": "ND"
  },
  {
    "city": "sheldon",
    "state_code": "ND",
    "placeMasterId": "P02500000FsoGCGFwhrEIjL0w8fxVujb3nwA4Hws",
    "placeName": "sheldon",
    "state": "ND"
  },
  {
    "city": "egeland",
    "state_code": "ND",
    "placeMasterId": "P02500000FsoGAgwh4UsfAjK1Ik9utLeEGadaJvv",
    "placeName": "egeland",
    "state": "ND"
  },
  {
    "city": "oakes",
    "state_code": "ND",
    "placeMasterId": "P02500000FsoGBpiVtfUwfXHPjEvGBGQGZLJkOzS",
    "placeName": "oakes",
    "state": "ND"
  },
  {
    "city": "richardton",
    "state_code": "ND",
    "placeMasterId": "P02500000FsoGByYzV44jM8WaX3Gg5l08n2Z07AI",
    "placeName": "richardton",
    "state": "ND"
  },
  {
    "city": "deering",
    "state_code": "ND",
    "placeMasterId": "P02500000FsoGAgwh4UsfAjK1Ik9utLQ7bvptbxl",
    "placeName": "deering",
    "state": "ND"
  },
  {
    "city": "grass range",
    "state_code": "MT",
    "placeMasterId": "P02500000FsoFpQpYCQsenDr3akge8M7BJZSsUI1",
    "placeName": "grass range",
    "state": "MT"
  },
  {
    "city": "roscoe",
    "state_code": "MT",
    "placeMasterId": "P02500000FsoFqHuPooLMupK6Pcl9bIUGuH4G8D2",
    "placeName": "roscoe",
    "state": "MT"
  },
  {
    "city": "fairview",
    "state_code": "MT",
    "placeMasterId": "P02500000FsoFpHz4b2Is6cbsmwLEDrkmWMaCouu",
    "placeName": "fairview",
    "state": "MT"
  },
  {
    "city": "savage",
    "state_code": "MT",
    "placeMasterId": "P02500000FsoFqQktQCv9bQZHDR6ZVmlwEzVjvmL",
    "placeName": "savage",
    "state": "MT"
  },
  {
    "city": "bozeman",
    "state_code": "MT",
    "placeMasterId": "P02500000FsoForRdmqZW2osMNVIyUOkc1a75BrH",
    "placeName": "bozeman",
    "state": "MT"
  },
  {
    "city": "whitehall",
    "state_code": "MT",
    "placeMasterId": "P02500000FsoFqiRqd04iyd3cp3nPKlTpbrjjKm1",
    "placeName": "whitehall",
    "state": "MT"
  },
  {
    "city": "willow creek",
    "state_code": "MT",
    "placeMasterId": "P02500000FsoFqiRqd04iyd3cp3nPKlQEDwoPH7s",
    "placeName": "willow creek",
    "state": "MT"
  },
  {
    "city": "missoula",
    "state_code": "MT",
    "placeMasterId": "P02500000FsoFq0DSc1BnXcpko04JmJXRBQWeVrS",
    "placeName": "missoula",
    "state": "MT"
  },
  {
    "city": "drummond",
    "state_code": "MT",
    "placeMasterId": "P02500000FsoFp98azdj5Q1Mhz7zoJNQ1U7MkW8s",
    "placeName": "drummond",
    "state": "MT"
  },
  {
    "city": "troy",
    "state_code": "MT",
    "placeMasterId": "P02500000FsoFqZbN1bUwI1oS1FRzQH9AYRSZEqD",
    "placeName": "troy",
    "state": "MT"
  },
  {
    "city": "arlington heights",
    "state_code": "IL",
    "placeMasterId": "P02500000FsoF1LjxUII1cMwtajQxKPjgaEFUHI8",
    "placeName": "arlington heights",
    "state": "IL"
  },
  {
    "city": "arlington heights",
    "state_code": "IL",
    "placeMasterId": "P02500000FsoF1LjxUII1cMwtajQxKPjgaEFUHI8",
    "placeName": "arlington heights",
    "state": "IL"
  },
  {
    "city": "streamwood",
    "state_code": "IL",
    "placeMasterId": "P02500000FsoF83WOpvPvubS5Ltfb9RAkFNcyQ1M",
    "placeName": "streamwood",
    "state": "IL"
  },
  {
    "city": "hillside",
    "state_code": "IL",
    "placeMasterId": "P02500000FsoF4CfVYDpjMNqNeyLJYDBiBDiU6na",
    "placeName": "hillside",
    "state": "IL"
  },
  {
    "city": "schaumburg",
    "state_code": "IL",
    "placeMasterId": "P02500000FsoF7U8UQL6nACTO8eHvVTjBMesvr5n",
    "placeName": "schaumburg",
    "state": "IL"
  },
  {
    "city": "new lenox",
    "state_code": "IL",
    "placeMasterId": "P02500000FsoF6CWBzluiynGouLBAJ4L9o2u1589",
    "placeName": "new lenox",
    "state": "IL"
  },
  {
    "city": "university park",
    "state_code": "IL",
    "placeMasterId": "P02500000FsoF8CMsRJzibChG9i113vawwIQCmhQ",
    "placeName": "university park",
    "state": "IL"
  },
  {
    "city": "hinsdale",
    "state_code": "IL",
    "placeMasterId": "P02500000FsoF4LVz9cPW2z5YSmgjShUv7iCN9Kk",
    "placeName": "hinsdale",
    "state": "IL"
  },
  {
    "city": "willowbrook",
    "state_code": "IL",
    "placeMasterId": "P02500000FsoF8lkmquIrLbfxMxOght45m1uNf4J",
    "placeName": "willowbrook",
    "state": "IL"
  },
  {
    "city": "chicago",
    "state_code": "IL",
    "placeMasterId": "P02500000FsoF2LfIi4KWQZf7DPqshqNB04VNil1",
    "placeName": "chicago",
    "state": "IL"
  },
  {
    "city": "chicago",
    "state_code": "IL",
    "placeMasterId": "P02500000FsoF2LfIi4KWQZf7DPqshqNB04VNil1",
    "placeName": "chicago",
    "state": "IL"
  },
  {
    "city": "chicago",
    "state_code": "IL",
    "placeMasterId": "P02500000FsoF2LfIi4KWQZf7DPqshqNB04VNil1",
    "placeName": "chicago",
    "state": "IL"
  },
  {
    "city": "chicago",
    "state_code": "IL",
    "placeMasterId": "P02500000FsoF2LfIi4KWQZf7DPqshqNB04VNil1",
    "placeName": "chicago",
    "state": "IL"
  },
  {
    "city": "grant park",
    "state_code": "IL",
    "placeMasterId": "P02500000FsoF43p1wpFwfmbCr9ztdilsdwXomhm",
    "placeName": "grant park",
    "state": "IL"
  },
  {
    "city": "reddick",
    "state_code": "IL",
    "placeMasterId": "P02500000FsoF73b3c9NR6OjrjDFfm0YzEpYkIuE",
    "placeName": "reddick",
    "state": "IL"
  },
  {
    "city": "leaf river",
    "state_code": "IL",
    "placeMasterId": "P02500000FsoF53kNAbIRTzJQTqPp19PQge7G2BD",
    "placeName": "leaf river",
    "state": "IL"
  },
  {
    "city": "rock falls",
    "state_code": "IL",
    "placeMasterId": "P02500000FsoF7CRXDXxDmzz2X1b5gUzQSp8XdYV",
    "placeName": "rock falls",
    "state": "IL"
  },
  {
    "city": "sterling",
    "state_code": "IL",
    "placeMasterId": "P02500000FsoF7ufvEWq9E0CuY5KBEwoXFbXQWcD",
    "placeName": "sterling",
    "state": "IL"
  },
  {
    "city": "orion",
    "state_code": "IL",
    "placeMasterId": "P02500000FsoF6d3cnxe52b0LJmDQ2XRcTEpcfM1",
    "placeName": "orion",
    "state": "IL"
  },
  {
    "city": "reynolds",
    "state_code": "IL",
    "placeMasterId": "P02500000FsoF73b3c9NR6OjrjDFfm0b36I1aB18",
    "placeName": "reynolds",
    "state": "IL"
  },
  {
    "city": "long point",
    "state_code": "IL",
    "placeMasterId": "P02500000FsoF5CaqlzsEAaYbHelEvdmJchGHlo6",
    "placeName": "long point",
    "state": "IL"
  },
  {
    "city": "tiskilwa",
    "state_code": "IL",
    "placeMasterId": "P02500000FsoF8CMsRJzibChG9i113vWzTc01rtK",
    "placeName": "tiskilwa",
    "state": "IL"
  },
  {
    "city": "berwick",
    "state_code": "IL",
    "placeMasterId": "P02500000FsoHHSupnZ5AMHI0Y8fM3SbMc6AqevO",
    "placeName": "berwick",
    "state": "IL"
  },
  {
    "city": "carman",
    "state_code": "IL",
    "placeMasterId": "P02500000FsoHIJzhPwXsTsl3N0jrWOfWQaYRD2n",
    "placeName": "carman",
    "state": "IL"
  }
]