[
  {
    "city": "noble",
    "state_code": "LA",
    "placeMasterId": "P02500000FsoFSArisonenIxedONWcVXhmGOBPwc",
    "placeName": "noble",
    "state": "LA"
  },
  {
    "city": "rison",
    "state_code": "AR",
    "placeMasterId": "P02500000FsoEco9pk70xR2qvP414c9u88JywER2",
    "placeName": "rison",
    "state": "AR"
  },
  {
    "city": "el dorado",
    "state_code": "AR",
    "placeMasterId": "P02500000FsoEbNh3i9F6Z2PBMwYtVG7mD3WnimN",
    "placeName": "el dorado",
    "state": "AR"
  },
  {
    "city": "amity",
    "state_code": "AR",
    "placeMasterId": "P02500000FsoEaWcC5lmORQw8Y4UO2JuHakyxPrN",
    "placeName": "amity",
    "state": "AR"
  },
  {
    "city": "austin",
    "state_code": "AR",
    "placeMasterId": "P02500000FsoEafSfhAMB82BJLspnwoHQPPVcXd9",
    "placeName": "austin",
    "state": "AR"
  },
  {
    "city": "beebe",
    "state_code": "AR",
    "placeMasterId": "P02500000FsoEafSfhAMB82BJLspnwoFsaNoWJok",
    "placeName": "beebe",
    "state": "AR"
  },
  {
    "city": "bradford",
    "state_code": "AR",
    "placeMasterId": "P02500000FsoEaoJ9IYvxodQU9hBDrIdmPA7aX4Q",
    "placeName": "bradford",
    "state": "AR"
  },
  {
    "city": "maumelle",
    "state_code": "AR",
    "placeMasterId": "P02500000FsoEcNcOvvHbNF7Ozcyosgjq3pskLng",
    "placeName": "maumelle",
    "state": "AR"
  },
  {
    "city": "little rock",
    "state_code": "AR",
    "placeMasterId": "P02500000FsoEcElvKWhogdsEBodOyCMRN7NDM4y",
    "placeName": "little rock",
    "state": "AR"
  },
  {
    "city": "little rock",
    "state_code": "AR",
    "placeMasterId": "P02500000FsoEcElvKWhogdsEBodOyCMRN7NDM4y",
    "placeName": "little rock",
    "state": "AR"
  },
  {
    "city": "haynes",
    "state_code": "AR",
    "placeMasterId": "P02500000FsoEboEUWKyScq8hmNb9EjFfSE6hKQ4",
    "placeName": "haynes",
    "state": "AR"
  },
  {
    "city": "black oak",
    "state_code": "AR",
    "placeMasterId": "P02500000FsoEaoJ9IYvxodQU9hBDrIcRhVATWAo",
    "placeName": "black oak",
    "state": "AR"
  },
  {
    "city": "mcdougal",
    "state_code": "AR",
    "placeMasterId": "P02500000FsoEcElvKWhogdsEBodOyCNq23VRY8Z",
    "placeName": "mcdougal",
    "state": "AR"
  },
  {
    "city": "tuckerman",
    "state_code": "AR",
    "placeMasterId": "P02500000FsoEdEhGYIkJUqaRoV3KLczTbdsl7OG",
    "placeName": "tuckerman",
    "state": "AR"
  },
  {
    "city": "magness",
    "state_code": "AR",
    "placeMasterId": "P02500000FsoEcNcOvvHbNF7OzcyosgiHy3I7dOj",
    "placeName": "magness",
    "state": "AR"
  },
  {
    "city": "western grove",
    "state_code": "AR",
    "placeMasterId": "P02500000FsoEdNXk9hK6BRpccJOkG7M6zh5tDhs",
    "placeName": "western grove",
    "state": "AR"
  },
  {
    "city": "bella vista",
    "state_code": "AR",
    "placeMasterId": "P02500000FsoEafSfhAMB82BJLspnwoJfdILTMtV",
    "placeName": "bella vista",
    "state": "AR"
  },
  {
    "city": "siloam springs",
    "state_code": "AR",
    "placeMasterId": "P02500000FsoEd5qmwuAWoFLH0ghuR8cGijZBxF8",
    "placeName": "siloam springs",
    "state": "AR"
  },
  {
    "city": "edmond",
    "state_code": "OK",
    "placeMasterId": "P02500000FsoGL6jY6R0zKaBjx1NQP6aBd1eiWKr",
    "placeName": "edmond",
    "state": "OK"
  },
  {
    "city": "gracemont",
    "state_code": "OK",
    "placeMasterId": "P02500000FsoGLOQVJEAYhmg5Ye4GE5LffA8R8Sb",
    "placeName": "gracemont",
    "state": "OK"
  },
  {
    "city": "yukon",
    "state_code": "OK",
    "placeMasterId": "P02500000FsoGO6VZll8TlCKOp4dCXOYRGDS30ed",
    "placeName": "yukon",
    "state": "OK"
  },
  {
    "city": "oklahoma city",
    "state_code": "OK",
    "placeMasterId": "P02500000FsoGMg2njnMctBsemxB1QUgVkw3g3BI",
    "placeName": "oklahoma city",
    "state": "OK"
  },
  {
    "city": "ryan",
    "state_code": "OK",
    "placeMasterId": "P02500000FsoGN6aEXz5ywzcBCODH9xwcfR2pVSw",
    "placeName": "ryan",
    "state": "OK"
  },
  {
    "city": "snyder",
    "state_code": "OK",
    "placeMasterId": "P02500000FsoGNOHBkmFYKC6Wo0u6ywhbshdlUGo",
    "placeName": "snyder",
    "state": "OK"
  },
  {
    "city": "enid",
    "state_code": "OK",
    "placeMasterId": "P02500000FsoGL6jY6R0zKaBjx1NQP6gfswmOsKW",
    "placeName": "enid",
    "state": "OK"
  },
  {
    "city": "enid",
    "state_code": "OK",
    "placeMasterId": "P02500000FsoGL6jY6R0zKaBjx1NQP6gfswmOsKW",
    "placeName": "enid",
    "state": "OK"
  },
  {
    "city": "pond creek",
    "state_code": "OK",
    "placeMasterId": "P02500000FsoGMxjkwaWCGON0OZrrFTNOqFT1Uci",
    "placeName": "pond creek",
    "state": "OK"
  },
  {
    "city": "hardesty",
    "state_code": "OK",
    "placeMasterId": "P02500000FsoGLXGyuckLONvGMSPg8ZiIIQn3YX1",
    "placeName": "hardesty",
    "state": "OK"
  },
  {
    "city": "inola",
    "state_code": "OK",
    "placeMasterId": "P02500000FsoGLg7SW1K84zARAGl634BrpZlKmkO",
    "placeName": "inola",
    "state": "OK"
  },
  {
    "city": "quinton",
    "state_code": "OK",
    "placeMasterId": "P02500000FsoGMxjkwaWCGON0OZrrFTYTuqvUTpS",
    "placeName": "quinton",
    "state": "OK"
  },
  {
    "city": "garland",
    "state_code": "TX",
    "placeMasterId": "P02500000FsoGlMTP5NDTl7DnmQwK3F4Um6WEIeJ",
    "placeName": "garland",
    "state": "TX"
  },
  {
    "city": "garland",
    "state_code": "TX",
    "placeMasterId": "P02500000FsoGlMTP5NDTl7DnmQwK3F4Um6WEIeJ",
    "placeName": "garland",
    "state": "TX"
  },
  {
    "city": "duncanville",
    "state_code": "TX",
    "placeMasterId": "P02500000FsoGkeF14OKYK6zvlNDEUn4uGFtO4md",
    "placeName": "duncanville",
    "state": "TX"
  },
  {
    "city": "paris",
    "state_code": "TX",
    "placeMasterId": "P02500000FsoGp4TolgDtcjaKfXvBjyUvko2SLc0",
    "placeName": "paris",
    "state": "TX"
  },
  {
    "city": "talco",
    "state_code": "TX",
    "placeMasterId": "P02500000FsoGr4KVDEItF90luul2Upt51MCVq9q",
    "placeName": "talco",
    "state": "TX"
  },
  {
    "city": "winnsboro",
    "state_code": "TX",
    "placeMasterId": "P02500000FsoGsD6K2OvAjwyALPWNmkgFHdDkBuU",
    "placeName": "winnsboro",
    "state": "TX"
  },
  {
    "city": "wolfe city",
    "state_code": "TX",
    "placeMasterId": "P02500000FsoGsD6K2OvAjwyALPWNmkihA6S2WOW",
    "placeName": "wolfe city",
    "state": "TX"
  },
  {
    "city": "de kalb",
    "state_code": "TX",
    "placeMasterId": "P02500000FsoGkVOXSzkldVkkxYroaIgkSbmfNJF",
    "placeName": "de kalb",
    "state": "TX"
  },
  {
    "city": "new boston",
    "state_code": "TX",
    "placeMasterId": "P02500000FsoGoV5uM5uksKbdSIXW613h4g3Ltlr",
    "placeName": "new boston",
    "state": "TX"
  },
  {
    "city": "marshall",
    "state_code": "TX",
    "placeMasterId": "P02500000FsoGnvhzwVbc7vcwF39qS3YyVVuJhEn",
    "placeName": "marshall",
    "state": "TX"
  },
  {
    "city": "brownsboro",
    "state_code": "TX",
    "placeMasterId": "P02500000FsoGjDmF2QYhS6YBjFl3NtJ8r82D5pI",
    "placeName": "brownsboro",
    "state": "TX"
  },
  {
    "city": "whitehouse",
    "state_code": "TX",
    "placeMasterId": "P02500000FsoGs4FqR0LO3LizXbAxsGL5TQJbZ3l",
    "placeName": "whitehouse",
    "state": "TX"
  },
  {
    "city": "garrison",
    "state_code": "TX",
    "placeMasterId": "P02500000FsoGlVJsglnGRiSyaFHjxjJ0g7IwKDs",
    "placeName": "garrison",
    "state": "TX"
  },
  {
    "city": "kirbyville",
    "state_code": "TX",
    "placeMasterId": "P02500000FsoGmmwB7KzKd7fXoYOVA8ZxGOTSgGf",
    "placeName": "kirbyville",
    "state": "TX"
  },
  {
    "city": "southlake",
    "state_code": "TX",
    "placeMasterId": "P02500000FsoGqvU1bpj6YXlb76PcaLNU9e9DTBg",
    "placeName": "southlake",
    "state": "TX"
  },
  {
    "city": "fort worth",
    "state_code": "TX",
    "placeMasterId": "P02500000FsoGlMTP5NDTl7DnmQwK3EqQnKzuFlE",
    "placeName": "fort worth",
    "state": "TX"
  },
  {
    "city": "valley view",
    "state_code": "TX",
    "placeMasterId": "P02500000FsoGrdiPcoc1zXzT8A8i8nGrShfPXTL",
    "placeName": "valley view",
    "state": "TX"
  },
  {
    "city": "dublin",
    "state_code": "TX",
    "placeMasterId": "P02500000FsoGkeF14OKYK6zvlNDEUn6kJalt5Vg",
    "placeName": "dublin",
    "state": "TX"
  },
  {
    "city": "strawn",
    "state_code": "TX",
    "placeMasterId": "P02500000FsoGqvU1bpj6YXlb76PcaLdxqn4V1Ey",
    "placeName": "strawn",
    "state": "TX"
  },
  {
    "city": "temple",
    "state_code": "TX",
    "placeMasterId": "P02500000FsoGr4KVDEItF90luul2Upufw1rdfm6",
    "placeName": "temple",
    "state": "TX"
  },
  {
    "city": "blum",
    "state_code": "TX",
    "placeMasterId": "P02500000FsoGiw5HpdP84u3q7d4DYun6BSc11w5",
    "placeName": "blum",
    "state": "TX"
  },
  {
    "city": "riesel",
    "state_code": "TX",
    "placeMasterId": "P02500000FsoGpvYgO3gbkL3NUPzhCumRmTL6SZB",
    "placeName": "riesel",
    "state": "TX"
  },
  {
    "city": "thornton",
    "state_code": "TX",
    "placeMasterId": "P02500000FsoGrM1SQ1SScLV7WXRsJoSx1bN2Ncd",
    "placeName": "thornton",
    "state": "TX"
  },
  {
    "city": "houston",
    "state_code": "TX",
    "placeMasterId": "P02500000FsoGmDYGhkgBsigqbJ0pWBK8GcFdEcU",
    "placeName": "houston",
    "state": "TX"
  },
  {
    "city": "houston",
    "state_code": "TX",
    "placeMasterId": "P02500000FsoGmDYGhkgBsigqbJ0pWBK8GcFdEcU",
    "placeName": "houston",
    "state": "TX"
  },
  {
    "city": "houston",
    "state_code": "TX",
    "placeMasterId": "P02500000FsoGmDYGhkgBsigqbJ0pWBK8GcFdEcU",
    "placeName": "houston",
    "state": "TX"
  },
  {
    "city": "houston",
    "state_code": "TX",
    "placeMasterId": "P02500000FsoGmDYGhkgBsigqbJ0pWBK8GcFdEcU",
    "placeName": "houston",
    "state": "TX"
  },
  {
    "city": "houston",
    "state_code": "TX",
    "placeMasterId": "P02500000FsoGmDYGhkgBsigqbJ0pWBK8GcFdEcU",
    "placeName": "houston",
    "state": "TX"
  },
  {
    "city": "cleveland",
    "state_code": "TX",
    "placeMasterId": "P02500000FsoGjw0d3PRct6m3kJU8wLIWkOH4wj8",
    "placeName": "cleveland",
    "state": "TX"
  },
  {
    "city": "humble",
    "state_code": "TX",
    "placeMasterId": "P02500000FsoGmMOkJ9FyZJw1P7MFQfXHtJGBxlx",
    "placeName": "humble",
    "state": "TX"
  },
  {
    "city": "alvin",
    "state_code": "TX",
    "placeMasterId": "P02500000FsoGiMhNQ35zKV58uNgXuxEEbUYtlkn",
    "placeName": "alvin",
    "state": "TX"
  },
  {
    "city": "baytown",
    "state_code": "TX",
    "placeMasterId": "P02500000FsoGinEoEEpLOIofJoineQFkwWY9J4P",
    "placeName": "baytown",
    "state": "TX"
  },
  {
    "city": "danbury",
    "state_code": "TX",
    "placeMasterId": "P02500000FsoGkMY3rbAywuVa9kWOfoQZNhliI4X",
    "placeName": "danbury",
    "state": "TX"
  },
  {
    "city": "manvel",
    "state_code": "TX",
    "placeMasterId": "P02500000FsoGnvhzwVbc7vcwF39qS3bQMoeRXOV",
    "placeName": "manvel",
    "state": "TX"
  },
  {
    "city": "orange",
    "state_code": "TX",
    "placeMasterId": "P02500000FsoGovdLAHe6w8L9rjZlpU8pymgjgUy",
    "placeName": "orange",
    "state": "TX"
  },
  {
    "city": "bryan",
    "state_code": "TX",
    "placeMasterId": "P02500000FsoGjDmF2QYhS6YBjFl3NtQgH5uAyKI",
    "placeName": "bryan",
    "state": "TX"
  },
  {
    "city": "franklin",
    "state_code": "TX",
    "placeMasterId": "P02500000FsoGlDcvTydh4Vycycau8kbSaK9iYj3",
    "placeName": "franklin",
    "state": "TX"
  },
  {
    "city": "san antonio",
    "state_code": "TX",
    "placeMasterId": "P02500000FsoGqM67CFPxo8mttr1wwNqfYQdpCPu",
    "placeName": "san antonio",
    "state": "TX"
  },
  {
    "city": "aransas pass",
    "state_code": "TX",
    "placeMasterId": "P02500000FsoGiVXr1Rfm16KJiC1xpRZf7YQnO71",
    "placeName": "aransas pass",
    "state": "TX"
  },
  {
    "city": "delmita",
    "state_code": "TX",
    "placeMasterId": "P02500000FsoGkMY3rbAywuVa9kWOfoUxwnb3iHf",
    "placeName": "delmita",
    "state": "TX"
  },
  {
    "city": "weslaco",
    "state_code": "TX",
    "placeMasterId": "P02500000FsoGrvPMpblbMkTojmpXxlw76pZKVby",
    "placeName": "weslaco",
    "state": "TX"
  },
  {
    "city": "georgetown",
    "state_code": "TX",
    "placeMasterId": "P02500000FsoGlVJsglnGRiSyaFHjxjL4riowMVX",
    "placeName": "georgetown",
    "state": "TX"
  },
  {
    "city": "horseshoe bay",
    "state_code": "TX",
    "placeMasterId": "P02500000FsoGmDYGhkgBsigqbJ0pWB5pVLqLJv8",
    "placeName": "horseshoe bay",
    "state": "TX"
  },
  {
    "city": "austin",
    "state_code": "TX",
    "placeMasterId": "P02500000FsoGieOKcqFYhhZUW0NNjvrbzzBh3wR",
    "placeName": "austin",
    "state": "TX"
  },
  {
    "city": "austin",
    "state_code": "TX",
    "placeMasterId": "P02500000FsoGieOKcqFYhhZUW0NNjvrbzzBh3wR",
    "placeName": "austin",
    "state": "TX"
  },
  {
    "city": "austin",
    "state_code": "TX",
    "placeMasterId": "P02500000FsoGieOKcqFYhhZUW0NNjvrbzzBh3wR",
    "placeName": "austin",
    "state": "TX"
  },
  {
    "city": "austin",
    "state_code": "TX",
    "placeMasterId": "P02500000FsoGieOKcqFYhhZUW0NNjvrbzzBh3wR",
    "placeName": "austin",
    "state": "TX"
  },
  {
    "city": "fayetteville",
    "state_code": "TX",
    "placeMasterId": "P02500000FsoGl4mRsa3uNujSAoFUEGLrBoqxsHn",
    "placeName": "fayetteville",
    "state": "TX"
  },
  {
    "city": "glidden",
    "state_code": "TX",
    "placeMasterId": "P02500000FsoGlVJsglnGRiSyaFHjxjTUHI65U0T",
    "placeName": "glidden",
    "state": "TX"
  },
  {
    "city": "white deer",
    "state_code": "TX",
    "placeMasterId": "P02500000FsoGrvPMpblbMkTojmpXxmAmbeBEPav",
    "placeName": "white deer",
    "state": "TX"
  },
  {
    "city": "amarillo",
    "state_code": "TX",
    "placeMasterId": "P02500000FsoGiMhNQ35zKV58uNgXuxIaAeFmU4D",
    "placeName": "amarillo",
    "state": "TX"
  },
  {
    "city": "amarillo",
    "state_code": "TX",
    "placeMasterId": "P02500000FsoGiMhNQ35zKV58uNgXuxIaAeFmU4D",
    "placeName": "amarillo",
    "state": "TX"
  },
  {
    "city": "amarillo",
    "state_code": "TX",
    "placeMasterId": "P02500000FsoGiMhNQ35zKV58uNgXuxIaAeFmU4D",
    "placeName": "amarillo",
    "state": "TX"
  },
  {
    "city": "matador",
    "state_code": "TX",
    "placeMasterId": "P02500000FsoGnvhzwVbc7vcwF39qS3kaxCxPX65",
    "placeName": "matador",
    "state": "TX"
  },
  {
    "city": "petersburg",
    "state_code": "TX",
    "placeMasterId": "P02500000FsoGpDKIN4ngJKpVTMGbeSvuJJcjNYg",
    "placeName": "petersburg",
    "state": "TX"
  },
  {
    "city": "anton",
    "state_code": "TX",
    "placeMasterId": "P02500000FsoGiVXr1Rfm16KJiC1xpRfiyODIXcu",
    "placeName": "anton",
    "state": "TX"
  },
  {
    "city": "lamesa",
    "state_code": "TX",
    "placeMasterId": "P02500000FsoGn4d8K88u0K9tQB5Kz7SigiWJlRS",
    "placeName": "lamesa",
    "state": "TX"
  },
  {
    "city": "littlefield",
    "state_code": "TX",
    "placeMasterId": "P02500000FsoGnMK5WvITNWeF1nmAo6BLTQa3rOf",
    "placeName": "littlefield",
    "state": "TX"
  },
  {
    "city": "stamford",
    "state_code": "TX",
    "placeMasterId": "P02500000FsoGqvU1bpj6YXlb76PcaLZ47PAbh36",
    "placeName": "stamford",
    "state": "TX"
  },
  {
    "city": "abilene",
    "state_code": "TX",
    "placeMasterId": "P02500000FsoGiDqtoeWCdtpy6ZL80SrkQQVB2g4",
    "placeName": "abilene",
    "state": "TX"
  },
  {
    "city": "abilene",
    "state_code": "TX",
    "placeMasterId": "P02500000FsoGiDqtoeWCdtpy6ZL80SrkQQVB2g4",
    "placeName": "abilene",
    "state": "TX"
  },
  {
    "city": "rankin",
    "state_code": "TX",
    "placeMasterId": "P02500000FsoGpdrjBGX2N8Z1snIrNw6vAHWNCYO",
    "placeName": "rankin",
    "state": "TX"
  },
  {
    "city": "van horn",
    "state_code": "TX",
    "placeMasterId": "P02500000FsoGrdiPcoc1zXzT8A8i8nCgbdwkZA9",
    "placeName": "van horn",
    "state": "TX"
  },
  {
    "city": "el paso",
    "state_code": "TX",
    "placeMasterId": "P02500000FsoGkn5UfmuL0iF6ZBYePHb6XkiWYkD",
    "placeName": "el paso",
    "state": "TX"
  },
  {
    "city": "louviers",
    "state_code": "CO",
    "placeMasterId": "P02500000FsoEnwB4n22D1twW4OxfgMoN7yJLq4v",
    "placeName": "louviers",
    "state": "CO"
  },
  {
    "city": "palmer lake",
    "state_code": "CO",
    "placeMasterId": "P02500000FsoEoDs1zpBmP6Qrg1eVVLcoOkKnlMZ",
    "placeName": "palmer lake",
    "state": "CO"
  },
  {
    "city": "gilcrest",
    "state_code": "CO",
    "placeMasterId": "P02500000FsoEnMnANRj4HUxor9a02PMv3DopJZW",
    "placeName": "gilcrest",
    "state": "CO"
  },
  {
    "city": "paoli",
    "state_code": "CO",
    "placeMasterId": "P02500000FsoEoMiVbDlZ5hg2TpzvPpuDTnLvRa8",
    "placeName": "paoli",
    "state": "CO"
  },
  {
    "city": "florissant",
    "state_code": "CO",
    "placeMasterId": "P02500000FsoEnMnANRj4HUxor9a02PJ7VIXiMrK",
    "placeName": "florissant",
    "state": "CO"
  },
  {
    "city": "guffey",
    "state_code": "CO",
    "placeMasterId": "P02500000FsoEnVddyqIqy6CzexvPwtjQajRryVI",
    "placeName": "guffey",
    "state": "CO"
  },
  {
    "city": "colorado springs",
    "state_code": "CO",
    "placeMasterId": "P02500000FsoEmwFjZFziDhEIRiXkIwGl9Aki2Up",
    "placeName": "colorado springs",
    "state": "CO"
  },
  {
    "city": "capulin",
    "state_code": "CO",
    "placeMasterId": "P02500000FsoEmeYmMSq8qUjwq5quTxVrywvbV97",
    "placeName": "capulin",
    "state": "CO"
  },
  {
    "city": "la jara",
    "state_code": "CO",
    "placeMasterId": "P02500000FsoEnnKbBdSQLIhLGacFlsTRFWmToAi",
    "placeName": "la jara",
    "state": "CO"
  },
  {
    "city": "penrose",
    "state_code": "CO",
    "placeMasterId": "P02500000FsoEoMiVbDlZ5hg2TpzvPpu5YILB30d",
    "placeName": "penrose",
    "state": "CO"
  },
  {
    "city": "red cliff",
    "state_code": "CO",
    "placeMasterId": "P02500000FsoEoVYzCcLLmIvDHeLLKKI6DKEN1IP",
    "placeName": "red cliff",
    "state": "CO"
  },
  {
    "city": "silt",
    "state_code": "CO",
    "placeMasterId": "P02500000FsoEoVYzCcLLmIvDHeLLKKJdH4yiH27",
    "placeName": "silt",
    "state": "CO"
  },
  {
    "city": "carpenter",
    "state_code": "WY",
    "placeMasterId": "P02500000FsoH8lHi0NsGRdMNXbarTZt5kHoWeXn",
    "placeName": "carpenter",
    "state": "WY"
  },
  {
    "city": "hillsdale",
    "state_code": "WY",
    "placeMasterId": "P02500000FsoH9Bp8oZbcVR5tx2d7D2uKSELcUSY",
    "placeName": "hillsdale",
    "state": "WY"
  },
  {
    "city": "laramie",
    "state_code": "WY",
    "placeMasterId": "P02500000FsoH9KfcPyBPC2L4kqyX7XLdIGzsOAL",
    "placeName": "laramie",
    "state": "WY"
  },
  {
    "city": "hartville",
    "state_code": "WY",
    "placeMasterId": "P02500000FsoH9Bp8oZbcVR5tx2d7D2zNn7Mw1Aj",
    "placeName": "hartville",
    "state": "WY"
  },
  {
    "city": "lance creek",
    "state_code": "WY",
    "placeMasterId": "P02500000FsoH9Bp8oZbcVR5tx2d7D37NuJjbt5n",
    "placeName": "lance creek",
    "state": "WY"
  },
  {
    "city": "hyattville",
    "state_code": "WY",
    "placeMasterId": "P02500000FsoH9Bp8oZbcVR5tx2d7D37ODxThTGp",
    "placeName": "hyattville",
    "state": "WY"
  },
  {
    "city": "shell",
    "state_code": "WY",
    "placeMasterId": "P02500000FsoH9cMZclKyZEpQMTfMwW5UxQgElTX",
    "placeName": "shell",
    "state": "WY"
  },
  {
    "city": "casper",
    "state_code": "WY",
    "placeMasterId": "P02500000FsoH8u8BbmS38EbYLPwHO47zQd3IfxA",
    "placeName": "casper",
    "state": "WY"
  },
  {
    "city": "fairview",
    "state_code": "WY",
    "placeMasterId": "P02500000FsoH92yfDB1popqj9EHhIYY5APmDnzo",
    "placeName": "fairview",
    "state": "WY"
  },
  {
    "city": "american falls",
    "state_code": "ID",
    "placeMasterId": "P02500000FsoEzmQhqvwO3lFykndMJ1f8dpmAHRQ",
    "placeName": "american falls",
    "state": "ID"
  },
  {
    "city": "georgetown",
    "state_code": "ID",
    "placeMasterId": "P02500000FsoF0LocGWFWoAEfy311wz8RGwKOvXh",
    "placeName": "georgetown",
    "state": "ID"
  },
  {
    "city": "lava hot springs",
    "state_code": "ID",
    "placeMasterId": "P02500000FsoF0Uf5rupJUlTqlrMRrTU35YgIcWk",
    "placeName": "lava hot springs",
    "state": "ID"
  },
  {
    "city": "weston",
    "state_code": "ID",
    "placeMasterId": "P02500000FsoF1430HV8SFASXz6k7VQzZz42In6d",
    "placeName": "weston",
    "state": "ID"
  },
  {
    "city": "twin falls",
    "state_code": "ID",
    "placeMasterId": "P02500000FsoF1430HV8SFASXz6k7VQyK1eK0sb8",
    "placeName": "twin falls",
    "state": "ID"
  },
  {
    "city": "castleford",
    "state_code": "ID",
    "placeMasterId": "P02500000FsoF047f3j5xQxkKMQKC80PslHd7p8i",
    "placeName": "castleford",
    "state": "ID"
  },
  {
    "city": "eden",
    "state_code": "ID",
    "placeMasterId": "P02500000FsoF0Cy8f7fk7YzVAEfc2Uk53UGcJtq",
    "placeName": "eden",
    "state": "ID"
  },
  {
    "city": "sun valley",
    "state_code": "ID",
    "placeMasterId": "P02500000FsoF0vCWg6YfYZDNBIOhaweqvhR0tP4",
    "placeName": "sun valley",
    "state": "ID"
  },
  {
    "city": "idaho falls",
    "state_code": "ID",
    "placeMasterId": "P02500000FsoF0LocGWFWoAEfy311wz9dIeyRUSt",
    "placeName": "idaho falls",
    "state": "ID"
  },
  {
    "city": "glenns ferry",
    "state_code": "ID",
    "placeMasterId": "P02500000FsoF0LocGWFWoAEfy311wz9iOi5OOMx",
    "placeName": "glenns ferry",
    "state": "ID"
  },
  {
    "city": "boise",
    "state_code": "ID",
    "placeMasterId": "P02500000FsoEzvHBSKWAkMV9YbymDW1T6oUkWas",
    "placeName": "boise",
    "state": "ID"
  },
  {
    "city": "pinehurst",
    "state_code": "ID",
    "placeMasterId": "P02500000FsoF0mM34hysrxyCNU3HgSFqlF2Vl8R",
    "placeName": "pinehurst",
    "state": "ID"
  },
  {
    "city": "layton",
    "state_code": "UT",
    "placeMasterId": "P02500000FsoGt4BBemNsrYRDAHatFh6NGKcuFMO",
    "placeName": "layton",
    "state": "UT"
  },
  {
    "city": "orem",
    "state_code": "UT",
    "placeMasterId": "P02500000FsoGtUicSy7EvMAjZid8zA55vj6eyu1",
    "placeName": "orem",
    "state": "UT"
  },
  {
    "city": "salt lake city",
    "state_code": "UT",
    "placeMasterId": "P02500000FsoGtmPZflGoIYf5BLJyo8m8TJqdpCK",
    "placeName": "salt lake city",
    "state": "UT"
  },
  {
    "city": "salt lake city",
    "state_code": "UT",
    "placeMasterId": "P02500000FsoGtmPZflGoIYf5BLJyo8m8TJqdpCK",
    "placeName": "salt lake city",
    "state": "UT"
  },
  {
    "city": "salt lake city",
    "state_code": "UT",
    "placeMasterId": "P02500000FsoGtmPZflGoIYf5BLJyo8m8TJqdpCK",
    "placeName": "salt lake city",
    "state": "UT"
  },
  {
    "city": "corinne",
    "state_code": "UT",
    "placeMasterId": "P02500000FsoGsddkqaeWnkhgkqYdWDpqcJrPMqr",
    "placeName": "corinne",
    "state": "UT"
  },
  {
    "city": "eden",
    "state_code": "UT",
    "placeMasterId": "P02500000FsoGsmUERzEJULwrYeu3QiDwySA8iJg",
    "placeName": "eden",
    "state": "UT"
  },
  {
    "city": "ogden",
    "state_code": "UT",
    "placeMasterId": "P02500000FsoGtUicSy7EvMAjZid8zAAtcfI8iZF",
    "placeName": "ogden",
    "state": "UT"
  },
  {
    "city": "circleville",
    "state_code": "UT",
    "placeMasterId": "P02500000FsoGsUnHFC4k79SVx2DDbjaKYtfFIRx",
    "placeName": "circleville",
    "state": "UT"
  },
  {
    "city": "glenwood",
    "state_code": "UT",
    "placeMasterId": "P02500000FsoGsvKi3No6AxC2MTFTLCWyH0a9mgm",
    "placeName": "glenwood",
    "state": "UT"
  },
  {
    "city": "hanksville",
    "state_code": "UT",
    "placeMasterId": "P02500000FsoGsvKi3No6AxC2MTFTLCZfQuujCiK",
    "placeName": "hanksville",
    "state": "UT"
  },
  {
    "city": "parowan",
    "state_code": "UT",
    "placeMasterId": "P02500000FsoGtUicSy7EvMAjZid8zA99rzADqMm",
    "placeName": "parowan",
    "state": "UT"
  },
  {
    "city": "phoenix",
    "state_code": "AZ",
    "placeMasterId": "P02500000FsoEZWgqrzjtdEDuvO4SetJca76kZR3",
    "placeName": "phoenix",
    "state": "AZ"
  },
  {
    "city": "san tan valley",
    "state_code": "AZ",
    "placeMasterId": "P02500000FsoEZoNo4mtT0QiGX0lITs27gNNPjgE",
    "placeName": "san tan valley",
    "state": "AZ"
  },
  {
    "city": "scottsdale",
    "state_code": "AZ",
    "placeMasterId": "P02500000FsoEZoNo4mtT0QiGX0lITs2v218sukG",
    "placeName": "scottsdale",
    "state": "AZ"
  },
  {
    "city": "naco",
    "state_code": "AZ",
    "placeMasterId": "P02500000FsoEZNqNGbA6wcyk7Zj2kOwsX233fHa",
    "placeName": "naco",
    "state": "AZ"
  },
  {
    "city": "sierra vista",
    "state_code": "AZ",
    "placeMasterId": "P02500000FsoEZoNo4mtT0QiGX0lITs5FFhgu3gk",
    "placeName": "sierra vista",
    "state": "AZ"
  },
  {
    "city": "tucson",
    "state_code": "AZ",
    "placeMasterId": "P02500000FsoEa64lHa32NdCc8dS8IqpdZHyNtyf",
    "placeName": "tucson",
    "state": "AZ"
  },
  {
    "city": "tucson",
    "state_code": "AZ",
    "placeMasterId": "P02500000FsoEa64lHa32NdCc8dS8IqpdZHyNtyf",
    "placeName": "tucson",
    "state": "AZ"
  },
  {
    "city": "tucson",
    "state_code": "AZ",
    "placeMasterId": "P02500000FsoEa64lHa32NdCc8dS8IqpdZHyNtyf",
    "placeName": "tucson",
    "state": "AZ"
  },
  {
    "city": "winslow",
    "state_code": "AZ",
    "placeMasterId": "P02500000FsoEaNliUNCbkpgxkG8y7pYgYnxnPAF",
    "placeName": "winslow",
    "state": "AZ"
  },
  {
    "city": "lake havasu city",
    "state_code": "AZ",
    "placeMasterId": "P02500000FsoEZ69Q3o0XZQUOVx2CvQEbcLwIlbq",
    "placeName": "lake havasu city",
    "state": "AZ"
  },
  {
    "city": "kingman",
    "state_code": "AZ",
    "placeMasterId": "P02500000FsoEYxIwSPQkspFDi8gn0vqDKwMyJoZ",
    "placeName": "kingman",
    "state": "AZ"
  },
  {
    "city": "grants",
    "state_code": "NM",
    "placeMasterId": "P02500000FsoFyzXXbzYGpTFjQ9peBB3dCpIeSUA",
    "placeName": "grants",
    "state": "NM"
  },
  {
    "city": "jemez springs",
    "state_code": "NM",
    "placeMasterId": "P02500000FsoFz8O1DO83W4UuDyB45fXhDcoZ09G",
    "placeName": "jemez springs",
    "state": "NM"
  },
  {
    "city": "pena blanca",
    "state_code": "NM",
    "placeMasterId": "P02500000FsoFzqcPEN0yx4imF1u9e7NNKdGnnfj",
    "placeName": "pena blanca",
    "state": "NM"
  },
  {
    "city": "regina",
    "state_code": "NM",
    "placeMasterId": "P02500000FsoG08JMRAAYKHD7qeazT5vrPUZiC3A",
    "placeName": "regina",
    "state": "NM"
  },
  {
    "city": "ohkay owingeh",
    "state_code": "NM",
    "placeMasterId": "P02500000FsoFzqcPEN0yx4imF1u9e7DU2YlElB0",
    "placeName": "ohkay owingeh",
    "state": "NM"
  },
  {
    "city": "mosquero",
    "state_code": "NM",
    "placeMasterId": "P02500000FsoFzhlvcyRCGTTbRDYjjcxFYo9uhCI",
    "placeName": "mosquero",
    "state": "NM"
  },
  {
    "city": "garfield",
    "state_code": "NM",
    "placeMasterId": "P02500000FsoFz8O1DO83W4UuDyB45fJFCpnWmLE",
    "placeName": "garfield",
    "state": "NM"
  },
  {
    "city": "las cruces",
    "state_code": "NM",
    "placeMasterId": "P02500000FsoFzQ4yQBHctGzFpartueC0C0ojOkG",
    "placeName": "las cruces",
    "state": "NM"
  },
  {
    "city": "gila",
    "state_code": "NM",
    "placeMasterId": "P02500000FsoFyzXXbzYGpTFjQ9peBB1f4P4SqWP",
    "placeName": "gila",
    "state": "NM"
  },
  {
    "city": "portales",
    "state_code": "NM",
    "placeMasterId": "P02500000FsoFzzSsplaldfxx2qFZYbjlL5C4O8O",
    "placeName": "portales",
    "state": "NM"
  },
  {
    "city": "dyer",
    "state_code": "NV",
    "placeMasterId": "P02500000FsoFuHbmhuVM9eAyuMQr70jxUda8eNA",
    "placeName": "dyer",
    "state": "NV"
  },
  {
    "city": "north las vegas",
    "state_code": "NV",
    "placeMasterId": "P02500000FsoFuZIjuhevWqfKVz7gvzZ3kBq8jkB",
    "placeName": "north las vegas",
    "state": "NV"
  },
  {
    "city": "las vegas",
    "state_code": "NV",
    "placeMasterId": "P02500000FsoFuQSGJJ58qFQ9iAmH1VC0RKB5lYR",
    "placeName": "las vegas",
    "state": "NV"
  },
  {
    "city": "fallon",
    "state_code": "NV",
    "placeMasterId": "P02500000FsoFuQSGJJ58qFQ9iAmH1V7IIPtSnvU",
    "placeName": "fallon",
    "state": "NV"
  },
  {
    "city": "golconda",
    "state_code": "NV",
    "placeMasterId": "P02500000FsoFuHbmhuVM9eAyuMQr70p8zPAMmoQ",
    "placeName": "golconda",
    "state": "NV"
  },
  {
    "city": "sparks",
    "state_code": "NV",
    "placeMasterId": "P02500000FsoFui9DW6EiDRuVJnT6qTsW0mL5w4C",
    "placeName": "sparks",
    "state": "NV"
  },
  {
    "city": "incline village",
    "state_code": "NV",
    "placeMasterId": "P02500000FsoFuQSGJJ58qFQ9iAmH1V9pOPro813",
    "placeName": "incline village",
    "state": "NV"
  },
  {
    "city": "reno",
    "state_code": "NV",
    "placeMasterId": "P02500000FsoFuZIjuhevWqfKVz7gvzemDKMzraO",
    "placeName": "reno",
    "state": "NV"
  },
  {
    "city": "reno",
    "state_code": "NV",
    "placeMasterId": "P02500000FsoFuZIjuhevWqfKVz7gvzemDKMzraO",
    "placeName": "reno",
    "state": "NV"
  },
  {
    "city": "crescent valley",
    "state_code": "NV",
    "placeMasterId": "P02500000FsoFuHbmhuVM9eAyuMQr70jPESnUNFX",
    "placeName": "crescent valley",
    "state": "NV"
  },
  {
    "city": "los angeles",
    "state_code": "CA",
    "placeMasterId": "P02500000FsoEiEJyfAwnXs9Xvv8xEm0Sp2kcekK",
    "placeName": "los angeles",
    "state": "CA"
  },
  {
    "city": "los angeles",
    "state_code": "CA",
    "placeMasterId": "P02500000FsoEiEJyfAwnXs9Xvv8xEm0Sp2kcekK",
    "placeName": "los angeles",
    "state": "CA"
  },
  {
    "city": "los angeles",
    "state_code": "CA",
    "placeMasterId": "P02500000FsoEiEJyfAwnXs9Xvv8xEm0Sp2kcekK",
    "placeName": "los angeles",
    "state": "CA"
  },
  {
    "city": "inglewood",
    "state_code": "CA",
    "placeMasterId": "P02500000FsoEhEOdROuIjfRKJEj1rLNsoCk4oxk",
    "placeName": "inglewood",
    "state": "CA"
  },
  {
    "city": "pico rivera",
    "state_code": "CA",
    "placeMasterId": "P02500000FsoEjemkh8iePsbHy2b8Lfgqk8Q0To2",
    "placeName": "pico rivera",
    "state": "CA"
  },
  {
    "city": "long beach",
    "state_code": "CA",
    "placeMasterId": "P02500000FsoEiEJyfAwnXs9Xvv8xElwosKjKxLA",
    "placeName": "long beach",
    "state": "CA"
  },
  {
    "city": "el monte",
    "state_code": "CA",
    "placeMasterId": "P02500000FsoEg5cocEI1ErTvsjxgZQQHzyoIvbr",
    "placeName": "el monte",
    "state": "CA"
  },
  {
    "city": "rowland heights",
    "state_code": "CA",
    "placeMasterId": "P02500000FsoEkVrcJWBMXU4KmufdobtpB6qp5mw",
    "placeName": "rowland heights",
    "state": "CA"
  },
  {
    "city": "monterey park",
    "state_code": "CA",
    "placeMasterId": "P02500000FsoEinht4lFwIH8F9AWcsjUFRdxReUc",
    "placeName": "monterey park",
    "state": "CA"
  },
  {
    "city": "monterey park",
    "state_code": "CA",
    "placeMasterId": "P02500000FsoEinht4lFwIH8F9AWcsjUFRdxReUc",
    "placeName": "monterey park",
    "state": "CA"
  },
  {
    "city": "del mar",
    "state_code": "CA",
    "placeMasterId": "P02500000FsoEff5No2YfB3kPTIvQpxIWkCsHjCg",
    "placeName": "del mar",
    "state": "CA"
  },
  {
    "city": "escondido",
    "state_code": "CA",
    "placeMasterId": "P02500000FsoEgETIDcrnvSj6gYJ6Tuljpe88dal",
    "placeName": "escondido",
    "state": "CA"
  },
  {
    "city": "san diego",
    "state_code": "CA",
    "placeMasterId": "P02500000FsoEkVrcJWBMXU4KmufdobvSE82FU0j",
    "placeName": "san diego",
    "state": "CA"
  },
  {
    "city": "san diego",
    "state_code": "CA",
    "placeMasterId": "P02500000FsoEkVrcJWBMXU4KmufdobvSE82FU0j",
    "placeName": "san diego",
    "state": "CA"
  },
  {
    "city": "san diego",
    "state_code": "CA",
    "placeMasterId": "P02500000FsoEkVrcJWBMXU4KmufdobvSE82FU0j",
    "placeName": "san diego",
    "state": "CA"
  },
  {
    "city": "san diego",
    "state_code": "CA",
    "placeMasterId": "P02500000FsoEkVrcJWBMXU4KmufdobvSE82FU0j",
    "placeName": "san diego",
    "state": "CA"
  },
  {
    "city": "baker",
    "state_code": "CA",
    "placeMasterId": "P02500000FsoEdwveZHdEvqoJpYmPu4oNF1LU15u",
    "placeName": "baker",
    "state": "CA"
  },
  {
    "city": "yucaipa",
    "state_code": "CA",
    "placeMasterId": "P02500000FsoEmViIl4GM9tUm2HVUZT5B9EUdZrf",
    "placeName": "yucaipa",
    "state": "CA"
  },
  {
    "city": "san bernardino",
    "state_code": "CA",
    "placeMasterId": "P02500000FsoEkVrcJWBMXU4KmufdobxDvk7Zv0i",
    "placeName": "san bernardino",
    "state": "CA"
  },
  {
    "city": "irvine",
    "state_code": "CA",
    "placeMasterId": "P02500000FsoEhNF72nU5QGgV734RlpjosMp0ILe",
    "placeName": "irvine",
    "state": "CA"
  },
  {
    "city": "norco",
    "state_code": "CA",
    "placeMasterId": "P02500000FsoEjEFJswzIM4rlYbYscCZ29Nl8sUm",
    "placeName": "norco",
    "state": "CA"
  },
  {
    "city": "lemoore",
    "state_code": "CA",
    "placeMasterId": "P02500000FsoEi5TV3mN0rGuN86nXKHaHflh6VPd",
    "placeName": "lemoore",
    "state": "CA"
  },
  {
    "city": "lost hills",
    "state_code": "CA",
    "placeMasterId": "P02500000FsoEiEJyfAwnXs9Xvv8xElzPlI9tPxj",
    "placeName": "lost hills",
    "state": "CA"
  },
  {
    "city": "pixley",
    "state_code": "CA",
    "placeMasterId": "P02500000FsoEjndEIXIR6TqSlqwYGA3H6eqHwvW",
    "placeName": "pixley",
    "state": "CA"
  },
  {
    "city": "bakersfield",
    "state_code": "CA",
    "placeMasterId": "P02500000FsoEdwveZHdEvqoJpYmPu4r7PsLmxxn",
    "placeName": "bakersfield",
    "state": "CA"
  },
  {
    "city": "kerman",
    "state_code": "CA",
    "placeMasterId": "P02500000FsoEhW5aeC3s6rvfurPrgK7qPwheAp9",
    "placeName": "kerman",
    "state": "CA"
  },
  {
    "city": "lockwood",
    "state_code": "CA",
    "placeMasterId": "P02500000FsoEi5TV3mN0rGuN86nXKHdAVfN16dg",
    "placeName": "lockwood",
    "state": "CA"
  },
  {
    "city": "san francisco",
    "state_code": "CA",
    "placeMasterId": "P02500000FsoEkVrcJWBMXU4KmufdobtfKVREvsP",
    "placeName": "san francisco",
    "state": "CA"
  },
  {
    "city": "san mateo",
    "state_code": "CA",
    "placeMasterId": "P02500000FsoEknYZWJKvugYgOXMTdacl2SleQLW",
    "placeName": "san mateo",
    "state": "CA"
  },
  {
    "city": "san mateo",
    "state_code": "CA",
    "placeMasterId": "P02500000FsoEknYZWJKvugYgOXMTdacl2SleQLW",
    "placeName": "san mateo",
    "state": "CA"
  },
  {
    "city": "concord",
    "state_code": "CA",
    "placeMasterId": "P02500000FsoEfNOQbFP5nrG3rgEb0yVfbyJpBt7",
    "placeName": "concord",
    "state": "CA"
  },
  {
    "city": "fremont",
    "state_code": "CA",
    "placeMasterId": "P02500000FsoEgWAFQQ1NIfDSIAzwItWg8B5R7Dt",
    "placeName": "fremont",
    "state": "CA"
  },
  {
    "city": "san leandro",
    "state_code": "CA",
    "placeMasterId": "P02500000FsoEkVrcJWBMXU4Kmufdobx0jSZ7LQo",
    "placeName": "san leandro",
    "state": "CA"
  },
  {
    "city": "oakland",
    "state_code": "CA",
    "placeMasterId": "P02500000FsoEjN5nULZ52g6wMPuIWgwHJpxtC9b",
    "placeName": "oakland",
    "state": "CA"
  },
  {
    "city": "dillon beach",
    "state_code": "CA",
    "placeMasterId": "P02500000FsoEfnvrPR8RrezaH7GqkRdKObkUWm9",
    "placeName": "dillon beach",
    "state": "CA"
  },
  {
    "city": "san jose",
    "state_code": "CA",
    "placeMasterId": "P02500000FsoEkei5uul9E5JVaj13j6FZZ7utLyF",
    "placeName": "san jose",
    "state": "CA"
  },
  {
    "city": "san jose",
    "state_code": "CA",
    "placeMasterId": "P02500000FsoEkei5uul9E5JVaj13j6FZZ7utLyF",
    "placeName": "san jose",
    "state": "CA"
  },
  {
    "city": "stockton",
    "state_code": "CA",
    "placeMasterId": "P02500000FsoElE60KV4HyUICnyOjN3mM5drQo04",
    "placeName": "stockton",
    "state": "CA"
  },
  {
    "city": "stockton",
    "state_code": "CA",
    "placeMasterId": "P02500000FsoElE60KV4HyUICnyOjN3mM5drQo04",
    "placeName": "stockton",
    "state": "CA"
  },
  {
    "city": "ballico",
    "state_code": "CA",
    "placeMasterId": "P02500000FsoEdwveZHdEvqoJpYmPu4piWN9dMgQ",
    "placeName": "ballico",
    "state": "CA"
  },
  {
    "city": "manchester",
    "state_code": "CA",
    "placeMasterId": "P02500000FsoEiNASGZWaETOijjUN9GKwn1kD8Ox",
    "placeName": "manchester",
    "state": "CA"
  },
  {
    "city": "auburn",
    "state_code": "CA",
    "placeMasterId": "P02500000FsoEdwveZHdEvqoJpYmPu4p2Hno6fzp",
    "placeName": "auburn",
    "state": "CA"
  },
  {
    "city": "ione",
    "state_code": "CA",
    "placeMasterId": "P02500000FsoEhEOdROuIjfRKJEj1rLPb1ql7D5F",
    "placeName": "ione",
    "state": "CA"
  },
  {
    "city": "north highlands",
    "state_code": "CA",
    "placeMasterId": "P02500000FsoEjEFJswzIM4rlYbYscCWzXiD7lbN",
    "placeName": "north highlands",
    "state": "CA"
  },
  {
    "city": "wilton",
    "state_code": "CA",
    "placeMasterId": "P02500000FsoEmMrp9fgZTIFbETA4eyiYFIYfoxw",
    "placeName": "wilton",
    "state": "CA"
  },
  {
    "city": "sacramento",
    "state_code": "CA",
    "placeMasterId": "P02500000FsoEkVrcJWBMXU4KmufdobsP4JCiDgI",
    "placeName": "sacramento",
    "state": "CA"
  },
  {
    "city": "colusa",
    "state_code": "CA",
    "placeMasterId": "P02500000FsoEfEXwzqpJ7G0t3rtB6UCZbLZHIrD",
    "placeName": "colusa",
    "state": "CA"
  },
  {
    "city": "dorris",
    "state_code": "CA",
    "placeMasterId": "P02500000FsoEfnvrPR8RrezaH7GqkRdp8xVCSDX",
    "placeName": "dorris",
    "state": "CA"
  },
  {
    "city": "likely",
    "state_code": "CA",
    "placeMasterId": "P02500000FsoEi5TV3mN0rGuN86nXKHb27D1uCgZ",
    "placeName": "likely",
    "state": "CA"
  },
  {
    "city": "calpine",
    "state_code": "CA",
    "placeMasterId": "P02500000FsoEefA2aGWAMr2BqcVVSWh53RIoHln",
    "placeName": "calpine",
    "state": "CA"
  },
  {
    "city": "sierra city",
    "state_code": "CA",
    "placeMasterId": "P02500000FsoEkwP37huibHnrCLhtY555aRbgkkX",
    "placeName": "sierra city",
    "state": "CA"
  },
  {
    "city": "haleiwa",
    "state_code": "HI",
    "placeMasterId": "P02500000FsoEz4CJpx3Scl26jjuGkZoQ5Lh4jvb",
    "placeName": "haleiwa",
    "state": "HI"
  },
  {
    "city": "hanapepe",
    "state_code": "HI",
    "placeMasterId": "P02500000FsoEzD2nRLdFJMHHXYFgf48I5AUJNUT",
    "placeName": "hanapepe",
    "state": "HI"
  },
  {
    "city": "holualoa",
    "state_code": "HI",
    "placeMasterId": "P02500000FsoEzD2nRLdFJMHHXYFgf48yvPwppFF",
    "placeName": "holualoa",
    "state": "HI"
  },
  {
    "city": "kaneohe",
    "state_code": "HI",
    "placeMasterId": "P02500000FsoEzLtH2kD1zxWSLMb6ZYWQRySxLjW",
    "placeName": "kaneohe",
    "state": "HI"
  },
  {
    "city": "kapaau",
    "state_code": "HI",
    "placeMasterId": "P02500000FsoEzLtH2kD1zxWSLMb6ZYW7SV7RlID",
    "placeName": "kapaau",
    "state": "HI"
  },
  {
    "city": "kula",
    "state_code": "HI",
    "placeMasterId": "P02500000FsoEzLtH2kD1zxWSLMb6ZYYCZEIMYkP",
    "placeName": "kula",
    "state": "HI"
  },
  {
    "city": "fairview",
    "state_code": "OR",
    "placeMasterId": "P02500000FsoGOojxmk1PCCYGq8MI5qCWe9HPoui",
    "placeName": "fairview",
    "state": "OR"
  },
  {
    "city": "warrenton",
    "state_code": "OR",
    "placeMasterId": "P02500000FsoGQO3DQ6N2koFBg49t7EJR6vJsXgE",
    "placeName": "warrenton",
    "state": "OR"
  },
  {
    "city": "portland",
    "state_code": "OR",
    "placeMasterId": "P02500000FsoGPfopP7U7Jo1Jf0QnYmTaqhg2Hwh",
    "placeName": "portland",
    "state": "OR"
  },
  {
    "city": "portland",
    "state_code": "OR",
    "placeMasterId": "P02500000FsoGPfopP7U7Jo1Jf0QnYmTaqhg2Hwh",
    "placeName": "portland",
    "state": "OR"
  },
  {
    "city": "mill city",
    "state_code": "OR",
    "placeMasterId": "P02500000FsoGPO7sCKKXwbWy3NjxjnsG76TpNE1",
    "placeName": "mill city",
    "state": "OR"
  },
  {
    "city": "sweet home",
    "state_code": "OR",
    "placeMasterId": "P02500000FsoGQ6MGDJDTNbkq4RT3IFdPCBHeNZJ",
    "placeName": "sweet home",
    "state": "OR"
  },
  {
    "city": "tangent",
    "state_code": "OR",
    "placeMasterId": "P02500000FsoGQ6MGDJDTNbkq4RT3IFeqc6G5zjQ",
    "placeName": "tangent",
    "state": "OR"
  },
  {
    "city": "florence",
    "state_code": "OR",
    "placeMasterId": "P02500000FsoGOojxmk1PCCYGq8MI5qG3odCnarW",
    "placeName": "florence",
    "state": "OR"
  },
  {
    "city": "powers",
    "state_code": "OR",
    "placeMasterId": "P02500000FsoGPofJ0W3u0PGUSomDTGnM3Vb51Ky",
    "placeName": "powers",
    "state": "OR"
  },
  {
    "city": "butte falls",
    "state_code": "OR",
    "placeMasterId": "P02500000FsoGOOCWyYI38OokQhK2MNG3YOKVQxl",
    "placeName": "butte falls",
    "state": "OR"
  },
  {
    "city": "prospect",
    "state_code": "OR",
    "placeMasterId": "P02500000FsoGPofJ0W3u0PGUSomDTGq41CI44Jr",
    "placeName": "prospect",
    "state": "OR"
  },
  {
    "city": "redmond",
    "state_code": "OR",
    "placeMasterId": "P02500000FsoGPofJ0W3u0PGUSomDTGnuMysIJNV",
    "placeName": "redmond",
    "state": "OR"
  },
  {
    "city": "dayville",
    "state_code": "OR",
    "placeMasterId": "P02500000FsoGOftUBLRcVbJ62K0sBLphrx7b9VI",
    "placeName": "dayville",
    "state": "OR"
  },
  {
    "city": "haines",
    "state_code": "OR",
    "placeMasterId": "P02500000FsoGOxaRO8bBsnnRdwhi0KcCbaCC6W2",
    "placeName": "haines",
    "state": "OR"
  },
  {
    "city": "wallowa",
    "state_code": "OR",
    "placeMasterId": "P02500000FsoGQFCjohnG4D00sFoTCk6P4obPq7Y",
    "placeName": "wallowa",
    "state": "OR"
  },
  {
    "city": "seattle",
    "state_code": "WA",
    "placeMasterId": "P02500000FsoH13ZvQyhrLC8y9kwIH7vOQ9mB44J",
    "placeName": "seattle",
    "state": "WA"
  },
  {
    "city": "snohomish",
    "state_code": "WA",
    "placeMasterId": "P02500000FsoH1CQP2NHe1nO8xZHiBcB8Z313eX7",
    "placeName": "snohomish",
    "state": "WA"
  },
  {
    "city": "ashford",
    "state_code": "WA",
    "placeMasterId": "P02500000FsoGyLUqyRjwHmUetKNLxojcQcN4LWz",
    "placeName": "ashford",
    "state": "WA"
  },
  {
    "city": "puyallup",
    "state_code": "WA",
    "placeMasterId": "P02500000FsoH0ujRpa84eatnLwasMdN1YTtCRxU",
    "placeName": "puyallup",
    "state": "WA"
  },
  {
    "city": "tacoma",
    "state_code": "WA",
    "placeMasterId": "P02500000FsoH1LGsdlrQiOdJlNd866Yu1WjXF5B",
    "placeName": "tacoma",
    "state": "WA"
  },
  {
    "city": "tacoma",
    "state_code": "WA",
    "placeMasterId": "P02500000FsoH1LGsdlrQiOdJlNd866Yu1WjXF5B",
    "placeName": "tacoma",
    "state": "WA"
  },
  {
    "city": "olympia",
    "state_code": "WA",
    "placeMasterId": "P02500000FsoH0d2UcmyVHOPRkJu2Xed29tfTdi7",
    "placeName": "olympia",
    "state": "WA"
  },
  {
    "city": "grapeview",
    "state_code": "WA",
    "placeMasterId": "P02500000FsoGzLQCCDmR5zCsW0nHLFSr684yN14",
    "placeName": "grapeview",
    "state": "WA"
  },
  {
    "city": "moclips",
    "state_code": "WA",
    "placeMasterId": "P02500000FsoH0LLXPzovuBv68hDCifs8N2ZF6tz",
    "placeName": "moclips",
    "state": "WA"
  },
  {
    "city": "vader",
    "state_code": "WA",
    "placeMasterId": "P02500000FsoH1U7MFARDOzsUZByY0azPOGLQ7g7",
    "placeName": "vader",
    "state": "WA"
  },
  {
    "city": "dallesport",
    "state_code": "WA",
    "placeMasterId": "P02500000FsoGyuslO2352BTM6Zl1bmBsSoaToug",
    "placeName": "dallesport",
    "state": "WA"
  },
  {
    "city": "wilson creek",
    "state_code": "WA",
    "placeMasterId": "P02500000FsoH1uen3MAZSnc0yd0nk3wjQzUAeEN",
    "placeName": "wilson creek",
    "state": "WA"
  },
  {
    "city": "chewelah",
    "state_code": "WA",
    "placeMasterId": "P02500000FsoGym2HmdTILaEBIlPbhHlPPZdgPBZ",
    "placeName": "chewelah",
    "state": "WA"
  },
  {
    "city": "anchorage",
    "state_code": "AK",
    "placeMasterId": "P02500000FsoEVxWun5JGSD6Yq5R0se5X03Bxqi1",
    "placeName": "anchorage",
    "state": "AK"
  },
  {
    "city": "anchorage",
    "state_code": "AK",
    "placeMasterId": "P02500000FsoEVxWun5JGSD6Yq5R0se5X03Bxqi1",
    "placeName": "anchorage",
    "state": "AK"
  },
  {
    "city": "anchorage",
    "state_code": "AK",
    "placeMasterId": "P02500000FsoEVxWun5JGSD6Yq5R0se5X03Bxqi1",
    "placeName": "anchorage",
    "state": "AK"
  },
  {
    "city": "aleknagik",
    "state_code": "AK",
    "placeMasterId": "P02500000FsoEVxWun5JGSD6Yq5R0se5S79e4Iy8",
    "placeName": "aleknagik",
    "state": "AK"
  },
  {
    "city": "chefornak",
    "state_code": "AK",
    "placeMasterId": "P02500000FsoEWFDrzsSppPauRi7qhcnh944DVmO",
    "placeName": "chefornak",
    "state": "AK"
  },
  {
    "city": "manokotak",
    "state_code": "AK",
    "placeMasterId": "P02500000FsoEX6IjcFvXx13xGaCMAZ0glbvw7WB",
    "placeName": "manokotak",
    "state": "AK"
  },
  {
    "city": "shageluk",
    "state_code": "AK",
    "placeMasterId": "P02500000FsoEXWqAQReu0onTg1Ebu29qZDZZxvf",
    "placeName": "shageluk",
    "state": "AK"
  },
  {
    "city": "unalakleet",
    "state_code": "AK",
    "placeMasterId": "P02500000FsoEXxNbEdOG4cX05SGrdVCNcSlRxX1",
    "placeName": "unalakleet",
    "state": "AK"
  },
  {
    "city": "valdez",
    "state_code": "AK",
    "placeMasterId": "P02500000FsoEXoX7dEoTO1HpHdvRj0sQO3ZIK33",
    "placeName": "valdez",
    "state": "AK"
  },
  {
    "city": "fairbanks",
    "state_code": "AK",
    "placeMasterId": "P02500000FsoEWWupCfcPCc5G3KogWbX3A1nKP4z",
    "placeName": "fairbanks",
    "state": "AK"
  },
  {
    "city": "hughes",
    "state_code": "AK",
    "placeMasterId": "P02500000FsoEWflIo4CBtDKQr9A6R5t3nn856UE",
    "placeName": "hughes",
    "state": "AK"
  },
  {
    "city": "kaltag",
    "state_code": "AK",
    "placeMasterId": "P02500000FsoEWflIo4CBtDKQr9A6R5vmL0kKuvm",
    "placeName": "kaltag",
    "state": "AK"
  },
  {
    "city": "point lay",
    "state_code": "AK",
    "placeMasterId": "P02500000FsoEXNzgp357KDYIsCtBzXiDxCH7wCf",
    "placeName": "point lay",
    "state": "AK"
  },
  {
    "city": "craig",
    "state_code": "AK",
    "placeMasterId": "P02500000FsoEWO4LbH2cW0q5FWTGc77tvRmpF7S",
    "placeName": "craig",
    "state": "AK"
  },
  {
    "city": "metlakatla",
    "state_code": "AK",
    "placeMasterId": "P02500000FsoEX6IjcFvXx13xGaCMAYxvgwjEMcb",
    "placeName": "metlakatla",
    "state": "AK"
  },
  {
    "city": "ware",
    "state_code": "MA",
    "placeMasterId": "P02500000FsoHB2pLej6pRFHAOb7Y3PlcV8pKSo0",
    "placeName": "ware",
    "state": "MA"
  },
  {
    "city": "springfield",
    "state_code": "MA",
    "placeMasterId": "P02500000FsoFWsnTmtqZT82P9BmJgfxQ61bP7CW",
    "placeName": "springfield",
    "state": "MA"
  },
  {
    "city": "lee",
    "state_code": "MA",
    "placeMasterId": "P02500000FsoHAtys3KX2ke1zamm88vMLN4XRbX0",
    "placeName": "lee",
    "state": "MA"
  },
  {
    "city": "buckland",
    "state_code": "MA",
    "placeMasterId": "P02500000FsoHdRGMgby6AmyqHBriMtkIu29ugFP",
    "placeName": "buckland",
    "state": "MA"
  },
  {
    "city": "millers falls",
    "state_code": "MA",
    "placeMasterId": "P02500000FsoFWb6Wa6h05vY3XZ5TrhBIqDlDFrh",
    "placeName": "millers falls",
    "state": "MA"
  },
  {
    "city": "montague",
    "state_code": "MA",
    "placeMasterId": "P02500000FsoHe9Ukhar1bnCiIFanvLSLtdmhLBY",
    "placeName": "montague",
    "state": "MA"
  },
  {
    "city": "townsend",
    "state_code": "MA",
    "placeMasterId": "P02500000FsoHBBfpG7gc7qWLCPSxxuAKhqjGpuz",
    "placeName": "townsend",
    "state": "MA"
  },
  {
    "city": "berlin",
    "state_code": "MA",
    "placeMasterId": "P02500000FsoHdRGMgby6AmyqHBriMtlbEjep4U5",
    "placeName": "berlin",
    "state": "MA"
  },
  {
    "city": "oxford",
    "state_code": "MA",
    "placeMasterId": "P02500000FsoHBKWIrWGOoRlW0DoNsOb0IeRtcgl",
    "placeName": "oxford",
    "state": "MA"
  },
  {
    "city": "westborough",
    "state_code": "MA",
    "placeMasterId": "P02500000FsoHBTMmSuqBV30go29nmssmyYCU3Xw",
    "placeName": "westborough",
    "state": "MA"
  },
  {
    "city": "sherborn",
    "state_code": "MA",
    "placeMasterId": "P02500000FsoHeILEIzQoIORt63wDppwf91PGL2G",
    "placeName": "sherborn",
    "state": "MA"
  },
  {
    "city": "wayland",
    "state_code": "MA",
    "placeMasterId": "P02500000FsoHeRBhuO0ayzh3tsHdkKNgALqGqsG",
    "placeName": "wayland",
    "state": "MA"
  },
  {
    "city": "groveland",
    "state_code": "MA",
    "placeMasterId": "P02500000FsoHdixJtP7fXzTBsoYYBsTnswsQuof",
    "placeName": "groveland",
    "state": "MA"
  },
  {
    "city": "newbury",
    "state_code": "MA",
    "placeMasterId": "P02500000FsoHe0eH6CHEvBxXURFO0rFqTL2l8Jq",
    "placeName": "newbury",
    "state": "MA"
  },
  {
    "city": "boston",
    "state_code": "MA",
    "placeMasterId": "P02500000FsoFWJPZNJXQij3hvwOe2iNmqEqJmO9",
    "placeName": "boston",
    "state": "MA"
  },
  {
    "city": "boston",
    "state_code": "MA",
    "placeMasterId": "P02500000FsoFWJPZNJXQij3hvwOe2iNmqEqJmO9",
    "placeName": "boston",
    "state": "MA"
  },
  {
    "city": "plympton",
    "state_code": "MA",
    "placeMasterId": "P02500000FsoHeILEIzQoIORt63wDppwBFsXrfYF",
    "placeName": "plympton",
    "state": "MA"
  },
  {
    "city": "onset",
    "state_code": "MA",
    "placeMasterId": "P02500000FsoFWjx0BVGmmWnELNQtmBPwOHANjzK",
    "placeName": "onset",
    "state": "MA"
  },
  {
    "city": "west tisbury",
    "state_code": "MA",
    "placeMasterId": "P02500000FsoHea2BVmaNfawEhgd3eoew2FoyhqQ",
    "placeName": "west tisbury",
    "state": "MA"
  },
  {
    "city": "pawtucket",
    "state_code": "RI",
    "placeMasterId": "P02500000FsoGb5X1epewHrbFvy4ERyGHUWyWMXI",
    "placeName": "pawtucket",
    "state": "RI"
  },
  {
    "city": "narragansett",
    "state_code": "RI",
    "placeMasterId": "P02500000FsoIZE3jy9j8S56Pf3lyNI0p91jINlp",
    "placeName": "narragansett",
    "state": "RI"
  },
  {
    "city": "warwick",
    "state_code": "RI",
    "placeMasterId": "P02500000FsoGb5X1epewHrbFvy4ERyBqmHLiLnl",
    "placeName": "warwick",
    "state": "RI"
  },
  {
    "city": "woonsocket",
    "state_code": "RI",
    "placeMasterId": "P02500000FsoGb5X1epewHrbFvy4ERyJGgtUyJyp",
    "placeName": "woonsocket",
    "state": "RI"
  },
  {
    "city": "francestown",
    "state_code": "NH",
    "placeMasterId": "P02500000FsoIBgOxRkUZ4xif64m12SkQ8Zm0aUX",
    "placeName": "francestown",
    "state": "NH"
  },
  {
    "city": "greenville",
    "state_code": "NH",
    "placeMasterId": "P02500000FsoHBcDG4JPyBeFrbqVDhNQ5NH2Kix5",
    "placeName": "greenville",
    "state": "NH"
  },
  {
    "city": "salem",
    "state_code": "NH",
    "placeMasterId": "P02500000FsoIC6wOFwDv8lSBVVoGlvrfgtjFfIc",
    "placeName": "salem",
    "state": "NH"
  },
  {
    "city": "hooksett",
    "state_code": "NH",
    "placeMasterId": "P02500000FsoHBl3jfhzksFV2PeqdbrasQ7vhopM",
    "placeName": "hooksett",
    "state": "NH"
  },
  {
    "city": "grafton",
    "state_code": "NH",
    "placeMasterId": "P02500000FsoIBgOxRkUZ4xif64m12Soh97U5JIk",
    "placeName": "grafton",
    "state": "NH"
  },
  {
    "city": "warner",
    "state_code": "NH",
    "placeMasterId": "P02500000FsoICFmrrKnhpMhMJK9ggQFU0lI4Hre",
    "placeName": "warner",
    "state": "NH"
  },
  {
    "city": "gorham",
    "state_code": "NH",
    "placeMasterId": "P02500000FsoHBcDG4JPyBeFrbqVDhNLIto8aGFi",
    "placeName": "gorham",
    "state": "NH"
  },
  {
    "city": "plainfield",
    "state_code": "NH",
    "placeMasterId": "P02500000FsoIBy5ueXe8SAD0hhSqrRVp5gJebIv",
    "placeName": "plainfield",
    "state": "NH"
  },
  {
    "city": "cape neddick",
    "state_code": "ME",
    "placeMasterId": "P02500000FsoFT1waVCGMuuQhSGS25RwDgjY0oNf",
    "placeName": "cape neddick",
    "state": "ME"
  },
  {
    "city": "falmouth",
    "state_code": "ME",
    "placeMasterId": "P02500000FsoHfIGZWlTJ6bA6ikM9DGY5KruCZ11",
    "placeName": "falmouth",
    "state": "ME"
  },
  {
    "city": "bucksport",
    "state_code": "ME",
    "placeMasterId": "P02500000FsoHAKaxdkDu0F3INXOSUy0lChk9dCp",
    "placeName": "bucksport",
    "state": "ME"
  },
  {
    "city": "greenville",
    "state_code": "ME",
    "placeMasterId": "P02500000FsoHAcHuqXNTNRXdzA5IJwcleaVR65L",
    "placeName": "greenville",
    "state": "ME"
  },
  {
    "city": "boothbay harbor",
    "state_code": "ME",
    "placeMasterId": "P02500000FsoHATRRF8nggqITBLjsPSLJLjqN80n",
    "placeName": "boothbay harbor",
    "state": "ME"
  },
  {
    "city": "jonesboro",
    "state_code": "ME",
    "placeMasterId": "P02500000FsoHfio0KxCfAOtd8BOOwjZfzB66rob",
    "placeName": "jonesboro",
    "state": "ME"
  },
  {
    "city": "machiasport",
    "state_code": "ME",
    "placeMasterId": "P02500000FsoHfreTwLmRr08nvzjorDxoZaq5zlF",
    "placeName": "machiasport",
    "state": "ME"
  },
  {
    "city": "stockholm",
    "state_code": "ME",
    "placeMasterId": "P02500000FsoHgR2OLw5abP7V9F7UVBYU3UFlm3S",
    "placeName": "stockholm",
    "state": "ME"
  },
  {
    "city": "thomaston",
    "state_code": "ME",
    "placeMasterId": "P02500000FsoHATRRF8nggqITBLjsPSJCnulGgwH",
    "placeName": "thomaston",
    "state": "ME"
  },
  {
    "city": "albion",
    "state_code": "ME",
    "placeMasterId": "P02500000FsoHeisf7BAAMCBPVUyTZIxM6n0OynD",
    "placeName": "albion",
    "state": "ME"
  },
  {
    "city": "dixmont",
    "state_code": "ME",
    "placeMasterId": "P02500000FsoHf9Q5vMtWPzuvuw0jImAlMVQz0QO",
    "placeName": "dixmont",
    "state": "ME"
  },
  {
    "city": "fairlee",
    "state_code": "VT",
    "placeMasterId": "P02500000FsoIeVNPHp5BsJ9rO6YR5PpDgT888Jc",
    "placeName": "fairlee",
    "state": "VT"
  },
  {
    "city": "arlington",
    "state_code": "VT",
    "placeMasterId": "P02500000FsoHDtktieeXBGAeSq1uHDK0SAQKrY8",
    "placeName": "arlington",
    "state": "VT"
  },
  {
    "city": "burlington",
    "state_code": "VT",
    "placeMasterId": "P02500000FsoGuCx0Tx0AMMObamMEXbvwMuftXKD",
    "placeName": "burlington",
    "state": "VT"
  },
  {
    "city": "franklin",
    "state_code": "VT",
    "placeMasterId": "P02500000FsoIeeDstDeyYuP2ButqzuAetjBeC1k",
    "placeName": "franklin",
    "state": "VT"
  },
  {
    "city": "sheldon",
    "state_code": "VT",
    "placeMasterId": "P02500000FsoIf4lJhPOKci8YbLw6jNHo95aj9Xm",
    "placeName": "sheldon",
    "state": "VT"
  },
  {
    "city": "swanton",
    "state_code": "VT",
    "placeMasterId": "P02500000FsoHE2bNK3EJrrPpGeNKBhXVJzPaFpU",
    "placeName": "swanton",
    "state": "VT"
  },
  {
    "city": "morrisville",
    "state_code": "VT",
    "placeMasterId": "P02500000FsoGuLnU5LZx2xdmOaheS6OqqdJhkzN",
    "placeName": "morrisville",
    "state": "VT"
  },
  {
    "city": "shoreham",
    "state_code": "VT",
    "placeMasterId": "P02500000FsoIfDbnIny7JJNjPAHWdrcijKephLt",
    "placeName": "shoreham",
    "state": "VT"
  },
  {
    "city": "island pond",
    "state_code": "VT",
    "placeMasterId": "P02500000FsoGuCx0Tx0AMMObamMEXc3yC2cjgbh",
    "placeName": "island pond",
    "state": "VT"
  },
  {
    "city": "burlington",
    "state_code": "CT",
    "placeMasterId": "P02500000FsoHGK90yOSsrTKc7du0lXUK8CoGDUV",
    "placeName": "burlington",
    "state": "CT"
  },
  {
    "city": "danielson",
    "state_code": "CT",
    "placeMasterId": "P02500000FsoEp4wtcCeUWhtuUtj0yHnBVskeSlC",
    "placeName": "danielson",
    "state": "CT"
  },
  {
    "city": "portland",
    "state_code": "CT",
    "placeMasterId": "P02500000FsoH9u3WpYUXwRJly6MClUtOLhvf9Xa",
    "placeName": "portland",
    "state": "CT"
  },
  {
    "city": "danbury",
    "state_code": "CT",
    "placeMasterId": "P02500000FsoEp4wtcCeUWhtuUtj0yHppECnn3Z3",
    "placeName": "danbury",
    "state": "CT"
  },
  {
    "city": "clark",
    "state_code": "NJ",
    "placeMasterId": "P02500000FsoICOdLSjNUVxwX78V6aup6XS1FNsm",
    "placeName": "clark",
    "state": "NJ"
  },
  {
    "city": "east rutherford",
    "state_code": "NJ",
    "placeMasterId": "P02500000FsoFvi4YjsHD1eciwTt2DuVHMOunSlI",
    "placeName": "east rutherford",
    "state": "NJ"
  },
  {
    "city": "south plainfield",
    "state_code": "NJ",
    "placeMasterId": "P02500000FsoFxhvFBQMCe43ABqisylkOlTOfTeu",
    "placeName": "south plainfield",
    "state": "NJ"
  },
  {
    "city": "west milford",
    "state_code": "NJ",
    "placeMasterId": "P02500000FsoIDgFdtIZYhN96LRbrnK0laeyl5d9",
    "placeName": "west milford",
    "state": "NJ"
  },
  {
    "city": "paterson",
    "state_code": "NJ",
    "placeMasterId": "P02500000FsoFxHNoNEcqaGJdmPgdFIXGNmXiJXB",
    "placeName": "paterson",
    "state": "NJ"
  },
  {
    "city": "oradell",
    "state_code": "NJ",
    "placeMasterId": "P02500000FsoFx8XKlq33tf4SybLDKoH8ardiVVQ",
    "placeName": "oradell",
    "state": "NJ"
  },
  {
    "city": "fair haven",
    "state_code": "NJ",
    "placeMasterId": "P02500000FsoFvzlVwfQmOr74Y6Zs2tAZt5LbbYj",
    "placeName": "fair haven",
    "state": "NJ"
  },
  {
    "city": "long branch",
    "state_code": "NJ",
    "placeMasterId": "P02500000FsoFwZ9QMFjv9G5llLxXgqiIlt9I6k5",
    "placeName": "long branch",
    "state": "NJ"
  },
  {
    "city": "port murray",
    "state_code": "NJ",
    "placeMasterId": "P02500000FsoFxHNoNEcqaGJdmPgdFIWSCZYBIG7",
    "placeName": "port murray",
    "state": "NJ"
  },
  {
    "city": "vienna",
    "state_code": "NJ",
    "placeMasterId": "P02500000FsoFxqlimovzKfIKzf4ItGAh5cvNe1p",
    "placeName": "vienna",
    "state": "NJ"
  },
  {
    "city": "new providence",
    "state_code": "NJ",
    "placeMasterId": "P02500000FsoFwqqNZ2tUWSa7MyeNVpV4nY4mGxV",
    "placeName": "new providence",
    "state": "NJ"
  },
  {
    "city": "cherry hill",
    "state_code": "NJ",
    "placeMasterId": "P02500000FsoICOdLSjNUVxwX78V6auiQaUCbiOz",
    "placeName": "cherry hill",
    "state": "NJ"
  },
  {
    "city": "moorestown",
    "state_code": "NJ",
    "placeMasterId": "P02500000FsoID6rjTiGPwyAP8CEC9MePxC3xvwe",
    "placeName": "moorestown",
    "state": "NJ"
  },
  {
    "city": "atlantic city",
    "state_code": "NJ",
    "placeMasterId": "P02500000FsoFvHX7vgXqxqtCX2qmURJUHiVlw0U",
    "placeName": "atlantic city",
    "state": "NJ"
  },
  {
    "city": "seaside heights",
    "state_code": "NJ",
    "placeMasterId": "P02500000FsoFxQEHydCdGrYoaE239n1oAXizhNf",
    "placeName": "seaside heights",
    "state": "NJ"
  },
  {
    "city": "edison",
    "state_code": "NJ",
    "placeMasterId": "P02500000FsoICgKIfWX3tAQsilBwPtKSyP5xlkc",
    "placeName": "edison",
    "state": "NJ"
  },
  {
    "city": "new york",
    "state_code": "NY",
    "placeMasterId": "P02500000FsoG3hTIW4bBVIKTvxERFLPbpMNP8u9",
    "placeName": "new york",
    "state": "NY"
  },
  {
    "city": "new york",
    "state_code": "NY",
    "placeMasterId": "P02500000FsoG3hTIW4bBVIKTvxERFLPbpMNP8u9",
    "placeName": "new york",
    "state": "NY"
  },
  {
    "city": "new york",
    "state_code": "NY",
    "placeMasterId": "P02500000FsoG3hTIW4bBVIKTvxERFLPbpMNP8u9",
    "placeName": "new york",
    "state": "NY"
  },
  {
    "city": "hartsdale",
    "state_code": "NY",
    "placeMasterId": "P02500000FsoG2YhTgtyu0UN5VST5xQRmEpPgRfv",
    "placeName": "hartsdale",
    "state": "NY"
  },
  {
    "city": "suffern",
    "state_code": "NY",
    "placeMasterId": "P02500000FsoG57w4Y2N2NImDy4gcMEzxQksww7l",
    "placeName": "suffern",
    "state": "NY"
  },
  {
    "city": "harriman",
    "state_code": "NY",
    "placeMasterId": "P02500000FsoG2YhTgtyu0UN5VST5xQO5jYFTbVA",
    "placeName": "harriman",
    "state": "NY"
  },
  {
    "city": "great neck",
    "state_code": "NY",
    "placeMasterId": "P02500000FsoG2Pr05VP7Jt7uhe7g2vySCJk4o3L",
    "placeName": "great neck",
    "state": "NY"
  },
  {
    "city": "brooklyn",
    "state_code": "NY",
    "placeMasterId": "P02500000FsoHCc8bI5SSzqy5EWv94nnzJKQNSS5",
    "placeName": "brooklyn",
    "state": "NY"
  },
  {
    "city": "brooklyn",
    "state_code": "NY",
    "placeMasterId": "P02500000FsoHCc8bI5SSzqy5EWv94nnzJKQNSS5",
    "placeName": "brooklyn",
    "state": "NY"
  },
  {
    "city": "glen cove",
    "state_code": "NY",
    "placeMasterId": "P02500000FsoG2Pr05VP7Jt7uhe7g2vsQo3nnUT6",
    "placeName": "glen cove",
    "state": "NY"
  },
  {
    "city": "uniondale",
    "state_code": "NY",
    "placeMasterId": "P02500000FsoG5Pd1kpWbkVGZZhNSBDjIBsA6pXj",
    "placeName": "uniondale",
    "state": "NY"
  },
  {
    "city": "roosevelt",
    "state_code": "NY",
    "placeMasterId": "P02500000FsoG4YYA8S3tctnWkpIwiHZtqt2F41m",
    "placeName": "roosevelt",
    "state": "NY"
  },
  {
    "city": "cutchogue",
    "state_code": "NY",
    "placeMasterId": "P02500000FsoG1qT5fv5yZU9DUOk0OyOHFXekzjc",
    "placeName": "cutchogue",
    "state": "NY"
  },
  {
    "city": "southold",
    "state_code": "NY",
    "placeMasterId": "P02500000FsoHDKMzJ4LOQrBxFaeEdFrhizR0wVC",
    "placeName": "southold",
    "state": "NY"
  },
  {
    "city": "carlisle",
    "state_code": "NY",
    "placeMasterId": "P02500000FsoIDxwb65j84ZdRx4IhcIuBDPIg5qB",
    "placeName": "carlisle",
    "state": "NY"
  },
  {
    "city": "clifton park",
    "state_code": "NY",
    "placeMasterId": "P02500000FsoIEOU1uHSU8NMyMVKxLlpy4r5bljH",
    "placeName": "clifton park",
    "state": "NY"
  },
  {
    "city": "troy",
    "state_code": "NY",
    "placeMasterId": "P02500000FsoG5GmY9Qwp3u1Olt22GjKRve8mrDF",
    "placeName": "troy",
    "state": "NY"
  },
  {
    "city": "albany",
    "state_code": "NY",
    "placeMasterId": "P02500000FsoG0qXkS93TlHQzriK51XlWeUkwFLA",
    "placeName": "albany",
    "state": "NY"
  },
  {
    "city": "esopus",
    "state_code": "NY",
    "placeMasterId": "P02500000FsoIEgAz74c3VZrJy81nAkefv8zycD5",
    "placeName": "esopus",
    "state": "NY"
  },
  {
    "city": "montgomery",
    "state_code": "NY",
    "placeMasterId": "P02500000FsoHD2g26HBp3ehbdxxOoGuMdQhjS46",
    "placeName": "montgomery",
    "state": "NY"
  },
  {
    "city": "bethel",
    "state_code": "NY",
    "placeMasterId": "P02500000FsoIDp67Uh9LNyOH9FxHhoQ68hnkb2A",
    "placeName": "bethel",
    "state": "NY"
  },
  {
    "city": "jeffersonville",
    "state_code": "NY",
    "placeMasterId": "P02500000FsoG2zEuV5iG4I6butVLgtU6KzAiKsg",
    "placeName": "jeffersonville",
    "state": "NY"
  },
  {
    "city": "chateaugay",
    "state_code": "NY",
    "placeMasterId": "P02500000FsoHCKRe5IItceTjcuEJFpGBDEe5JiQ",
    "placeName": "chateaugay",
    "state": "NY"
  },
  {
    "city": "cranberry lake",
    "state_code": "NY",
    "placeMasterId": "P02500000FsoG1hcc4WWBssu2gaOaUU1Qs9Pz3it",
    "placeName": "cranberry lake",
    "state": "NY"
  },
  {
    "city": "ellenburg",
    "state_code": "NY",
    "placeMasterId": "P02500000FsoIEgAz74c3VZrJy81nAkZnIawYssH",
    "placeName": "ellenburg",
    "state": "NY"
  },
  {
    "city": "keene",
    "state_code": "NY",
    "placeMasterId": "P02500000FsoIFOPN83Uywa5BzBksjCSfRU2LhNZ",
    "placeName": "keene",
    "state": "NY"
  },
  {
    "city": "hastings",
    "state_code": "NY",
    "placeMasterId": "P02500000FsoIF6iPvGLPZNaqNZ42uDks9R6VsDd",
    "placeName": "hastings",
    "state": "NY"
  },
  {
    "city": "marcellus",
    "state_code": "NY",
    "placeMasterId": "P02500000FsoHCtpYUsc2N3SQq9bytmbzcUMngZw",
    "placeName": "marcellus",
    "state": "NY"
  },
  {
    "city": "pompey",
    "state_code": "NY",
    "placeMasterId": "P02500000FsoIGOKiLpXTkmnPbsAo6d1zAbto8nY",
    "placeName": "pompey",
    "state": "NY"
  },
  {
    "city": "sylvan beach",
    "state_code": "NY",
    "placeMasterId": "P02500000FsoG57w4Y2N2NImDy4gcMF9zZjsZxPn",
    "placeName": "sylvan beach",
    "state": "NY"
  },
  {
    "city": "syracuse",
    "state_code": "NY",
    "placeMasterId": "P02500000FsoG57w4Y2N2NImDy4gcMF3udu0wEbR",
    "placeName": "syracuse",
    "state": "NY"
  },
  {
    "city": "ilion",
    "state_code": "NY",
    "placeMasterId": "P02500000FsoG2qOQth8TNgrR759vmP59eyJB7wF",
    "placeName": "ilion",
    "state": "NY"
  },
  {
    "city": "inlet",
    "state_code": "NY",
    "placeMasterId": "P02500000FsoIFFYtWevCFyq1BNPSoi4LhjxscHN",
    "placeName": "inlet",
    "state": "NY"
  },
  {
    "city": "brasher falls",
    "state_code": "NY",
    "placeMasterId": "P02500000FsoG18EhewD38TvLTL0uqWfWhKUv7tF",
    "placeName": "brasher falls",
    "state": "NY"
  },
  {
    "city": "massena",
    "state_code": "NY",
    "placeMasterId": "P02500000FsoHDBWVhflbkFwmRmIoilMrT0tRLdp",
    "placeName": "massena",
    "state": "NY"
  },
  {
    "city": "norwood",
    "state_code": "NY",
    "placeMasterId": "P02500000FsoG480jKGKXZ640LOGgyoKJuebItE5",
    "placeName": "norwood",
    "state": "NY"
  },
  {
    "city": "theresa",
    "state_code": "NY",
    "placeMasterId": "P02500000FsoHCc8bI5SSzqy5EWv94nqZxzhDKz4",
    "placeName": "theresa",
    "state": "NY"
  },
  {
    "city": "waddington",
    "state_code": "NY",
    "placeMasterId": "P02500000FsoHDBWVhflbkFwmRmIoilJlfGU4vZk",
    "placeName": "waddington",
    "state": "NY"
  },
  {
    "city": "oneonta",
    "state_code": "NY",
    "placeMasterId": "P02500000FsoG480jKGKXZ640LOGgyoS7rgqTCUC",
    "placeName": "oneonta",
    "state": "NY"
  },
  {
    "city": "binghamton",
    "state_code": "NY",
    "placeMasterId": "P02500000FsoG0zOE3XdGRsgAfWfUw2HIWCT02ES",
    "placeName": "binghamton",
    "state": "NY"
  },
  {
    "city": "medina",
    "state_code": "NY",
    "placeMasterId": "P02500000FsoG3Ycoug1Ooh5J88t1KqwyEdBpoqF",
    "placeName": "medina",
    "state": "NY"
  },
  {
    "city": "sheridan",
    "state_code": "NY",
    "placeMasterId": "P02500000FsoIGos9A1GpoaWw1JD3q6EcFiTMetA",
    "placeName": "sheridan",
    "state": "NY"
  },
  {
    "city": "buffalo",
    "state_code": "NY",
    "placeMasterId": "P02500000FsoG1H5BGKmpp5AWH9MKl12AT3E2vOM",
    "placeName": "buffalo",
    "state": "NY"
  },
  {
    "city": "mayville",
    "state_code": "NY",
    "placeMasterId": "P02500000FsoG3PmLJHRc85q8KKXbQMXv8i4ptXZ",
    "placeName": "mayville",
    "state": "NY"
  },
  {
    "city": "rushford",
    "state_code": "NY",
    "placeMasterId": "P02500000FsoIGXBBxE7GRO2aPgWE17WDx5VQQP6",
    "placeName": "rushford",
    "state": "NY"
  },
  {
    "city": "glassport",
    "state_code": "PA",
    "placeMasterId": "P02500000FsoGToMftcDtFE7MxYRuyzNzZHVl3Qz",
    "placeName": "glassport",
    "state": "PA"
  },
  {
    "city": "monessen",
    "state_code": "PA",
    "placeMasterId": "P02500000FsoGWNbGkkc1c2WVQAfRNnttiISOxRQ",
    "placeName": "monessen",
    "state": "PA"
  },
  {
    "city": "russellton",
    "state_code": "PA",
    "placeMasterId": "P02500000FsoGYNRxCIh1ERwwfXVI8f2dUu5vBLw",
    "placeName": "russellton",
    "state": "PA"
  },
  {
    "city": "mckees rocks",
    "state_code": "PA",
    "placeMasterId": "P02500000FsoGVoDMLAIsrdXoCvHljqNvzL24fnV",
    "placeName": "mckees rocks",
    "state": "PA"
  },
  {
    "city": "pittsburgh",
    "state_code": "PA",
    "placeMasterId": "P02500000FsoGXfDZBJo5nRj4eTmCaDENhHWAB15",
    "placeName": "pittsburgh",
    "state": "PA"
  },
  {
    "city": "beallsville",
    "state_code": "PA",
    "placeMasterId": "P02500000FsoGQoaeEI6Oobyi5VC8qhZ5X45MvKp",
    "placeName": "beallsville",
    "state": "PA"
  },
  {
    "city": "new freeport",
    "state_code": "PA",
    "placeMasterId": "P02500000FsoGWfIDxXlazF0r1nMHCmsWR1ORaj8",
    "placeName": "new freeport",
    "state": "PA"
  },
  {
    "city": "smithton",
    "state_code": "PA",
    "placeMasterId": "P02500000FsoGYwprbt09yqvdsmsxmclYFS93iB3",
    "placeName": "smithton",
    "state": "PA"
  },
  {
    "city": "apollo",
    "state_code": "PA",
    "placeMasterId": "P02500000FsoGQWth1UwpRPUMTsVJ1iuPjs9ZkOR",
    "placeName": "apollo",
    "state": "PA"
  },
  {
    "city": "crabtree",
    "state_code": "PA",
    "placeMasterId": "P02500000FsoGSF3QGFsFgcQS7ceJxbF0lk0l4KH",
    "placeName": "crabtree",
    "state": "PA"
  },
  {
    "city": "corsica",
    "state_code": "PA",
    "placeMasterId": "P02500000FsoGSF3QGFsFgcQS7ceJxbLNIxmxYO6",
    "placeName": "corsica",
    "state": "PA"
  },
  {
    "city": "harrisville",
    "state_code": "PA",
    "placeMasterId": "P02500000FsoGU63d6PNScQbiZB8kny4CcdWHewz",
    "placeName": "harrisville",
    "state": "PA"
  },
  {
    "city": "hawk run",
    "state_code": "PA",
    "placeMasterId": "P02500000FsoGUEu6hnxFJ1qtMzUAiSL33ArPGrU",
    "placeName": "hawk run",
    "state": "PA"
  },
  {
    "city": "carlisle",
    "state_code": "PA",
    "placeMasterId": "P02500000FsoGRffVqfZ6wDRkuNGeJdgb4EK58IY",
    "placeName": "carlisle",
    "state": "PA"
  },
  {
    "city": "marysville",
    "state_code": "PA",
    "placeMasterId": "P02500000FsoGVx3pwYsfYEmz0jdBeKrZ609NAFd",
    "placeName": "marysville",
    "state": "PA"
  },
  {
    "city": "harrisburg",
    "state_code": "PA",
    "placeMasterId": "P02500000FsoGU63d6PNScQbiZB8kny65f71GTm1",
    "placeName": "harrisburg",
    "state": "PA"
  },
  {
    "city": "york",
    "state_code": "PA",
    "placeMasterId": "P02500000FsoGawgY3R59bGM589ioXTlpd4bjuYi",
    "placeName": "york",
    "state": "PA"
  },
  {
    "city": "akron",
    "state_code": "PA",
    "placeMasterId": "P02500000FsoGQO3DQ6N2koFBg49t7ESvIFA2sLE",
    "placeName": "akron",
    "state": "PA"
  },
  {
    "city": "rheems",
    "state_code": "PA",
    "placeMasterId": "P02500000FsoGY5kzzVXRrFSb3uoSJgNJdhE7Fg5",
    "placeName": "rheems",
    "state": "PA"
  },
  {
    "city": "freeburg",
    "state_code": "PA",
    "placeMasterId": "P02500000FsoGTfWCIDe6YcsC9k6V4Up2flYx3t6",
    "placeName": "freeburg",
    "state": "PA"
  },
  {
    "city": "kulpmont",
    "state_code": "PA",
    "placeMasterId": "P02500000FsoGV5yyKBPxQdJwBrYgBOgeveHyttw",
    "placeName": "kulpmont",
    "state": "PA"
  },
  {
    "city": "girardville",
    "state_code": "PA",
    "placeMasterId": "P02500000FsoGToMftcDtFE7MxYRuyzFvWtjGStR",
    "placeName": "girardville",
    "state": "PA"
  },
  {
    "city": "catasauqua",
    "state_code": "PA",
    "placeMasterId": "P02500000FsoGRoVzS48tcogviBc4E7yX3Ooc5Pu",
    "placeName": "catasauqua",
    "state": "PA"
  },
  {
    "city": "trexlertown",
    "state_code": "PA",
    "placeMasterId": "P02500000FsoGZnujEGSs6SOghexTFYoTDLWxJdl",
    "placeName": "trexlertown",
    "state": "PA"
  },
  {
    "city": "nuremberg",
    "state_code": "PA",
    "placeMasterId": "P02500000FsoGX5peljUx32kNREOWwFo99ybXpW0",
    "placeName": "nuremberg",
    "state": "PA"
  },
  {
    "city": "scranton",
    "state_code": "PA",
    "placeMasterId": "P02500000FsoGYf8uP5qabeRIHAC7xdsDcRUIZct",
    "placeName": "scranton",
    "state": "PA"
  },
  {
    "city": "noxen",
    "state_code": "PA",
    "placeMasterId": "P02500000FsoGXEg8N84jjdzYF2jwqk5iBIg6ezy",
    "placeName": "noxen",
    "state": "PA"
  },
  {
    "city": "duryea",
    "state_code": "PA",
    "placeMasterId": "P02500000FsoGSfar4RbbkQ9yX3gZh4Q0tYd2QeR",
    "placeName": "duryea",
    "state": "PA"
  },
  {
    "city": "levittown",
    "state_code": "PA",
    "placeMasterId": "P02500000FsoGVNfvWyZWnpoHnUFW0NRrtrt0V7d",
    "placeName": "levittown",
    "state": "PA"
  },
  {
    "city": "wyncote",
    "state_code": "PA",
    "placeMasterId": "P02500000FsoGanq4S2VMuf6uKLNOczYUCbUiJRV",
    "placeName": "wyncote",
    "state": "PA"
  },
  {
    "city": "bernville",
    "state_code": "PA",
    "placeMasterId": "P02500000FsoGR6HbR5FyBoT3h7syfg9StbXRNmU",
    "placeName": "bernville",
    "state": "PA"
  },
  {
    "city": "laurel",
    "state_code": "DE",
    "placeMasterId": "P02500000FsoEpnBHdBXPxi7mVxS6Wjh9dFdd1q3",
    "placeName": "laurel",
    "state": "DE"
  },
  {
    "city": "seaford",
    "state_code": "DE",
    "placeMasterId": "P02500000FsoEq4sEpygzKuc87a8wLiN8AyojsfM",
    "placeName": "seaford",
    "state": "DE"
  },
  {
    "city": "washington",
    "state_code": "DC",
    "placeMasterId": "P02500000FsoEq4sEpygzKuc87a8wLiQYg142PzN",
    "placeName": "washington",
    "state": "DC"
  },
  {
    "city": "college park",
    "state_code": "MD",
    "placeMasterId": "P02500000FsoFTt1S7Zj52VtkH8WXYODxmge7cnn",
    "placeName": "college park",
    "state": "MD"
  },
  {
    "city": "upper marlboro",
    "state_code": "MD",
    "placeMasterId": "P02500000FsoFWAZ5luxe27oX883E8DwhMRf9hR3",
    "placeName": "upper marlboro",
    "state": "MD"
  },
  {
    "city": "glen echo",
    "state_code": "MD",
    "placeMasterId": "P02500000FsoFUSPMXA2DmusRUNuDCLbxkE18bmq",
    "placeName": "glen echo",
    "state": "MD"
  },
  {
    "city": "aberdeen proving ground",
    "state_code": "MD",
    "placeMasterId": "P02500000FsoFTJdXhzPwI6v33t8ruQWoXGC5ZrT",
    "placeName": "aberdeen proving ground",
    "state": "MD"
  },
  {
    "city": "darlington",
    "state_code": "MD",
    "placeMasterId": "P02500000FsoFU1rviyIrj78v4wrxSsSCrquMqUH",
    "placeName": "darlington",
    "state": "MD"
  },
  {
    "city": "baltimore",
    "state_code": "MD",
    "placeMasterId": "P02500000FsoFTSU1JNziyiADrhUHous91WaBH4V",
    "placeName": "baltimore",
    "state": "MD"
  },
  {
    "city": "columbia",
    "state_code": "VA",
    "placeMasterId": "P02500000FsoGvCsLhj2fAZ6pDSm9v2j4pKyIIUE",
    "placeName": "columbia",
    "state": "VA"
  },
  {
    "city": "virginia beach",
    "state_code": "VA",
    "placeMasterId": "P02500000FsoGxuxQAG0aDyl8TtL6ELfzK3Qkryw",
    "placeName": "virginia beach",
    "state": "VA"
  },
  {
    "city": "newport news",
    "state_code": "VA",
    "placeMasterId": "P02500000FsoGwmBbL5OIjAnk3OZkwQlvDbncqYB",
    "placeName": "newport news",
    "state": "VA"
  },
  {
    "city": "hampton",
    "state_code": "VA",
    "placeMasterId": "P02500000FsoGvv6jihvabZKhEWVFTUVmU86xved",
    "placeName": "hampton",
    "state": "VA"
  },
  {
    "city": "portsmouth",
    "state_code": "VA",
    "placeMasterId": "P02500000FsoGx3sYXsXs6NI5f1GalPR8QmXdqj0",
    "placeName": "portsmouth",
    "state": "VA"
  },
  {
    "city": "roanoke",
    "state_code": "VA",
    "placeMasterId": "P02500000FsoGxLZVkfhRTZmRGdxQaO4ZAL3W16u",
    "placeName": "roanoke",
    "state": "VA"
  },
  {
    "city": "roanoke",
    "state_code": "VA",
    "placeMasterId": "P02500000FsoGxLZVkfhRTZmRGdxQaO4ZAL3W16u",
    "placeName": "roanoke",
    "state": "VA"
  },
  {
    "city": "ridgeway",
    "state_code": "VA",
    "placeMasterId": "P02500000FsoGxLZVkfhRTZmRGdxQaO41CKu3pFX",
    "placeName": "ridgeway",
    "state": "VA"
  },
  {
    "city": "duffield",
    "state_code": "VA",
    "placeMasterId": "P02500000FsoGvUZIuWCEXlbAp5Szk1HRjWrfhPU",
    "placeName": "duffield",
    "state": "VA"
  },
  {
    "city": "ewing",
    "state_code": "VA",
    "placeMasterId": "P02500000FsoGvdPmVum1EMqLctoPeVbJeWqPiX7",
    "placeName": "ewing",
    "state": "VA"
  },
  {
    "city": "weber city",
    "state_code": "VA",
    "placeMasterId": "P02500000FsoGy3ntleaMua0JHhgW8pyudk0LXiX",
    "placeName": "weber city",
    "state": "VA"
  },
  {
    "city": "max meadows",
    "state_code": "VA",
    "placeMasterId": "P02500000FsoGwdL7jgoW2ZYZFaEL1wG7bB4HunG",
    "placeName": "max meadows",
    "state": "VA"
  },
  {
    "city": "selma",
    "state_code": "VA",
    "placeMasterId": "P02500000FsoGxUPzM4HEAB1c4SIqUsUwxycjtz5",
    "placeName": "selma",
    "state": "VA"
  },
  {
    "city": "lashmeet",
    "state_code": "WV",
    "placeMasterId": "P02500000FsoH3CH5TvMdeCoaCw7YwTHQg5bwNpK",
    "placeName": "lashmeet",
    "state": "WV"
  },
  {
    "city": "new richmond",
    "state_code": "WV",
    "placeMasterId": "P02500000FsoH3L7Z5JwQKo3l0kSyqxskNceWkti",
    "placeName": "new richmond",
    "state": "WV"
  },
  {
    "city": "oceana",
    "state_code": "WV",
    "placeMasterId": "P02500000FsoH3Ty2giWD1PIvoYoOlS5S73N0ZFZ",
    "placeName": "oceana",
    "state": "WV"
  },
  {
    "city": "marlinton",
    "state_code": "WV",
    "placeMasterId": "P02500000FsoH3CH5TvMdeCoaCw7YwTOwFbvbJof",
    "placeName": "marlinton",
    "state": "WV"
  },
  {
    "city": "comfort",
    "state_code": "WV",
    "placeMasterId": "P02500000FsoH2U2hSwTiDCaiBsOTO1Po4U152pZ",
    "placeName": "comfort",
    "state": "WV"
  },
  {
    "city": "leon",
    "state_code": "WV",
    "placeMasterId": "P02500000FsoH33QbsWmqxbZPP7m91z2chLaK19N",
    "placeName": "leon",
    "state": "WV"
  },
  {
    "city": "pinch",
    "state_code": "WV",
    "placeMasterId": "P02500000FsoH3coWI75zi0Y6cN9ofwN8xHMUdh5",
    "placeName": "pinch",
    "state": "WV"
  },
  {
    "city": "mason",
    "state_code": "WV",
    "placeMasterId": "P02500000FsoH3CH5TvMdeCoaCw7YwTRajBjS9Dt",
    "placeName": "mason",
    "state": "WV"
  },
  {
    "city": "harts",
    "state_code": "WV",
    "placeMasterId": "P02500000FsoH2ua8H8D4H0KEbJQj7Uc3CqNAKks",
    "placeName": "harts",
    "state": "WV"
  },
  {
    "city": "huntington",
    "state_code": "WV",
    "placeMasterId": "P02500000FsoH2ua8H8D4H0KEbJQj7UjL9eOcIxo",
    "placeName": "huntington",
    "state": "WV"
  },
  {
    "city": "bolt",
    "state_code": "WV",
    "placeMasterId": "P02500000FsoH2CLkG9K8q06MaFhdZ2hsYTcZS1E",
    "placeName": "bolt",
    "state": "WV"
  },
  {
    "city": "glen dale",
    "state_code": "WV",
    "placeMasterId": "P02500000FsoH2ljefjdHaP53nV5JD0ENdNJeHgl",
    "placeName": "glen dale",
    "state": "WV"
  },
  {
    "city": "parkersburg",
    "state_code": "WV",
    "placeMasterId": "P02500000FsoH3Ty2giWD1PIvoYoOlSBCyqukhX1",
    "placeName": "parkersburg",
    "state": "WV"
  },
  {
    "city": "craigsville",
    "state_code": "WV",
    "placeMasterId": "P02500000FsoH2U2hSwTiDCaiBsOTO1VpSlrGAfE",
    "placeName": "craigsville",
    "state": "WV"
  },
  {
    "city": "lost creek",
    "state_code": "WV",
    "placeMasterId": "P02500000FsoH3CH5TvMdeCoaCw7YwTG6vJY2jga",
    "placeName": "lost creek",
    "state": "WV"
  },
  {
    "city": "lumberport",
    "state_code": "WV",
    "placeMasterId": "P02500000FsoH3CH5TvMdeCoaCw7YwTHbCCzCjwV",
    "placeName": "lumberport",
    "state": "WV"
  },
  {
    "city": "gassaway",
    "state_code": "WV",
    "placeMasterId": "P02500000FsoH2ljefjdHaP53nV5JD0BdZaZKgYd",
    "placeName": "gassaway",
    "state": "WV"
  },
  {
    "city": "lexington",
    "state_code": "NC",
    "placeMasterId": "P02500000FsoG7yrcbxuk7Jfi2Jaya2Ovw256ELi",
    "placeName": "lexington",
    "state": "NC"
  },
  {
    "city": "whitsett",
    "state_code": "NC",
    "placeMasterId": "P02500000FsoG9yiJ3Vzjjj69HgQpKtgbwSiyLnH",
    "placeName": "whitsett",
    "state": "NC"
  },
  {
    "city": "knightdale",
    "state_code": "NC",
    "placeMasterId": "P02500000FsoG7yrcbxuk7Jfi2Jaya2Pw86rUlRy",
    "placeName": "knightdale",
    "state": "NC"
  },
  {
    "city": "moncure",
    "state_code": "NC",
    "placeMasterId": "P02500000FsoG8PP3Q9e6B7PERkdEJVVmozKkczk",
    "placeName": "moncure",
    "state": "NC"
  },
  {
    "city": "princeton",
    "state_code": "NC",
    "placeMasterId": "P02500000FsoG8pwUELNSEv8krBfU2yktnKC5zh7",
    "placeName": "princeton",
    "state": "NC"
  },
  {
    "city": "warrenton",
    "state_code": "NC",
    "placeMasterId": "P02500000FsoG9prpS7Px37qyTs5PQPIv4AykvcH",
    "placeName": "warrenton",
    "state": "NC"
  },
  {
    "city": "como",
    "state_code": "NC",
    "placeMasterId": "P02500000FsoG6YOqa08tFJDy0C8nT8oAOXxltkH",
    "placeName": "como",
    "state": "NC"
  },
  {
    "city": "boiling springs",
    "state_code": "NC",
    "placeMasterId": "P02500000FsoG6GhtNCzJs6jcOZRxe9wmgSHmN5v",
    "placeName": "boiling springs",
    "state": "NC"
  },
  {
    "city": "matthews",
    "state_code": "NC",
    "placeMasterId": "P02500000FsoG8GYZol4JUWA3dwHoP16WCkT5qN1",
    "placeName": "matthews",
    "state": "NC"
  },
  {
    "city": "charlotte",
    "state_code": "NC",
    "placeMasterId": "P02500000FsoG6YOqa08tFJDy0C8nT8qHEOhlkFv",
    "placeName": "charlotte",
    "state": "NC"
  },
  {
    "city": "fayetteville",
    "state_code": "NC",
    "placeMasterId": "P02500000FsoG77mkzaS1ziCfDRWT76CllOZaZAj",
    "placeName": "fayetteville",
    "state": "NC"
  },
  {
    "city": "lumberton",
    "state_code": "NC",
    "placeMasterId": "P02500000FsoG87i6DMUWnuusq7wOUWiPTrZcdXe",
    "placeName": "lumberton",
    "state": "NC"
  },
  {
    "city": "leland",
    "state_code": "NC",
    "placeMasterId": "P02500000FsoG7yrcbxuk7Jfi2Jaya2XkpHBzkrV",
    "placeName": "leland",
    "state": "NC"
  },
  {
    "city": "kinston",
    "state_code": "NC",
    "placeMasterId": "P02500000FsoG7yrcbxuk7Jfi2Jaya2LlURZIVZZ",
    "placeName": "kinston",
    "state": "NC"
  },
  {
    "city": "harkers island",
    "state_code": "NC",
    "placeMasterId": "P02500000FsoG7PTiCNbbMuh0p4DIw54nAWrLiaD",
    "placeName": "harkers island",
    "state": "NC"
  },
  {
    "city": "hookerton",
    "state_code": "NC",
    "placeMasterId": "P02500000FsoG7hAfPAlAk7BMQgu8l3ojsS8mdaw",
    "placeName": "hookerton",
    "state": "NC"
  },
  {
    "city": "oriental",
    "state_code": "NC",
    "placeMasterId": "P02500000FsoG8YFX1YDsriePFYyeE042lET8KSR",
    "placeName": "oriental",
    "state": "NC"
  },
  {
    "city": "lake junaluska",
    "state_code": "NC",
    "placeMasterId": "P02500000FsoG7q190ZKxQiQXEVFYfY8lBjEzkKU",
    "placeName": "lake junaluska",
    "state": "NC"
  },
  {
    "city": "timmonsville",
    "state_code": "SC",
    "placeMasterId": "P02500000FsoGdEEBhmJiasGrz9FV7JptKPiMolo",
    "placeName": "timmonsville",
    "state": "SC"
  },
  {
    "city": "west columbia",
    "state_code": "SC",
    "placeMasterId": "P02500000FsoGdEEBhmJiasGrz9FV7JvsHGvsB5G",
    "placeName": "west columbia",
    "state": "SC"
  },
  {
    "city": "columbia",
    "state_code": "SC",
    "placeMasterId": "P02500000FsoGbW4ST1OILfKmLP6UBRJpkapmyqZ",
    "placeName": "columbia",
    "state": "SC"
  },
  {
    "city": "jonesville",
    "state_code": "SC",
    "placeMasterId": "P02500000FsoGcEIqU0HDmfYeMSpZjt5Q9ppS35J",
    "placeName": "jonesville",
    "state": "SC"
  },
  {
    "city": "bennettsville",
    "state_code": "SC",
    "placeMasterId": "P02500000FsoGbENVGEEiySqQjmPeMSWJESSXNqQ",
    "placeName": "bennettsville",
    "state": "SC"
  },
  {
    "city": "conway",
    "state_code": "SC",
    "placeMasterId": "P02500000FsoGbW4ST1OILfKmLP6UBRMtx5EuYiv",
    "placeName": "conway",
    "state": "SC"
  },
  {
    "city": "lake city",
    "state_code": "SC",
    "placeMasterId": "P02500000FsoGc5SMsbhR64JTYeU9pOtDi8km6Va",
    "placeName": "lake city",
    "state": "SC"
  },
  {
    "city": "pamplico",
    "state_code": "SC",
    "placeMasterId": "P02500000FsoGceqHIC0ZqTIAltrpTMGtlVzK2nC",
    "placeName": "pamplico",
    "state": "SC"
  },
  {
    "city": "gray court",
    "state_code": "SC",
    "placeMasterId": "P02500000FsoGbnlPfoXrirp7x1nK0QBo614wAdj",
    "placeName": "gray court",
    "state": "SC"
  },
  {
    "city": "clover",
    "state_code": "SC",
    "placeMasterId": "P02500000FsoGbW4ST1OILfKmLP6UBRKn9roelTn",
    "placeName": "clover",
    "state": "SC"
  },
  {
    "city": "mcconnells",
    "state_code": "SC",
    "placeMasterId": "P02500000FsoGcN9K5Or0TGnpAHAzeNXPf3AiRS8",
    "placeName": "mcconnells",
    "state": "SC"
  },
  {
    "city": "cumming",
    "state_code": "GA",
    "placeMasterId": "P02500000FsoEwDGlm1Vksk8cfUzuWmLmO7oOlBU",
    "placeName": "cumming",
    "state": "GA"
  },
  {
    "city": "decatur",
    "state_code": "GA",
    "placeMasterId": "P02500000FsoEwM7FNQ5XZLNnTJLKRGjUEchrJsh",
    "placeName": "decatur",
    "state": "GA"
  },
  {
    "city": "oxford",
    "state_code": "GA",
    "placeMasterId": "P02500000FsoExma1PNrORLpXVQnVYAU7vm4L1dd",
    "placeName": "oxford",
    "state": "GA"
  },
  {
    "city": "acworth",
    "state_code": "GA",
    "placeMasterId": "P02500000FsoEvMBu9e32l8fZqcvP3q8nh2TXgVK",
    "placeName": "acworth",
    "state": "GA"
  },
  {
    "city": "carrollton",
    "state_code": "GA",
    "placeMasterId": "P02500000FsoEvmjKxpmOowP6G3xenJH5N5eI92J",
    "placeName": "carrollton",
    "state": "GA"
  },
  {
    "city": "flovilla",
    "state_code": "GA",
    "placeMasterId": "P02500000FsoEwdoCaDF6wXs94w2AGFRkfDh4g7Q",
    "placeName": "flovilla",
    "state": "GA"
  },
  {
    "city": "mcdonough",
    "state_code": "GA",
    "placeMasterId": "P02500000FsoExUt4Cahp49LBto6fjBg0gDIT4KN",
    "placeName": "mcdonough",
    "state": "GA"
  },
  {
    "city": "peachtree city",
    "state_code": "GA",
    "placeMasterId": "P02500000FsoExma1PNrORLpXVQnVYAUOb4YcZFW",
    "placeName": "peachtree city",
    "state": "GA"
  },
  {
    "city": "atlanta",
    "state_code": "GA",
    "placeMasterId": "P02500000FsoEvV2Nl2cpRjukeRGoyKXsQZ9lvPs",
    "placeName": "atlanta",
    "state": "GA"
  },
  {
    "city": "atlanta",
    "state_code": "GA",
    "placeMasterId": "P02500000FsoEvV2Nl2cpRjukeRGoyKXsQZ9lvPs",
    "placeName": "atlanta",
    "state": "GA"
  },
  {
    "city": "gainesville",
    "state_code": "GA",
    "placeMasterId": "P02500000FsoEwmegBbotd97JskNaAjp2WK40aam",
    "placeName": "gainesville",
    "state": "GA"
  },
  {
    "city": "canon",
    "state_code": "GA",
    "placeMasterId": "P02500000FsoEvmjKxpmOowP6G3xenJIvrBYBpNc",
    "placeName": "canon",
    "state": "GA"
  },
  {
    "city": "buckhead",
    "state_code": "GA",
    "placeMasterId": "P02500000FsoEvmjKxpmOowP6G3xenJDwOpGZpXO",
    "placeName": "buckhead",
    "state": "GA"
  },
  {
    "city": "elberton",
    "state_code": "GA",
    "placeMasterId": "P02500000FsoEwUxiyofKFwcyH7gkLl8rwDGeCS5",
    "placeName": "elberton",
    "state": "GA"
  },
  {
    "city": "winterville",
    "state_code": "GA",
    "placeMasterId": "P02500000FsoEyvLqEYTfw9mvvvYqq5Slh0DvKfc",
    "placeName": "winterville",
    "state": "GA"
  },
  {
    "city": "blythe",
    "state_code": "GA",
    "placeMasterId": "P02500000FsoEvdsrMRCc8L9vSFcEsot9ZjR5c8V",
    "placeName": "blythe",
    "state": "GA"
  },
  {
    "city": "camak",
    "state_code": "GA",
    "placeMasterId": "P02500000FsoEvvZoZEMBVXeH3sJ4hnaYXTBxft0",
    "placeName": "camak",
    "state": "GA"
  },
  {
    "city": "augusta",
    "state_code": "GA",
    "placeMasterId": "P02500000FsoEvV2Nl2cpRjukeRGoyKWGC8vWncN",
    "placeName": "augusta",
    "state": "GA"
  },
  {
    "city": "augusta",
    "state_code": "GA",
    "placeMasterId": "P02500000FsoEvV2Nl2cpRjukeRGoyKWGC8vWncN",
    "placeName": "augusta",
    "state": "GA"
  },
  {
    "city": "sandersville",
    "state_code": "GA",
    "placeMasterId": "P02500000FsoEyD7SDZakV9Z3urplHdb1Z2zCLRb",
    "placeName": "sandersville",
    "state": "GA"
  },
  {
    "city": "unadilla",
    "state_code": "GA",
    "placeMasterId": "P02500000FsoEydet1lK6YxIaKIs116gSIlhegHH",
    "placeName": "unadilla",
    "state": "GA"
  },
  {
    "city": "pooler",
    "state_code": "GA",
    "placeMasterId": "P02500000FsoEy4GycB0xoYJt73ULN9ATYpnf3Mi",
    "placeName": "pooler",
    "state": "GA"
  },
  {
    "city": "savannah",
    "state_code": "GA",
    "placeMasterId": "P02500000FsoEyD7SDZakV9Z3urplHdbJAuUvfKW",
    "placeName": "savannah",
    "state": "GA"
  },
  {
    "city": "palatka",
    "state_code": "FL",
    "placeMasterId": "P02500000FsoEtVBhJUXppKUJP4QyDTLIOxYeoxs",
    "placeName": "palatka",
    "state": "FL"
  },
  {
    "city": "welaka",
    "state_code": "FL",
    "placeMasterId": "P02500000FsoEv4UwwqtTNwBEF0EZErNICjEGq3n",
    "placeName": "welaka",
    "state": "FL"
  },
  {
    "city": "wacissa",
    "state_code": "FL",
    "placeMasterId": "P02500000FsoEuveTLSJghKw3RBt9KN0zLPCTLEN",
    "placeName": "wacissa",
    "state": "FL"
  },
  {
    "city": "panama city",
    "state_code": "FL",
    "placeMasterId": "P02500000FsoEte2Aut7cVvjUCsmO7xed8yxJdcN",
    "placeName": "panama city",
    "state": "FL"
  },
  {
    "city": "chipley",
    "state_code": "FL",
    "placeMasterId": "P02500000FsoEqn6cqxZuluq08ds1uAH0DwWmnos",
    "placeName": "chipley",
    "state": "FL"
  },
  {
    "city": "grand ridge",
    "state_code": "FL",
    "placeMasterId": "P02500000FsoEreBUTL2ctWJ2xVwXN6UXgekgftL",
    "placeName": "grand ridge",
    "state": "FL"
  },
  {
    "city": "laurel hill",
    "state_code": "FL",
    "placeMasterId": "P02500000FsoEsVGM5iVL17m5mO12q2leWoptEvk",
    "placeName": "laurel hill",
    "state": "FL"
  },
  {
    "city": "milton",
    "state_code": "FL",
    "placeMasterId": "P02500000FsoEt4eGVIoTlWkmzdOiU0Cwc5aEl7O",
    "placeName": "milton",
    "state": "FL"
  },
  {
    "city": "deland",
    "state_code": "FL",
    "placeMasterId": "P02500000FsoEqvx6SM9hSW5AwSDRoedMhx3Hh8G",
    "placeName": "deland",
    "state": "FL"
  },
  {
    "city": "longwood",
    "state_code": "FL",
    "placeMasterId": "P02500000FsoEsmxJIVeuOKGRO0hsf1QwMhfwhRl",
    "placeName": "longwood",
    "state": "FL"
  },
  {
    "city": "orlando",
    "state_code": "FL",
    "placeMasterId": "P02500000FsoEtVBhJUXppKUJP4QyDTHMDbz9uFq",
    "placeName": "orlando",
    "state": "FL"
  },
  {
    "city": "melbourne",
    "state_code": "FL",
    "placeMasterId": "P02500000FsoEsvnmtuEh4vVcBp3IZVpfHG8GKti",
    "placeName": "melbourne",
    "state": "FL"
  },
  {
    "city": "rockledge",
    "state_code": "FL",
    "placeMasterId": "P02500000FsoEu4Zbj4qyZjT0cJodrQmC3fdosyN",
    "placeName": "rockledge",
    "state": "FL"
  },
  {
    "city": "homestead",
    "state_code": "FL",
    "placeMasterId": "P02500000FsoErvsRg8CCGinOZ8dNC5FcyBHlPvk",
    "placeName": "homestead",
    "state": "FL"
  },
  {
    "city": "key colony beach",
    "state_code": "FL",
    "placeMasterId": "P02500000FsoEsDZOsvLldvHkAlKD13x2zGAOPjB",
    "placeName": "key colony beach",
    "state": "FL"
  },
  {
    "city": "miami beach",
    "state_code": "FL",
    "placeMasterId": "P02500000FsoEsvnmtuEh4vVcBp3IZVokjlG7wuw",
    "placeName": "miami beach",
    "state": "FL"
  },
  {
    "city": "key biscayne",
    "state_code": "FL",
    "placeMasterId": "P02500000FsoEsDZOsvLldvHkAlKD13zMdYOQVqj",
    "placeName": "key biscayne",
    "state": "FL"
  },
  {
    "city": "miami",
    "state_code": "FL",
    "placeMasterId": "P02500000FsoEsvnmtuEh4vVcBp3IZVnnnRh03zn",
    "placeName": "miami",
    "state": "FL"
  },
  {
    "city": "west palm beach",
    "state_code": "FL",
    "placeMasterId": "P02500000FsoEuveTLSJghKw3RBt9KN3fVhs2PCt",
    "placeName": "west palm beach",
    "state": "FL"
  },
  {
    "city": "zephyrhills",
    "state_code": "FL",
    "placeMasterId": "P02500000FsoEvDLQYFTG4XQP2oZz9LokjrYJbSR",
    "placeName": "zephyrhills",
    "state": "FL"
  },
  {
    "city": "tampa",
    "state_code": "FL",
    "placeMasterId": "P02500000FsoEudxW8fA7K8RhpZCJVOG5RK5OQjD",
    "placeName": "tampa",
    "state": "FL"
  },
  {
    "city": "clearwater",
    "state_code": "FL",
    "placeMasterId": "P02500000FsoEqn6cqxZuluq08ds1uAGuY1C0NsC",
    "placeName": "clearwater",
    "state": "FL"
  },
  {
    "city": "largo",
    "state_code": "FL",
    "placeMasterId": "P02500000FsoEsVGM5iVL17m5mO12q2kFNogYZCe",
    "placeName": "largo",
    "state": "FL"
  },
  {
    "city": "largo",
    "state_code": "FL",
    "placeMasterId": "P02500000FsoEsVGM5iVL17m5mO12q2kFNogYZCe",
    "placeName": "largo",
    "state": "FL"
  },
  {
    "city": "indian rocks beach",
    "state_code": "FL",
    "placeMasterId": "P02500000FsoEs4ivHWlyxK2ZMwyn6ZZoVNQek9l",
    "placeName": "indian rocks beach",
    "state": "FL"
  },
  {
    "city": "bowling green",
    "state_code": "FL",
    "placeMasterId": "P02500000FsoEqVPfeAQLOiLeX1BC5BVPPJBsKRi",
    "placeName": "bowling green",
    "state": "FL"
  },
  {
    "city": "davenport",
    "state_code": "FL",
    "placeMasterId": "P02500000FsoEqvx6SM9hSW5AwSDRoebvw0kQDxT",
    "placeName": "davenport",
    "state": "FL"
  },
  {
    "city": "fort myers",
    "state_code": "FL",
    "placeMasterId": "P02500000FsoErMUXGXt3WJohLtFhY7lIEW7YWt0",
    "placeName": "fort myers",
    "state": "FL"
  },
  {
    "city": "port charlotte",
    "state_code": "FL",
    "placeMasterId": "P02500000FsoEtmseWHhPCWyf0h7o2S6ULmS1eGT",
    "placeName": "port charlotte",
    "state": "FL"
  },
  {
    "city": "cape coral",
    "state_code": "FL",
    "placeMasterId": "P02500000FsoEqeG9FZ085JapKpWbzfvC3EH1HO5",
    "placeName": "cape coral",
    "state": "FL"
  },
  {
    "city": "nocatee",
    "state_code": "FL",
    "placeMasterId": "P02500000FsoEtDUk6hOGS7zxnRk8OUZEwLEeTCs",
    "placeName": "nocatee",
    "state": "FL"
  },
  {
    "city": "nokomis",
    "state_code": "FL",
    "placeMasterId": "P02500000FsoEtDUk6hOGS7zxnRk8OUYR1lgTMqs",
    "placeName": "nokomis",
    "state": "FL"
  },
  {
    "city": "dunnellon",
    "state_code": "FL",
    "placeMasterId": "P02500000FsoErDe3f9JGpiZWY4uHddKPqWQhb7V",
    "placeName": "dunnellon",
    "state": "FL"
  },
  {
    "city": "tarpon springs",
    "state_code": "FL",
    "placeMasterId": "P02500000FsoEudxW8fA7K8RhpZCJVOHFZ6zSPs8",
    "placeName": "tarpon springs",
    "state": "FL"
  },
  {
    "city": "clermont",
    "state_code": "FL",
    "placeMasterId": "P02500000FsoEqn6cqxZuluq08ds1uADJnAMoLQV",
    "placeName": "clermont",
    "state": "FL"
  },
  {
    "city": "fort pierce",
    "state_code": "FL",
    "placeMasterId": "P02500000FsoErMUXGXt3WJohLtFhY7n1iT0LCoC",
    "placeName": "fort pierce",
    "state": "FL"
  },
  {
    "city": "columbiana",
    "state_code": "AL",
    "placeMasterId": "P02500000FsoET6bMj9lYiCD4lqWeeqcHMa7PYSF",
    "placeName": "columbiana",
    "state": "AL"
  },
  {
    "city": "cullman",
    "state_code": "AL",
    "placeMasterId": "P02500000FsoETFRqKYLLOnSFZes4ZKzcnHRGV71",
    "placeName": "cullman",
    "state": "AL"
  },
  {
    "city": "vandiver",
    "state_code": "AL",
    "placeMasterId": "P02500000FsoEVogRBgjTlbrO2H5ay9dJOwKeLv3",
    "placeName": "vandiver",
    "state": "AL"
  },
  {
    "city": "parrish",
    "state_code": "AL",
    "placeMasterId": "P02500000FsoEUxbZZJGle0OLDP15VDOpB8MZrBM",
    "placeName": "parrish",
    "state": "AL"
  },
  {
    "city": "phil campbell",
    "state_code": "AL",
    "placeMasterId": "P02500000FsoEUxbZZJGle0OLDP15VDSGswFlzsI",
    "placeName": "phil campbell",
    "state": "AL"
  },
  {
    "city": "spruce pine",
    "state_code": "AL",
    "placeMasterId": "P02500000FsoEVO90NV07ho7rcq3LEgYdPOO0186",
    "placeName": "spruce pine",
    "state": "AL"
  },
  {
    "city": "owens cross roads",
    "state_code": "AL",
    "placeMasterId": "P02500000FsoEUxbZZJGle0OLDP15VDPWzefuJAC",
    "placeName": "owens cross roads",
    "state": "AL"
  },
  {
    "city": "woodville",
    "state_code": "AL",
    "placeMasterId": "P02500000FsoEVxWun5JGSD6Yq5R0sdzkIRiwM3K",
    "placeName": "woodville",
    "state": "AL"
  },
  {
    "city": "greenville",
    "state_code": "AL",
    "placeMasterId": "P02500000FsoETopkk8eU9CQwmuFkDITCNszNvPg",
    "placeName": "greenville",
    "state": "AL"
  },
  {
    "city": "millbrook",
    "state_code": "AL",
    "placeMasterId": "P02500000FsoEUX48l7XPaCeonxyplkJfaVwEEJC",
    "placeName": "millbrook",
    "state": "AL"
  },
  {
    "city": "prattville",
    "state_code": "AL",
    "placeMasterId": "P02500000FsoEUxbZZJGle0OLDP15VDSNy4eWHb4",
    "placeName": "prattville",
    "state": "AL"
  },
  {
    "city": "troy",
    "state_code": "AL",
    "placeMasterId": "P02500000FsoEVfpxaI9h50cDESkB3fH3vcX754f",
    "placeName": "troy",
    "state": "AL"
  },
  {
    "city": "graham",
    "state_code": "AL",
    "placeMasterId": "P02500000FsoETfzH8k4hSbBlz5uKIo5o1oArBwv",
    "placeName": "graham",
    "state": "AL"
  },
  {
    "city": "dothan",
    "state_code": "AL",
    "placeMasterId": "P02500000FsoETFRqKYLLOnSFZes4ZL06yv9JGjB",
    "placeName": "dothan",
    "state": "AL"
  },
  {
    "city": "dothan",
    "state_code": "AL",
    "placeMasterId": "P02500000FsoETFRqKYLLOnSFZes4ZL06yv9JGjB",
    "placeName": "dothan",
    "state": "AL"
  },
  {
    "city": "ariton",
    "state_code": "AL",
    "placeMasterId": "P02500000FsoESg3vuy2CeOTYMPUOvNTUgnImUVJ",
    "placeName": "ariton",
    "state": "AL"
  },
  {
    "city": "newville",
    "state_code": "AL",
    "placeMasterId": "P02500000FsoEUol5xugyxP9APaffaj3TOcIfeFa",
    "placeName": "newville",
    "state": "AL"
  },
  {
    "city": "atmore",
    "state_code": "AL",
    "placeMasterId": "P02500000FsoESg3vuy2CeOTYMPUOvNW34Ym9Q2L",
    "placeName": "atmore",
    "state": "AL"
  },
  {
    "city": "satsuma",
    "state_code": "AL",
    "placeMasterId": "P02500000FsoEVFIWm6QL1Csgp1hvKCBLzws9AQF",
    "placeName": "satsuma",
    "state": "AL"
  },
  {
    "city": "mobile",
    "state_code": "AL",
    "placeMasterId": "P02500000FsoEUX48l7XPaCeonxyplkKNMXCzpeH",
    "placeName": "mobile",
    "state": "AL"
  },
  {
    "city": "lyles",
    "state_code": "TN",
    "placeMasterId": "P02500000FsoGh554zTtv95sZg4ZmiXtMuK3qH20",
    "placeName": "lyles",
    "state": "TN"
  },
  {
    "city": "springfield",
    "state_code": "TN",
    "placeMasterId": "P02500000FsoGhw9wbrMdGhLcUweIBU7b6UvuEoo",
    "placeName": "springfield",
    "state": "TN"
  },
  {
    "city": "chattanooga",
    "state_code": "TN",
    "placeMasterId": "P02500000FsoGg59jlhrQKtAM3O9rL7CHHcMaKbF",
    "placeName": "chattanooga",
    "state": "TN"
  },
  {
    "city": "bristol",
    "state_code": "TN",
    "placeMasterId": "P02500000FsoGfwJGAJHdeHvBFZoRQctY68ObwtX",
    "placeName": "bristol",
    "state": "TN"
  },
  {
    "city": "telford",
    "state_code": "TN",
    "placeMasterId": "P02500000FsoGi50QDFwPxIanIkzi5yIfR5IUi1J",
    "placeName": "telford",
    "state": "TN"
  },
  {
    "city": "lenoir city",
    "state_code": "TN",
    "placeMasterId": "P02500000FsoGgwEbO5K8SUdOsGEMo3R0VcVGg3k",
    "placeName": "lenoir city",
    "state": "TN"
  },
  {
    "city": "sevierville",
    "state_code": "TN",
    "placeMasterId": "P02500000FsoGheSzP4D3tUrGtJxSMVLfwOAyM89",
    "placeName": "sevierville",
    "state": "TN"
  },
  {
    "city": "mason",
    "state_code": "TN",
    "placeMasterId": "P02500000FsoGh554zTtv95sZg4ZmiXoJ9beN6gI",
    "placeName": "mason",
    "state": "TN"
  },
  {
    "city": "millington",
    "state_code": "TN",
    "placeMasterId": "P02500000FsoGhDvYasThph7kTsvCd27dyXjQf01",
    "placeName": "millington",
    "state": "TN"
  },
  {
    "city": "memphis",
    "state_code": "TN",
    "placeMasterId": "P02500000FsoGh554zTtv95sZg4ZmiXoGr41AEmS",
    "placeName": "memphis",
    "state": "TN"
  },
  {
    "city": "ramer",
    "state_code": "TN",
    "placeMasterId": "P02500000FsoGheSzP4D3tUrGtJxSMVCy04wt87k",
    "placeName": "ramer",
    "state": "TN"
  },
  {
    "city": "cookeville",
    "state_code": "TN",
    "placeMasterId": "P02500000FsoGgE0DN6RD1UPWrCVHFbUAiM8ZijA",
    "placeName": "cookeville",
    "state": "TN"
  },
  {
    "city": "darling",
    "state_code": "MS",
    "placeMasterId": "P02500000FsoFgs2u0eFXZBAbO1xZSxveGqUDxgj",
    "placeName": "darling",
    "state": "MS"
  },
  {
    "city": "pope",
    "state_code": "MS",
    "placeMasterId": "P02500000FsoFi0oiporp3z7zoWiuksnHWgLiPsc",
    "placeName": "pope",
    "state": "MS"
  },
  {
    "city": "shaw",
    "state_code": "MS",
    "placeMasterId": "P02500000FsoFi9fCRDRbkaNAcL4KfNCQ1dNwg7O",
    "placeName": "shaw",
    "state": "MS"
  },
  {
    "city": "houston",
    "state_code": "MS",
    "placeMasterId": "P02500000FsoFhRQoQEYgJa9IbHLF6vIfZIKa9Vd",
    "placeName": "houston",
    "state": "MS"
  },
  {
    "city": "calhoun city",
    "state_code": "MS",
    "placeMasterId": "P02500000FsoFgjCQPFfksZvQaDc9YTSO1PYCB8I",
    "placeName": "calhoun city",
    "state": "MS"
  },
  {
    "city": "morgan city",
    "state_code": "MS",
    "placeMasterId": "P02500000FsoFhj7ld1iFgmdeCu24vu63co1pEau",
    "placeName": "morgan city",
    "state": "MS"
  },
  {
    "city": "oakland",
    "state_code": "MS",
    "placeMasterId": "P02500000FsoFhryFEQI2NNsp0iNUqOSxB6O7n31",
    "placeName": "oakland",
    "state": "MS"
  },
  {
    "city": "rolling fork",
    "state_code": "MS",
    "placeMasterId": "P02500000FsoFi0oiporp3z7zoWiuksy4TcAMLXQ",
    "placeName": "rolling fork",
    "state": "MS"
  },
  {
    "city": "purvis",
    "state_code": "MS",
    "placeMasterId": "P02500000FsoFi0oiporp3z7zoWiuksrB8oTv5qz",
    "placeName": "purvis",
    "state": "MS"
  },
  {
    "city": "sandersville",
    "state_code": "MS",
    "placeMasterId": "P02500000FsoFi9fCRDRbkaNAcL4KfNGIOG1Qrr2",
    "placeName": "sandersville",
    "state": "MS"
  },
  {
    "city": "wiggins",
    "state_code": "MS",
    "placeMasterId": "P02500000FsoFiaCdFPAxoO6h1m6aOqMrOpFD3k2",
    "placeName": "wiggins",
    "state": "MS"
  },
  {
    "city": "summit",
    "state_code": "MS",
    "placeMasterId": "P02500000FsoFiRM9e0bB7mrWDxlAULsM7XkvQCu",
    "placeName": "summit",
    "state": "MS"
  },
  {
    "city": "hamilton",
    "state_code": "MS",
    "placeMasterId": "P02500000FsoFhIaKopytcyu7nSzpCR19AtFIBgK",
    "placeName": "hamilton",
    "state": "MS"
  },
  {
    "city": "mantee",
    "state_code": "MS",
    "placeMasterId": "P02500000FsoFhaHI1d8T0BOTP5gf1Pkjm2Hc3RW",
    "placeName": "mantee",
    "state": "MS"
  },
  {
    "city": "coleman",
    "state_code": "GA",
    "placeMasterId": "P02500000FsoEw4QIAcvyC8tRrgeUcHxuLnJpjLh",
    "placeName": "coleman",
    "state": "GA"
  },
  {
    "city": "damascus",
    "state_code": "GA",
    "placeMasterId": "P02500000FsoEwDGlm1Vksk8cfUzuWmM6BdUlfZv",
    "placeName": "damascus",
    "state": "GA"
  },
  {
    "city": "edison",
    "state_code": "GA",
    "placeMasterId": "P02500000FsoEwUxiyofKFwcyH7gkLl7YpBcklBq",
    "placeName": "edison",
    "state": "GA"
  },
  {
    "city": "new castle",
    "state_code": "KY",
    "placeMasterId": "P02500000FsoFP2FDc66Ng5ZoxWmKZjWIo4MDI50",
    "placeName": "new castle",
    "state": "KY"
  },
  {
    "city": "louisville",
    "state_code": "KY",
    "placeMasterId": "P02500000FsoFOkYGPIwoIt5TLu5UkkhkzCsPo64",
    "placeName": "louisville",
    "state": "KY"
  },
  {
    "city": "louisville",
    "state_code": "KY",
    "placeMasterId": "P02500000FsoFOkYGPIwoIt5TLu5UkkhkzCsPo64",
    "placeName": "louisville",
    "state": "KY"
  },
  {
    "city": "louisville",
    "state_code": "KY",
    "placeMasterId": "P02500000FsoFOkYGPIwoIt5TLu5UkkhkzCsPo64",
    "placeName": "louisville",
    "state": "KY"
  },
  {
    "city": "nicholasville",
    "state_code": "KY",
    "placeMasterId": "P02500000FsoFPB5hDUgAMgozlL7kUDiw0owX0C7",
    "placeName": "nicholasville",
    "state": "KY"
  },
  {
    "city": "london",
    "state_code": "KY",
    "placeMasterId": "P02500000FsoFObhmnuN1cHqIY5k4qGT1UsvMI2D",
    "placeName": "london",
    "state": "KY"
  },
  {
    "city": "burlington",
    "state_code": "KY",
    "placeMasterId": "P02500000FsoFNSvxyjkk7Tsu7ayjYLGE3RbTE3R",
    "placeName": "burlington",
    "state": "KY"
  },
  {
    "city": "covington",
    "state_code": "KY",
    "placeMasterId": "P02500000FsoFNbmRa8KWo584vPK9Sph6ZqqaY88",
    "placeName": "covington",
    "state": "KY"
  },
  {
    "city": "newport",
    "state_code": "KY",
    "placeMasterId": "P02500000FsoFP2FDc66Ng5ZoxWmKZjQJq7oxLpv",
    "placeName": "newport",
    "state": "KY"
  },
  {
    "city": "inez",
    "state_code": "KY",
    "placeMasterId": "P02500000FsoFOSrJCVnEvgb7kHOevm1oByUSn3o",
    "placeName": "inez",
    "state": "KY"
  },
  {
    "city": "kevil",
    "state_code": "KY",
    "placeMasterId": "P02500000FsoFObhmnuN1cHqIY5k4qGO34iEJDUO",
    "placeName": "kevil",
    "state": "KY"
  },
  {
    "city": "cadiz",
    "state_code": "KY",
    "placeMasterId": "P02500000FsoFNK5UNLAxQsdjJmdJdqxvpSBxCie",
    "placeName": "cadiz",
    "state": "KY"
  },
  {
    "city": "oak grove",
    "state_code": "KY",
    "placeMasterId": "P02500000FsoFPB5hDUgAMgozlL7kUDlwQGbfoUb",
    "placeName": "oak grove",
    "state": "KY"
  },
  {
    "city": "columbia",
    "state_code": "KY",
    "placeMasterId": "P02500000FsoFNbmRa8KWo584vPK9SpeQ0Wq7zSM",
    "placeName": "columbia",
    "state": "KY"
  },
  {
    "city": "mechanicsburg",
    "state_code": "OH",
    "placeMasterId": "P02500000FsoGGOnnCLy4el6zRDydKwSd0sy9Xyb",
    "placeName": "mechanicsburg",
    "state": "OH"
  },
  {
    "city": "jeffersonville",
    "state_code": "OH",
    "placeMasterId": "P02500000FsoGFXivZyVMX9dwcLu7s0BTXSl5Mhz",
    "placeName": "jeffersonville",
    "state": "OH"
  },
  {
    "city": "columbus",
    "state_code": "OH",
    "placeMasterId": "P02500000FsoGDyPfwc9iyXx1mQ6Wqc0NMzPNh3d",
    "placeName": "columbus",
    "state": "OH"
  },
  {
    "city": "columbus",
    "state_code": "OH",
    "placeMasterId": "P02500000FsoGDyPfwc9iyXx1mQ6Wqc0NMzPNh3d",
    "placeName": "columbus",
    "state": "OH"
  },
  {
    "city": "lakeview",
    "state_code": "OH",
    "placeMasterId": "P02500000FsoGFpPsmlevuM8IDyaxgypRlX8UrI1",
    "placeName": "lakeview",
    "state": "OH"
  },
  {
    "city": "gibsonburg",
    "state_code": "OH",
    "placeMasterId": "P02500000FsoGEpUXYzcR69Q4bIB2JYHhIpuh7N3",
    "placeName": "gibsonburg",
    "state": "OH"
  },
  {
    "city": "port clinton",
    "state_code": "OH",
    "placeMasterId": "P02500000FsoGHgQ5cvA8qAJYfX5OXLlCTVQU4iY",
    "placeName": "port clinton",
    "state": "OH"
  },
  {
    "city": "haskins",
    "state_code": "OH",
    "placeMasterId": "P02500000FsoGFG1yNBLn9x9b0jDI31KiEIDJNrr",
    "placeName": "haskins",
    "state": "OH"
  },
  {
    "city": "toledo",
    "state_code": "OH",
    "placeMasterId": "P02500000FsoGIpBuS5mQKyGx61qjpGheGoHOM1s",
    "placeName": "toledo",
    "state": "OH"
  },
  {
    "city": "crooksville",
    "state_code": "OH",
    "placeMasterId": "P02500000FsoGDyPfwc9iyXx1mQ6Wqc2bguq4nS3",
    "placeName": "crooksville",
    "state": "OH"
  },
  {
    "city": "newcomerstown",
    "state_code": "OH",
    "placeMasterId": "P02500000FsoGGyBhbwHDPA5geTMIytvdUWzFk6E",
    "placeName": "newcomerstown",
    "state": "OH"
  },
  {
    "city": "trinway",
    "state_code": "OH",
    "placeMasterId": "P02500000FsoGIy2O3UMD1ZW7tqC9jkx11tZv3qd",
    "placeName": "trinway",
    "state": "OH"
  },
  {
    "city": "east liverpool",
    "state_code": "OH",
    "placeMasterId": "P02500000FsoGEOx6knt52LgYBr8ma55rQwjcoGS",
    "placeName": "east liverpool",
    "state": "OH"
  },
  {
    "city": "rayland",
    "state_code": "OH",
    "placeMasterId": "P02500000FsoGHy72piJiDMnuH9mEMKRsppqPD02",
    "placeName": "rayland",
    "state": "OH"
  },
  {
    "city": "chagrin falls",
    "state_code": "OH",
    "placeMasterId": "P02500000FsoGDgiijp09bLSgAnPh1dK69e4Dmcr",
    "placeName": "chagrin falls",
    "state": "OH"
  },
  {
    "city": "wellington",
    "state_code": "OH",
    "placeMasterId": "P02500000FsoGJFjLGHVmOm0TVSszYjqfAD1jXEY",
    "placeName": "wellington",
    "state": "OH"
  },
  {
    "city": "cleveland",
    "state_code": "OH",
    "placeMasterId": "P02500000FsoGDpZCLDZwHwhqybl6w7hFiW8c2lu",
    "placeName": "cleveland",
    "state": "OH"
  },
  {
    "city": "brunswick",
    "state_code": "OH",
    "placeMasterId": "P02500000FsoGDP1lX1qaE8yKZAirCed1V4Ex3af",
    "placeName": "brunswick",
    "state": "OH"
  },
  {
    "city": "akron",
    "state_code": "OH",
    "placeMasterId": "P02500000FsoGCXwtueNs6XVHkIeLjiMh8uljxTa",
    "placeName": "akron",
    "state": "OH"
  },
  {
    "city": "warren",
    "state_code": "OH",
    "placeMasterId": "P02500000FsoGJ6sresvziAlIheXZeFTtb2K3fnj",
    "placeName": "warren",
    "state": "OH"
  },
  {
    "city": "west farmington",
    "state_code": "OH",
    "placeMasterId": "P02500000FsoGJOZorg5Z5NFeJHEPTEAw4PPYwSJ",
    "placeName": "west farmington",
    "state": "OH"
  },
  {
    "city": "shreve",
    "state_code": "OH",
    "placeMasterId": "P02500000FsoGIXUxFIcqxlmbUP9u0HsvNcoNQ25",
    "placeName": "shreve",
    "state": "OH"
  },
  {
    "city": "new london",
    "state_code": "OH",
    "placeMasterId": "P02500000FsoGH72BDKr05lKrSHhitOCTEB3AIeG",
    "placeName": "new london",
    "state": "OH"
  },
  {
    "city": "cincinnati",
    "state_code": "OH",
    "placeMasterId": "P02500000FsoGDpZCLDZwHwhqybl6w7e8Lps6H4x",
    "placeName": "cincinnati",
    "state": "OH"
  },
  {
    "city": "eaton",
    "state_code": "OH",
    "placeMasterId": "P02500000FsoGEOx6knt52LgYBr8ma58IviJLgVb",
    "placeName": "eaton",
    "state": "OH"
  },
  {
    "city": "jamestown",
    "state_code": "OH",
    "placeMasterId": "P02500000FsoGFXivZyVMX9dwcLu7s06lJivOvzs",
    "placeName": "jamestown",
    "state": "OH"
  },
  {
    "city": "west alexandria",
    "state_code": "OH",
    "placeMasterId": "P02500000FsoGJOZorg5Z5NFeJHEPTE82PBOMPJY",
    "placeName": "west alexandria",
    "state": "OH"
  },
  {
    "city": "yorkshire",
    "state_code": "OH",
    "placeMasterId": "P02500000FsoGJp7Ffrov9AzAiiGfChB0ZjCFr9I",
    "placeName": "yorkshire",
    "state": "OH"
  },
  {
    "city": "dayton",
    "state_code": "OH",
    "placeMasterId": "P02500000FsoGE7G9Y0jVf9CCaERwl6OdIDcWstb",
    "placeName": "dayton",
    "state": "OH"
  },
  {
    "city": "dayton",
    "state_code": "OH",
    "placeMasterId": "P02500000FsoGE7G9Y0jVf9CCaERwl6OdIDcWstb",
    "placeName": "dayton",
    "state": "OH"
  },
  {
    "city": "latty",
    "state_code": "OH",
    "placeMasterId": "P02500000FsoGFyGMOAEiaxNT1mwNbT9Aew0vLF5",
    "placeName": "latty",
    "state": "OH"
  },
  {
    "city": "anderson",
    "state_code": "IN",
    "placeMasterId": "P02500000FsoF93Rk3hSQioAIya5WWrlzCWe32cS",
    "placeName": "anderson",
    "state": "IN"
  },
  {
    "city": "clayton",
    "state_code": "IN",
    "placeMasterId": "P02500000FsoF9cpeTHlZTD90BpTCApHj4rprQQf",
    "placeName": "clayton",
    "state": "IN"
  },
  {
    "city": "trafalgar",
    "state_code": "IN",
    "placeMasterId": "P02500000FsoFCcbg8bt3tpHf3siyJ73QtxKJuOq",
    "placeName": "trafalgar",
    "state": "IN"
  },
  {
    "city": "indianapolis",
    "state_code": "IN",
    "placeMasterId": "P02500000FsoFAckzh3o4HPrDoVt7YFuCi8MjR1V",
    "placeName": "indianapolis",
    "state": "IN"
  },
  {
    "city": "indianapolis",
    "state_code": "IN",
    "placeMasterId": "P02500000FsoFAckzh3o4HPrDoVt7YFuCi8MjR1V",
    "placeName": "indianapolis",
    "state": "IN"
  },
  {
    "city": "griffith",
    "state_code": "IN",
    "placeMasterId": "P02500000FsoFAL42UGeUuDMsCtCHjH9FyfzrUjm",
    "placeName": "griffith",
    "state": "IN"
  },
  {
    "city": "hamlet",
    "state_code": "IN",
    "placeMasterId": "P02500000FsoFATuW5fEHaoc30hXhdlUJgUKy4Uk",
    "placeName": "hamlet",
    "state": "IN"
  },
  {
    "city": "north webster",
    "state_code": "IN",
    "placeMasterId": "P02500000FsoFBcgKupqZ5cZRRCJ2vgRWBJYoyPz",
    "placeName": "north webster",
    "state": "IN"
  },
  {
    "city": "winona lake",
    "state_code": "IN",
    "placeMasterId": "P02500000FsoFCuIdLP2dH1m0fVPo85nzL4U1MGR",
    "placeName": "winona lake",
    "state": "IN"
  },
  {
    "city": "south bend",
    "state_code": "IN",
    "placeMasterId": "P02500000FsoFCC4FKQ9hq1Y8eRgiZdyg3XsySz8",
    "placeName": "south bend",
    "state": "IN"
  },
  {
    "city": "avilla",
    "state_code": "IN",
    "placeMasterId": "P02500000FsoF9CIDf62DPPPTmOQwRMBjSlm6Kb8",
    "placeName": "avilla",
    "state": "IN"
  },
  {
    "city": "cromwell",
    "state_code": "IN",
    "placeMasterId": "P02500000FsoF9cpeTHlZTD90BpTCApJ6k6o30mB",
    "placeName": "cromwell",
    "state": "IN"
  },
  {
    "city": "harlan",
    "state_code": "IN",
    "placeMasterId": "P02500000FsoFAL42UGeUuDMsCtCHjH8ue33QklP",
    "placeName": "harlan",
    "state": "IN"
  },
  {
    "city": "ossian",
    "state_code": "IN",
    "placeMasterId": "P02500000FsoFBlWoWEQLmDocF0eSqAoYuFSbrku",
    "placeName": "ossian",
    "state": "IN"
  },
  {
    "city": "kewanna",
    "state_code": "IN",
    "placeMasterId": "P02500000FsoFAlbTISNqy16OcKEXSkEtFdKILnz",
    "placeName": "kewanna",
    "state": "IN"
  },
  {
    "city": "laketon",
    "state_code": "IN",
    "placeMasterId": "P02500000FsoFAlbTISNqy16OcKEXSkJB2fJ8jLT",
    "placeName": "laketon",
    "state": "IN"
  },
  {
    "city": "moores hill",
    "state_code": "IN",
    "placeMasterId": "P02500000FsoFBKzNi2gziQ55pZcD6hijysRQB48",
    "placeName": "moores hill",
    "state": "IN"
  },
  {
    "city": "columbus",
    "state_code": "IN",
    "placeMasterId": "P02500000FsoF9cpeTHlZTD90BpTCApHa5Nfq9R9",
    "placeName": "columbus",
    "state": "IN"
  },
  {
    "city": "butlerville",
    "state_code": "IN",
    "placeMasterId": "P02500000FsoF9TzArtBmmbtpO17mGKuSzb7pmrF",
    "placeName": "butlerville",
    "state": "IN"
  },
  {
    "city": "dunreith",
    "state_code": "IN",
    "placeMasterId": "P02500000FsoF9uWbg4v8qPdLnSA1zo2mqdfbPNv",
    "placeName": "dunreith",
    "state": "IN"
  },
  {
    "city": "economy",
    "state_code": "IN",
    "placeMasterId": "P02500000FsoF9uWbg4v8qPdLnSA1zo3afkoklq7",
    "placeName": "economy",
    "state": "IN"
  },
  {
    "city": "otwell",
    "state_code": "IN",
    "placeMasterId": "P02500000FsoFBlWoWEQLmDocF0eSqAq1wj8bbo4",
    "placeName": "otwell",
    "state": "IN"
  },
  {
    "city": "fort branch",
    "state_code": "IN",
    "placeMasterId": "P02500000FsoFA3N5HTUvX0sWbGVRuIQwyMd3gU4",
    "placeName": "fort branch",
    "state": "IN"
  },
  {
    "city": "francisco",
    "state_code": "IN",
    "placeMasterId": "P02500000FsoFACDYss4iDc7hP4qromkNKkE4Cyu",
    "placeName": "francisco",
    "state": "IN"
  },
  {
    "city": "terre haute",
    "state_code": "IN",
    "placeMasterId": "P02500000FsoFCTlCXDJHDE2UG4NYOcfygXVyJsD",
    "placeName": "terre haute",
    "state": "IN"
  },
  {
    "city": "terre haute",
    "state_code": "IN",
    "placeMasterId": "P02500000FsoFCTlCXDJHDE2UG4NYOcfygXVyJsD",
    "placeName": "terre haute",
    "state": "IN"
  },
  {
    "city": "dugger",
    "state_code": "IN",
    "placeMasterId": "P02500000FsoF9uWbg4v8qPdLnSA1zo1U5CKF0no",
    "placeName": "dugger",
    "state": "IN"
  },
  {
    "city": "battle ground",
    "state_code": "IN",
    "placeMasterId": "P02500000FsoF9CIDf62DPPPTmOQwRM8KFMgUyOs",
    "placeName": "battle ground",
    "state": "IN"
  },
  {
    "city": "fowler",
    "state_code": "IN",
    "placeMasterId": "P02500000FsoFACDYss4iDc7hP4qromix3DDFlFb",
    "placeName": "fowler",
    "state": "IN"
  },
  {
    "city": "wolcott",
    "state_code": "IN",
    "placeMasterId": "P02500000FsoFCuIdLP2dH1m0fVPo85mWb5Booii",
    "placeName": "wolcott",
    "state": "IN"
  },
  {
    "city": "roseville",
    "state_code": "MI",
    "placeMasterId": "P02500000FsoFaJ6wGPhPxXuaQg4LYQn2jvWlM2k",
    "placeName": "roseville",
    "state": "MI"
  },
  {
    "city": "ann arbor",
    "state_code": "MI",
    "placeMasterId": "P02500000FsoFX1dxOIQM9jHZx07jbAPjgnqdjRL",
    "placeName": "ann arbor",
    "state": "MI"
  },
  {
    "city": "dundee",
    "state_code": "MI",
    "placeMasterId": "P02500000FsoFYAPmDT2deXEyNUt4t59CVjWCz0p",
    "placeName": "dundee",
    "state": "MI"
  },
  {
    "city": "romulus",
    "state_code": "MI",
    "placeMasterId": "P02500000FsoFaJ6wGPhPxXuaQg4LYQmNmNRlDfT",
    "placeName": "romulus",
    "state": "MI"
  },
  {
    "city": "harbor beach",
    "state_code": "MI",
    "placeMasterId": "P02500000FsoFYaxD1elziKyUmvvKcYNZGPnhIWO",
    "placeName": "harbor beach",
    "state": "MI"
  },
  {
    "city": "breckenridge",
    "state_code": "MI",
    "placeMasterId": "P02500000FsoFXSBOCU9iDX16MR9zKdOEpr07Sor",
    "placeName": "breckenridge",
    "state": "MI"
  },
  {
    "city": "vassar",
    "state_code": "MI",
    "placeMasterId": "P02500000FsoFajeN4bQm1Le6q76bHtv2Oi4oumT",
    "placeName": "vassar",
    "state": "MI"
  },
  {
    "city": "alma",
    "state_code": "MI",
    "placeMasterId": "P02500000FsoFX1dxOIQM9jHZx07jbAKgWV9XeSE",
    "placeName": "alma",
    "state": "MI"
  },
  {
    "city": "lyons",
    "state_code": "MI",
    "placeMasterId": "P02500000FsoFZJBb2dev9LCMnzeQB0FQ2Qw1eu4",
    "placeName": "lyons",
    "state": "MI"
  },
  {
    "city": "lansing",
    "state_code": "MI",
    "placeMasterId": "P02500000FsoFZAL7RF58SjxC0BJ0GVtzoDUs0q2",
    "placeName": "lansing",
    "state": "MI"
  },
  {
    "city": "lawton",
    "state_code": "MI",
    "placeMasterId": "P02500000FsoFZAL7RF58SjxC0BJ0GVumHkgtpsB",
    "placeName": "lawton",
    "state": "MI"
  },
  {
    "city": "jackson",
    "state_code": "MI",
    "placeMasterId": "P02500000FsoFYseAERvZ5XSqOYcARXBB8z8RnUB",
    "placeName": "jackson",
    "state": "MI"
  },
  {
    "city": "hudson",
    "state_code": "MI",
    "placeMasterId": "P02500000FsoFYseAERvZ5XSqOYcARX2dkmY2gNf",
    "placeName": "hudson",
    "state": "MI"
  },
  {
    "city": "norvell",
    "state_code": "MI",
    "placeMasterId": "P02500000FsoHm030sObDOpfITuan2HwvlWuNKwp",
    "placeName": "norvell",
    "state": "MI"
  },
  {
    "city": "barryton",
    "state_code": "MI",
    "placeMasterId": "P02500000FsoFXAUQzh08qKWkkoT9VeieQ1vmF5l",
    "placeName": "barryton",
    "state": "MI"
  },
  {
    "city": "branch",
    "state_code": "MI",
    "placeMasterId": "P02500000FsoHhiegmVHemoK4NYEFhav3WULleVm",
    "placeName": "branch",
    "state": "MI"
  },
  {
    "city": "scottville",
    "state_code": "MI",
    "placeMasterId": "P02500000FsoFaRxProHCe99lEUPlSvGKZKt0rBI",
    "placeName": "scottville",
    "state": "MI"
  },
  {
    "city": "shelby",
    "state_code": "MI",
    "placeMasterId": "P02500000FsoFaRxProHCe99lEUPlSvAVgFFZA0O",
    "placeName": "shelby",
    "state": "MI"
  },
  {
    "city": "empire",
    "state_code": "MI",
    "placeMasterId": "P02500000FsoFYJGForcQL8U9BJEUnZdyAnBFnpS",
    "placeName": "empire",
    "state": "MI"
  },
  {
    "city": "kingsley",
    "state_code": "MI",
    "placeMasterId": "P02500000FsoFZ1UdpqVLm8i1CMxaM1YrGgp3tFB",
    "placeName": "kingsley",
    "state": "MI"
  },
  {
    "city": "traverse city",
    "state_code": "MI",
    "placeMasterId": "P02500000FsoFaantTCqzKkOw2IlBNPfWVUPoyj1",
    "placeName": "traverse city",
    "state": "MI"
  },
  {
    "city": "cheboygan",
    "state_code": "MI",
    "placeMasterId": "P02500000FsoFXjsLPHJHajVRy3qp9c6mqHrFNMJ",
    "placeName": "cheboygan",
    "state": "MI"
  },
  {
    "city": "mackinac island",
    "state_code": "MI",
    "placeMasterId": "P02500000FsoFZS24e2EhpwRXbnzq5UWA3eZzc4U",
    "placeName": "mackinac island",
    "state": "MI"
  },
  {
    "city": "oden",
    "state_code": "MI",
    "placeMasterId": "P02500000FsoFZsZVSDy3tkB41F25oxg6p2Yvvjt",
    "placeName": "oden",
    "state": "MI"
  },
  {
    "city": "walloon lake",
    "state_code": "MI",
    "placeMasterId": "P02500000FsoFasUqg00YhwtHdvS1COFnT3Uudeo",
    "placeName": "walloon lake",
    "state": "MI"
  },
  {
    "city": "rapid river",
    "state_code": "MI",
    "placeMasterId": "P02500000FsoHmiHOtNU8pptAUyJsajm3tozcOW8",
    "placeName": "rapid river",
    "state": "MI"
  },
  {
    "city": "seney",
    "state_code": "MI",
    "placeMasterId": "P02500000FsoHmzyM6AdiD2NW6b0iPigH4KFShSb",
    "placeName": "seney",
    "state": "MI"
  },
  {
    "city": "greenland",
    "state_code": "MI",
    "placeMasterId": "P02500000FsoHk0CKQqWDmQErEXkwHQjQP8YILvt",
    "placeName": "greenland",
    "state": "MI"
  },
  {
    "city": "audubon",
    "state_code": "IA",
    "placeMasterId": "P02500000FsoFDBzaYCCCeEGMH86dx4azji2JtCD",
    "placeName": "audubon",
    "state": "IA"
  },
  {
    "city": "derby",
    "state_code": "IA",
    "placeMasterId": "P02500000FsoFETbsylOGpdSvVRDP9Ts5pKGAGr8",
    "placeName": "derby",
    "state": "IA"
  },
  {
    "city": "gilman",
    "state_code": "IA",
    "placeMasterId": "P02500000FsoFF2znOLhPa2Rcigb4nRMcnSuKg7I",
    "placeName": "gilman",
    "state": "IA"
  },
  {
    "city": "lovilia",
    "state_code": "IA",
    "placeMasterId": "P02500000FsoFGBlcDWJh4qP19BMQ5MK5AKaPMWg",
    "placeName": "lovilia",
    "state": "IA"
  },
  {
    "city": "roland",
    "state_code": "IA",
    "placeMasterId": "P02500000FsoFHl4rqsfKdS5vz7A16kRV8yeQ6NS",
    "placeName": "roland",
    "state": "IA"
  },
  {
    "city": "rockwell",
    "state_code": "IA",
    "placeMasterId": "P02500000FsoFHl4rqsfKdS5vz7A16kToVPhMKWD",
    "placeName": "rockwell",
    "state": "IA"
  },
  {
    "city": "ventura",
    "state_code": "IA",
    "placeMasterId": "P02500000FsoFIc9jTG82l3YynzEWZgdv9FdDlzV",
    "placeName": "ventura",
    "state": "IA"
  },
  {
    "city": "woolstock",
    "state_code": "IA",
    "placeMasterId": "P02500000FsoFJ2hAHRrOorIVDQGmJ9nopVarGUI",
    "placeName": "woolstock",
    "state": "IA"
  },
  {
    "city": "new hartford",
    "state_code": "IA",
    "placeMasterId": "P02500000FsoFGu00EVCcVqctAF5VdoC81EslR5R",
    "placeName": "new hartford",
    "state": "IA"
  },
  {
    "city": "winthrop",
    "state_code": "IA",
    "placeMasterId": "P02500000FsoFItqgg3Hc8G3KPbvMOfQUnBB5dLF",
    "placeName": "winthrop",
    "state": "IA"
  },
  {
    "city": "waterloo",
    "state_code": "IA",
    "placeMasterId": "P02500000FsoFIc9jTG82l3YynzEWZgiXBRjamPP",
    "placeName": "waterloo",
    "state": "IA"
  },
  {
    "city": "nodaway",
    "state_code": "IA",
    "placeMasterId": "P02500000FsoFH2qTptmPCRs3y3QvYIbpNx6Pl4Z",
    "placeName": "nodaway",
    "state": "IA"
  },
  {
    "city": "hinton",
    "state_code": "IA",
    "placeMasterId": "P02500000FsoFFTXECXQldqB987dKWuUaNOVfiaM",
    "placeName": "hinton",
    "state": "IA"
  },
  {
    "city": "whiting",
    "state_code": "IA",
    "placeMasterId": "P02500000FsoFItqgg3Hc8G3KPbvMOfTzmNGCTVI",
    "placeName": "whiting",
    "state": "IA"
  },
  {
    "city": "manilla",
    "state_code": "IA",
    "placeMasterId": "P02500000FsoFGKc5outTlReBwzhpzqmhNtfa9gj",
    "placeName": "manilla",
    "state": "IA"
  },
  {
    "city": "manning",
    "state_code": "IA",
    "placeMasterId": "P02500000FsoFGTSZQJTGS2tMko3FuL4EzyCF1WD",
    "placeName": "manning",
    "state": "IA"
  },
  {
    "city": "council bluffs",
    "state_code": "IA",
    "placeMasterId": "P02500000FsoFEBuvlyEhSQyZtoWZKV85IKHYAVK",
    "placeName": "council bluffs",
    "state": "IA"
  },
  {
    "city": "dundee",
    "state_code": "IA",
    "placeMasterId": "P02500000FsoFETbsylOGpdSvVRDP9TvZc2M4BjR",
    "placeName": "dundee",
    "state": "IA"
  },
  {
    "city": "castalia",
    "state_code": "IA",
    "placeMasterId": "P02500000FsoFDlNUxmVLOdF3UNUJb233WQfbH1r",
    "placeName": "castalia",
    "state": "IA"
  },
  {
    "city": "lansing",
    "state_code": "IA",
    "placeMasterId": "P02500000FsoFFu4f0jA7hdufXYfaGNcyfm8zea5",
    "placeName": "lansing",
    "state": "IA"
  },
  {
    "city": "ossian",
    "state_code": "IA",
    "placeMasterId": "P02500000FsoFHBgxRIMBt37ElrmLSmwnq2hFNHP",
    "placeName": "ossian",
    "state": "IA"
  },
  {
    "city": "randalia",
    "state_code": "IA",
    "placeMasterId": "P02500000FsoFHTNue5VlGFbaNUTBHlghJWy0wA3",
    "placeName": "randalia",
    "state": "IA"
  },
  {
    "city": "hills",
    "state_code": "IA",
    "placeMasterId": "P02500000FsoFFKgkb8qyxEvyKJHucQAL9WTAUtD",
    "placeName": "hills",
    "state": "IA"
  },
  {
    "city": "monmouth",
    "state_code": "IA",
    "placeMasterId": "P02500000FsoFGl9Wd6cppFNiMQk5jJo5zDOO8dv",
    "placeName": "monmouth",
    "state": "IA"
  },
  {
    "city": "norway",
    "state_code": "IA",
    "placeMasterId": "P02500000FsoFH2qTptmPCRs3y3QvYIbXGdOvbPr",
    "placeName": "norway",
    "state": "IA"
  },
  {
    "city": "urbana",
    "state_code": "IA",
    "placeMasterId": "P02500000FsoFIc9jTG82l3YynzEWZgfVwuyMOMf",
    "placeName": "urbana",
    "state": "IA"
  },
  {
    "city": "kirkville",
    "state_code": "IA",
    "placeMasterId": "P02500000FsoFFu4f0jA7hdufXYfaGNadOcwrNAu",
    "placeName": "kirkville",
    "state": "IA"
  },
  {
    "city": "camanche",
    "state_code": "IA",
    "placeMasterId": "P02500000FsoFDlNUxmVLOdF3UNUJb23an3rmPzy",
    "placeName": "camanche",
    "state": "IA"
  },
  {
    "city": "davenport",
    "state_code": "IA",
    "placeMasterId": "P02500000FsoFEKlPNMoU92DkhcrzEzWs1s9aXUd",
    "placeName": "davenport",
    "state": "IA"
  },
  {
    "city": "cedar grove",
    "state_code": "WI",
    "placeMasterId": "P02500000FsoH53HIK4rqa0zqeUbzmq6SdRynBby",
    "placeName": "cedar grove",
    "state": "WI"
  },
  {
    "city": "hartford",
    "state_code": "WI",
    "placeMasterId": "P02500000FsoH63CdXquLODi4HB1vAGifuxD1nih",
    "placeName": "hartford",
    "state": "WI"
  },
  {
    "city": "ixonia",
    "state_code": "WI",
    "placeMasterId": "P02500000FsoHEtgEwQh1zSss5WRpedy6RiXjYbI",
    "placeName": "ixonia",
    "state": "WI"
  },
  {
    "city": "waukesha",
    "state_code": "WI",
    "placeMasterId": "P02500000FsoH8KkHCC8uNpcr8AYbk6ewAxOIwXa",
    "placeName": "waukesha",
    "state": "WI"
  },
  {
    "city": "blue mounds",
    "state_code": "WI",
    "placeMasterId": "P02500000FsoHET8o8Exfvf9Lg5PZvAherZ0WkYO",
    "placeName": "blue mounds",
    "state": "WI"
  },
  {
    "city": "cross plains",
    "state_code": "WI",
    "placeMasterId": "P02500000FsoHET8o8Exfvf9Lg5PZvApLmqPZLMR",
    "placeName": "cross plains",
    "state": "WI"
  },
  {
    "city": "merrimac",
    "state_code": "WI",
    "placeMasterId": "P02500000FsoHFkl6Yo9k74LuuOWL7ZzHXaD4j5N",
    "placeName": "merrimac",
    "state": "WI"
  },
  {
    "city": "montfort",
    "state_code": "WI",
    "placeMasterId": "P02500000FsoH6lR1YpnGpDvwIEl0iii3eJZqxqs",
    "placeName": "montfort",
    "state": "WI"
  },
  {
    "city": "potosi",
    "state_code": "WI",
    "placeMasterId": "P02500000FsoHEkplL27FIrdhHi6Pk9U2bikvFSE",
    "placeName": "potosi",
    "state": "WI"
  },
  {
    "city": "cambria",
    "state_code": "WI",
    "placeMasterId": "P02500000FsoH4uQoigI3tPkfqgGZsLphhP3b6Zz",
    "placeName": "cambria",
    "state": "WI"
  },
  {
    "city": "deer park",
    "state_code": "WI",
    "placeMasterId": "P02500000FsoH5KyFWs1PxDUCG7IpbovHyPQikWf",
    "placeName": "deer park",
    "state": "WI"
  },
  {
    "city": "combined locks",
    "state_code": "WI",
    "placeMasterId": "P02500000FsoH5C7lvTRdGcF1SIxPhKXCFj0ihQi",
    "placeName": "combined locks",
    "state": "WI"
  },
  {
    "city": "hilbert",
    "state_code": "WI",
    "placeMasterId": "P02500000FsoH63CdXquLODi4HB1vAGkXKcOMnRj",
    "placeName": "hilbert",
    "state": "WI"
  },
  {
    "city": "oconto",
    "state_code": "WI",
    "placeMasterId": "P02500000FsoH737ylcwqCQQHtrRqXhX0nHrlo5E",
    "placeName": "oconto",
    "state": "WI"
  },
  {
    "city": "peshtigo",
    "state_code": "WI",
    "placeMasterId": "P02500000FsoH7KovyQ6PZcudVU8gMgEXuI9k8Qn",
    "placeName": "peshtigo",
    "state": "WI"
  },
  {
    "city": "ellison bay",
    "state_code": "WI",
    "placeMasterId": "P02500000FsoH5Toj8GbCdojN3veFWJLMrOqfYio",
    "placeName": "ellison bay",
    "state": "WI"
  },
  {
    "city": "kewaunee",
    "state_code": "WI",
    "placeMasterId": "P02500000FsoH6C379FU84oxF4zNL4lFGscyvVEM",
    "placeName": "kewaunee",
    "state": "WI"
  },
  {
    "city": "brokaw",
    "state_code": "WI",
    "placeMasterId": "P02500000FsoH4laL7HiHCoVV2rv9xrMgB9vhRsu",
    "placeName": "brokaw",
    "state": "WI"
  },
  {
    "city": "merrill",
    "state_code": "WI",
    "placeMasterId": "P02500000FsoH6lR1YpnGpDvwIEl0iidTyOnavr3",
    "placeName": "merrill",
    "state": "WI"
  },
  {
    "city": "stevens point",
    "state_code": "WI",
    "placeMasterId": "P02500000FsoH833JzOzL0d8VWXrlv7v6Z7TSnHl",
    "placeName": "stevens point",
    "state": "WI"
  },
  {
    "city": "vesper",
    "state_code": "WI",
    "placeMasterId": "P02500000FsoH8BtnanZ7hENgKMDBpcNCTriWpYC",
    "placeName": "vesper",
    "state": "WI"
  },
  {
    "city": "kendall",
    "state_code": "WI",
    "placeMasterId": "P02500000FsoHF2WiXpGog482tKnFZ8GE00eAlze",
    "placeName": "kendall",
    "state": "WI"
  },
  {
    "city": "bay city",
    "state_code": "WI",
    "placeMasterId": "P02500000FsoH4TtNuUYhpc19RFEK8shcAeZKNke",
    "placeName": "bay city",
    "state": "WI"
  },
  {
    "city": "spring valley",
    "state_code": "WI",
    "placeMasterId": "P02500000FsoHFkl6Yo9k74LuuOWL7ZwuwhETLpz",
    "placeName": "spring valley",
    "state": "WI"
  },
  {
    "city": "exeland",
    "state_code": "WI",
    "placeMasterId": "P02500000FsoH5cfCjfAzKPyXrjzfQnciCSRouJc",
    "placeName": "exeland",
    "state": "WI"
  },
  {
    "city": "appleton",
    "state_code": "WI",
    "placeMasterId": "P02500000FsoH4L2uJ5yv90lydQsuEOI0ztVfxyJ",
    "placeName": "appleton",
    "state": "WI"
  },
  {
    "city": "neshkoro",
    "state_code": "WI",
    "placeMasterId": "P02500000FsoHFKDfkcQO3GcOUxU5O6vtSvujp7T",
    "placeName": "neshkoro",
    "state": "WI"
  },
  {
    "city": "webster",
    "state_code": "MN",
    "placeMasterId": "P02500000FsoHyz4SlT7fvUw9ao1owrhPZq9q6mH",
    "placeName": "webster",
    "state": "MN"
  },
  {
    "city": "hopkins",
    "state_code": "MN",
    "placeMasterId": "P02500000FsoFdRjRX8Oh4lIQ6XfXbCsCaKrMG4s",
    "placeName": "hopkins",
    "state": "MN"
  },
  {
    "city": "maple plain",
    "state_code": "MN",
    "placeMasterId": "P02500000FsoFe9xpY7HcVlWI7bOd9en3Sk9FldD",
    "placeName": "maple plain",
    "state": "MN"
  },
  {
    "city": "minneapolis",
    "state_code": "MN",
    "placeMasterId": "P02500000FsoFeIoJ9VrPCMlSvPk349D9alJlgNT",
    "placeName": "minneapolis",
    "state": "MN"
  },
  {
    "city": "minneapolis",
    "state_code": "MN",
    "placeMasterId": "P02500000FsoFeIoJ9VrPCMlSvPk349D9alJlgNT",
    "placeName": "minneapolis",
    "state": "MN"
  },
  {
    "city": "cotton",
    "state_code": "MN",
    "placeMasterId": "P02500000FsoHqZ8IB54LO3UsBteABxpKaCoYG2e",
    "placeName": "cotton",
    "state": "MN"
  },
  {
    "city": "floodwood",
    "state_code": "MN",
    "placeMasterId": "P02500000FsoFcjV3W9Vldl4Y5TwS2l63cGL8Yko",
    "placeName": "floodwood",
    "state": "MN"
  },
  {
    "city": "harmony",
    "state_code": "MN",
    "placeMasterId": "P02500000FsoFdA2UKLF7hYo4UuyhmELIqtEFr4P",
    "placeName": "harmony",
    "state": "MN"
  },
  {
    "city": "kasson",
    "state_code": "MN",
    "placeMasterId": "P02500000FsoFdaZv8WyTlMXauM0xVhF2nmEXNmJ",
    "placeName": "kasson",
    "state": "MN"
  },
  {
    "city": "ostrander",
    "state_code": "MN",
    "placeMasterId": "P02500000FsoFesCDZ6AXwlkA8f7ii6cu9XI0V9O",
    "placeName": "ostrander",
    "state": "MN"
  },
  {
    "city": "peterson",
    "state_code": "MN",
    "placeMasterId": "P02500000FsoFesCDZ6AXwlkA8f7ii6iPFvedZ6n",
    "placeName": "peterson",
    "state": "MN"
  },
  {
    "city": "courtland",
    "state_code": "MN",
    "placeMasterId": "P02500000FsoFcA796ZCctM5qsEYmOnhxz1hvW8V",
    "placeName": "courtland",
    "state": "MN"
  },
  {
    "city": "eagle lake",
    "state_code": "MN",
    "placeMasterId": "P02500000FsoFcRo6JMMCGYaCTrFcDmIwWMspS49",
    "placeName": "eagle lake",
    "state": "MN"
  },
  {
    "city": "wells",
    "state_code": "MN",
    "placeMasterId": "P02500000FsoFg9oVzfMc8AwjMyETuW49fxLQJku",
    "placeName": "wells",
    "state": "MN"
  },
  {
    "city": "sunburg",
    "state_code": "MN",
    "placeMasterId": "P02500000FsoFfs7YmsD2kySNlLXe5XCT3LZEe5p",
    "placeName": "sunburg",
    "state": "MN"
  },
  {
    "city": "burtrum",
    "state_code": "MN",
    "placeMasterId": "P02500000FsoFbjZiINTGpYMKSnWWfKbycBz2Qjk",
    "placeName": "burtrum",
    "state": "MN"
  },
  {
    "city": "cold spring",
    "state_code": "MN",
    "placeMasterId": "P02500000FsoFc1GfVAcqCkqg4QDMUJBqKrsKVmL",
    "placeName": "cold spring",
    "state": "MN"
  },
  {
    "city": "evansville",
    "state_code": "MN",
    "placeMasterId": "P02500000FsoFcaeZukvyx9pNHfb28GoPD5Hvy6k",
    "placeName": "evansville",
    "state": "MN"
  },
  {
    "city": "wahkon",
    "state_code": "MN",
    "placeMasterId": "P02500000FsoFg0y2OGmpRZhYZ9t401e8JQay7VQ",
    "placeName": "wahkon",
    "state": "MN"
  },
  {
    "city": "nevis",
    "state_code": "MN",
    "placeMasterId": "P02500000FsoFeaVGMJ0yZZFoX2Qst7sGsugG9IG",
    "placeName": "nevis",
    "state": "MN"
  },
  {
    "city": "randall",
    "state_code": "MN",
    "placeMasterId": "P02500000FsoFf12hAUkKdMzKwTT8cb1BseHxvup",
    "placeName": "randall",
    "state": "MN"
  },
  {
    "city": "audubon",
    "state_code": "MN",
    "placeMasterId": "P02500000FsoFbABnsnA859NdFY8r1NBKH5lJp0I",
    "placeName": "audubon",
    "state": "MN"
  },
  {
    "city": "vining",
    "state_code": "MN",
    "placeMasterId": "P02500000FsoFg0y2OGmpRZhYZ9t401iLSUUvKvS",
    "placeName": "vining",
    "state": "MN"
  },
  {
    "city": "lengby",
    "state_code": "MN",
    "placeMasterId": "P02500000FsoFdsGsLK838Z1wVyhnKgCNnR5RZyM",
    "placeName": "lengby",
    "state": "MN"
  },
  {
    "city": "kabetogama",
    "state_code": "MN",
    "placeMasterId": "P02500000FsoHBTMmSuqBV30go29nmsoZJWopZNY",
    "placeName": "kabetogama",
    "state": "MN"
  },
  {
    "city": "roosevelt",
    "state_code": "MN",
    "placeMasterId": "P02500000FsoFfIjeNHtu0ZTgY69yRZhgvDM7dPT",
    "placeName": "roosevelt",
    "state": "MN"
  },
  {
    "city": "shevlin",
    "state_code": "MN",
    "placeMasterId": "P02500000FsoFfaQba53TNly29iqoGYTLKiE0kkg",
    "placeName": "shevlin",
    "state": "MN"
  },
  {
    "city": "tenstrike",
    "state_code": "MN",
    "placeMasterId": "P02500000FsoFfjH5BTdG4NDCxXCEB30IEu0ZpRK",
    "placeName": "tenstrike",
    "state": "MN"
  },
  {
    "city": "hallock",
    "state_code": "MN",
    "placeMasterId": "P02500000FsoFdA2UKLF7hYo4UuyhmE9715tZw2g",
    "placeName": "hallock",
    "state": "MN"
  },
  {
    "city": "winfred",
    "state_code": "SD",
    "placeMasterId": "P02500000FsoGfecIxW84H5Qpdx7bbeHbeyXcm5g",
    "placeName": "winfred",
    "state": "SD"
  },
  {
    "city": "roslyn",
    "state_code": "SD",
    "placeMasterId": "P02500000FsoGfE4s9KOiDHhJEW5LsB12cidheaC",
    "placeName": "roslyn",
    "state": "SD"
  },
  {
    "city": "platte",
    "state_code": "SD",
    "placeMasterId": "P02500000FsoGewNuwXF8q5CxctOW3CJCni6q5JK",
    "placeName": "platte",
    "state": "SD"
  },
  {
    "city": "spencer",
    "state_code": "SD",
    "placeMasterId": "P02500000FsoGfMvLkiyUtswU2KQlmfHQZqfPWAS",
    "placeName": "spencer",
    "state": "SD"
  },
  {
    "city": "ashton",
    "state_code": "SD",
    "placeMasterId": "P02500000FsoGdelcVy34eg0OOaHkqmqMhOXdx8A",
    "placeName": "ashton",
    "state": "SD"
  },
  {
    "city": "hosmer",
    "state_code": "SD",
    "placeMasterId": "P02500000FsoGeN00Www05gEGPe0qPEvFEaaC4Qy",
    "placeName": "hosmer",
    "state": "SD"
  },
  {
    "city": "leola",
    "state_code": "SD",
    "placeMasterId": "P02500000FsoGeegxjk5ZSsic1GhgEDXtn7ox1Iy",
    "placeName": "leola",
    "state": "SD"
  },
  {
    "city": "mcintosh",
    "state_code": "SD",
    "placeMasterId": "P02500000FsoGeegxjk5ZSsic1GhgEDbN2LTN7D4",
    "placeName": "mcintosh",
    "state": "SD"
  },
  {
    "city": "morristown",
    "state_code": "SD",
    "placeMasterId": "P02500000FsoGenXRL8fM9Txmp5368hz6z4oI2pb",
    "placeName": "morristown",
    "state": "SD"
  },
  {
    "city": "deadwood",
    "state_code": "SD",
    "placeMasterId": "P02500000FsoGdwSZilCe1sUk0CyaflgjCbc3RQs",
    "placeName": "deadwood",
    "state": "SD"
  },
  {
    "city": "vale",
    "state_code": "SD",
    "placeMasterId": "P02500000FsoGfVlpM7YHaUBeq8mBh9j2oU8TQ5s",
    "placeName": "vale",
    "state": "SD"
  },
  {
    "city": "horace",
    "state_code": "ND",
    "placeMasterId": "P02500000FsoGBPB55TlabjXtJnt0RnFcSGYcEHe",
    "placeName": "horace",
    "state": "ND"
  },
  {
    "city": "amherst",
    "state_code": "MA",
    "placeMasterId": "P02500000FsoHdRGMgby6AmyqHBriMtem1k81bss",
    "placeName": "amherst",
    "state": "MA"
  },
  {
    "city": "huntington",
    "state_code": "MA",
    "placeMasterId": "P02500000FsoHdrnnUnhSEaiMgcty6MlBKCHTPPJ",
    "placeName": "huntington",
    "state": "MA"
  },
  {
    "city": "savoy",
    "state_code": "MA",
    "placeMasterId": "P02500000FsoHe9Ukhar1bnCiIFanvLc8nFXSdQc",
    "placeName": "savoy",
    "state": "MA"
  },
  {
    "city": "west stockbridge",
    "state_code": "MA",
    "placeMasterId": "P02500000FsoHea2BVmaNfawEhgd3eoYnAdedO3b",
    "placeName": "west stockbridge",
    "state": "MA"
  },
  {
    "city": "windsor",
    "state_code": "MA",
    "placeMasterId": "P02500000FsoHea2BVmaNfawEhgd3eofJlsfcupm",
    "placeName": "windsor",
    "state": "MA"
  },
  {
    "city": "lawrence",
    "state_code": "MA",
    "placeMasterId": "P02500000FsoFWb6Wa6h05vY3XZ5Trh6EWAiAZPK",
    "placeName": "lawrence",
    "state": "MA"
  },
  {
    "city": "saugus",
    "state_code": "MA",
    "placeMasterId": "P02500000FsoHAtys3KX2ke1zamm88vVamGwAQwY",
    "placeName": "saugus",
    "state": "MA"
  },
  {
    "city": "boston",
    "state_code": "MA",
    "placeMasterId": "P02500000FsoFWJPZNJXQij3hvwOe2iNmqEqJmO9",
    "placeName": "boston",
    "state": "MA"
  },
  {
    "city": "portsmouth",
    "state_code": "RI",
    "placeMasterId": "P02500000FsoIZ5DGMl9LlTrErFQYSngFATtz8mm",
    "placeName": "portsmouth",
    "state": "RI"
  },
  {
    "city": "providence",
    "state_code": "RI",
    "placeMasterId": "P02500000FsoGb5X1epewHrbFvy4ERyD7lvGA4Im",
    "placeName": "providence",
    "state": "RI"
  },
  {
    "city": "providence",
    "state_code": "RI",
    "placeMasterId": "P02500000FsoGb5X1epewHrbFvy4ERyD7lvGA4Im",
    "placeName": "providence",
    "state": "RI"
  },
  {
    "city": "new ipswich",
    "state_code": "NH",
    "placeMasterId": "P02500000FsoIBy5ueXe8SAD0hhSqrRTEmSxMYEC",
    "placeName": "new ipswich",
    "state": "NH"
  },
  {
    "city": "lyndeborough",
    "state_code": "NH",
    "placeMasterId": "P02500000FsoIBgOxRkUZ4xif64m12Suff3tQb8K",
    "placeName": "lyndeborough",
    "state": "NH"
  },
  {
    "city": "bedford",
    "state_code": "NH",
    "placeMasterId": "P02500000FsoIBFrWdYlD19z8gdjlIzgxTSNzpTk",
    "placeName": "bedford",
    "state": "NH"
  },
  {
    "city": "franklin",
    "state_code": "NH",
    "placeMasterId": "P02500000FsoFuqzh7UoUu39g7boWkyJv5EEBULR",
    "placeName": "franklin",
    "state": "NH"
  },
  {
    "city": "suncook",
    "state_code": "NH",
    "placeMasterId": "P02500000FsoFv8geKHy4HFe1jEVMZx2gtk0h5jN",
    "placeName": "suncook",
    "state": "NH"
  },
  {
    "city": "randolph",
    "state_code": "NH",
    "placeMasterId": "P02500000FsoIBy5ueXe8SAD0hhSqrRgXK9Nba2S",
    "placeName": "randolph",
    "state": "NH"
  },
  {
    "city": "newfields",
    "state_code": "NH",
    "placeMasterId": "P02500000FsoIBy5ueXe8SAD0hhSqrRWyDoUFL1Q",
    "placeName": "newfields",
    "state": "NH"
  },
  {
    "city": "somersworth",
    "state_code": "NH",
    "placeMasterId": "P02500000FsoFv8geKHy4HFe1jEVMZx1coacfpoX",
    "placeName": "somersworth",
    "state": "NH"
  },
  {
    "city": "brownfield",
    "state_code": "ME",
    "placeMasterId": "P02500000FsoHerj8iZjx2nQaJJJtTnQdT6gp4J6",
    "placeName": "brownfield",
    "state": "ME"
  },
  {
    "city": "sanford",
    "state_code": "ME",
    "placeMasterId": "P02500000FsoHGBIXMzt6As5RJpYar3KBpCXpo7v",
    "placeName": "sanford",
    "state": "ME"
  },
  {
    "city": "norway",
    "state_code": "ME",
    "placeMasterId": "P02500000FsoHATRRF8nggqITBLjsPSOhhZi3LeB",
    "placeName": "norway",
    "state": "ME"
  },
  {
    "city": "exeter",
    "state_code": "ME",
    "placeMasterId": "P02500000FsoHfR738A35nCPHWYhZ7kpF6HR1MXi",
    "placeName": "exeter",
    "state": "ME"
  },
  {
    "city": "monson",
    "state_code": "ME",
    "placeMasterId": "P02500000FsoHfreTwLmRr08nvzjorE5GckwNfCQ",
    "placeName": "monson",
    "state": "ME"
  },
  {
    "city": "stetson",
    "state_code": "ME",
    "placeMasterId": "P02500000FsoHgR2OLw5abP7V9F7UVBWzOlnrXNw",
    "placeName": "stetson",
    "state": "ME"
  },
  {
    "city": "gouldsboro",
    "state_code": "ME",
    "placeMasterId": "P02500000FsoHfR738A35nCPHWYhZ7kvcLeLW1vf",
    "placeName": "gouldsboro",
    "state": "ME"
  },
  {
    "city": "bethel",
    "state_code": "VT",
    "placeMasterId": "P02500000FsoIeMWvgQVPBhugaID1AvNsYz8pXyS",
    "placeName": "bethel",
    "state": "VT"
  },
  {
    "city": "bridgewater",
    "state_code": "VT",
    "placeMasterId": "P02500000FsoIeMWvgQVPBhugaID1AvOo3CzNYXQ",
    "placeName": "bridgewater",
    "state": "VT"
  },
  {
    "city": "strafford",
    "state_code": "VT",
    "placeMasterId": "P02500000FsoIfMSGuCXtzucuCycwYM0DahySmLh",
    "placeName": "strafford",
    "state": "VT"
  },
  {
    "city": "bellows falls",
    "state_code": "VT",
    "placeMasterId": "P02500000FsoGuCx0Tx0AMMObamMEXc6fTUHpfO3",
    "placeName": "bellows falls",
    "state": "VT"
  },
  {
    "city": "cavendish",
    "state_code": "VT",
    "placeMasterId": "P02500000FsoIeVNPHp5BsJ9rO6YR5PnafZUAJII",
    "placeName": "cavendish",
    "state": "VT"
  },
  {
    "city": "ludlow",
    "state_code": "VT",
    "placeMasterId": "P02500000FsoHEBRqvRo6YSf04Sik6BtOwORzdfR",
    "placeName": "ludlow",
    "state": "VT"
  },
  {
    "city": "peru",
    "state_code": "VT",
    "placeMasterId": "P02500000FsoIf4lJhPOKci8YbLw6jNHMWKS8Q8t",
    "placeName": "peru",
    "state": "VT"
  },
  {
    "city": "springfield",
    "state_code": "VT",
    "placeMasterId": "P02500000FsoHEBRqvRo6YSf04Sik6ByuvRzbkb4",
    "placeName": "springfield",
    "state": "VT"
  },
  {
    "city": "jamaica",
    "state_code": "VT",
    "placeMasterId": "P02500000FsoIen4MUcElFVeCzjFGuOWtDcfh3Bv",
    "placeName": "jamaica",
    "state": "VT"
  },
  {
    "city": "newfane",
    "state_code": "VT",
    "placeMasterId": "P02500000FsoHEBRqvRo6YSf04Sik6BuCpJwQBij",
    "placeName": "newfane",
    "state": "VT"
  },
  {
    "city": "stamford",
    "state_code": "VT",
    "placeMasterId": "P02500000FsoIfDbnIny7JJNjPAHWdrdQ1vcyP95",
    "placeName": "stamford",
    "state": "VT"
  },
  {
    "city": "vernon",
    "state_code": "VT",
    "placeMasterId": "P02500000FsoIfMSGuCXtzucuCycwYLyT3LMSod5",
    "placeName": "vernon",
    "state": "VT"
  },
  {
    "city": "bakersfield",
    "state_code": "VT",
    "placeMasterId": "P02500000FsoIeDgS51vcV6fVmTrbGR43RzcNmbr",
    "placeName": "bakersfield",
    "state": "VT"
  },
  {
    "city": "wolcott",
    "state_code": "VT",
    "placeMasterId": "P02500000FsoIfVIkVb7ggVs50myMSqLSkzJPOpx",
    "placeName": "wolcott",
    "state": "VT"
  },
  {
    "city": "hardwick",
    "state_code": "VT",
    "placeMasterId": "P02500000FsoIen4MUcElFVeCzjFGuOUULewM3xa",
    "placeName": "hardwick",
    "state": "VT"
  },
  {
    "city": "colebrook",
    "state_code": "CT",
    "placeMasterId": "P02500000FsoHGK90yOSsrTKc7du0lXWv1pU594g",
    "placeName": "colebrook",
    "state": "CT"
  },
  {
    "city": "hartford",
    "state_code": "CT",
    "placeMasterId": "P02500000FsoEp4wtcCeUWhtuUtj0yHnuNbUVDLP",
    "placeName": "hartford",
    "state": "CT"
  },
  {
    "city": "west hartford",
    "state_code": "CT",
    "placeMasterId": "P02500000FsoEpeKo1mxdH6sbi96gcFFUCHGLcEM",
    "placeName": "west hartford",
    "state": "CT"
  },
  {
    "city": "thompson",
    "state_code": "CT",
    "placeMasterId": "P02500000FsoHGtWvNym1bsJJKtHgPUvb29lZXfH",
    "placeName": "thompson",
    "state": "CT"
  },
  {
    "city": "essex",
    "state_code": "CT",
    "placeMasterId": "P02500000FsoHGSzUZn2fY4ZmvSFQg1vNktgUHn3",
    "placeName": "essex",
    "state": "CT"
  },
  {
    "city": "stratford",
    "state_code": "CT",
    "placeMasterId": "P02500000FsoH9lD3E9ulFq4bAI0mr0YO09llcnz",
    "placeName": "stratford",
    "state": "CT"
  },
  {
    "city": "danbury",
    "state_code": "CT",
    "placeMasterId": "P02500000FsoEp4wtcCeUWhtuUtj0yHppECnn3Z3",
    "placeName": "danbury",
    "state": "CT"
  },
  {
    "city": "cedar grove",
    "state_code": "NJ",
    "placeMasterId": "P02500000FsoICOdLSjNUVxwX78V6augBXcmhWyI",
    "placeName": "cedar grove",
    "state": "NJ"
  },
  {
    "city": "garfield",
    "state_code": "NJ",
    "placeMasterId": "P02500000FsoFw8bzY40Z5SMFLuvHxNYABgOmguI",
    "placeName": "garfield",
    "state": "NJ"
  },
  {
    "city": "maplewood",
    "state_code": "NJ",
    "placeMasterId": "P02500000FsoICy1FsJgdGMvEKNsmEsGnA7T5P0S",
    "placeName": "maplewood",
    "state": "NJ"
  },
  {
    "city": "north bergen",
    "state_code": "NJ",
    "placeMasterId": "P02500000FsoIDFiD56qCdZPZw0Zc3qrxrtK1R4q",
    "placeName": "north bergen",
    "state": "NJ"
  },
  {
    "city": "mountainside",
    "state_code": "NJ",
    "placeMasterId": "P02500000FsoFwqqNZ2tUWSa7MyeNVpSvfisQI53",
    "placeName": "mountainside",
    "state": "NJ"
  },
  {
    "city": "elizabeth",
    "state_code": "NJ",
    "placeMasterId": "P02500000FsoFvqv2LGqziFrtkIES8OmzLJRmyou",
    "placeName": "elizabeth",
    "state": "NJ"
  },
  {
    "city": "hasbrouck heights",
    "state_code": "NJ",
    "placeMasterId": "P02500000FsoFwHST9SaLm3bQ9jGhrrxkTNWUaCF",
    "placeName": "hasbrouck heights",
    "state": "NJ"
  },
  {
    "city": "ridgefield",
    "state_code": "NJ",
    "placeMasterId": "P02500000FsoFxHNoNEcqaGJdmPgdFIf3wwsdcq5",
    "placeName": "ridgefield",
    "state": "NJ"
  },
  {
    "city": "oceanport",
    "state_code": "NJ",
    "placeMasterId": "P02500000FsoFx8XKlq33tf4SybLDKoD2Xf7kKzr",
    "placeName": "oceanport",
    "state": "NJ"
  },
  {
    "city": "west long branch",
    "state_code": "NJ",
    "placeMasterId": "P02500000FsoFxzcCODVm1GXVnTPinkNSOOd13wW",
    "placeName": "west long branch",
    "state": "NJ"
  },
  {
    "city": "denville",
    "state_code": "NJ",
    "placeMasterId": "P02500000FsoICXTp47xHCZBhuwqWVP6cD4oa16N",
    "placeName": "denville",
    "state": "NJ"
  },
  {
    "city": "hammonton",
    "state_code": "NJ",
    "placeMasterId": "P02500000FsoFw8bzY40Z5SMFLuvHxNbTLW3cboO",
    "placeName": "hammonton",
    "state": "NJ"
  },
  {
    "city": "lumberton",
    "state_code": "NJ",
    "placeMasterId": "P02500000FsoICy1FsJgdGMvEKNsmEsAhyKR9BHy",
    "placeName": "lumberton",
    "state": "NJ"
  },
  {
    "city": "quinton",
    "state_code": "NJ",
    "placeMasterId": "P02500000FsoFxQEHydCdGrYoaE239mrm6fOxHBo",
    "placeName": "quinton",
    "state": "NJ"
  },
  {
    "city": "woodbury",
    "state_code": "NJ",
    "placeMasterId": "P02500000FsoFy8Sfzc5YhrmgbHl8iEikufHhaDL",
    "placeName": "woodbury",
    "state": "NJ"
  },
  {
    "city": "merchantville",
    "state_code": "NJ",
    "placeMasterId": "P02500000FsoFwqqNZ2tUWSa7MyeNVpRWCof57Ho",
    "placeName": "merchantville",
    "state": "NJ"
  },
  {
    "city": "cape may",
    "state_code": "NJ",
    "placeMasterId": "P02500000FsoFvZE58ThQL3NY8fXcJQ4shCJo62q",
    "placeName": "cape may",
    "state": "NJ"
  },
  {
    "city": "cape may point",
    "state_code": "NJ",
    "placeMasterId": "P02500000FsoFvZE58ThQL3NY8fXcJQ7hT0rPmZt",
    "placeName": "cape may point",
    "state": "NJ"
  },
  {
    "city": "shiloh",
    "state_code": "NJ",
    "placeMasterId": "P02500000FsoFxhvFBQMCe43ABqisyld4oMpp400",
    "placeName": "shiloh",
    "state": "NJ"
  },
  {
    "city": "vineland",
    "state_code": "NJ",
    "placeMasterId": "P02500000FsoFxqlimovzKfIKzf4ItGC6HRfEZFI",
    "placeName": "vineland",
    "state": "NJ"
  },
  {
    "city": "kingston",
    "state_code": "NJ",
    "placeMasterId": "P02500000FsoFwQIwkrA8SeqaxXc7mMLNm8hBRaV",
    "placeName": "kingston",
    "state": "NJ"
  },
  {
    "city": "lambertville",
    "state_code": "NJ",
    "placeMasterId": "P02500000FsoFwZ9QMFjv9G5llLxXgqhMRLsq0DT",
    "placeName": "lambertville",
    "state": "NJ"
  },
  {
    "city": "sayreville",
    "state_code": "NJ",
    "placeMasterId": "P02500000FsoFxQEHydCdGrYoaE239n1B8xSA2AS",
    "placeName": "sayreville",
    "state": "NJ"
  },
  {
    "city": "new york",
    "state_code": "NY",
    "placeMasterId": "P02500000FsoG3hTIW4bBVIKTvxERFLPbpMNP8u9",
    "placeName": "new york",
    "state": "NY"
  },
  {
    "city": "new york",
    "state_code": "NY",
    "placeMasterId": "P02500000FsoG3hTIW4bBVIKTvxERFLPbpMNP8u9",
    "placeName": "new york",
    "state": "NY"
  },
  {
    "city": "new rochelle",
    "state_code": "NY",
    "placeMasterId": "P02500000FsoG3qJm7TAyBtZejlZr9pjujTUKZVY",
    "placeName": "new rochelle",
    "state": "NY"
  },
  {
    "city": "blooming grove",
    "state_code": "NY",
    "placeMasterId": "P02500000FsoIDxwb65j84ZdRx4IhcIkDKpaMlgD",
    "placeName": "blooming grove",
    "state": "NY"
  },
  {
    "city": "elmont",
    "state_code": "NY",
    "placeMasterId": "P02500000FsoG28A2siFXwgdZ61QqDxCDfrKDE4D",
    "placeName": "elmont",
    "state": "NY"
  },
  {
    "city": "garden city",
    "state_code": "NY",
    "placeMasterId": "P02500000FsoG2H0WU6pKdHsjtpmG8RezkZhznNb",
    "placeName": "garden city",
    "state": "NY"
  },
  {
    "city": "lynbrook",
    "state_code": "NY",
    "placeMasterId": "P02500000FsoG3GvrhsrpRUaxWWCBVsMntA1RzCv",
    "placeName": "lynbrook",
    "state": "NY"
  },
  {
    "city": "roslyn",
    "state_code": "NY",
    "placeMasterId": "P02500000FsoG4YYA8S3tctnWkpIwiHahMBb6Wxr",
    "placeName": "roslyn",
    "state": "NY"
  },
  {
    "city": "sea cliff",
    "state_code": "NY",
    "placeMasterId": "P02500000FsoG4qF7LFDT06HsMRzmXGD34BsW6I3",
    "placeName": "sea cliff",
    "state": "NY"
  },
  {
    "city": "copiague",
    "state_code": "NY",
    "placeMasterId": "P02500000FsoG1hcc4WWBssu2gaOaUU1mK9nVblC",
    "placeName": "copiague",
    "state": "NY"
  },
  {
    "city": "farmingville",
    "state_code": "NY",
    "placeMasterId": "P02500000FsoG28A2siFXwgdZ61QqDxBylH9EFKO",
    "placeName": "farmingville",
    "state": "NY"
  },
  {
    "city": "islip terrace",
    "state_code": "NY",
    "placeMasterId": "P02500000FsoG2zEuV5iG4I6butVLgtNnwJsTOTb",
    "placeName": "islip terrace",
    "state": "NY"
  },
  {
    "city": "sayville",
    "state_code": "NY",
    "placeMasterId": "P02500000FsoG4hOdjqdgJV2hYdeMcm08mCumvDU",
    "placeName": "sayville",
    "state": "NY"
  },
  {
    "city": "selden",
    "state_code": "NY",
    "placeMasterId": "P02500000FsoG4qF7LFDT06HsMRzmXGHSV2iCZOf",
    "placeName": "selden",
    "state": "NY"
  },
  {
    "city": "shoreham",
    "state_code": "NY",
    "placeMasterId": "P02500000FsoG4qF7LFDT06HsMRzmXGOe7jxi8JX",
    "placeName": "shoreham",
    "state": "NY"
  },
  {
    "city": "old bethpage",
    "state_code": "NY",
    "placeMasterId": "P02500000FsoG480jKGKXZ640LOGgyoNdEvRHlMg",
    "placeName": "old bethpage",
    "state": "NY"
  },
  {
    "city": "sagaponack",
    "state_code": "NY",
    "placeMasterId": "P02500000FsoG4hOdjqdgJV2hYdeMclowKizJhQu",
    "placeName": "sagaponack",
    "state": "NY"
  },
  {
    "city": "maryland",
    "state_code": "NY",
    "placeMasterId": "P02500000FsoIFg6KKqeYJmZXaoRiYB95JODSwS1",
    "placeName": "maryland",
    "state": "NY"
  },
  {
    "city": "mechanicville",
    "state_code": "NY",
    "placeMasterId": "P02500000FsoG3Ycoug1Ooh5J88t1Kqw3IHl1vMo",
    "placeName": "mechanicville",
    "state": "NY"
  },
  {
    "city": "albany",
    "state_code": "NY",
    "placeMasterId": "P02500000FsoG0qXkS93TlHQzriK51XlWeUkwFLA",
    "placeName": "albany",
    "state": "NY"
  },
  {
    "city": "schenectady",
    "state_code": "NY",
    "placeMasterId": "P02500000FsoG4hOdjqdgJV2hYdeMcm1RzdPFAPT",
    "placeName": "schenectady",
    "state": "NY"
  },
  {
    "city": "saugerties",
    "state_code": "NY",
    "placeMasterId": "P02500000FsoHDTDSuSvB7SR83OzeXkBYObyWryx",
    "placeName": "saugerties",
    "state": "NY"
  },
  {
    "city": "tivoli",
    "state_code": "NY",
    "placeMasterId": "P02500000FsoG5GmY9Qwp3u1Olt22GjQIuzGXZWn",
    "placeName": "tivoli",
    "state": "NY"
  },
  {
    "city": "monticello",
    "state_code": "NY",
    "placeMasterId": "P02500000FsoG3hTIW4bBVIKTvxERFLDHpQkTJjo",
    "placeName": "monticello",
    "state": "NY"
  },
  {
    "city": "argyle",
    "state_code": "NY",
    "placeMasterId": "P02500000FsoHDTDSuSvB7SR83OzeXkFCFcqU50V",
    "placeName": "argyle",
    "state": "NY"
  },
  {
    "city": "malone",
    "state_code": "NY",
    "placeMasterId": "P02500000FsoHCKRe5IItceTjcuEJFpCUx3CW6CU",
    "placeName": "malone",
    "state": "NY"
  },
  {
    "city": "cayuga",
    "state_code": "NY",
    "placeMasterId": "P02500000FsoG1PverjMcVgPh4xhkfVGaaU9SVCk",
    "placeName": "cayuga",
    "state": "NY"
  },
  {
    "city": "cincinnatus",
    "state_code": "NY",
    "placeMasterId": "P02500000FsoIEFdYIsshRm7nYgzXRHZY8nplPpM",
    "placeName": "cincinnatus",
    "state": "NY"
  },
  {
    "city": "pulaski",
    "state_code": "NY",
    "placeMasterId": "P02500000FsoG4YYA8S3tctnWkpIwiHSC45WIca0",
    "placeName": "pulaski",
    "state": "NY"
  },
  {
    "city": "eaton",
    "state_code": "NY",
    "placeMasterId": "P02500000FsoIEXKVVg2Goyc9AJgNGGL3AwyTufr",
    "placeName": "eaton",
    "state": "NY"
  },
  {
    "city": "forestport",
    "state_code": "NY",
    "placeMasterId": "P02500000FsoIEp1SiTBqCB6UlwND5EtfsDyU9uv",
    "placeName": "forestport",
    "state": "NY"
  },
  {
    "city": "smyrna",
    "state_code": "NY",
    "placeMasterId": "P02500000FsoHC2kgsV9KFRzO1HXTQqLxqykLKNY",
    "placeName": "smyrna",
    "state": "NY"
  },
  {
    "city": "whitesboro",
    "state_code": "NY",
    "placeMasterId": "P02500000FsoG5hJyxcgB7hkvBK4I0CV3M2tpmZR",
    "placeName": "whitesboro",
    "state": "NY"
  },
  {
    "city": "williamstown",
    "state_code": "NY",
    "placeMasterId": "P02500000FsoIHFPZyD0BsOGSQkFJZZRvcNEFZHP",
    "placeName": "williamstown",
    "state": "NY"
  },
  {
    "city": "apalachin",
    "state_code": "NY",
    "placeMasterId": "P02500000FsoG0qXkS93TlHQzriK51XrNgklfwgv",
    "placeName": "apalachin",
    "state": "NY"
  },
  {
    "city": "bainbridge",
    "state_code": "NY",
    "placeMasterId": "P02500000FsoHC2kgsV9KFRzO1HXTQqTs13mALQe",
    "placeName": "bainbridge",
    "state": "NY"
  },
  {
    "city": "conklin",
    "state_code": "NY",
    "placeMasterId": "P02500000FsoIEOU1uHSU8NMyMVKxLlrXqJMJEj7",
    "placeName": "conklin",
    "state": "NY"
  },
  {
    "city": "binghamton",
    "state_code": "NY",
    "placeMasterId": "P02500000FsoG0zOE3XdGRsgAfWfUw2HIWCT02ES",
    "placeName": "binghamton",
    "state": "NY"
  },
  {
    "city": "olcott",
    "state_code": "NY",
    "placeMasterId": "P02500000FsoG480jKGKXZ640LOGgyoMFgeNv1vA",
    "placeName": "olcott",
    "state": "NY"
  },
  {
    "city": "le roy",
    "state_code": "NY",
    "placeMasterId": "P02500000FsoHCKRe5IItceTjcuEJFpGxB4eHjGd",
    "placeName": "le roy",
    "state": "NY"
  },
  {
    "city": "sinclairville",
    "state_code": "NY",
    "placeMasterId": "P02500000FsoG4z5awdnFghX3AGLCRkhSkHCP8PI",
    "placeName": "sinclairville",
    "state": "NY"
  },
  {
    "city": "canisteo",
    "state_code": "NY",
    "placeMasterId": "P02500000FsoHDTDSuSvB7SR83OzeXk2QFpQzKPB",
    "placeName": "canisteo",
    "state": "NY"
  },
  {
    "city": "hector",
    "state_code": "NY",
    "placeMasterId": "P02500000FsoIFFYtWevCFyq1BNPSoi1KRVyPI0o",
    "placeName": "hector",
    "state": "NY"
  },
  {
    "city": "hunt",
    "state_code": "NY",
    "placeMasterId": "P02500000FsoG2qOQth8TNgrR759vmP59ju2O49A",
    "placeName": "hunt",
    "state": "NY"
  },
  {
    "city": "elmira",
    "state_code": "NY",
    "placeMasterId": "P02500000FsoG28A2siFXwgdZ61QqDxAMojeC91P",
    "placeName": "elmira",
    "state": "NY"
  },
  {
    "city": "sturgeon",
    "state_code": "PA",
    "placeMasterId": "P02500000FsoGZNNIQ4jW2efAIDvDW5fs5JqX9dd",
    "placeName": "sturgeon",
    "state": "PA"
  },
  {
    "city": "pittsburgh",
    "state_code": "PA",
    "placeMasterId": "P02500000FsoGXfDZBJo5nRj4eTmCaDENhHWAB15",
    "placeName": "pittsburgh",
    "state": "PA"
  },
  {
    "city": "pittsburgh",
    "state_code": "PA",
    "placeMasterId": "P02500000FsoGXfDZBJo5nRj4eTmCaDENhHWAB15",
    "placeName": "pittsburgh",
    "state": "PA"
  },
  {
    "city": "pittsburgh",
    "state_code": "PA",
    "placeMasterId": "P02500000FsoGXfDZBJo5nRj4eTmCaDENhHWAB15",
    "placeName": "pittsburgh",
    "state": "PA"
  },
  {
    "city": "pittsburgh",
    "state_code": "PA",
    "placeMasterId": "P02500000FsoGXfDZBJo5nRj4eTmCaDENhHWAB15",
    "placeName": "pittsburgh",
    "state": "PA"
  },
  {
    "city": "pittsburgh",
    "state_code": "PA",
    "placeMasterId": "P02500000FsoGXfDZBJo5nRj4eTmCaDENhHWAB15",
    "placeName": "pittsburgh",
    "state": "PA"
  },
  {
    "city": "mount morris",
    "state_code": "PA",
    "placeMasterId": "P02500000FsoGWWRkM9BoIdlgDz0rIIL7VDLg1s0",
    "placeName": "mount morris",
    "state": "PA"
  },
  {
    "city": "rices landing",
    "state_code": "PA",
    "placeMasterId": "P02500000FsoGY5kzzVXRrFSb3uoSJgOJO4KoqVI",
    "placeName": "rices landing",
    "state": "PA"
  },
  {
    "city": "new alexandria",
    "state_code": "PA",
    "placeMasterId": "P02500000FsoGWfIDxXlazF0r1nMHCmphr56z6zj",
    "placeName": "new alexandria",
    "state": "PA"
  },
  {
    "city": "coral",
    "state_code": "PA",
    "placeMasterId": "P02500000FsoGSF3QGFsFgcQS7ceJxbH34cwDktu",
    "placeName": "coral",
    "state": "PA"
  },
  {
    "city": "johnsonburg",
    "state_code": "PA",
    "placeMasterId": "P02500000FsoGUx8UimqAk24lO3DGGu9F4o3aGrs",
    "placeName": "johnsonburg",
    "state": "PA"
  },
  {
    "city": "summerville",
    "state_code": "PA",
    "placeMasterId": "P02500000FsoGZNNIQ4jW2efAIDvDW5pWdoagLKi",
    "placeName": "summerville",
    "state": "PA"
  },
  {
    "city": "troutville",
    "state_code": "PA",
    "placeMasterId": "P02500000FsoGZnujEGSs6SOghexTFYqdiLMRY1x",
    "placeName": "troutville",
    "state": "PA"
  },
  {
    "city": "new florence",
    "state_code": "PA",
    "placeMasterId": "P02500000FsoGWo8hYwLNfqG1pbhh7H59iIUgbGi",
    "placeName": "new florence",
    "state": "PA"
  },
  {
    "city": "south fork",
    "state_code": "PA",
    "placeMasterId": "P02500000FsoGZ5gLDHZwfSAogbENh6zlvflCG3N",
    "placeName": "south fork",
    "state": "PA"
  },
  {
    "city": "forestville",
    "state_code": "PA",
    "placeMasterId": "P02500000FsoGTNpF5QUXBQNqY7PfFWE9DIwvZxB",
    "placeName": "forestville",
    "state": "PA"
  },
  {
    "city": "new wilmington",
    "state_code": "PA",
    "placeMasterId": "P02500000FsoGWwzBAKvAMRVCdQ371lTis1xPZll",
    "placeName": "new wilmington",
    "state": "PA"
  },
  {
    "city": "callensburg",
    "state_code": "PA",
    "placeMasterId": "P02500000FsoGRffVqfZ6wDRkuNGeJdlAQRw8qbJ",
    "placeName": "callensburg",
    "state": "PA"
  },
  {
    "city": "vowinckel",
    "state_code": "PA",
    "placeMasterId": "P02500000FsoGa5bgR3cRTet2JHeJ4XXEzd9eykX",
    "placeName": "vowinckel",
    "state": "PA"
  },
  {
    "city": "oil city",
    "state_code": "PA",
    "placeMasterId": "P02500000FsoGXEg8N84jjdzYF2jwqkFdwZHm3Dr",
    "placeName": "oil city",
    "state": "PA"
  },
  {
    "city": "townville",
    "state_code": "PA",
    "placeMasterId": "P02500000FsoGZnujEGSs6SOghexTFYkv3u5KLln",
    "placeName": "townville",
    "state": "PA"
  },
  {
    "city": "erie",
    "state_code": "PA",
    "placeMasterId": "P02500000FsoGT68HsdKxoDtUwUipQXb9IbBAKWB",
    "placeName": "erie",
    "state": "PA"
  },
  {
    "city": "thompsontown",
    "state_code": "PA",
    "placeMasterId": "P02500000FsoGZf4Fcrt5Pr9Vtqc3L4NrdMaSaMr",
    "placeName": "thompsontown",
    "state": "PA"
  },
  {
    "city": "harrisburg",
    "state_code": "PA",
    "placeMasterId": "P02500000FsoGU63d6PNScQbiZB8kny65f71GTm1",
    "placeName": "harrisburg",
    "state": "PA"
  },
  {
    "city": "newville",
    "state_code": "PA",
    "placeMasterId": "P02500000FsoGWwzBAKvAMRVCdQ371lOOzYo5iTz",
    "placeName": "newville",
    "state": "PA"
  },
  {
    "city": "orrstown",
    "state_code": "PA",
    "placeMasterId": "P02500000FsoGXEg8N84jjdzYF2jwqk9RmfddMi7",
    "placeName": "orrstown",
    "state": "PA"
  },
  {
    "city": "danville",
    "state_code": "PA",
    "placeMasterId": "P02500000FsoGSWkNT31p3ounjFL9mZqApY6Jsgi",
    "placeName": "danville",
    "state": "PA"
  },
  {
    "city": "shamokin dam",
    "state_code": "PA",
    "placeMasterId": "P02500000FsoGYf8uP5qabeRIHAC7xe44d1dvsWm",
    "placeName": "shamokin dam",
    "state": "PA"
  },
  {
    "city": "hellertown",
    "state_code": "PA",
    "placeMasterId": "P02500000FsoGUNkaJCX1zd64Anpacwj6DZfgT9D",
    "placeName": "hellertown",
    "state": "PA"
  },
  {
    "city": "portland",
    "state_code": "PA",
    "placeMasterId": "P02500000FsoGXo42miNsU2yFSI7cUhegVmgJVVF",
    "placeName": "portland",
    "state": "PA"
  },
  {
    "city": "saylorsburg",
    "state_code": "PA",
    "placeMasterId": "P02500000FsoGYWIQnhGnv3C7TLqi39b7geEoAWV",
    "placeName": "saylorsburg",
    "state": "PA"
  },
  {
    "city": "scranton",
    "state_code": "PA",
    "placeMasterId": "P02500000FsoGYf8uP5qabeRIHAC7xdsDcRUIZct",
    "placeName": "scranton",
    "state": "PA"
  },
  {
    "city": "scranton",
    "state_code": "PA",
    "placeMasterId": "P02500000FsoGYf8uP5qabeRIHAC7xdsDcRUIZct",
    "placeName": "scranton",
    "state": "PA"
  },
  {
    "city": "laceyville",
    "state_code": "PA",
    "placeMasterId": "P02500000FsoGV5yyKBPxQdJwBrYgBOaBpna1zUF",
    "placeName": "laceyville",
    "state": "PA"
  },
  {
    "city": "chester",
    "state_code": "PA",
    "placeMasterId": "P02500000FsoGRxMT3SigJPw6VzxU8cRUZnKXkNF",
    "placeName": "chester",
    "state": "PA"
  },
  {
    "city": "levittown",
    "state_code": "PA",
    "placeMasterId": "P02500000FsoGVNfvWyZWnpoHnUFW0NRrtrt0V7d",
    "placeName": "levittown",
    "state": "PA"
  },
  {
    "city": "philadelphia",
    "state_code": "PA",
    "placeMasterId": "P02500000FsoGXWN5ZvEJ6qTtqfQmfiyVODy6MPW",
    "placeName": "philadelphia",
    "state": "PA"
  },
  {
    "city": "philadelphia",
    "state_code": "PA",
    "placeMasterId": "P02500000FsoGXWN5ZvEJ6qTtqfQmfiyVODy6MPW",
    "placeName": "philadelphia",
    "state": "PA"
  },
  {
    "city": "philadelphia",
    "state_code": "PA",
    "placeMasterId": "P02500000FsoGXWN5ZvEJ6qTtqfQmfiyVODy6MPW",
    "placeName": "philadelphia",
    "state": "PA"
  },
  {
    "city": "coatesville",
    "state_code": "PA",
    "placeMasterId": "P02500000FsoGS6CwerIT01BHJoIu36i5xzU794x",
    "placeName": "coatesville",
    "state": "PA"
  },
  {
    "city": "west chester",
    "state_code": "PA",
    "placeMasterId": "P02500000FsoGaESA2SCEAG8D75ziz1ychKV4AcT",
    "placeName": "west chester",
    "state": "PA"
  },
  {
    "city": "bechtelsville",
    "state_code": "PA",
    "placeMasterId": "P02500000FsoGQxR7pggBVDDstJXYlBlm1gJz4GB",
    "placeName": "bechtelsville",
    "state": "PA"
  },
  {
    "city": "reading",
    "state_code": "PA",
    "placeMasterId": "P02500000FsoGY5kzzVXRrFSb3uoSJgIQftycIhP",
    "placeName": "reading",
    "state": "PA"
  },
  {
    "city": "newark",
    "state_code": "DE",
    "placeMasterId": "P02500000FsoEpnBHdBXPxi7mVxS6WjgBdcgmBIC",
    "placeName": "newark",
    "state": "DE"
  },
  {
    "city": "washington",
    "state_code": "DC",
    "placeMasterId": "P02500000FsoEq4sEpygzKuc87a8wLiQYg142PzN",
    "placeName": "washington",
    "state": "DC"
  },
  {
    "city": "washington",
    "state_code": "DC",
    "placeMasterId": "P02500000FsoEq4sEpygzKuc87a8wLiQYg142PzN",
    "placeName": "washington",
    "state": "DC"
  },
  {
    "city": "middleburg",
    "state_code": "VA",
    "placeMasterId": "P02500000FsoGwdL7jgoW2ZYZFaEL1wJQkfSw6AH",
    "placeName": "middleburg",
    "state": "VA"
  },
  {
    "city": "benedict",
    "state_code": "MD",
    "placeMasterId": "P02500000FsoFTSU1JNziyiADrhUHoure4OS2fYG",
    "placeName": "benedict",
    "state": "MD"
  },
  {
    "city": "temple hills",
    "state_code": "MD",
    "placeMasterId": "P02500000FsoFW1icAWNrLWZMKJhoDjn5CuuuRRV",
    "placeName": "temple hills",
    "state": "MD"
  },
  {
    "city": "greenbelt",
    "state_code": "MD",
    "placeMasterId": "P02500000FsoFUbFq8Yc0TW7cICFd6prPynw6807",
    "placeName": "greenbelt",
    "state": "MD"
  },
  {
    "city": "barnesville",
    "state_code": "MD",
    "placeMasterId": "P02500000FsoFTSU1JNziyiADrhUHouuPbRkfC4e",
    "placeName": "barnesville",
    "state": "MD"
  },
  {
    "city": "elkridge",
    "state_code": "MD",
    "placeMasterId": "P02500000FsoFUAiPKMsePiO5slDNNMjHw94Jr8r",
    "placeName": "elkridge",
    "state": "MD"
  },
  {
    "city": "middle river",
    "state_code": "MD",
    "placeMasterId": "P02500000FsoFVAdkY8v9Dv6JVRdIknR5uPCgc88",
    "placeName": "middle river",
    "state": "MD"
  },
  {
    "city": "baltimore",
    "state_code": "MD",
    "placeMasterId": "P02500000FsoFTSU1JNziyiADrhUHous91WaBH4V",
    "placeName": "baltimore",
    "state": "MD"
  },
  {
    "city": "irvington",
    "state_code": "VA",
    "placeMasterId": "P02500000FsoGw3xDK6VNIAZs2KqfNyrE38NUYwg",
    "placeName": "irvington",
    "state": "VA"
  },
  {
    "city": "newburg",
    "state_code": "ND",
    "placeMasterId": "P02500000FsoGBpiVtfUwfXHPjEvGBGQNPr20uvd",
    "placeName": "newburg",
    "state": "ND"
  },
  {
    "city": "parshall",
    "state_code": "ND",
    "placeMasterId": "P02500000FsoGByYzV44jM8WaX3Gg5kkwtU1NigL",
    "placeName": "parshall",
    "state": "ND"
  },
  {
    "city": "ryder",
    "state_code": "ND",
    "placeMasterId": "P02500000FsoGC7PT6SeW2jllKrc60F8ZPg5qgww",
    "placeName": "ryder",
    "state": "ND"
  },
  {
    "city": "great falls",
    "state_code": "MT",
    "placeMasterId": "P02500000FsoFpQpYCQsenDr3akge8M8h0VjVnGM",
    "placeName": "great falls",
    "state": "MT"
  },
  {
    "city": "roy",
    "state_code": "MT",
    "placeMasterId": "P02500000FsoFqHuPooLMupK6Pcl9bIHlrjdBAy1",
    "placeName": "roy",
    "state": "MT"
  },
  {
    "city": "winifred",
    "state_code": "MT",
    "placeMasterId": "P02500000FsoFqiRqd04iyd3cp3nPKlcUUbDKsgJ",
    "placeName": "winifred",
    "state": "MT"
  },
  {
    "city": "noxon",
    "state_code": "MT",
    "placeMasterId": "P02500000FsoFprMz0cc0r1aa0BitrpLtJPu8y1U",
    "placeName": "noxon",
    "state": "MT"
  },
  {
    "city": "eureka",
    "state_code": "MT",
    "placeMasterId": "P02500000FsoFpHz4b2Is6cbsmwLEDro1fONhPOO",
    "placeName": "eureka",
    "state": "MT"
  },
  {
    "city": "olney",
    "state_code": "MT",
    "placeMasterId": "P02500000FsoFprMz0cc0r1aa0BitrpL5RTzHVyb",
    "placeName": "olney",
    "state": "MT"
  },
  {
    "city": "mount prospect",
    "state_code": "IL",
    "placeMasterId": "P02500000FsoF63fiONKwIC1e6WpkOZxzWxopwQa",
    "placeName": "mount prospect",
    "state": "IL"
  },
  {
    "city": "ringwood",
    "state_code": "IL",
    "placeMasterId": "P02500000FsoF73b3c9NR6OjrjDFfm0ZgarzhRGT",
    "placeName": "ringwood",
    "state": "IL"
  },
  {
    "city": "skokie",
    "state_code": "IL",
    "placeMasterId": "P02500000FsoF7lpRd8GMXOxjkGylKSQBu71Er3k",
    "placeName": "skokie",
    "state": "IL"
  },
  {
    "city": "franklin park",
    "state_code": "IL",
    "placeMasterId": "P02500000FsoF3dHb8dWabyrgRixduFilgrTui7H",
    "placeName": "franklin park",
    "state": "IL"
  },
  {
    "city": "marengo",
    "state_code": "IL",
    "placeMasterId": "P02500000FsoF5d8HaBbaEOI7h5nUf6qHfExjFn4",
    "placeName": "marengo",
    "state": "IL"
  },
  {
    "city": "schaumburg",
    "state_code": "IL",
    "placeMasterId": "P02500000FsoF7U8UQL6nACTO8eHvVTjBMesvr5n",
    "placeName": "schaumburg",
    "state": "IL"
  },
  {
    "city": "crest hill",
    "state_code": "IL",
    "placeMasterId": "P02500000FsoF2mCjWG3sUNOdcqt8RJSgT0o6P0T",
    "placeName": "crest hill",
    "state": "IL"
  },
  {
    "city": "romeoville",
    "state_code": "IL",
    "placeMasterId": "P02500000FsoF7CRXDXxDmzz2X1b5gUwbn6qbl3r",
    "placeName": "romeoville",
    "state": "IL"
  },
  {
    "city": "verona",
    "state_code": "IL",
    "placeMasterId": "P02500000FsoF8LDM2iZVHnwQxWMQyPyI6ER4kJv",
    "placeName": "verona",
    "state": "IL"
  },
  {
    "city": "aurora",
    "state_code": "IL",
    "placeMasterId": "P02500000FsoF1UaR5groIyC4OXmNEu6g7d0TmeM",
    "placeName": "aurora",
    "state": "IL"
  },
  {
    "city": "chicago",
    "state_code": "IL",
    "placeMasterId": "P02500000FsoF2LfIi4KWQZf7DPqshqNB04VNil1",
    "placeName": "chicago",
    "state": "IL"
  },
  {
    "city": "chicago",
    "state_code": "IL",
    "placeMasterId": "P02500000FsoF2LfIi4KWQZf7DPqshqNB04VNil1",
    "placeName": "chicago",
    "state": "IL"
  },
  {
    "city": "chicago",
    "state_code": "IL",
    "placeMasterId": "P02500000FsoF2LfIi4KWQZf7DPqshqNB04VNil1",
    "placeName": "chicago",
    "state": "IL"
  },
  {
    "city": "campus",
    "state_code": "IL",
    "placeMasterId": "P02500000FsoF2Cop6fkjjyPwPbVSnLy6wCkAaa7",
    "placeName": "campus",
    "state": "IL"
  },
  {
    "city": "kempton",
    "state_code": "IL",
    "placeMasterId": "P02500000FsoF4m3Pxo8s6mp4sDizCAe01fMcQh1",
    "placeName": "kempton",
    "state": "IL"
  },
  {
    "city": "onarga",
    "state_code": "IL",
    "placeMasterId": "P02500000FsoF6d3cnxe52b0LJmDQ2XSOCByRvx7",
    "placeName": "onarga",
    "state": "IL"
  },
  {
    "city": "dakota",
    "state_code": "IL",
    "placeMasterId": "P02500000FsoF2v3D7edfAydoQfEYLnnNKlFB71Z",
    "placeName": "dakota",
    "state": "IL"
  },
  {
    "city": "oregon",
    "state_code": "IL",
    "placeMasterId": "P02500000FsoF6UD9CZ4ILzlAVxs0836zYuPyYnM",
    "placeName": "oregon",
    "state": "IL"
  },
  {
    "city": "south beloit",
    "state_code": "IL",
    "placeMasterId": "P02500000FsoF7lpRd8GMXOxjkGylKST6rRFIWzl",
    "placeName": "south beloit",
    "state": "IL"
  },
  {
    "city": "machesney park",
    "state_code": "IL",
    "placeMasterId": "P02500000FsoF5UHnyn1nXn2wtHS4kcVPqIJSt2J",
    "placeName": "machesney park",
    "state": "IL"
  },
  {
    "city": "hillsdale",
    "state_code": "IL",
    "placeMasterId": "P02500000FsoF4LVz9cPW2z5YSmgjShXY6cIrkZN",
    "placeName": "hillsdale",
    "state": "IL"
  },
  {
    "city": "joy",
    "state_code": "IL",
    "placeMasterId": "P02500000FsoF4m3Pxo8s6mp4sDizCAd0UhmAr9s",
    "placeName": "joy",
    "state": "IL"
  },
  {
    "city": "sherrard",
    "state_code": "IL",
    "placeMasterId": "P02500000FsoF7cyy1jgZqniYwSdLPy6ClLOxrd6",
    "placeName": "sherrard",
    "state": "IL"
  },
  {
    "city": "dalzell",
    "state_code": "IL",
    "placeMasterId": "P02500000FsoF2v3D7edfAydoQfEYLnoVOTgibdB",
    "placeName": "dalzell",
    "state": "IL"
  },
  {
    "city": "alpha",
    "state_code": "IL",
    "placeMasterId": "P02500000FsoF1CtTstiEvlhimv5XPvLvfmi7m85",
    "placeName": "alpha",
    "state": "IL"
  },
  {
    "city": "fairview",
    "state_code": "IL",
    "placeMasterId": "P02500000FsoF3UR7XEwnvNcVducDzlIMVPsvRRq",
    "placeName": "fairview",
    "state": "IL"
  },
  {
    "city": "gladstone",
    "state_code": "IL",
    "placeMasterId": "P02500000FsoF3m84k26NIa6rFXJ3ok47dbN6hyn",
    "placeName": "gladstone",
    "state": "IL"
  },
  {
    "city": "kewanee",
    "state_code": "IL",
    "placeMasterId": "P02500000FsoF4uttZCienO4Fg24P6ezC3qfMHC0",
    "placeName": "kewanee",
    "state": "IL"
  },
  {
    "city": "canton",
    "state_code": "IL",
    "placeMasterId": "P02500000FsoF2Cop6fkjjyPwPbVSnLwzWM2AgNi",
    "placeName": "canton",
    "state": "IL"
  },
  {
    "city": "la rose",
    "state_code": "IL",
    "placeMasterId": "P02500000FsoF53kNAbIRTzJQTqPp19Oxnc28Szz",
    "placeName": "la rose",
    "state": "IL"
  },
  {
    "city": "lewistown",
    "state_code": "IL",
    "placeMasterId": "P02500000FsoF53kNAbIRTzJQTqPp19PVTzjhvq6",
    "placeName": "lewistown",
    "state": "IL"
  },
  {
    "city": "gridley",
    "state_code": "IL",
    "placeMasterId": "P02500000FsoF43p1wpFwfmbCr9ztdim2X6ajroD",
    "placeName": "gridley",
    "state": "IL"
  },
  {
    "city": "saybrook",
    "state_code": "IL",
    "placeMasterId": "P02500000FsoF7cyy1jgZqniYwSdLPy4tt4IPJMz",
    "placeName": "saybrook",
    "state": "IL"
  },
  {
    "city": "weldon",
    "state_code": "IL",
    "placeMasterId": "P02500000FsoF8cuJFVj4f0QmZ93GnOf8tIGupAz",
    "placeName": "weldon",
    "state": "IL"
  },
  {
    "city": "metcalf",
    "state_code": "IL",
    "placeMasterId": "P02500000FsoF5d8HaBbaEOI7h5nUf6uw3yi1qTJ",
    "placeName": "metcalf",
    "state": "IL"
  },
  {
    "city": "alton",
    "state_code": "IL",
    "placeMasterId": "P02500000FsoF1CtTstiEvlhimv5XPvOiydJW6yr",
    "placeName": "alton",
    "state": "IL"
  },
  {
    "city": "benld",
    "state_code": "IL",
    "placeMasterId": "P02500000FsoF1mHOIU1NgAgQ0ATD3spCKwVKcsK",
    "placeName": "benld",
    "state": "IL"
  },
  {
    "city": "new douglas",
    "state_code": "IL",
    "placeMasterId": "P02500000FsoF6CWBzluiynGouLBAJ4LSoYYWbam",
    "placeName": "new douglas",
    "state": "IL"
  },
  {
    "city": "taylor springs",
    "state_code": "IL",
    "placeMasterId": "P02500000FsoF83WOpvPvubS5Ltfb9RCtto1u6IF",
    "placeName": "taylor springs",
    "state": "IL"
  },
  {
    "city": "addieville",
    "state_code": "IL",
    "placeMasterId": "P02500000FsoF1CtTstiEvlhimv5XPvMYAwMYt9u",
    "placeName": "addieville",
    "state": "IL"
  },
  {
    "city": "dupo",
    "state_code": "IL",
    "placeMasterId": "P02500000FsoF33tgj3DRrZszETZyGIAWkTcVqmJ",
    "placeName": "dupo",
    "state": "IL"
  },
  {
    "city": "loraine",
    "state_code": "IL",
    "placeMasterId": "P02500000FsoF5CaqlzsEAaYbHelEvdltEmGnTKL",
    "placeName": "loraine",
    "state": "IL"
  },
  {
    "city": "greenup",
    "state_code": "IL",
    "placeMasterId": "P02500000FsoF3uyYLQg9zBM23LeTjERZ6VVrrod",
    "placeName": "greenup",
    "state": "IL"
  },
  {
    "city": "toledo",
    "state_code": "IL",
    "placeMasterId": "P02500000FsoF8CMsRJzibChG9i113vXHG7i0XGu",
    "placeName": "toledo",
    "state": "IL"
  },
  {
    "city": "emden",
    "state_code": "IL",
    "placeMasterId": "P02500000FsoF3LadvqN1EmNKq6Go5GvwJEgQeCr",
    "placeName": "emden",
    "state": "IL"
  },
  {
    "city": "waverly",
    "state_code": "IL",
    "placeMasterId": "P02500000FsoF8cuJFVj4f0QmZ93GnOg8MkfgBT7",
    "placeName": "waverly",
    "state": "IL"
  },
  {
    "city": "flora",
    "state_code": "IL",
    "placeMasterId": "P02500000FsoF3UR7XEwnvNcVducDzlLfKXSJike",
    "placeName": "flora",
    "state": "IL"
  },
  {
    "city": "keenes",
    "state_code": "IL",
    "placeMasterId": "P02500000FsoF4m3Pxo8s6mp4sDizCAcaVWjJ0Ai",
    "placeName": "keenes",
    "state": "IL"
  },
  {
    "city": "dongola",
    "state_code": "IL",
    "placeMasterId": "P02500000FsoF33tgj3DRrZszETZyGIB0TrKA7Ge",
    "placeName": "dongola",
    "state": "IL"
  },
  {
    "city": "high ridge",
    "state_code": "MO",
    "placeMasterId": "P02500000FsoFl9RE6XZ6BCVpUOK6nf0q3XEv4YC",
    "placeName": "high ridge",
    "state": "MO"
  },
  {
    "city": "kimmswick",
    "state_code": "MO",
    "placeMasterId": "P02500000FsoFlR8BJKifYP0B610wcdn1UfunhbS",
    "placeName": "kimmswick",
    "state": "MO"
  },
  {
    "city": "pevely",
    "state_code": "MO",
    "placeMasterId": "P02500000FsoFn0RQwh4J70h5vwoXe1orIPC89Tr",
    "placeName": "pevely",
    "state": "MO"
  },
  {
    "city": "bowling green",
    "state_code": "MO",
    "placeMasterId": "P02500000FsoFjIR1GO3tFOKZ2ppfxI83DxhhaN1",
    "placeName": "bowling green",
    "state": "MO"
  },
  {
    "city": "eolia",
    "state_code": "MO",
    "placeMasterId": "P02500000FsoFkIMMUA6O3b2mfWFbKiiaUwprjrt",
    "placeName": "eolia",
    "state": "MO"
  },
  {
    "city": "marthasville",
    "state_code": "MO",
    "placeMasterId": "P02500000FsoFm9MZKJbazPE374k2B5cP8DXRtY1",
    "placeName": "marthasville",
    "state": "MO"
  },
  {
    "city": "wright city",
    "state_code": "MO",
    "placeMasterId": "P02500000FsoFoibABRzjMDdBZgxYZuD7gSW3xVp",
    "placeName": "wright city",
    "state": "MO"
  },
  {
    "city": "newark",
    "state_code": "MO",
    "placeMasterId": "P02500000FsoFmR3WX6lAMbiOihQs04RqGz8EAGf",
    "placeName": "newark",
    "state": "MO"
  },
  {
    "city": "marble hill",
    "state_code": "MO",
    "placeMasterId": "P02500000FsoFm9MZKJbazPE374k2B5Zkgo4HzRf",
    "placeName": "marble hill",
    "state": "MO"
  },
  {
    "city": "steele",
    "state_code": "MO",
    "placeMasterId": "P02500000FsoFnrWIZ4X1EcA8kot36y3vBUMTzJU",
    "placeName": "steele",
    "state": "MO"
  },
  {
    "city": "qulin",
    "state_code": "MO",
    "placeMasterId": "P02500000FsoFn9HuY5e5nbwGjl9xYWJ76Yc1IOQ",
    "placeName": "qulin",
    "state": "MO"
  },
  {
    "city": "independence",
    "state_code": "MO",
    "placeMasterId": "P02500000FsoFlIHhhw8srnl0ICfWi9RhRk5k6hJ",
    "placeName": "independence",
    "state": "MO"
  },
  {
    "city": "lone jack",
    "state_code": "MO",
    "placeMasterId": "P02500000FsoFlrfc7WS1cCjhVS3CM701O44QG6M",
    "placeName": "lone jack",
    "state": "MO"
  },
  {
    "city": "kansas city",
    "state_code": "MO",
    "placeMasterId": "P02500000FsoFlR8BJKifYP0B610wcdmJLAheztV",
    "placeName": "kansas city",
    "state": "MO"
  },
  {
    "city": "kansas city",
    "state_code": "MO",
    "placeMasterId": "P02500000FsoFlR8BJKifYP0B610wcdmJLAheztV",
    "placeName": "kansas city",
    "state": "MO"
  },
  {
    "city": "lathrop",
    "state_code": "MO",
    "placeMasterId": "P02500000FsoFlrfc7WS1cCjhVS3CM6p8GGA6rxY",
    "placeName": "lathrop",
    "state": "MO"
  },
  {
    "city": "pickering",
    "state_code": "MO",
    "placeMasterId": "P02500000FsoFn0RQwh4J70h5vwoXe1pjX8finTX",
    "placeName": "pickering",
    "state": "MO"
  },
  {
    "city": "coffey",
    "state_code": "MO",
    "placeMasterId": "P02500000FsoFjrovfyN1znJGG5DLbFas8ZQ1gc7",
    "placeName": "coffey",
    "state": "MO"
  },
  {
    "city": "galt",
    "state_code": "MO",
    "placeMasterId": "P02500000FsoFkitnILpk7OmJ4xHr4Br5PvfiFw6",
    "placeName": "galt",
    "state": "MO"
  },
  {
    "city": "lock springs",
    "state_code": "MO",
    "placeMasterId": "P02500000FsoFlrfc7WS1cCjhVS3CM70uhal2Af0",
    "placeName": "lock springs",
    "state": "MO"
  },
  {
    "city": "amoret",
    "state_code": "MO",
    "placeMasterId": "P02500000FsoFiaCdFPAxoO6h1m6aOqP6RmG84E6",
    "placeName": "amoret",
    "state": "MO"
  },
  {
    "city": "oronogo",
    "state_code": "MO",
    "placeMasterId": "P02500000FsoFmikTjtujjoCkKK7hp37B5s2TNio",
    "placeName": "oronogo",
    "state": "MO"
  },
  {
    "city": "wentworth",
    "state_code": "MO",
    "placeMasterId": "P02500000FsoFoI3jNGGNIPtfAFvIqRDJdc5O52H",
    "placeName": "wentworth",
    "state": "MO"
  },
  {
    "city": "chamois",
    "state_code": "MO",
    "placeMasterId": "P02500000FsoFja7yTBDScaoueSWVmGxicY8Srmc",
    "placeName": "chamois",
    "state": "MO"
  },
  {
    "city": "tuscumbia",
    "state_code": "MO",
    "placeMasterId": "P02500000FsoFo0MmAT6nvDPJYdET1SSwYlvOgw0",
    "placeName": "tuscumbia",
    "state": "MO"
  },
  {
    "city": "boonville",
    "state_code": "MO",
    "placeMasterId": "P02500000FsoFj9aXezU6Yn5OF1UG2noWIeASdEw",
    "placeName": "boonville",
    "state": "MO"
  },
  {
    "city": "lebanon",
    "state_code": "MO",
    "placeMasterId": "P02500000FsoFlrfc7WS1cCjhVS3CM6nQFRkImMn",
    "placeName": "lebanon",
    "state": "MO"
  },
  {
    "city": "summersville",
    "state_code": "MO",
    "placeMasterId": "P02500000FsoFnrWIZ4X1EcA8kot36y1MiIQJ6xp",
    "placeName": "summersville",
    "state": "MO"
  },
  {
    "city": "lockwood",
    "state_code": "MO",
    "placeMasterId": "P02500000FsoFm0W5iv1oInysJGOcGbBlyug0xEs",
    "placeName": "lockwood",
    "state": "MO"
  },
  {
    "city": "miller",
    "state_code": "MO",
    "placeMasterId": "P02500000FsoFm9MZKJbazPE374k2B5gyzf6zpJo",
    "placeName": "miller",
    "state": "MO"
  },
  {
    "city": "preston",
    "state_code": "MO",
    "placeMasterId": "P02500000FsoFn9HuY5e5nbwGjl9xYW9pY5RDmav",
    "placeName": "preston",
    "state": "MO"
  },
  {
    "city": "rantoul",
    "state_code": "KS",
    "placeMasterId": "P02500000FsoFMBJfYAYfw4gKtHryLvwvHUFrR63",
    "placeName": "rantoul",
    "state": "KS"
  },
  {
    "city": "wathena",
    "state_code": "KS",
    "placeMasterId": "P02500000FsoFMkhZxkrogTf26XFdztRjXmOWoeS",
    "placeName": "wathena",
    "state": "KS"
  },
  {
    "city": "fort riley",
    "state_code": "KS",
    "placeMasterId": "P02500000FsoFKBSz6cTgJfFtdv27b4p26nEdWKJ",
    "placeName": "fort riley",
    "state": "KS"
  },
  {
    "city": "topeka",
    "state_code": "KS",
    "placeMasterId": "P02500000FsoFMbr6MMI1zsPrIiuE5P2hY2Q28N9",
    "placeName": "topeka",
    "state": "KS"
  },
  {
    "city": "la harpe",
    "state_code": "KS",
    "placeMasterId": "P02500000FsoFKthN7bMbkfTleylD9WehmX0DEnm",
    "placeName": "la harpe",
    "state": "KS"
  },
  {
    "city": "weir",
    "state_code": "KS",
    "placeMasterId": "P02500000FsoFMkhZxkrogTf26XFdztS0uoBmOcd",
    "placeName": "weir",
    "state": "KS"
  },
  {
    "city": "athol",
    "state_code": "KS",
    "placeMasterId": "P02500000FsoFJBXdsqRBVSXg1EcCDeBDiOtaSm7",
    "placeName": "athol",
    "state": "KS"
  },
  {
    "city": "andover",
    "state_code": "KS",
    "placeMasterId": "P02500000FsoFJ2hAHRrOorIVDQGmJ9qALZzeDsS",
    "placeName": "andover",
    "state": "KS"
  },
  {
    "city": "belle plaine",
    "state_code": "KS",
    "placeMasterId": "P02500000FsoFJKO7UF0yC3mqp2xc88ZuWcby1CY",
    "placeName": "belle plaine",
    "state": "KS"
  },
  {
    "city": "haviland",
    "state_code": "KS",
    "placeMasterId": "P02500000FsoFKc0PuoD2NSzQ3M4NKXq5wCcVW3a",
    "placeName": "haviland",
    "state": "KS"
  },
  {
    "city": "wichita",
    "state_code": "KS",
    "placeMasterId": "P02500000FsoFMtY3Z9RbN4uCuLb3uNnBOyNlFLT",
    "placeName": "wichita",
    "state": "KS"
  },
  {
    "city": "rozel",
    "state_code": "KS",
    "placeMasterId": "P02500000FsoFMBJfYAYfw4gKtHryLw0PLeoZtLA",
    "placeName": "rozel",
    "state": "KS"
  },
  {
    "city": "cedar bluffs",
    "state_code": "NE",
    "placeMasterId": "P02500000FsoFrHpl2aNrj22K2JB4yj5fWBD0tFb",
    "placeName": "cedar bluffs",
    "state": "NE"
  },
  {
    "city": "malmo",
    "state_code": "NE",
    "placeMasterId": "P02500000FsoFsiIX4Y9ib2U44QdG5cjlpCe72JI",
    "placeName": "malmo",
    "state": "NE"
  },
  {
    "city": "crete",
    "state_code": "NE",
    "placeMasterId": "P02500000FsoFrZWiFNXR6EWfdvrunhgb4mYvvEf",
    "placeName": "crete",
    "state": "NE"
  },
  {
    "city": "dunbar",
    "state_code": "NE",
    "placeMasterId": "P02500000FsoFriNBqm7DmplqRkDKiC924N8k7bn",
    "placeName": "dunbar",
    "state": "NE"
  },
  {
    "city": "fairmont",
    "state_code": "NE",
    "placeMasterId": "P02500000FsoFrrDfSAh0TR11FYYkcgaqw7GOkTS",
    "placeName": "fairmont",
    "state": "NE"
  },
  {
    "city": "lincoln",
    "state_code": "NE",
    "placeMasterId": "P02500000FsoFsZS3T9ZvuREtGcHqB8DyQVvTvuI",
    "placeName": "lincoln",
    "state": "NE"
  },
  {
    "city": "brainard",
    "state_code": "NE",
    "placeMasterId": "P02500000FsoFr8zHRBo52Qn9EUpf4Ei7io375KB",
    "placeName": "brainard",
    "state": "NE"
  },
  {
    "city": "bloomfield",
    "state_code": "NE",
    "placeMasterId": "P02500000FsoFr8zHRBo52Qn9EUpf4EY6d8WKl1t",
    "placeName": "bloomfield",
    "state": "NE"
  },
  {
    "city": "newcastle",
    "state_code": "NE",
    "placeMasterId": "P02500000FsoFsr90fwjVHdjEsEyg074lqexWfO7",
    "placeName": "newcastle",
    "state": "NE"
  },
  {
    "city": "anselmo",
    "state_code": "NE",
    "placeMasterId": "P02500000FsoFqrIKEOeVfEIncs8pFFu7PKeLrDI",
    "placeName": "anselmo",
    "state": "NE"
  },
  {
    "city": "callaway",
    "state_code": "NE",
    "placeMasterId": "P02500000FsoFrHpl2aNrj22K2JB4yizld6Vzudq",
    "placeName": "callaway",
    "state": "NE"
  },
  {
    "city": "elba",
    "state_code": "NE",
    "placeMasterId": "P02500000FsoFrrDfSAh0TR11FYYkcgNxE8gJfpZ",
    "placeName": "elba",
    "state": "NE"
  },
  {
    "city": "oconto",
    "state_code": "NE",
    "placeMasterId": "P02500000FsoFt8pxsjt4eqDaTrfVp5iUakHsy9d",
    "placeName": "oconto",
    "state": "NE"
  },
  {
    "city": "sumner",
    "state_code": "NE",
    "placeMasterId": "P02500000FsoFtiDsIKCDPFCHh73BT3L5r51zzLq",
    "placeName": "sumner",
    "state": "NE"
  },
  {
    "city": "ayr",
    "state_code": "NE",
    "placeMasterId": "P02500000FsoFr08npnEILpXyQgUF9kG9QdINqxu",
    "placeName": "ayr",
    "state": "NE"
  },
  {
    "city": "red cloud",
    "state_code": "NE",
    "placeMasterId": "P02500000FsoFtHgRU8SrLRSlHg0vjaFd9AJVWQY",
    "placeName": "red cloud",
    "state": "NE"
  },
  {
    "city": "broadwater",
    "state_code": "NE",
    "placeMasterId": "P02500000FsoFrHpl2aNrj22K2JB4yiy2ZInKtX7",
    "placeName": "broadwater",
    "state": "NE"
  },
  {
    "city": "grant",
    "state_code": "NE",
    "placeMasterId": "P02500000FsoFs8ucexqZqdVMrBFaRf9RCgNZJ19",
    "placeName": "grant",
    "state": "NE"
  },
  {
    "city": "keystone",
    "state_code": "NE",
    "placeMasterId": "P02500000FsoFsQbZrl09DpziSnwQGdytoOBBB9I",
    "placeName": "keystone",
    "state": "NE"
  },
  {
    "city": "madrid",
    "state_code": "NE",
    "placeMasterId": "P02500000FsoFsiIX4Y9ib2U44QdG5ciIyWZp0om",
    "placeName": "madrid",
    "state": "NE"
  },
  {
    "city": "maxwell",
    "state_code": "NE",
    "placeMasterId": "P02500000FsoFsiIX4Y9ib2U44QdG5cpIQylH8qq",
    "placeName": "maxwell",
    "state": "NE"
  },
  {
    "city": "minatare",
    "state_code": "NE",
    "placeMasterId": "P02500000FsoFsr90fwjVHdjEsEyg07247hrCzcL",
    "placeName": "minatare",
    "state": "NE"
  },
  {
    "city": "gramercy",
    "state_code": "LA",
    "placeMasterId": "P02500000FsoFRJmrGRKwfhUboWJ19ZNqCCPaPI5",
    "placeName": "gramercy",
    "state": "LA"
  },
  {
    "city": "new orleans",
    "state_code": "LA",
    "placeMasterId": "P02500000FsoFS21FHQDs6hiTpa26i1JVz94sOtB",
    "placeName": "new orleans",
    "state": "LA"
  },
  {
    "city": "mathews",
    "state_code": "LA",
    "placeMasterId": "P02500000FsoFRtAlg1e5Q6TJ1lggnWpSLWSwjXB",
    "placeName": "mathews",
    "state": "LA"
  },
  {
    "city": "merryville",
    "state_code": "LA",
    "placeMasterId": "P02500000FsoFRtAlg1e5Q6TJ1lggnWwzTS4s1jk",
    "placeName": "merryville",
    "state": "LA"
  },
  {
    "city": "baton rouge",
    "state_code": "LA",
    "placeMasterId": "P02500000FsoFQJrW2fIRrUmOBpt5m8hbG1ZgRcE",
    "placeName": "baton rouge",
    "state": "LA"
  },
  {
    "city": "doyline",
    "state_code": "LA",
    "placeMasterId": "P02500000FsoFQtFQSFbabtl5P5GlQ6BxpegmCyd",
    "placeName": "doyline",
    "state": "LA"
  },
  {
    "city": "ringgold",
    "state_code": "LA",
    "placeMasterId": "P02500000FsoFSSYg5bxEAVS0F14MRUMl9MDbHem",
    "placeName": "ringgold",
    "state": "LA"
  },
  {
    "city": "shreveport",
    "state_code": "LA",
    "placeMasterId": "P02500000FsoFSbP9h0X0r6hB2pPmLynLJaoEkpz",
    "placeName": "shreveport",
    "state": "LA"
  },
  {
    "city": "bossier city",
    "state_code": "LA",
    "placeMasterId": "P02500000FsoFQShze3sEY61YzeEVgdA6JbAGoKQ",
    "placeName": "bossier city",
    "state": "LA"
  },
  {
    "city": "downsville",
    "state_code": "LA",
    "placeMasterId": "P02500000FsoFQtFQSFbabtl5P5GlQ6FZ9ZOEofO",
    "placeName": "downsville",
    "state": "LA"
  },
  {
    "city": "grambling",
    "state_code": "LA",
    "placeMasterId": "P02500000FsoFRAwNf2l9z6FR0hxbF52J9ieUDII",
    "placeName": "grambling",
    "state": "LA"
  },
  {
    "city": "provencal",
    "state_code": "LA",
    "placeMasterId": "P02500000FsoFSSYg5bxEAVS0F14MRUGYNwp4NSj",
    "placeName": "provencal",
    "state": "LA"
  },
  {
    "city": "simpson",
    "state_code": "LA",
    "placeMasterId": "P02500000FsoFSbP9h0X0r6hB2pPmLyrRnPVe0s9",
    "placeName": "simpson",
    "state": "LA"
  },
  {
    "city": "wilmot",
    "state_code": "AR",
    "placeMasterId": "P02500000FsoEdWODl5tss34nQ7kAAbgcA8evAJD",
    "placeName": "wilmot",
    "state": "AR"
  },
  {
    "city": "hope",
    "state_code": "AR",
    "placeMasterId": "P02500000FsoEboEUWKyScq8hmNb9EjFcGheiaWy",
    "placeName": "hope",
    "state": "AR"
  },
  {
    "city": "dierks",
    "state_code": "AR",
    "placeMasterId": "P02500000FsoEbEqa6kfJsRA0Z8DTalm3ufDor8N",
    "placeName": "dierks",
    "state": "AR"
  },
  {
    "city": "amagon",
    "state_code": "AR",
    "placeMasterId": "P02500000FsoEafSfhAMB82BJLspnwoGdlJrJlgh",
    "placeName": "amagon",
    "state": "AR"
  },
  {
    "city": "lonoke",
    "state_code": "AR",
    "placeMasterId": "P02500000FsoEcElvKWhogdsEBodOyCMDJE7elMU",
    "placeName": "lonoke",
    "state": "AR"
  },
  {
    "city": "mayflower",
    "state_code": "AR",
    "placeMasterId": "P02500000FsoEcNcOvvHbNF7OzcyosgjGF99C6vF",
    "placeName": "mayflower",
    "state": "AR"
  },
  {
    "city": "north little rock",
    "state_code": "AR",
    "placeMasterId": "P02500000FsoEcfJM8iRAkRbkbFfehfRubWgs65k",
    "placeName": "north little rock",
    "state": "AR"
  },
  {
    "city": "ravenden",
    "state_code": "AR",
    "placeMasterId": "P02500000FsoEco9pk70xR2qvP414c9tRNb6k5jU",
    "placeName": "ravenden",
    "state": "AR"
  },
  {
    "city": "gassville",
    "state_code": "AR",
    "placeMasterId": "P02500000FsoEbWXXJXotFdeMAkuJPkV0CS4Mk81",
    "placeName": "gassville",
    "state": "AR"
  },
  {
    "city": "blue mountain",
    "state_code": "AR",
    "placeMasterId": "P02500000FsoEaoJ9IYvxodQU9hBDrIcgkcJRvz1",
    "placeName": "blue mountain",
    "state": "AR"
  },
  {
    "city": "london",
    "state_code": "AR",
    "placeMasterId": "P02500000FsoEc5vRj88202d3O0Hz3i1o2s0KRwW",
    "placeName": "london",
    "state": "AR"
  },
  {
    "city": "lavaca",
    "state_code": "AR",
    "placeMasterId": "P02500000FsoEc5vRj88202d3O0Hz3i1H3wxM1Qq",
    "placeName": "lavaca",
    "state": "AR"
  },
  {
    "city": "waldron",
    "state_code": "AR",
    "placeMasterId": "P02500000FsoEdNXk9hK6BRpccJOkG7MHb9VLzsu",
    "placeName": "waldron",
    "state": "AR"
  },
  {
    "city": "bethany",
    "state_code": "OK",
    "placeMasterId": "P02500000FsoGK6oCseyUWNTWKKxV1g0fnefpgTE",
    "placeName": "bethany",
    "state": "OK"
  },
  {
    "city": "oklahoma city",
    "state_code": "OK",
    "placeMasterId": "P02500000FsoGMg2njnMctBsemxB1QUgVkw3g3BI",
    "placeName": "oklahoma city",
    "state": "OK"
  },
  {
    "city": "madill",
    "state_code": "OK",
    "placeMasterId": "P02500000FsoGMFVMvbdGpO98NW8lh1ZdoLStzof",
    "placeName": "madill",
    "state": "OK"
  },
  {
    "city": "gould",
    "state_code": "OK",
    "placeMasterId": "P02500000FsoGLFa1hpam1BQukpiqJbAmkzg5h7W",
    "placeName": "gould",
    "state": "OK"
  },
  {
    "city": "indiahoma",
    "state_code": "OK",
    "placeMasterId": "P02500000FsoGLg7SW1K84zARAGl6346m1Ual3iL",
    "placeName": "indiahoma",
    "state": "OK"
  },
  {
    "city": "kenton",
    "state_code": "OK",
    "placeMasterId": "P02500000FsoGLoxw7PtulaPby56VxYb3QdeZsxJ",
    "placeName": "kenton",
    "state": "OK"
  },
  {
    "city": "slick",
    "state_code": "OK",
    "placeMasterId": "P02500000FsoGNOHBkmFYKC6Wo0u6ywZwLqNJFDu",
    "placeName": "slick",
    "state": "OK"
  },
  {
    "city": "stillwater",
    "state_code": "OK",
    "placeMasterId": "P02500000FsoGNOHBkmFYKC6Wo0u6ywb3ED8LMAy",
    "placeName": "stillwater",
    "state": "OK"
  },
  {
    "city": "terlton",
    "state_code": "OK",
    "placeMasterId": "P02500000FsoGNfy8xZP7hOasPdawnvGdC5zvTGH",
    "placeName": "terlton",
    "state": "OK"
  },
  {
    "city": "red oak",
    "state_code": "OK",
    "placeMasterId": "P02500000FsoGMxjkwaWCGON0OZrrFTTrJDs2LXK",
    "placeName": "red oak",
    "state": "OK"
  },
  {
    "city": "fort towson",
    "state_code": "OK",
    "placeMasterId": "P02500000FsoGLFa1hpam1BQukpiqJb5cT4nrngc",
    "placeName": "fort towson",
    "state": "OK"
  },
  {
    "city": "wright city",
    "state_code": "OK",
    "placeMasterId": "P02500000FsoGO6VZll8TlCKOp4dCXOQX6MZq1EV",
    "placeName": "wright city",
    "state": "OK"
  },
  {
    "city": "frisco",
    "state_code": "TX",
    "placeMasterId": "P02500000FsoGlMTP5NDTl7DnmQwK3EymUQRomIZ",
    "placeName": "frisco",
    "state": "TX"
  },
  {
    "city": "ferris",
    "state_code": "TX",
    "placeMasterId": "P02500000FsoGlDcvTydh4Vycycau8kYPfUjtS01",
    "placeName": "ferris",
    "state": "TX"
  },
  {
    "city": "caddo mills",
    "state_code": "TX",
    "placeMasterId": "P02500000FsoGjVTCFDiGpJ2XKsRtCsDItMq1hYC",
    "placeName": "caddo mills",
    "state": "TX"
  },
  {
    "city": "mesquite",
    "state_code": "TX",
    "placeMasterId": "P02500000FsoGo4YTXuBOoWs72rVGMY3lRUYhh2A",
    "placeName": "mesquite",
    "state": "TX"
  },
  {
    "city": "trinidad",
    "state_code": "TX",
    "placeMasterId": "P02500000FsoGrM1SQ1SScLV7WXRsJokU2sNKz9l",
    "placeName": "trinidad",
    "state": "TX"
  },
  {
    "city": "sunnyvale",
    "state_code": "TX",
    "placeMasterId": "P02500000FsoGr4KVDEItF90luul2Upp3SJLNJVZ",
    "placeName": "sunnyvale",
    "state": "TX"
  },
  {
    "city": "dallas",
    "state_code": "TX",
    "placeMasterId": "P02500000FsoGkMY3rbAywuVa9kWOfoNE7vnQ9N4",
    "placeName": "dallas",
    "state": "TX"
  },
  {
    "city": "melissa",
    "state_code": "TX",
    "placeMasterId": "P02500000FsoGnvhzwVbc7vcwF39qS3knVhfGP3I",
    "placeName": "melissa",
    "state": "TX"
  },
  {
    "city": "annona",
    "state_code": "TX",
    "placeMasterId": "P02500000FsoGiVXr1Rfm16KJiC1xpRUoLuQNIgh",
    "placeName": "annona",
    "state": "TX"
  },
  {
    "city": "tyler",
    "state_code": "TX",
    "placeMasterId": "P02500000FsoGrUrw1Q2FIwkIKLnIEIqxT9CHRU3",
    "placeName": "tyler",
    "state": "TX"
  },
  {
    "city": "centerville",
    "state_code": "TX",
    "placeMasterId": "P02500000FsoGjnA9S0rqCVWswV8j1qoAjT5BrJd",
    "placeName": "centerville",
    "state": "TX"
  },
  {
    "city": "leona",
    "state_code": "TX",
    "placeMasterId": "P02500000FsoGnMK5WvITNWeF1nmAo6CukU1Wpvk",
    "placeName": "leona",
    "state": "TX"
  },
  {
    "city": "streetman",
    "state_code": "TX",
    "placeMasterId": "P02500000FsoGqvU1bpj6YXlb76PcaLad3y8meGN",
    "placeName": "streetman",
    "state": "TX"
  },
  {
    "city": "aledo",
    "state_code": "TX",
    "placeMasterId": "P02500000FsoGiMhNQ35zKV58uNgXuxAaNvukCcS",
    "placeName": "aledo",
    "state": "TX"
  },
  {
    "city": "grandview",
    "state_code": "TX",
    "placeMasterId": "P02500000FsoGleAMIAN38Ji9O3d9sDdjIRYmTf1",
    "placeName": "grandview",
    "state": "TX"
  },
  {
    "city": "hurst",
    "state_code": "TX",
    "placeMasterId": "P02500000FsoGmMOkJ9FyZJw1P7MFQfYBu6bxbfg",
    "placeName": "hurst",
    "state": "TX"
  },
  {
    "city": "kennedale",
    "state_code": "TX",
    "placeMasterId": "P02500000FsoGme5hVwPXwWQN0k35FeMjKyJPFFi",
    "placeName": "kennedale",
    "state": "TX"
  },
  {
    "city": "mansfield",
    "state_code": "TX",
    "placeMasterId": "P02500000FsoGnmrWL71pRKNlREoQXZKLMKwrxBZ",
    "placeName": "mansfield",
    "state": "TX"
  },
  {
    "city": "newark",
    "state_code": "TX",
    "placeMasterId": "P02500000FsoGoV5uM5uksKbdSIXW619snQgGxGd",
    "placeName": "newark",
    "state": "TX"
  },
  {
    "city": "fort worth",
    "state_code": "TX",
    "placeMasterId": "P02500000FsoGlMTP5NDTl7DnmQwK3EqQnKzuFlE",
    "placeName": "fort worth",
    "state": "TX"
  },
  {
    "city": "denton",
    "state_code": "TX",
    "placeMasterId": "P02500000FsoGkVOXSzkldVkkxYroaIiDEuDBMlN",
    "placeName": "denton",
    "state": "TX"
  },
  {
    "city": "bowie",
    "state_code": "TX",
    "placeMasterId": "P02500000FsoGj4vlR1yulVJ0vRPdTP6NY1xgdY7",
    "placeName": "bowie",
    "state": "TX"
  },
  {
    "city": "cross plains",
    "state_code": "TX",
    "placeMasterId": "P02500000FsoGkMY3rbAywuVa9kWOfoErrB9xN2J",
    "placeName": "cross plains",
    "state": "TX"
  },
  {
    "city": "hubbard",
    "state_code": "TX",
    "placeMasterId": "P02500000FsoGmMOkJ9FyZJw1P7MFQfa0m3Y1Gnc",
    "placeName": "hubbard",
    "state": "TX"
  },
  {
    "city": "ballinger",
    "state_code": "TX",
    "placeMasterId": "P02500000FsoGieOKcqFYhhZUW0NNjvr2zJC1dz3",
    "placeName": "ballinger",
    "state": "TX"
  },
  {
    "city": "mason",
    "state_code": "TX",
    "placeMasterId": "P02500000FsoGnvhzwVbc7vcwF39qS3b8Fd7rJtP",
    "placeName": "mason",
    "state": "TX"
  },
  {
    "city": "miles",
    "state_code": "TX",
    "placeMasterId": "P02500000FsoGoDOx9IlBV87HqfqgH2JxxbysHuw",
    "placeName": "miles",
    "state": "TX"
  },
  {
    "city": "paint rock",
    "state_code": "TX",
    "placeMasterId": "P02500000FsoGovdLAHe6w8L9rjZlpUD9ck3qz5J",
    "placeName": "paint rock",
    "state": "TX"
  }
]