[
  {
    "city": "winslow",
    "state_code": "AR",
    "placeMasterId": "P02500000FsoEdNXk9hK6BRpccJOkG7OFXKHMMoh",
    "placeName": "winslow",
    "state": "AR"
  },
  {
    "city": "cement",
    "state_code": "OK",
    "placeMasterId": "P02500000FsoGKXLdgqhqaBD2jlzkl97emb6vGw5",
    "placeName": "cement",
    "state": "OK"
  },
  {
    "city": "jones",
    "state_code": "OK",
    "placeMasterId": "P02500000FsoGLoxw7PtulaPby56VxYRwarAPdk0",
    "placeName": "jones",
    "state": "OK"
  },
  {
    "city": "oklahoma city",
    "state_code": "OK",
    "placeMasterId": "P02500000FsoGMg2njnMctBsemxB1QUgVkw3g3BI",
    "placeName": "oklahoma city",
    "state": "OK"
  },
  {
    "city": "oklahoma city",
    "state_code": "OK",
    "placeMasterId": "P02500000FsoGMg2njnMctBsemxB1QUgVkw3g3BI",
    "placeName": "oklahoma city",
    "state": "OK"
  },
  {
    "city": "oklahoma city",
    "state_code": "OK",
    "placeMasterId": "P02500000FsoGMg2njnMctBsemxB1QUgVkw3g3BI",
    "placeName": "oklahoma city",
    "state": "OK"
  },
  {
    "city": "tishomingo",
    "state_code": "OK",
    "placeMasterId": "P02500000FsoGNfy8xZP7hOasPdawnvOXR1G9Re1",
    "placeName": "tishomingo",
    "state": "OK"
  },
  {
    "city": "addington",
    "state_code": "OK",
    "placeMasterId": "P02500000FsoGJp7Ffrov9AzAiiGfChBaBj129SJ",
    "placeName": "addington",
    "state": "OK"
  },
  {
    "city": "comanche",
    "state_code": "OK",
    "placeMasterId": "P02500000FsoGKgC7IFHdGmSDXaLAfdUCJYHj9UV",
    "placeName": "comanche",
    "state": "OK"
  },
  {
    "city": "waurika",
    "state_code": "OK",
    "placeMasterId": "P02500000FsoGNxf6AMYh4b5E1GHmcu9TND5Cevt",
    "placeName": "waurika",
    "state": "OK"
  },
  {
    "city": "butler",
    "state_code": "OK",
    "placeMasterId": "P02500000FsoGKFegU3YHCyih89IuwAYA3AtSJ5e",
    "placeName": "butler",
    "state": "OK"
  },
  {
    "city": "cherokee",
    "state_code": "OK",
    "placeMasterId": "P02500000FsoGKXLdgqhqaBD2jlzkl9AyqlumNqs",
    "placeName": "cherokee",
    "state": "OK"
  },
  {
    "city": "lahoma",
    "state_code": "OK",
    "placeMasterId": "P02500000FsoGLxoPioThSBemltRvs2srpOZjYVJ",
    "placeName": "lahoma",
    "state": "OK"
  },
  {
    "city": "waukomis",
    "state_code": "OK",
    "placeMasterId": "P02500000FsoGNxf6AMYh4b5E1GHmcu0y71NMXpS",
    "placeName": "waukomis",
    "state": "OK"
  },
  {
    "city": "chester",
    "state_code": "OK",
    "placeMasterId": "P02500000FsoGKgC7IFHdGmSDXaLAfdRCum33k8j",
    "placeName": "chester",
    "state": "OK"
  },
  {
    "city": "mutual",
    "state_code": "OK",
    "placeMasterId": "P02500000FsoGMXCK8OmqCadTz8pbW0L3Pbg6u0o",
    "placeName": "mutual",
    "state": "OK"
  },
  {
    "city": "guymon",
    "state_code": "OK",
    "placeMasterId": "P02500000FsoGLXGyuckLONvGMSPg8ZhI2Y8PdKx",
    "placeName": "guymon",
    "state": "OK"
  },
  {
    "city": "bartlesville",
    "state_code": "OK",
    "placeMasterId": "P02500000FsoGK6oCseyUWNTWKKxV1fx8EaeEA0P",
    "placeName": "bartlesville",
    "state": "OK"
  },
  {
    "city": "lenapah",
    "state_code": "OK",
    "placeMasterId": "P02500000FsoGM6etKD3U8mtxZhnLmXAXIOolQtw",
    "placeName": "lenapah",
    "state": "OK"
  },
  {
    "city": "wyandotte",
    "state_code": "OK",
    "placeMasterId": "P02500000FsoGO6VZll8TlCKOp4dCXOT6VvUfMoQ",
    "placeName": "wyandotte",
    "state": "OK"
  },
  {
    "city": "muskogee",
    "state_code": "OK",
    "placeMasterId": "P02500000FsoGMXCK8OmqCadTz8pbW0Eo8ikiNHf",
    "placeName": "muskogee",
    "state": "OK"
  },
  {
    "city": "okmulgee",
    "state_code": "OK",
    "placeMasterId": "P02500000FsoGMg2njnMctBsemxB1QUjIpaC0f4g",
    "placeName": "okmulgee",
    "state": "OK"
  },
  {
    "city": "oktaha",
    "state_code": "OK",
    "placeMasterId": "P02500000FsoGMg2njnMctBsemxB1QUqaDJyvKaG",
    "placeName": "oktaha",
    "state": "OK"
  },
  {
    "city": "rentiesville",
    "state_code": "OK",
    "placeMasterId": "P02500000FsoGMxjkwaWCGON0OZrrFTXKEn4rq0H",
    "placeName": "rentiesville",
    "state": "OK"
  },
  {
    "city": "kinta",
    "state_code": "OK",
    "placeMasterId": "P02500000FsoGLxoPioThSBemltRvs2mk2QIrONu",
    "placeName": "kinta",
    "state": "OK"
  },
  {
    "city": "ralston",
    "state_code": "OK",
    "placeMasterId": "P02500000FsoGMxjkwaWCGON0OZrrFTOT1kWdeHj",
    "placeName": "ralston",
    "state": "OK"
  },
  {
    "city": "achille",
    "state_code": "OK",
    "placeMasterId": "P02500000FsoGJgGm4TF8SZjzutvFICy0Jehb5qw",
    "placeName": "achille",
    "state": "OK"
  },
  {
    "city": "idabel",
    "state_code": "OK",
    "placeMasterId": "P02500000FsoGLg7SW1K84zARAGl6344TEyuVbAg",
    "placeName": "idabel",
    "state": "OK"
  },
  {
    "city": "sasakwa",
    "state_code": "OK",
    "placeMasterId": "P02500000FsoGN6aEXz5ywzcBCODH9xvPfmF5nZV",
    "placeName": "sasakwa",
    "state": "OK"
  },
  {
    "city": "grand prairie",
    "state_code": "TX",
    "placeMasterId": "P02500000FsoGleAMIAN38Ji9O3d9sDli4yFRK7s",
    "placeName": "grand prairie",
    "state": "TX"
  },
  {
    "city": "the colony",
    "state_code": "TX",
    "placeMasterId": "P02500000FsoGrDAyocsfvkFwij6SPK9bDlXlAVs",
    "placeName": "the colony",
    "state": "TX"
  },
  {
    "city": "rowlett",
    "state_code": "TX",
    "placeMasterId": "P02500000FsoGq4P9zSGOQwIYIEL77P9k60q35B0",
    "placeName": "rowlett",
    "state": "TX"
  },
  {
    "city": "lavon",
    "state_code": "TX",
    "placeMasterId": "P02500000FsoGnDTbvWiggvP4DzQktbs9EAq0PPS",
    "placeName": "lavon",
    "state": "TX"
  },
  {
    "city": "dallas",
    "state_code": "TX",
    "placeMasterId": "P02500000FsoGkMY3rbAywuVa9kWOfoNE7vnQ9N4",
    "placeName": "dallas",
    "state": "TX"
  },
  {
    "city": "clarksville",
    "state_code": "TX",
    "placeMasterId": "P02500000FsoGjw0d3PRct6m3kJU8wL980wP8SZ7",
    "placeName": "clarksville",
    "state": "TX"
  },
  {
    "city": "texarkana",
    "state_code": "TX",
    "placeMasterId": "P02500000FsoGrDAyocsfvkFwij6SPKHhGp0AH8q",
    "placeName": "texarkana",
    "state": "TX"
  },
  {
    "city": "naples",
    "state_code": "TX",
    "placeMasterId": "P02500000FsoGoV5uM5uksKbdSIXW613D9vVDYVv",
    "placeName": "naples",
    "state": "TX"
  },
  {
    "city": "gilmer",
    "state_code": "TX",
    "placeMasterId": "P02500000FsoGlVJsglnGRiSyaFHjxjNwyDEjAo5",
    "placeName": "gilmer",
    "state": "TX"
  },
  {
    "city": "jefferson",
    "state_code": "TX",
    "placeMasterId": "P02500000FsoGmVFDuXplFvBCCvhfLA3C0qQp5KW",
    "placeName": "jefferson",
    "state": "TX"
  },
  {
    "city": "palestine",
    "state_code": "TX",
    "placeMasterId": "P02500000FsoGovdLAHe6w8L9rjZlpUIjlXxR4A3",
    "placeName": "palestine",
    "state": "TX"
  },
  {
    "city": "kennard",
    "state_code": "TX",
    "placeMasterId": "P02500000FsoGme5hVwPXwWQN0k35FeKUPov7oN5",
    "placeName": "kennard",
    "state": "TX"
  },
  {
    "city": "cleburne",
    "state_code": "TX",
    "placeMasterId": "P02500000FsoGjw0d3PRct6m3kJU8wLC5REqKBzW",
    "placeName": "cleburne",
    "state": "TX"
  },
  {
    "city": "rhome",
    "state_code": "TX",
    "placeMasterId": "P02500000FsoGpmiCmf6p3joCgbeHIQX54sIqpE5",
    "placeName": "rhome",
    "state": "TX"
  },
  {
    "city": "fort worth",
    "state_code": "TX",
    "placeMasterId": "P02500000FsoGlMTP5NDTl7DnmQwK3EqQnKzuFlE",
    "placeName": "fort worth",
    "state": "TX"
  },
  {
    "city": "alvord",
    "state_code": "TX",
    "placeMasterId": "P02500000FsoGiMhNQ35zKV58uNgXuxGczdC0Y0F",
    "placeName": "alvord",
    "state": "TX"
  },
  {
    "city": "gainesville",
    "state_code": "TX",
    "placeMasterId": "P02500000FsoGlVJsglnGRiSyaFHjxjIHyV2otSs",
    "placeName": "gainesville",
    "state": "TX"
  },
  {
    "city": "keller",
    "state_code": "TX",
    "placeMasterId": "P02500000FsoGmVFDuXplFvBCCvhfLA3jzw1IJ4E",
    "placeName": "keller",
    "state": "TX"
  },
  {
    "city": "wichita falls",
    "state_code": "TX",
    "placeMasterId": "P02500000FsoGs4FqR0LO3LizXbAxsGR17JZqdwE",
    "placeName": "wichita falls",
    "state": "TX"
  },
  {
    "city": "iowa park",
    "state_code": "TX",
    "placeMasterId": "P02500000FsoGmMOkJ9FyZJw1P7MFQfYMfur9uSe",
    "placeName": "iowa park",
    "state": "TX"
  },
  {
    "city": "munday",
    "state_code": "TX",
    "placeMasterId": "P02500000FsoGoMFQkhKyBjMSeUC6BWrIbyQpOa4",
    "placeName": "munday",
    "state": "TX"
  },
  {
    "city": "bridgeport",
    "state_code": "TX",
    "placeMasterId": "P02500000FsoGjDmF2QYhS6YBjFl3NtUJ4aIMhoJ",
    "placeName": "bridgeport",
    "state": "TX"
  },
  {
    "city": "bryson",
    "state_code": "TX",
    "placeMasterId": "P02500000FsoGjDmF2QYhS6YBjFl3NtYhCH7km3n",
    "placeName": "bryson",
    "state": "TX"
  },
  {
    "city": "temple",
    "state_code": "TX",
    "placeMasterId": "P02500000FsoGr4KVDEItF90luul2Upufw1rdfm6",
    "placeName": "temple",
    "state": "TX"
  },
  {
    "city": "holland",
    "state_code": "TX",
    "placeMasterId": "P02500000FsoGmDYGhkgBsigqbJ0pWBB7REfJO4d",
    "placeName": "holland",
    "state": "TX"
  },
  {
    "city": "harker heights",
    "state_code": "TX",
    "placeMasterId": "P02500000FsoGlvrJUxWcVWCUzgJzhCQoUYXx9mq",
    "placeName": "harker heights",
    "state": "TX"
  },
  {
    "city": "rosebud",
    "state_code": "TX",
    "placeMasterId": "P02500000FsoGq4P9zSGOQwIYIEL77PGt2XmbHHz",
    "placeName": "rosebud",
    "state": "TX"
  },
  {
    "city": "gatesville",
    "state_code": "TX",
    "placeMasterId": "P02500000FsoGlVJsglnGRiSyaFHjxjDGUp84XUX",
    "placeName": "gatesville",
    "state": "TX"
  },
  {
    "city": "groesbeck",
    "state_code": "TX",
    "placeMasterId": "P02500000FsoGln0ptYwpouxKBryZmhylAHJuspp",
    "placeName": "groesbeck",
    "state": "TX"
  },
  {
    "city": "malone",
    "state_code": "TX",
    "placeMasterId": "P02500000FsoGnmrWL71pRKNlREoQXZGVj0yDCov",
    "placeName": "malone",
    "state": "TX"
  },
  {
    "city": "milford",
    "state_code": "TX",
    "placeMasterId": "P02500000FsoGoDOx9IlBV87HqfqgH2RPxHeZz0C",
    "placeName": "milford",
    "state": "TX"
  },
  {
    "city": "wortham",
    "state_code": "TX",
    "placeMasterId": "P02500000FsoGsD6K2OvAjwyALPWNmkh9ZAwASme",
    "placeName": "wortham",
    "state": "TX"
  },
  {
    "city": "waco",
    "state_code": "TX",
    "placeMasterId": "P02500000FsoGrdiPcoc1zXzT8A8i8nMQbSmxQI8",
    "placeName": "waco",
    "state": "TX"
  },
  {
    "city": "waco",
    "state_code": "TX",
    "placeMasterId": "P02500000FsoGrdiPcoc1zXzT8A8i8nMQbSmxQI8",
    "placeName": "waco",
    "state": "TX"
  },
  {
    "city": "houston",
    "state_code": "TX",
    "placeMasterId": "P02500000FsoGmDYGhkgBsigqbJ0pWBK8GcFdEcU",
    "placeName": "houston",
    "state": "TX"
  },
  {
    "city": "houston",
    "state_code": "TX",
    "placeMasterId": "P02500000FsoGmDYGhkgBsigqbJ0pWBK8GcFdEcU",
    "placeName": "houston",
    "state": "TX"
  },
  {
    "city": "houston",
    "state_code": "TX",
    "placeMasterId": "P02500000FsoGmDYGhkgBsigqbJ0pWBK8GcFdEcU",
    "placeName": "houston",
    "state": "TX"
  },
  {
    "city": "houston",
    "state_code": "TX",
    "placeMasterId": "P02500000FsoGmDYGhkgBsigqbJ0pWBK8GcFdEcU",
    "placeName": "houston",
    "state": "TX"
  },
  {
    "city": "houston",
    "state_code": "TX",
    "placeMasterId": "P02500000FsoGmDYGhkgBsigqbJ0pWBK8GcFdEcU",
    "placeName": "houston",
    "state": "TX"
  },
  {
    "city": "houston",
    "state_code": "TX",
    "placeMasterId": "P02500000FsoGmDYGhkgBsigqbJ0pWBK8GcFdEcU",
    "placeName": "houston",
    "state": "TX"
  },
  {
    "city": "houston",
    "state_code": "TX",
    "placeMasterId": "P02500000FsoGmDYGhkgBsigqbJ0pWBK8GcFdEcU",
    "placeName": "houston",
    "state": "TX"
  },
  {
    "city": "houston",
    "state_code": "TX",
    "placeMasterId": "P02500000FsoGmDYGhkgBsigqbJ0pWBK8GcFdEcU",
    "placeName": "houston",
    "state": "TX"
  },
  {
    "city": "spring",
    "state_code": "TX",
    "placeMasterId": "P02500000FsoGqvU1bpj6YXlb76PcaLLSx3ByJ8h",
    "placeName": "spring",
    "state": "TX"
  },
  {
    "city": "richmond",
    "state_code": "TX",
    "placeMasterId": "P02500000FsoGpvYgO3gbkL3NUPzhCupLeJr85kQ",
    "placeName": "richmond",
    "state": "TX"
  },
  {
    "city": "needville",
    "state_code": "TX",
    "placeMasterId": "P02500000FsoGoV5uM5uksKbdSIXW619CkAjA7Bn",
    "placeName": "needville",
    "state": "TX"
  },
  {
    "city": "la porte",
    "state_code": "TX",
    "placeMasterId": "P02500000FsoGnDTbvWiggvP4DzQktbnvcxXJhYF",
    "placeName": "la porte",
    "state": "TX"
  },
  {
    "city": "bryan",
    "state_code": "TX",
    "placeMasterId": "P02500000FsoGjDmF2QYhS6YBjFl3NtQgH5uAyKI",
    "placeName": "bryan",
    "state": "TX"
  },
  {
    "city": "burton",
    "state_code": "TX",
    "placeMasterId": "P02500000FsoGjMcidp8U8hnMX46TINmdDtUxW5t",
    "placeName": "burton",
    "state": "TX"
  },
  {
    "city": "navasota",
    "state_code": "TX",
    "placeMasterId": "P02500000FsoGoV5uM5uksKbdSIXW61FUcREUw2Y",
    "placeName": "navasota",
    "state": "TX"
  },
  {
    "city": "bigfoot",
    "state_code": "TX",
    "placeMasterId": "P02500000FsoGinEoEEpLOIofJoineQRcAgU0now",
    "placeName": "bigfoot",
    "state": "TX"
  },
  {
    "city": "poteet",
    "state_code": "TX",
    "placeMasterId": "P02500000FsoGpMAlyTNSzw4gHAc1YxROGQlPqRW",
    "placeName": "poteet",
    "state": "TX"
  },
  {
    "city": "kenedy",
    "state_code": "TX",
    "placeMasterId": "P02500000FsoGmmwB7KzKd7fXoYOVA8aaaHmEIXT",
    "placeName": "kenedy",
    "state": "TX"
  },
  {
    "city": "pawnee",
    "state_code": "TX",
    "placeMasterId": "P02500000FsoGp4TolgDtcjaKfXvBjyhNTN71gPd",
    "placeName": "pawnee",
    "state": "TX"
  },
  {
    "city": "stockdale",
    "state_code": "TX",
    "placeMasterId": "P02500000FsoGqvU1bpj6YXlb76PcaLX3vsiQiQT",
    "placeName": "stockdale",
    "state": "TX"
  },
  {
    "city": "san antonio",
    "state_code": "TX",
    "placeMasterId": "P02500000FsoGqM67CFPxo8mttr1wwNqfYQdpCPu",
    "placeName": "san antonio",
    "state": "TX"
  },
  {
    "city": "rockport",
    "state_code": "TX",
    "placeMasterId": "P02500000FsoGpvYgO3gbkL3NUPzhCuzJ1s7mh5M",
    "placeName": "rockport",
    "state": "TX"
  },
  {
    "city": "corpus christi",
    "state_code": "TX",
    "placeMasterId": "P02500000FsoGkDhaGCbCGJGPLwAylJumHp42lmi",
    "placeName": "corpus christi",
    "state": "TX"
  },
  {
    "city": "corpus christi",
    "state_code": "TX",
    "placeMasterId": "P02500000FsoGkDhaGCbCGJGPLwAylJumHp42lmi",
    "placeName": "corpus christi",
    "state": "TX"
  },
  {
    "city": "donna",
    "state_code": "TX",
    "placeMasterId": "P02500000FsoGkeF14OKYK6zvlNDEUn2QaM1tXxG",
    "placeName": "donna",
    "state": "TX"
  },
  {
    "city": "austin",
    "state_code": "TX",
    "placeMasterId": "P02500000FsoGieOKcqFYhhZUW0NNjvrbzzBh3wR",
    "placeName": "austin",
    "state": "TX"
  },
  {
    "city": "austin",
    "state_code": "TX",
    "placeMasterId": "P02500000FsoGieOKcqFYhhZUW0NNjvrbzzBh3wR",
    "placeName": "austin",
    "state": "TX"
  },
  {
    "city": "austin",
    "state_code": "TX",
    "placeMasterId": "P02500000FsoGieOKcqFYhhZUW0NNjvrbzzBh3wR",
    "placeName": "austin",
    "state": "TX"
  },
  {
    "city": "rocksprings",
    "state_code": "TX",
    "placeMasterId": "P02500000FsoGq4P9zSGOQwIYIEL77P8ril1EunQ",
    "placeName": "rocksprings",
    "state": "TX"
  },
  {
    "city": "la grange",
    "state_code": "TX",
    "placeMasterId": "P02500000FsoGmvmeijZ7JiuicMjv4czmfvn9IEr",
    "placeName": "la grange",
    "state": "TX"
  },
  {
    "city": "groom",
    "state_code": "TX",
    "placeMasterId": "P02500000FsoGln0ptYwpouxKBryZmi4lo9yb79J",
    "placeName": "groom",
    "state": "TX"
  },
  {
    "city": "hartley",
    "state_code": "TX",
    "placeMasterId": "P02500000FsoGlvrJUxWcVWCUzgJzhCLcpT1db67",
    "placeName": "hartley",
    "state": "TX"
  },
  {
    "city": "sanford",
    "state_code": "TX",
    "placeMasterId": "P02500000FsoGqM67CFPxo8mttr1wwNzC3wQ6CWW",
    "placeName": "sanford",
    "state": "TX"
  },
  {
    "city": "vega",
    "state_code": "TX",
    "placeMasterId": "P02500000FsoGrdiPcoc1zXzT8A8i8nNohqMtViH",
    "placeName": "vega",
    "state": "TX"
  },
  {
    "city": "floydada",
    "state_code": "TX",
    "placeMasterId": "P02500000FsoGlDcvTydh4Vycycau8kXfo1JUyaL",
    "placeName": "floydada",
    "state": "TX"
  },
  {
    "city": "meadow",
    "state_code": "TX",
    "placeMasterId": "P02500000FsoGnvhzwVbc7vcwF39qS3ihjvc0Odx",
    "placeName": "meadow",
    "state": "TX"
  },
  {
    "city": "slaton",
    "state_code": "TX",
    "placeMasterId": "P02500000FsoGqmdY0R9JrwWQJI4Cfr59QsIJ2dF",
    "placeName": "slaton",
    "state": "TX"
  },
  {
    "city": "iraan",
    "state_code": "TX",
    "placeMasterId": "P02500000FsoGmVFDuXplFvBCCvhfL9yhU0WBb3Y",
    "placeName": "iraan",
    "state": "TX"
  },
  {
    "city": "wink",
    "state_code": "TX",
    "placeMasterId": "P02500000FsoGsD6K2OvAjwyALPWNmkhB1g6dbRY",
    "placeName": "wink",
    "state": "TX"
  },
  {
    "city": "denver",
    "state_code": "CO",
    "placeMasterId": "P02500000FsoEmwFjZFziDhEIRiXkIwGQWtD2cc9",
    "placeName": "denver",
    "state": "CO"
  },
  {
    "city": "denver",
    "state_code": "CO",
    "placeMasterId": "P02500000FsoEmwFjZFziDhEIRiXkIwGQWtD2cc9",
    "placeName": "denver",
    "state": "CO"
  },
  {
    "city": "oak creek",
    "state_code": "CO",
    "placeMasterId": "P02500000FsoEoDs1zpBmP6Qrg1eVVLXFq6viYki",
    "placeName": "oak creek",
    "state": "CO"
  },
  {
    "city": "phippsburg",
    "state_code": "CO",
    "placeMasterId": "P02500000FsoEoMiVbDlZ5hg2TpzvPpuhHvLcnnu",
    "placeName": "phippsburg",
    "state": "CO"
  },
  {
    "city": "mead",
    "state_code": "CO",
    "placeMasterId": "P02500000FsoEo51YOQbziVBgsDJ5arD3dc3MW7W",
    "placeName": "mead",
    "state": "CO"
  },
  {
    "city": "idalia",
    "state_code": "CO",
    "placeMasterId": "P02500000FsoEneU7aEsdehSASmGprO63ERHvFn1",
    "placeName": "idalia",
    "state": "CO"
  },
  {
    "city": "burlington",
    "state_code": "CO",
    "placeMasterId": "P02500000FsoEmnPFxrPvX5z7duCKORsLNgZsiYe",
    "placeName": "burlington",
    "state": "CO"
  },
  {
    "city": "kirk",
    "state_code": "CO",
    "placeMasterId": "P02500000FsoEnnKbBdSQLIhLGacFlsQOFTvsZEB",
    "placeName": "kirk",
    "state": "CO"
  },
  {
    "city": "two buttes",
    "state_code": "CO",
    "placeMasterId": "P02500000FsoEow6Q0o4hq6ejh5Nb3nPCBSxLwXJ",
    "placeName": "two buttes",
    "state": "CO"
  },
  {
    "city": "center",
    "state_code": "CO",
    "placeMasterId": "P02500000FsoEmwFjZFziDhEIRiXkIwCzGIS18R1",
    "placeName": "center",
    "state": "CO"
  },
  {
    "city": "westcliffe",
    "state_code": "CO",
    "placeMasterId": "P02500000FsoEow6Q0o4hq6ejh5Nb3nQYIYMjaGQ",
    "placeName": "westcliffe",
    "state": "CO"
  },
  {
    "city": "cortez",
    "state_code": "CO",
    "placeMasterId": "P02500000FsoEmwFjZFziDhEIRiXkIwHyb7qgDd9",
    "placeName": "cortez",
    "state": "CO"
  },
  {
    "city": "de beque",
    "state_code": "CO",
    "placeMasterId": "P02500000FsoEn56DAeZUuITTFWtADQbPoYJ1z6L",
    "placeName": "de beque",
    "state": "CO"
  },
  {
    "city": "midwest",
    "state_code": "WY",
    "placeMasterId": "P02500000FsoH9TW61MlBsdaFYfJx21dhYrcjTOh",
    "placeName": "midwest",
    "state": "WY"
  },
  {
    "city": "sundance",
    "state_code": "WY",
    "placeMasterId": "P02500000FsoH9cMZclKyZEpQMTfMwWAbX8QHSHA",
    "placeName": "sundance",
    "state": "WY"
  },
  {
    "city": "sheridan",
    "state_code": "WY",
    "placeMasterId": "P02500000FsoH9cMZclKyZEpQMTfMwW27J3SxeEc",
    "placeName": "sheridan",
    "state": "WY"
  },
  {
    "city": "daniel",
    "state_code": "WY",
    "placeMasterId": "P02500000FsoH8u8BbmS38EbYLPwHO4C6KhuhbL8",
    "placeName": "daniel",
    "state": "WY"
  },
  {
    "city": "pocatello",
    "state_code": "ID",
    "placeMasterId": "P02500000FsoF0mM34hysrxyCNU3HgSGknqMKEed",
    "placeName": "pocatello",
    "state": "ID"
  },
  {
    "city": "franklin",
    "state_code": "ID",
    "placeMasterId": "P02500000FsoF0Cy8f7fk7YzVAEfc2UlrREUWiFK",
    "placeName": "franklin",
    "state": "ID"
  },
  {
    "city": "montpelier",
    "state_code": "ID",
    "placeMasterId": "P02500000FsoF0dVZTJP6BMj1Zfhrlxr7HpIjC35",
    "placeName": "montpelier",
    "state": "ID"
  },
  {
    "city": "heyburn",
    "state_code": "ID",
    "placeMasterId": "P02500000FsoF0LocGWFWoAEfy311wz9ZqD1zAbj",
    "placeName": "heyburn",
    "state": "ID"
  },
  {
    "city": "ketchum",
    "state_code": "ID",
    "placeMasterId": "P02500000FsoF0Uf5rupJUlTqlrMRrTVYHGJZ3Kl",
    "placeName": "ketchum",
    "state": "ID"
  },
  {
    "city": "idaho falls",
    "state_code": "ID",
    "placeMasterId": "P02500000FsoF0LocGWFWoAEfy311wz9dIeyRUSt",
    "placeName": "idaho falls",
    "state": "ID"
  },
  {
    "city": "kooskia",
    "state_code": "ID",
    "placeMasterId": "P02500000FsoF0Uf5rupJUlTqlrMRrTWNrgqvMEf",
    "placeName": "kooskia",
    "state": "ID"
  },
  {
    "city": "wilder",
    "state_code": "ID",
    "placeMasterId": "P02500000FsoF1CtTstiEvlhimv5XPvKlwLG10GB",
    "placeName": "wilder",
    "state": "ID"
  },
  {
    "city": "myton",
    "state_code": "UT",
    "placeMasterId": "P02500000FsoGtLs8rZXSEkvYluHj4fiZ2OMCa4L",
    "placeName": "myton",
    "state": "UT"
  },
  {
    "city": "west jordan",
    "state_code": "UT",
    "placeMasterId": "P02500000FsoGu46WsYQNfl9Qmy0od7fKQBaTcsf",
    "placeName": "west jordan",
    "state": "UT"
  },
  {
    "city": "huntsville",
    "state_code": "UT",
    "placeMasterId": "P02500000FsoGt4BBemNsrYRDAHatFguxDwagBvb",
    "placeName": "huntsville",
    "state": "UT"
  },
  {
    "city": "mexican hat",
    "state_code": "UT",
    "placeMasterId": "P02500000FsoGtLs8rZXSEkvYluHj4ffMHVQQ4Y2",
    "placeName": "mexican hat",
    "state": "UT"
  },
  {
    "city": "centerfield",
    "state_code": "UT",
    "placeMasterId": "P02500000FsoGsUnHFC4k79SVx2DDbjTrXFc3gLK",
    "placeName": "centerfield",
    "state": "UT"
  },
  {
    "city": "cedar city",
    "state_code": "UT",
    "placeMasterId": "P02500000FsoGsUnHFC4k79SVx2DDbjSa6XPNXMk",
    "placeName": "cedar city",
    "state": "UT"
  },
  {
    "city": "hurricane",
    "state_code": "UT",
    "placeMasterId": "P02500000FsoGsvKi3No6AxC2MTFTLCkQEnxEEPj",
    "placeName": "hurricane",
    "state": "UT"
  },
  {
    "city": "chandler",
    "state_code": "AZ",
    "placeMasterId": "P02500000FsoEYNv22p7c8QGWUtJ7MyMb0MOaj2F",
    "placeName": "chandler",
    "state": "AZ"
  },
  {
    "city": "rio verde",
    "state_code": "AZ",
    "placeMasterId": "P02500000FsoEZfXKTOJgJpT5jCPsZNfLqusiEif",
    "placeName": "rio verde",
    "state": "AZ"
  },
  {
    "city": "duncan",
    "state_code": "AZ",
    "placeMasterId": "P02500000FsoEYWlVeDhOp1VhIheXHSjE7x8NGqw",
    "placeName": "duncan",
    "state": "AZ"
  },
  {
    "city": "fort thomas",
    "state_code": "AZ",
    "placeMasterId": "P02500000FsoEYoSSr0qyCE02uKLN6RQVB7bTRES",
    "placeName": "fort thomas",
    "state": "AZ"
  },
  {
    "city": "young",
    "state_code": "AZ",
    "placeMasterId": "P02500000FsoEaWcC5lmORQw8Y4UO2JuPTSKyjWV",
    "placeName": "young",
    "state": "AZ"
  },
  {
    "city": "green valley",
    "state_code": "AZ",
    "placeMasterId": "P02500000FsoEYoSSr0qyCE02uKLN6RUU0d7ZZfE",
    "placeName": "green valley",
    "state": "AZ"
  },
  {
    "city": "tucson",
    "state_code": "AZ",
    "placeMasterId": "P02500000FsoEa64lHa32NdCc8dS8IqpdZHyNtyf",
    "placeName": "tucson",
    "state": "AZ"
  },
  {
    "city": "tucson",
    "state_code": "AZ",
    "placeMasterId": "P02500000FsoEa64lHa32NdCc8dS8IqpdZHyNtyf",
    "placeName": "tucson",
    "state": "AZ"
  },
  {
    "city": "tucson",
    "state_code": "AZ",
    "placeMasterId": "P02500000FsoEa64lHa32NdCc8dS8IqpdZHyNtyf",
    "placeName": "tucson",
    "state": "AZ"
  },
  {
    "city": "mohave valley",
    "state_code": "AZ",
    "placeMasterId": "P02500000FsoEZEztfCaKG1jZJlNcpuakxTlxBn9",
    "placeName": "mohave valley",
    "state": "AZ"
  },
  {
    "city": "san fidel",
    "state_code": "NM",
    "placeMasterId": "P02500000FsoG0H9q2YkL0sSIeSwPNaOtDTxe5Bq",
    "placeName": "san fidel",
    "state": "NM"
  },
  {
    "city": "bosque farms",
    "state_code": "NM",
    "placeMasterId": "P02500000FsoFyQ9dCPF854H2CuRyXDULERYT0bU",
    "placeName": "bosque farms",
    "state": "NM"
  },
  {
    "city": "albuquerque",
    "state_code": "NM",
    "placeMasterId": "P02500000FsoFyHJ9b0fLOT1rP66Ycj5SoodoNbU",
    "placeName": "albuquerque",
    "state": "NM"
  },
  {
    "city": "rio rancho",
    "state_code": "NM",
    "placeMasterId": "P02500000FsoG08JMRAAYKHD7qeazT63G5wC6srQ",
    "placeName": "rio rancho",
    "state": "NM"
  },
  {
    "city": "farmington",
    "state_code": "NM",
    "placeMasterId": "P02500000FsoFyqh40ayU8s0YcLUEGgmCYRMM6kD",
    "placeName": "farmington",
    "state": "NM"
  },
  {
    "city": "farmington",
    "state_code": "NM",
    "placeMasterId": "P02500000FsoFyqh40ayU8s0YcLUEGgmCYRMM6kD",
    "placeName": "farmington",
    "state": "NM"
  },
  {
    "city": "santa fe",
    "state_code": "NM",
    "placeMasterId": "P02500000FsoG0H9q2YkL0sSIeSwPNaViwlgh893",
    "placeName": "santa fe",
    "state": "NM"
  },
  {
    "city": "los ojos",
    "state_code": "NM",
    "placeMasterId": "P02500000FsoFzYvS1ZrPZsEQdPDJp8WeAJlJiWJ",
    "placeName": "los ojos",
    "state": "NM"
  },
  {
    "city": "wagon mound",
    "state_code": "NM",
    "placeMasterId": "P02500000FsoG0hhGqkTh4gBp3tyf73TKa00JjjY",
    "placeName": "wagon mound",
    "state": "NM"
  },
  {
    "city": "polvadera",
    "state_code": "NM",
    "placeMasterId": "P02500000FsoFzzSsplaldfxx2qFZYbcgrQsAD7G",
    "placeName": "polvadera",
    "state": "NM"
  },
  {
    "city": "las cruces",
    "state_code": "NM",
    "placeMasterId": "P02500000FsoFzQ4yQBHctGzFpartueC0C0ojOkG",
    "placeName": "las cruces",
    "state": "NM"
  },
  {
    "city": "bayard",
    "state_code": "NM",
    "placeMasterId": "P02500000FsoFyHJ9b0fLOT1rP66YcjFGpyBRFtP",
    "placeName": "bayard",
    "state": "NM"
  },
  {
    "city": "vado",
    "state_code": "NM",
    "placeMasterId": "P02500000FsoG0hhGqkTh4gBp3tyf73Ux4wBmv3P",
    "placeName": "vado",
    "state": "NM"
  },
  {
    "city": "cloudcroft",
    "state_code": "NM",
    "placeMasterId": "P02500000FsoFyZ06nnoulfWD0inORi0FMRHrTWl",
    "placeName": "cloudcroft",
    "state": "NM"
  },
  {
    "city": "conchas dam",
    "state_code": "NM",
    "placeMasterId": "P02500000FsoFyhqaPCOhSGlNoX8oMCFnlI7o1rP",
    "placeName": "conchas dam",
    "state": "NM"
  },
  {
    "city": "north las vegas",
    "state_code": "NV",
    "placeMasterId": "P02500000FsoFuZIjuhevWqfKVz7gvzZ3kBq8jkB",
    "placeName": "north las vegas",
    "state": "NV"
  },
  {
    "city": "henderson",
    "state_code": "NV",
    "placeMasterId": "P02500000FsoFuQSGJJ58qFQ9iAmH1VFxDxgAeEI",
    "placeName": "henderson",
    "state": "NV"
  },
  {
    "city": "las vegas",
    "state_code": "NV",
    "placeMasterId": "P02500000FsoFuQSGJJ58qFQ9iAmH1VC0RKB5lYR",
    "placeName": "las vegas",
    "state": "NV"
  },
  {
    "city": "silver city",
    "state_code": "NV",
    "placeMasterId": "P02500000FsoFui9DW6EiDRuVJnT6qTpGxJT5Md1",
    "placeName": "silver city",
    "state": "NV"
  },
  {
    "city": "spring creek",
    "state_code": "NV",
    "placeMasterId": "P02500000FsoFui9DW6EiDRuVJnT6qTzQxKQhIEl",
    "placeName": "spring creek",
    "state": "NV"
  },
  {
    "city": "springfield",
    "state_code": "MA",
    "placeMasterId": "P02500000FsoFWsnTmtqZT82P9BmJgfxQ61bP7CW",
    "placeName": "springfield",
    "state": "MA"
  },
  {
    "city": "hinsdale",
    "state_code": "MA",
    "placeMasterId": "P02500000FsoHdrnnUnhSEaiMgcty6MsJeGvk9cE",
    "placeName": "hinsdale",
    "state": "MA"
  },
  {
    "city": "sandisfield",
    "state_code": "MA",
    "placeMasterId": "P02500000FsoHeILEIzQoIORt63wDppvL1hpQrQv",
    "placeName": "sandisfield",
    "state": "MA"
  },
  {
    "city": "fitchburg",
    "state_code": "MA",
    "placeMasterId": "P02500000FsoFWSG2yi7DPKIsjkk3xChOoj0b4hv",
    "placeName": "fitchburg",
    "state": "MA"
  },
  {
    "city": "templeton",
    "state_code": "MA",
    "placeMasterId": "P02500000FsoHeRBhuO0ayzh3tsHdkKGxXeqyhHI",
    "placeName": "templeton",
    "state": "MA"
  },
  {
    "city": "clinton",
    "state_code": "MA",
    "placeMasterId": "P02500000FsoHBKWIrWGOoRlW0DoNsORaDzx24ab",
    "placeName": "clinton",
    "state": "MA"
  },
  {
    "city": "worcester",
    "state_code": "MA",
    "placeMasterId": "P02500000FsoFX1dxOIQM9jHZx07jbAFLDi9kkRa",
    "placeName": "worcester",
    "state": "MA"
  },
  {
    "city": "hudson",
    "state_code": "MA",
    "placeMasterId": "P02500000FsoHBBfpG7gc7qWLCPSxxu5dhZ6f9De",
    "placeName": "hudson",
    "state": "MA"
  },
  {
    "city": "chelmsford",
    "state_code": "MA",
    "placeMasterId": "P02500000FsoHda6qI0XsrOE150D8HNzIv3Qd2Ow",
    "placeName": "chelmsford",
    "state": "MA"
  },
  {
    "city": "westford",
    "state_code": "MA",
    "placeMasterId": "P02500000FsoHea2BVmaNfawEhgd3eocTxVmumvz",
    "placeName": "westford",
    "state": "MA"
  },
  {
    "city": "dover",
    "state_code": "MA",
    "placeMasterId": "P02500000FsoHBBfpG7gc7qWLCPSxxuDqK3GMshe",
    "placeName": "dover",
    "state": "MA"
  },
  {
    "city": "boston",
    "state_code": "MA",
    "placeMasterId": "P02500000FsoFWJPZNJXQij3hvwOe2iNmqEqJmO9",
    "placeName": "boston",
    "state": "MA"
  },
  {
    "city": "boston",
    "state_code": "MA",
    "placeMasterId": "P02500000FsoFWJPZNJXQij3hvwOe2iNmqEqJmO9",
    "placeName": "boston",
    "state": "MA"
  },
  {
    "city": "medford",
    "state_code": "MA",
    "placeMasterId": "P02500000FsoFWb6Wa6h05vY3XZ5Trh7C5vFOqOA",
    "placeName": "medford",
    "state": "MA"
  },
  {
    "city": "pembroke",
    "state_code": "MA",
    "placeMasterId": "P02500000FsoHe9Ukhar1bnCiIFanvLXcH5WMyeu",
    "placeName": "pembroke",
    "state": "MA"
  },
  {
    "city": "waltham",
    "state_code": "MA",
    "placeMasterId": "P02500000FsoFWsnTmtqZT82P9BmJgfsN7hT1rsV",
    "placeName": "waltham",
    "state": "MA"
  },
  {
    "city": "newton",
    "state_code": "MA",
    "placeMasterId": "P02500000FsoFWb6Wa6h05vY3XZ5TrhCov7cB1vt",
    "placeName": "newton",
    "state": "MA"
  },
  {
    "city": "brewster",
    "state_code": "MA",
    "placeMasterId": "P02500000FsoHAl8ORvxG42momyQiERCZPDhfd1l",
    "placeName": "brewster",
    "state": "MA"
  },
  {
    "city": "yarmouth port",
    "state_code": "MA",
    "placeMasterId": "P02500000FsoFX1dxOIQM9jHZx07jbAJjroSTyTY",
    "placeName": "yarmouth port",
    "state": "MA"
  },
  {
    "city": "ashland",
    "state_code": "NH",
    "placeMasterId": "P02500000FsoIBFrWdYlD19z8gdjlIzgdAyAn6ao",
    "placeName": "ashland",
    "state": "NH"
  },
  {
    "city": "fitzwilliam",
    "state_code": "NH",
    "placeMasterId": "P02500000FsoIBXYTqLumOMTUIGQb7yZJapwJ49t",
    "placeName": "fitzwilliam",
    "state": "NH"
  },
  {
    "city": "bartlett",
    "state_code": "NH",
    "placeMasterId": "P02500000FsoIBOi0ExKzhlEJUS5BDTyrwAJ0BBR",
    "placeName": "bartlett",
    "state": "NH"
  },
  {
    "city": "durham",
    "state_code": "NH",
    "placeMasterId": "P02500000FsoHBl3jfhzksFV2PeqdbrlWSopflhC",
    "placeName": "durham",
    "state": "NH"
  },
  {
    "city": "lee",
    "state_code": "NH",
    "placeMasterId": "P02500000FsoIBpFR394LlYxptt7QwxBfCV63qvp",
    "placeName": "lee",
    "state": "NH"
  },
  {
    "city": "portland",
    "state_code": "ME",
    "placeMasterId": "P02500000FsoFTAn46aq9bVfsG4nRzw9NbsEpjyz",
    "placeName": "portland",
    "state": "ME"
  },
  {
    "city": "jay",
    "state_code": "ME",
    "placeMasterId": "P02500000FsoHfZxWjYcsTneSKN2z2FLkVAbqJ7G",
    "placeName": "jay",
    "state": "ME"
  },
  {
    "city": "vienna",
    "state_code": "ME",
    "placeMasterId": "P02500000FsoHgZsrxKfNI0Mfx3SuPfpmzwdeAKY",
    "placeName": "vienna",
    "state": "ME"
  },
  {
    "city": "windsor",
    "state_code": "ME",
    "placeMasterId": "P02500000FsoHgrZpA7owfCr1Yg9kEeWVnq3tU2N",
    "placeName": "windsor",
    "state": "ME"
  },
  {
    "city": "holden",
    "state_code": "ME",
    "placeMasterId": "P02500000FsoHfR738A35nCPHWYhZ7kvDPfAOeW2",
    "placeName": "holden",
    "state": "ME"
  },
  {
    "city": "orrington",
    "state_code": "ME",
    "placeMasterId": "P02500000FsoHg9LR98w1ECd9XcQegCfpQXVo2Gd",
    "placeName": "orrington",
    "state": "ME"
  },
  {
    "city": "phippsburg",
    "state_code": "ME",
    "placeMasterId": "P02500000FsoHg9LR98w1ECd9XcQegCn39JPKYsP",
    "placeName": "phippsburg",
    "state": "ME"
  },
  {
    "city": "frenchboro",
    "state_code": "ME",
    "placeMasterId": "P02500000FsoHfR738A35nCPHWYhZ7kuJ1uzMJNo",
    "placeName": "frenchboro",
    "state": "ME"
  },
  {
    "city": "islesboro",
    "state_code": "ME",
    "placeMasterId": "P02500000FsoHfZxWjYcsTneSKN2z2FK7bGpL7Nf",
    "placeName": "islesboro",
    "state": "ME"
  },
  {
    "city": "caratunk",
    "state_code": "ME",
    "placeMasterId": "P02500000FsoHf0ZcJyJjjOfl77fJOHgLipOPhLn",
    "placeName": "caratunk",
    "state": "ME"
  },
  {
    "city": "searsport",
    "state_code": "ME",
    "placeMasterId": "P02500000FsoHAcHuqXNTNRXdzA5IJwpxj25FgjB",
    "placeName": "searsport",
    "state": "ME"
  },
  {
    "city": "west fairlee",
    "state_code": "VT",
    "placeMasterId": "P02500000FsoIfMSGuCXtzucuCycwYM4WquE3tBY",
    "placeName": "west fairlee",
    "state": "VT"
  },
  {
    "city": "chester",
    "state_code": "VT",
    "placeMasterId": "P02500000FsoIeVNPHp5BsJ9rO6YR5Pne774Csbc",
    "placeName": "chester",
    "state": "VT"
  },
  {
    "city": "enosburg falls",
    "state_code": "VT",
    "placeMasterId": "P02500000FsoGuLnU5LZx2xdmOaheS6JDAmt3mi8",
    "placeName": "enosburg falls",
    "state": "VT"
  },
  {
    "city": "jericho",
    "state_code": "VT",
    "placeMasterId": "P02500000FsoHDtktieeXBGAeSq1uHDAU2H5Qmzl",
    "placeName": "jericho",
    "state": "VT"
  },
  {
    "city": "shelburne",
    "state_code": "VT",
    "placeMasterId": "P02500000FsoIfDbnIny7JJNjPAHWdreJt0MAfxM",
    "placeName": "shelburne",
    "state": "VT"
  },
  {
    "city": "johnson",
    "state_code": "VT",
    "placeMasterId": "P02500000FsoHE2bNK3EJrrPpGeNKBha91nQc4vo",
    "placeName": "johnson",
    "state": "VT"
  },
  {
    "city": "waitsfield",
    "state_code": "VT",
    "placeMasterId": "P02500000FsoIfMSGuCXtzucuCycwYM1qcbhwCVG",
    "placeName": "waitsfield",
    "state": "VT"
  },
  {
    "city": "derby",
    "state_code": "VT",
    "placeMasterId": "P02500000FsoIeVNPHp5BsJ9rO6YR5PnNGjqBF9G",
    "placeName": "derby",
    "state": "VT"
  },
  {
    "city": "east burke",
    "state_code": "VT",
    "placeMasterId": "P02500000FsoGuCx0Tx0AMMObamMEXc1Hy1TZYAM",
    "placeName": "east burke",
    "state": "VT"
  },
  {
    "city": "greensboro",
    "state_code": "VT",
    "placeMasterId": "P02500000FsoIen4MUcElFVeCzjFGuOUmoPT1ZcC",
    "placeName": "greensboro",
    "state": "VT"
  },
  {
    "city": "westfield",
    "state_code": "VT",
    "placeMasterId": "P02500000FsoIfMSGuCXtzucuCycwYM1pqzNiagZ",
    "placeName": "westfield",
    "state": "VT"
  },
  {
    "city": "glastonbury",
    "state_code": "CT",
    "placeMasterId": "P02500000FsoHGSzUZn2fY4ZmvSFQg1qB5QbjcLI",
    "placeName": "glastonbury",
    "state": "CT"
  },
  {
    "city": "new hartford",
    "state_code": "CT",
    "placeMasterId": "P02500000FsoHGbpyBBcSEfoxjGaqaWLZvhUexpy",
    "placeName": "new hartford",
    "state": "CT"
  },
  {
    "city": "hartford",
    "state_code": "CT",
    "placeMasterId": "P02500000FsoEp4wtcCeUWhtuUtj0yHnuNbUVDLP",
    "placeName": "hartford",
    "state": "CT"
  },
  {
    "city": "hampton",
    "state_code": "CT",
    "placeMasterId": "P02500000FsoHGSzUZn2fY4ZmvSFQg23wf38cSV6",
    "placeName": "hampton",
    "state": "CT"
  },
  {
    "city": "hebron",
    "state_code": "CT",
    "placeMasterId": "P02500000FsoHGbpyBBcSEfoxjGaqaWAhSsEYXXW",
    "placeName": "hebron",
    "state": "CT"
  },
  {
    "city": "scotland",
    "state_code": "CT",
    "placeMasterId": "P02500000FsoHGtWvNym1bsJJKtHgPUuwCYjKrG4",
    "placeName": "scotland",
    "state": "CT"
  },
  {
    "city": "colchester",
    "state_code": "CT",
    "placeMasterId": "P02500000FsoHGK90yOSsrTKc7du0lXapYmg7gWN",
    "placeName": "colchester",
    "state": "CT"
  },
  {
    "city": "derby",
    "state_code": "CT",
    "placeMasterId": "P02500000FsoEp4wtcCeUWhtuUtj0yHnIjph5Jmy",
    "placeName": "derby",
    "state": "CT"
  },
  {
    "city": "newtown",
    "state_code": "CT",
    "placeMasterId": "P02500000FsoH9u3WpYUXwRJly6MClUqfifvRWZD",
    "placeName": "newtown",
    "state": "CT"
  },
  {
    "city": "stamford",
    "state_code": "CT",
    "placeMasterId": "P02500000FsoEpMdqozo3tuOG6WPqnGa7UQ8WG36",
    "placeName": "stamford",
    "state": "CT"
  },
  {
    "city": "edgewater",
    "state_code": "NJ",
    "placeMasterId": "P02500000FsoFvi4YjsHD1eciwTt2DubNwJTMD9O",
    "placeName": "edgewater",
    "state": "NJ"
  },
  {
    "city": "englewood cliffs",
    "state_code": "NJ",
    "placeMasterId": "P02500000FsoFvqv2LGqziFrtkIES8OqA19GSoFY",
    "placeName": "englewood cliffs",
    "state": "NJ"
  },
  {
    "city": "lincroft",
    "state_code": "NJ",
    "placeMasterId": "P02500000FsoFwZ9QMFjv9G5llLxXgqe7CV46LQ4",
    "placeName": "lincroft",
    "state": "NJ"
  },
  {
    "city": "stanhope",
    "state_code": "NJ",
    "placeMasterId": "P02500000FsoFxhvFBQMCe43ABqisyllr5oErX0a",
    "placeName": "stanhope",
    "state": "NJ"
  },
  {
    "city": "chester",
    "state_code": "NJ",
    "placeMasterId": "P02500000FsoICOdLSjNUVxwX78V6auktDo8OQPt",
    "placeName": "chester",
    "state": "NJ"
  },
  {
    "city": "morris plains",
    "state_code": "NJ",
    "placeMasterId": "P02500000FsoFwqqNZ2tUWSa7MyeNVpUEZOjbF4p",
    "placeName": "morris plains",
    "state": "NJ"
  },
  {
    "city": "gibbsboro",
    "state_code": "NJ",
    "placeMasterId": "P02500000FsoFw8bzY40Z5SMFLuvHxNb9t4k8cmO",
    "placeName": "gibbsboro",
    "state": "NJ"
  },
  {
    "city": "medford",
    "state_code": "NJ",
    "placeMasterId": "P02500000FsoID6rjTiGPwyAP8CEC9MXrVkcONCa",
    "placeName": "medford",
    "state": "NJ"
  },
  {
    "city": "penns grove",
    "state_code": "NJ",
    "placeMasterId": "P02500000FsoFx8XKlq33tf4SybLDKoER3X8Kc9n",
    "placeName": "penns grove",
    "state": "NJ"
  },
  {
    "city": "audubon",
    "state_code": "NJ",
    "placeMasterId": "P02500000FsoFvHX7vgXqxqtCX2qmURL4rYgT9d7",
    "placeName": "audubon",
    "state": "NJ"
  },
  {
    "city": "absecon",
    "state_code": "NJ",
    "placeMasterId": "P02500000FsoFv8geKHy4HFe1jEVMZwxkF75uyuA",
    "placeName": "absecon",
    "state": "NJ"
  },
  {
    "city": "rio grande",
    "state_code": "NJ",
    "placeMasterId": "P02500000FsoFxHNoNEcqaGJdmPgdFIeTdvHiFwB",
    "placeName": "rio grande",
    "state": "NJ"
  },
  {
    "city": "mays landing",
    "state_code": "NJ",
    "placeMasterId": "P02500000FsoFwhztxeJhprKwZAIxbLAVatf2mCu",
    "placeName": "mays landing",
    "state": "NJ"
  },
  {
    "city": "margate city",
    "state_code": "NJ",
    "placeMasterId": "P02500000FsoFwhztxeJhprKwZAIxbL2icbVoI6E",
    "placeName": "margate city",
    "state": "NJ"
  },
  {
    "city": "dayton",
    "state_code": "NJ",
    "placeMasterId": "P02500000FsoFvi4YjsHD1eciwTt2DuSkvheYrGf",
    "placeName": "dayton",
    "state": "NJ"
  },
  {
    "city": "new york",
    "state_code": "NY",
    "placeMasterId": "P02500000FsoG3hTIW4bBVIKTvxERFLPbpMNP8u9",
    "placeName": "new york",
    "state": "NY"
  },
  {
    "city": "new york",
    "state_code": "NY",
    "placeMasterId": "P02500000FsoG3hTIW4bBVIKTvxERFLPbpMNP8u9",
    "placeName": "new york",
    "state": "NY"
  },
  {
    "city": "staten island",
    "state_code": "NY",
    "placeMasterId": "P02500000FsoHDBWVhflbkFwmRmIoilOWW8CMZ4T",
    "placeName": "staten island",
    "state": "NY"
  },
  {
    "city": "mount kisco",
    "state_code": "NY",
    "placeMasterId": "P02500000FsoHDkuQ7G4kUevTf1gUMioKch2ywo2",
    "placeName": "mount kisco",
    "state": "NY"
  },
  {
    "city": "white plains",
    "state_code": "NY",
    "placeMasterId": "P02500000FsoG5hJyxcgB7hkvBK4I0CVqoZQzEuf",
    "placeName": "white plains",
    "state": "NY"
  },
  {
    "city": "monsey",
    "state_code": "NY",
    "placeMasterId": "P02500000FsoG3hTIW4bBVIKTvxERFLGqIuguz3Z",
    "placeName": "monsey",
    "state": "NY"
  },
  {
    "city": "nanuet",
    "state_code": "NY",
    "placeMasterId": "P02500000FsoG3hTIW4bBVIKTvxERFLFbzbpHAIp",
    "placeName": "nanuet",
    "state": "NY"
  },
  {
    "city": "sloatsburg",
    "state_code": "NY",
    "placeMasterId": "P02500000FsoG4z5awdnFghX3AGLCRklFLKVW9fl",
    "placeName": "sloatsburg",
    "state": "NY"
  },
  {
    "city": "spring valley",
    "state_code": "NY",
    "placeMasterId": "P02500000FsoG57w4Y2N2NImDy4gcMEvhxrNrm2z",
    "placeName": "spring valley",
    "state": "NY"
  },
  {
    "city": "brooklyn",
    "state_code": "NY",
    "placeMasterId": "P02500000FsoHCc8bI5SSzqy5EWv94nnzJKQNSS5",
    "placeName": "brooklyn",
    "state": "NY"
  },
  {
    "city": "brooklyn",
    "state_code": "NY",
    "placeMasterId": "P02500000FsoHCc8bI5SSzqy5EWv94nnzJKQNSS5",
    "placeName": "brooklyn",
    "state": "NY"
  },
  {
    "city": "albertson",
    "state_code": "NY",
    "placeMasterId": "P02500000FsoG0qXkS93TlHQzriK51Xla7YLYvE6",
    "placeName": "albertson",
    "state": "NY"
  },
  {
    "city": "east rockaway",
    "state_code": "NY",
    "placeMasterId": "P02500000FsoG1zJZHJflG5OOID5QJSsjlTyo2eY",
    "placeName": "east rockaway",
    "state": "NY"
  },
  {
    "city": "deer park",
    "state_code": "NY",
    "placeMasterId": "P02500000FsoG1hcc4WWBssu2gaOaUU5Tv4A2Kgd",
    "placeName": "deer park",
    "state": "NY"
  },
  {
    "city": "hauppauge",
    "state_code": "NY",
    "placeMasterId": "P02500000FsoG2hXxIIYgh5cGJGoVrugOoOkBHS6",
    "placeName": "hauppauge",
    "state": "NY"
  },
  {
    "city": "calverton",
    "state_code": "NY",
    "placeMasterId": "P02500000FsoG1H5BGKmpp5AWH9MKl10qm3OsUO1",
    "placeName": "calverton",
    "state": "NY"
  },
  {
    "city": "laurel",
    "state_code": "NY",
    "placeMasterId": "P02500000FsoG385O6UI2ktLmihqlbNsr9yblsbb",
    "placeName": "laurel",
    "state": "NY"
  },
  {
    "city": "moriches",
    "state_code": "NY",
    "placeMasterId": "P02500000FsoG3Ycoug1Ooh5J88t1Kr3Z6v8Wyez",
    "placeName": "moriches",
    "state": "NY"
  },
  {
    "city": "chatham",
    "state_code": "NY",
    "placeMasterId": "P02500000FsoHC2kgsV9KFRzO1HXTQqTl6ZE7yRO",
    "placeName": "chatham",
    "state": "NY"
  },
  {
    "city": "east nassau",
    "state_code": "NY",
    "placeMasterId": "P02500000FsoG1zJZHJflG5OOID5QJSmipQhZ6HN",
    "placeName": "east nassau",
    "state": "NY"
  },
  {
    "city": "esperance",
    "state_code": "NY",
    "placeMasterId": "P02500000FsoHDKMzJ4LOQrBxFaeEdFi03H9vDgg",
    "placeName": "esperance",
    "state": "NY"
  },
  {
    "city": "niverville",
    "state_code": "NY",
    "placeMasterId": "P02500000FsoG3qJm7TAyBtZejlZr9piD8pSYRau",
    "placeName": "niverville",
    "state": "NY"
  },
  {
    "city": "tribes hill",
    "state_code": "NY",
    "placeMasterId": "P02500000FsoG5Pd1kpWbkVGZZhNSBDfi3QI9lHv",
    "placeName": "tribes hill",
    "state": "NY"
  },
  {
    "city": "wynantskill",
    "state_code": "NY",
    "placeMasterId": "P02500000FsoG5hJyxcgB7hkvBK4I0CbqIVSoukc",
    "placeName": "wynantskill",
    "state": "NY"
  },
  {
    "city": "catskill",
    "state_code": "NY",
    "placeMasterId": "P02500000FsoHCTI7ggsgJFiuQiZjAJanbUXmJCx",
    "placeName": "catskill",
    "state": "NY"
  },
  {
    "city": "ellenville",
    "state_code": "NY",
    "placeMasterId": "P02500000FsoG1zJZHJflG5OOID5QJSyjF17uO8p",
    "placeName": "ellenville",
    "state": "NY"
  },
  {
    "city": "leeds",
    "state_code": "NY",
    "placeMasterId": "P02500000FsoG3GvrhsrpRUaxWWCBVsB8Jqqn5a0",
    "placeName": "leeds",
    "state": "NY"
  },
  {
    "city": "cornwall",
    "state_code": "NY",
    "placeMasterId": "P02500000FsoIEOU1uHSU8NMyMVKxLls2KBnWP88",
    "placeName": "cornwall",
    "state": "NY"
  },
  {
    "city": "new windsor",
    "state_code": "NY",
    "placeMasterId": "P02500000FsoHD2g26HBp3ehbdxxOoGtZ08zUTpQ",
    "placeName": "new windsor",
    "state": "NY"
  },
  {
    "city": "smallwood",
    "state_code": "NY",
    "placeMasterId": "P02500000FsoG4z5awdnFghX3AGLCRkZxbIvrbju",
    "placeName": "smallwood",
    "state": "NY"
  },
  {
    "city": "ticonderoga",
    "state_code": "NY",
    "placeMasterId": "P02500000FsoIGxiclPqcVBm6p7YTkaYmGp6PbKn",
    "placeName": "ticonderoga",
    "state": "NY"
  },
  {
    "city": "whitehall",
    "state_code": "NY",
    "placeMasterId": "P02500000FsoHDc3wVrUxo3gIrDL4SERYfeytaZP",
    "placeName": "whitehall",
    "state": "NY"
  },
  {
    "city": "brewerton",
    "state_code": "NY",
    "placeMasterId": "P02500000FsoG1H5BGKmpp5AWH9MKl0zY8tO30jH",
    "placeName": "brewerton",
    "state": "NY"
  },
  {
    "city": "bridgeport",
    "state_code": "NY",
    "placeMasterId": "P02500000FsoG18EhewD38TvLTL0uqWi11KIY68Q",
    "placeName": "bridgeport",
    "state": "NY"
  },
  {
    "city": "clay",
    "state_code": "NY",
    "placeMasterId": "P02500000FsoIEOU1uHSU8NMyMVKxLlo8hyVuyk5",
    "placeName": "clay",
    "state": "NY"
  },
  {
    "city": "east syracuse",
    "state_code": "NY",
    "placeMasterId": "P02500000FsoG1zJZHJflG5OOID5QJSohRhrJOyR",
    "placeName": "east syracuse",
    "state": "NY"
  },
  {
    "city": "waterloo",
    "state_code": "NY",
    "placeMasterId": "P02500000FsoHDKMzJ4LOQrBxFaeEdFi3vMR49Fw",
    "placeName": "waterloo",
    "state": "NY"
  },
  {
    "city": "syracuse",
    "state_code": "NY",
    "placeMasterId": "P02500000FsoG57w4Y2N2NImDy4gcMF3udu0wEbR",
    "placeName": "syracuse",
    "state": "NY"
  },
  {
    "city": "frankfort",
    "state_code": "NY",
    "placeMasterId": "P02500000FsoHCc8bI5SSzqy5EWv94nqnrrDm57D",
    "placeName": "frankfort",
    "state": "NY"
  },
  {
    "city": "new lisbon",
    "state_code": "NY",
    "placeMasterId": "P02500000FsoIFownwFEL0NoiOcn8SfdS8vQ7cTk",
    "placeName": "new lisbon",
    "state": "NY"
  },
  {
    "city": "johnson city",
    "state_code": "NY",
    "placeMasterId": "P02500000FsoG385O6UI2ktLmihqlbNjmVoQo6uI",
    "placeName": "johnson city",
    "state": "NY"
  },
  {
    "city": "plymouth",
    "state_code": "NY",
    "placeMasterId": "P02500000FsoIGOKiLpXTkmnPbsAo6cyc9m6ysYt",
    "placeName": "plymouth",
    "state": "NY"
  },
  {
    "city": "angola",
    "state_code": "NY",
    "placeMasterId": "P02500000FsoG0qXkS93TlHQzriK51Xob5s8p9FJ",
    "placeName": "angola",
    "state": "NY"
  },
  {
    "city": "youngstown",
    "state_code": "NY",
    "placeMasterId": "P02500000FsoG5qASZ1FxoJ05z8PhugqSQ4dCyzg",
    "placeName": "youngstown",
    "state": "NY"
  },
  {
    "city": "marion",
    "state_code": "NY",
    "placeMasterId": "P02500000FsoIFg6KKqeYJmZXaoRiYBC2uJUl71n",
    "placeName": "marion",
    "state": "NY"
  },
  {
    "city": "ovid",
    "state_code": "NY",
    "placeMasterId": "P02500000FsoHDKMzJ4LOQrBxFaeEdFoXFtQvY6L",
    "placeName": "ovid",
    "state": "NY"
  },
  {
    "city": "west bloomfield",
    "state_code": "NY",
    "placeMasterId": "P02500000FsoIHFPZyD0BsOGSQkFJZZP7xbBq95U",
    "placeName": "west bloomfield",
    "state": "NY"
  },
  {
    "city": "rochester",
    "state_code": "NY",
    "placeMasterId": "P02500000FsoG4YYA8S3tctnWkpIwiHXc7FWLpT6",
    "placeName": "rochester",
    "state": "NY"
  },
  {
    "city": "falconer",
    "state_code": "NY",
    "placeMasterId": "P02500000FsoG1zJZHJflG5OOID5QJSxNIl1FDAq",
    "placeName": "falconer",
    "state": "NY"
  },
  {
    "city": "ripley",
    "state_code": "NY",
    "placeMasterId": "P02500000FsoHC2kgsV9KFRzO1HXTQqNLff7C60O",
    "placeName": "ripley",
    "state": "NY"
  },
  {
    "city": "lodi",
    "state_code": "NY",
    "placeMasterId": "P02500000FsoHDKMzJ4LOQrBxFaeEdFnDNNK1fK1",
    "placeName": "lodi",
    "state": "NY"
  },
  {
    "city": "wayne",
    "state_code": "NY",
    "placeMasterId": "P02500000FsoIHFPZyD0BsOGSQkFJZZKdajGyFKm",
    "placeName": "wayne",
    "state": "NY"
  },
  {
    "city": "baden",
    "state_code": "PA",
    "placeMasterId": "P02500000FsoGQoaeEI6Oobyi5VC8qhUZfvZuBLv",
    "placeName": "baden",
    "state": "PA"
  },
  {
    "city": "turtle creek",
    "state_code": "PA",
    "placeMasterId": "P02500000FsoGZnujEGSs6SOghexTFYtIYiP0iEF",
    "placeName": "turtle creek",
    "state": "PA"
  },
  {
    "city": "pittsburgh",
    "state_code": "PA",
    "placeMasterId": "P02500000FsoGXfDZBJo5nRj4eTmCaDENhHWAB15",
    "placeName": "pittsburgh",
    "state": "PA"
  },
  {
    "city": "perryopolis",
    "state_code": "PA",
    "placeMasterId": "P02500000FsoGXWN5ZvEJ6qTtqfQmfiynGdahrVH",
    "placeName": "perryopolis",
    "state": "PA"
  },
  {
    "city": "jennerstown",
    "state_code": "PA",
    "placeMasterId": "P02500000FsoGUoI17OGO3QpaaErqMPzW2StzANA",
    "placeName": "jennerstown",
    "state": "PA"
  },
  {
    "city": "youngstown",
    "state_code": "PA",
    "placeMasterId": "P02500000FsoGawgY3R59bGM589ioXTlEis4obYr",
    "placeName": "youngstown",
    "state": "PA"
  },
  {
    "city": "punxsutawney",
    "state_code": "PA",
    "placeMasterId": "P02500000FsoGXwuWO6xfAeDQG6T2PBwcSv0JTyN",
    "placeName": "punxsutawney",
    "state": "PA"
  },
  {
    "city": "johnstown",
    "state_code": "PA",
    "placeMasterId": "P02500000FsoGUx8UimqAk24lO3DGGu9IeQPPEZ3",
    "placeName": "johnstown",
    "state": "PA"
  },
  {
    "city": "butler",
    "state_code": "PA",
    "placeMasterId": "P02500000FsoGRffVqfZ6wDRkuNGeJdaUZmDbOrt",
    "placeName": "butler",
    "state": "PA"
  },
  {
    "city": "petrolia",
    "state_code": "PA",
    "placeMasterId": "P02500000FsoGXWN5ZvEJ6qTtqfQmfj2532CBcML",
    "placeName": "petrolia",
    "state": "PA"
  },
  {
    "city": "defiance",
    "state_code": "PA",
    "placeMasterId": "P02500000FsoGSWkNT31p3ounjFL9mZwmqdJp2zw",
    "placeName": "defiance",
    "state": "PA"
  },
  {
    "city": "julian",
    "state_code": "PA",
    "placeMasterId": "P02500000FsoGUx8UimqAk24lO3DGGuAy0Gomn5Q",
    "placeName": "julian",
    "state": "PA"
  },
  {
    "city": "blossburg",
    "state_code": "PA",
    "placeMasterId": "P02500000FsoGRF852TpksPiEUwEOaAXIuUmEnDk",
    "placeName": "blossburg",
    "state": "PA"
  },
  {
    "city": "williamstown",
    "state_code": "PA",
    "placeMasterId": "P02500000FsoGaezaqdvaE3rjWX1yiVAMbzl8FBB",
    "placeName": "williamstown",
    "state": "PA"
  },
  {
    "city": "mcconnellsburg",
    "state_code": "PA",
    "placeMasterId": "P02500000FsoGVfMsjlj6B2IdP6wLpMBZUeEAhKA",
    "placeName": "mcconnellsburg",
    "state": "PA"
  },
  {
    "city": "littlestown",
    "state_code": "PA",
    "placeMasterId": "P02500000FsoGVWWP8N9JUR3SbIavurqj2R8NPgL",
    "placeName": "littlestown",
    "state": "PA"
  },
  {
    "city": "orrtanna",
    "state_code": "PA",
    "placeMasterId": "P02500000FsoGXEg8N84jjdzYF2jwqkJ801jAxBb",
    "placeName": "orrtanna",
    "state": "PA"
  },
  {
    "city": "maytown",
    "state_code": "PA",
    "placeMasterId": "P02500000FsoGVx3pwYsfYEmz0jdBeKvvH8Fr2Tv",
    "placeName": "maytown",
    "state": "PA"
  },
  {
    "city": "montoursville",
    "state_code": "PA",
    "placeMasterId": "P02500000FsoGWNbGkkc1c2WVQAfRNnyn6UGFBpY",
    "placeName": "montoursville",
    "state": "PA"
  },
  {
    "city": "lewisburg",
    "state_code": "PA",
    "placeMasterId": "P02500000FsoGVNfvWyZWnpoHnUFW0NRch0MNcZl",
    "placeName": "lewisburg",
    "state": "PA"
  },
  {
    "city": "shamokin",
    "state_code": "PA",
    "placeMasterId": "P02500000FsoGYf8uP5qabeRIHAC7xe1MLbdlJ9N",
    "placeName": "shamokin",
    "state": "PA"
  },
  {
    "city": "cressona",
    "state_code": "PA",
    "placeMasterId": "P02500000FsoGSNttreS2NDfcvQzjs5bMRrbJlZL",
    "placeName": "cressona",
    "state": "PA"
  },
  {
    "city": "ringtown",
    "state_code": "PA",
    "placeMasterId": "P02500000FsoGY5kzzVXRrFSb3uoSJgOxHXGUNEq",
    "placeName": "ringtown",
    "state": "PA"
  },
  {
    "city": "olyphant",
    "state_code": "PA",
    "placeMasterId": "P02500000FsoGXNWbyWeWQFEj2r5MlERFF93Bn1Q",
    "placeName": "olyphant",
    "state": "PA"
  },
  {
    "city": "ambler",
    "state_code": "PA",
    "placeMasterId": "P02500000FsoGQfkActWc80jXHgqiwCzFjAcDMfw",
    "placeName": "ambler",
    "state": "PA"
  },
  {
    "city": "fort washington",
    "state_code": "PA",
    "placeMasterId": "P02500000FsoGTWfigp4Js1d1Lvl5A0XWrOYourA",
    "placeName": "fort washington",
    "state": "PA"
  },
  {
    "city": "philadelphia",
    "state_code": "PA",
    "placeMasterId": "P02500000FsoGXWN5ZvEJ6qTtqfQmfiyVODy6MPW",
    "placeName": "philadelphia",
    "state": "PA"
  },
  {
    "city": "atglen",
    "state_code": "PA",
    "placeMasterId": "P02500000FsoGQfkActWc80jXHgqiwDFZrUR6JG9",
    "placeName": "atglen",
    "state": "PA"
  },
  {
    "city": "kutztown",
    "state_code": "PA",
    "placeMasterId": "P02500000FsoGV5yyKBPxQdJwBrYgBOhZxb0XKq7",
    "placeName": "kutztown",
    "state": "PA"
  },
  {
    "city": "washington",
    "state_code": "DC",
    "placeMasterId": "P02500000FsoEq4sEpygzKuc87a8wLiQYg142PzN",
    "placeName": "washington",
    "state": "DC"
  },
  {
    "city": "washington",
    "state_code": "DC",
    "placeMasterId": "P02500000FsoEq4sEpygzKuc87a8wLiQYg142PzN",
    "placeName": "washington",
    "state": "DC"
  },
  {
    "city": "haymarket",
    "state_code": "VA",
    "placeMasterId": "P02500000FsoGvv6jihvabZKhEWVFTUSGR12YTxI",
    "placeName": "haymarket",
    "state": "VA"
  },
  {
    "city": "the plains",
    "state_code": "VA",
    "placeMasterId": "P02500000FsoGxm6wYrQnXNVxg4zgJrFAUwYvZxs",
    "placeName": "the plains",
    "state": "VA"
  },
  {
    "city": "washington",
    "state_code": "DC",
    "placeMasterId": "P02500000FsoEq4sEpygzKuc87a8wLiQYg142PzN",
    "placeName": "washington",
    "state": "DC"
  },
  {
    "city": "piney point",
    "state_code": "MD",
    "placeMasterId": "P02500000FsoFVSKhkw4ib7af74K8Zm9LAy4GHPq",
    "placeName": "piney point",
    "state": "MD"
  },
  {
    "city": "bowie",
    "state_code": "MD",
    "placeMasterId": "P02500000FsoFTbKUumZVfJPOfVphjPEWm4ouK7q",
    "placeName": "bowie",
    "state": "MD"
  },
  {
    "city": "gaithersburg",
    "state_code": "MD",
    "placeMasterId": "P02500000FsoFUSPMXA2DmusRUNuDCLSggAPIqSu",
    "placeName": "gaithersburg",
    "state": "MD"
  },
  {
    "city": "bel air",
    "state_code": "MD",
    "placeMasterId": "P02500000FsoFTSU1JNziyiADrhUHoux9SMb32Hh",
    "placeName": "bel air",
    "state": "MD"
  },
  {
    "city": "ellicott city",
    "state_code": "MD",
    "placeMasterId": "P02500000FsoFUAiPKMsePiO5slDNNMr0t5YeUi2",
    "placeName": "ellicott city",
    "state": "MD"
  },
  {
    "city": "white marsh",
    "state_code": "MD",
    "placeMasterId": "P02500000FsoFWJPZNJXQij3hvwOe2iKIkdEaa5U",
    "placeName": "white marsh",
    "state": "MD"
  },
  {
    "city": "baltimore",
    "state_code": "MD",
    "placeMasterId": "P02500000FsoFTSU1JNziyiADrhUHous91WaBH4V",
    "placeName": "baltimore",
    "state": "MD"
  },
  {
    "city": "baltimore",
    "state_code": "MD",
    "placeMasterId": "P02500000FsoFTSU1JNziyiADrhUHous91WaBH4V",
    "placeName": "baltimore",
    "state": "MD"
  },
  {
    "city": "frederick",
    "state_code": "MD",
    "placeMasterId": "P02500000FsoFUJYsvlSR6JdGgZYnHrC7Vb7aVJm",
    "placeName": "frederick",
    "state": "MD"
  },
  {
    "city": "mardela springs",
    "state_code": "MD",
    "placeMasterId": "P02500000FsoFV1nGwkLMXJr8hdHsqJ3rTWW338V",
    "placeName": "mardela springs",
    "state": "MD"
  },
  {
    "city": "mclean",
    "state_code": "VA",
    "placeMasterId": "P02500000FsoGwUUe8IEjLyJORlsv7RqTMUmOnyg",
    "placeName": "mclean",
    "state": "VA"
  },
  {
    "city": "alexandria",
    "state_code": "VA",
    "placeMasterId": "P02500000FsoGuUdxgk9jjYsxCP34MaiKDaDtr2h",
    "placeName": "alexandria",
    "state": "VA"
  },
  {
    "city": "flint hill",
    "state_code": "VA",
    "placeMasterId": "P02500000FsoGvmGG7JLnuy5WQi9pYzyYJWip5tP",
    "placeName": "flint hill",
    "state": "VA"
  },
  {
    "city": "middletown",
    "state_code": "VA",
    "placeMasterId": "P02500000FsoGwdL7jgoW2ZYZFaEL1wHNnIftAVd",
    "placeName": "middletown",
    "state": "VA"
  },
  {
    "city": "lyndhurst",
    "state_code": "VA",
    "placeMasterId": "P02500000FsoGwLeAWtewfN4DdxXVCxeGaZui3ee",
    "placeName": "lyndhurst",
    "state": "VA"
  },
  {
    "city": "richmond",
    "state_code": "VA",
    "placeMasterId": "P02500000FsoGxLZVkfhRTZmRGdxQaO3uqNoDmKN",
    "placeName": "richmond",
    "state": "VA"
  },
  {
    "city": "richmond",
    "state_code": "VA",
    "placeMasterId": "P02500000FsoGxLZVkfhRTZmRGdxQaO3uqNoDmKN",
    "placeName": "richmond",
    "state": "VA"
  },
  {
    "city": "richmond",
    "state_code": "VA",
    "placeMasterId": "P02500000FsoGxLZVkfhRTZmRGdxQaO3uqNoDmKN",
    "placeName": "richmond",
    "state": "VA"
  },
  {
    "city": "cape charles",
    "state_code": "VA",
    "placeMasterId": "P02500000FsoGuvBOUvt5nMcTbq5K63r3YhSsXhd",
    "placeName": "cape charles",
    "state": "VA"
  },
  {
    "city": "eastville",
    "state_code": "VA",
    "placeMasterId": "P02500000FsoGvdPmVum1EMqLctoPeVa0slbKKMu",
    "placeName": "eastville",
    "state": "VA"
  },
  {
    "city": "norfolk",
    "state_code": "VA",
    "placeMasterId": "P02500000FsoGx3sYXsXs6NI5f1GalPIXzep0Ccf",
    "placeName": "norfolk",
    "state": "VA"
  },
  {
    "city": "norfolk",
    "state_code": "VA",
    "placeMasterId": "P02500000FsoGx3sYXsXs6NI5f1GalPIXzep0Ccf",
    "placeName": "norfolk",
    "state": "VA"
  },
  {
    "city": "fort lee",
    "state_code": "VA",
    "placeMasterId": "P02500000FsoGvmGG7JLnuy5WQi9pZ03KIzcTRAJ",
    "placeName": "fort lee",
    "state": "VA"
  },
  {
    "city": "franklin",
    "state_code": "VA",
    "placeMasterId": "P02500000FsoGvmGG7JLnuy5WQi9pYzygHhMi4lZ",
    "placeName": "franklin",
    "state": "VA"
  },
  {
    "city": "farmville",
    "state_code": "VA",
    "placeMasterId": "P02500000FsoGvdPmVum1EMqLctoPeVnlMYoHcCN",
    "placeName": "farmville",
    "state": "VA"
  },
  {
    "city": "collinsville",
    "state_code": "VA",
    "placeMasterId": "P02500000FsoGvLipJ7cRrAM01H7ZpWsIbQYa4ES",
    "placeName": "collinsville",
    "state": "VA"
  },
  {
    "city": "abingdon",
    "state_code": "VA",
    "placeMasterId": "P02500000FsoGudURI8jWQA880DOUH50hyzOwPDa",
    "placeName": "abingdon",
    "state": "VA"
  },
  {
    "city": "haysi",
    "state_code": "VA",
    "placeMasterId": "P02500000FsoGvv6jihvabZKhEWVFTUYz4GCHivf",
    "placeName": "haysi",
    "state": "VA"
  },
  {
    "city": "jonesville",
    "state_code": "VA",
    "placeMasterId": "P02500000FsoGwCngvV59ylp2q9C5ITAOSMrPZPW",
    "placeName": "jonesville",
    "state": "VA"
  },
  {
    "city": "greenville",
    "state_code": "VA",
    "placeMasterId": "P02500000FsoGvv6jihvabZKhEWVFTUPRKcVOf7Q",
    "placeName": "greenville",
    "state": "VA"
  },
  {
    "city": "monterey",
    "state_code": "VA",
    "placeMasterId": "P02500000FsoGwdL7jgoW2ZYZFaEL1wKfNfp0EYK",
    "placeName": "monterey",
    "state": "VA"
  },
  {
    "city": "bedford",
    "state_code": "VA",
    "placeMasterId": "P02500000FsoGumKutXJJ6lNIo1juBZQlg4kjora",
    "placeName": "bedford",
    "state": "VA"
  },
  {
    "city": "rustburg",
    "state_code": "VA",
    "placeMasterId": "P02500000FsoGxLZVkfhRTZmRGdxQaODchrBTFwj",
    "placeName": "rustburg",
    "state": "VA"
  },
  {
    "city": "buffalo",
    "state_code": "WV",
    "placeMasterId": "P02500000FsoH2CLkG9K8q06MaFhdZ2v9rFI6vL7",
    "placeName": "buffalo",
    "state": "WV"
  },
  {
    "city": "van",
    "state_code": "WV",
    "placeMasterId": "P02500000FsoH43Lx6IpLloHd1oC4PPXVtOfEEFf",
    "placeName": "van",
    "state": "WV"
  },
  {
    "city": "charleston",
    "state_code": "WV",
    "placeMasterId": "P02500000FsoH2LCDrXtvWbLXO433TXAEFw0vAwR",
    "placeName": "charleston",
    "state": "WV"
  },
  {
    "city": "charleston",
    "state_code": "WV",
    "placeMasterId": "P02500000FsoH2LCDrXtvWbLXO433TXAEFw0vAwR",
    "placeName": "charleston",
    "state": "WV"
  },
  {
    "city": "mount hope",
    "state_code": "WV",
    "placeMasterId": "P02500000FsoH3L7Z5JwQKo3l0kSyqxiygrxAoUp",
    "placeName": "mount hope",
    "state": "WV"
  },
  {
    "city": "fenwick",
    "state_code": "WV",
    "placeMasterId": "P02500000FsoH2ctB4L3UtnpszgjtIVw2rkhkgIO",
    "placeName": "fenwick",
    "state": "WV"
  },
  {
    "city": "masontown",
    "state_code": "WV",
    "placeMasterId": "P02500000FsoH3CH5TvMdeCoaCw7YwTMubwRCJ5T",
    "placeName": "masontown",
    "state": "WV"
  },
  {
    "city": "hundred",
    "state_code": "WV",
    "placeMasterId": "P02500000FsoH33QbsWmqxbZPP7m91ytviId8mZ1",
    "placeName": "hundred",
    "state": "WV"
  },
  {
    "city": "greensboro",
    "state_code": "NC",
    "placeMasterId": "P02500000FsoG7PTiCNbbMuh0p4DIw54JG0aDyyU",
    "placeName": "greensboro",
    "state": "NC"
  },
  {
    "city": "creedmoor",
    "state_code": "NC",
    "placeMasterId": "P02500000FsoG6q5nmnIScViJbopdI7NyVDsvb81",
    "placeName": "creedmoor",
    "state": "NC"
  },
  {
    "city": "middleburg",
    "state_code": "NC",
    "placeMasterId": "P02500000FsoG8PP3Q9e6B7PERkdEJVTSnJBS5Y4",
    "placeName": "middleburg",
    "state": "NC"
  },
  {
    "city": "raleigh",
    "state_code": "NC",
    "placeMasterId": "P02500000FsoG8ymxpjxEvWNvf00txSyEKZeGT37",
    "placeName": "raleigh",
    "state": "NC"
  },
  {
    "city": "raleigh",
    "state_code": "NC",
    "placeMasterId": "P02500000FsoG8ymxpjxEvWNvf00txSyEKZeGT37",
    "placeName": "raleigh",
    "state": "NC"
  },
  {
    "city": "engelhard",
    "state_code": "NC",
    "placeMasterId": "P02500000FsoG6ywHOBsFJ6xUPdB3CbqWljE8wc7",
    "placeName": "engelhard",
    "state": "NC"
  },
  {
    "city": "macclesfield",
    "state_code": "NC",
    "placeMasterId": "P02500000FsoG87i6DMUWnuusq7wOUWwQ8uRfPLZ",
    "placeName": "macclesfield",
    "state": "NC"
  },
  {
    "city": "oakboro",
    "state_code": "NC",
    "placeMasterId": "P02500000FsoG8h60cwnfYJta3NK48UI16O9NEUQ",
    "placeName": "oakboro",
    "state": "NC"
  },
  {
    "city": "wingate",
    "state_code": "NC",
    "placeMasterId": "P02500000FsoGA7YmeuZWQKLK5UmFFNyaZRM4SN5",
    "placeName": "wingate",
    "state": "NC"
  },
  {
    "city": "charlotte",
    "state_code": "NC",
    "placeMasterId": "P02500000FsoG6YOqa08tFJDy0C8nT8qHEOhlkFv",
    "placeName": "charlotte",
    "state": "NC"
  },
  {
    "city": "charlotte",
    "state_code": "NC",
    "placeMasterId": "P02500000FsoG6YOqa08tFJDy0C8nT8qHEOhlkFv",
    "placeName": "charlotte",
    "state": "NC"
  },
  {
    "city": "kenansville",
    "state_code": "NC",
    "placeMasterId": "P02500000FsoG7q190ZKxQiQXEVFYfY59rJQadxp",
    "placeName": "kenansville",
    "state": "NC"
  },
  {
    "city": "norman",
    "state_code": "NC",
    "placeMasterId": "P02500000FsoG8YFX1YDsriePFYyeDzy8ykfZaim",
    "placeName": "norman",
    "state": "NC"
  },
  {
    "city": "rowland",
    "state_code": "NC",
    "placeMasterId": "P02500000FsoG97dRR8X1c7d6SoMJrxPyvpcKtd0",
    "placeName": "rowland",
    "state": "NC"
  },
  {
    "city": "rose hill",
    "state_code": "NC",
    "placeMasterId": "P02500000FsoG97dRR8X1c7d6SoMJrxV8eUMK3sc",
    "placeName": "rose hill",
    "state": "NC"
  },
  {
    "city": "bayboro",
    "state_code": "NC",
    "placeMasterId": "P02500000FsoG67rPloPXBVURal6XjfiwPycceYd",
    "placeName": "bayboro",
    "state": "NC"
  },
  {
    "city": "beaufort",
    "state_code": "NC",
    "placeMasterId": "P02500000FsoG67rPloPXBVURal6Xjfad9Q5Orxk",
    "placeName": "beaufort",
    "state": "NC"
  },
  {
    "city": "davis",
    "state_code": "NC",
    "placeMasterId": "P02500000FsoG6q5nmnIScViJbopdI7YiUCHbtD8",
    "placeName": "davis",
    "state": "NC"
  },
  {
    "city": "grantsboro",
    "state_code": "NC",
    "placeMasterId": "P02500000FsoG7PTiCNbbMuh0p4DIw4zPa3gEMbI",
    "placeName": "grantsboro",
    "state": "NC"
  },
  {
    "city": "statesville",
    "state_code": "NC",
    "placeMasterId": "P02500000FsoG9YAsFKGNfvMcsFOZbQVp3jek0Ro",
    "placeName": "statesville",
    "state": "NC"
  },
  {
    "city": "brevard",
    "state_code": "NC",
    "placeMasterId": "P02500000FsoG6GhtNCzJs6jcOZRxeA6WoZm75xu",
    "placeName": "brevard",
    "state": "NC"
  },
  {
    "city": "cashiers",
    "state_code": "NC",
    "placeMasterId": "P02500000FsoG6PYMybZ6YhynCNnNYeQstJv3qJ6",
    "placeName": "cashiers",
    "state": "NC"
  },
  {
    "city": "sylva",
    "state_code": "NC",
    "placeMasterId": "P02500000FsoG9YAsFKGNfvMcsFOZbQhlOlsaen7",
    "placeName": "sylva",
    "state": "NC"
  },
  {
    "city": "asheville",
    "state_code": "NC",
    "placeMasterId": "P02500000FsoG5z0wAPpkUuFGmwl7pBJp7vcNZCo",
    "placeName": "asheville",
    "state": "NC"
  },
  {
    "city": "murphy",
    "state_code": "NC",
    "placeMasterId": "P02500000FsoG8YFX1YDsriePFYyeDzvsVt8cMPt",
    "placeName": "murphy",
    "state": "NC"
  },
  {
    "city": "clemson",
    "state_code": "SC",
    "placeMasterId": "P02500000FsoGbW4ST1OILfKmLP6UBRK8WcmHdMW",
    "placeName": "clemson",
    "state": "SC"
  },
  {
    "city": "hodges",
    "state_code": "SC",
    "placeMasterId": "P02500000FsoGbwbtHD7ePT4Ikq8juuQrcTxK9Nv",
    "placeName": "hodges",
    "state": "SC"
  },
  {
    "city": "pendleton",
    "state_code": "SC",
    "placeMasterId": "P02500000FsoGcngktaaMX4XLZiDFNqaDAR9xpLB",
    "placeName": "pendleton",
    "state": "SC"
  },
  {
    "city": "ware shoals",
    "state_code": "SC",
    "placeMasterId": "P02500000FsoGdN4fJAtVHTW2mxav1o914y1xgCF",
    "placeName": "ware shoals",
    "state": "SC"
  },
  {
    "city": "fort mill",
    "state_code": "SC",
    "placeMasterId": "P02500000FsoGbnlPfoXrirp7x1nK0Q2DZZrcuAG",
    "placeName": "fort mill",
    "state": "SC"
  },
  {
    "city": "elko",
    "state_code": "SC",
    "placeMasterId": "P02500000FsoGbeuw4Py52GZx9DRu5vkVhL4MHgC",
    "placeName": "elko",
    "state": "SC"
  },
  {
    "city": "north augusta",
    "state_code": "SC",
    "placeMasterId": "P02500000FsoGcVzngnQn9s2zy5WPYs0laq5iEgu",
    "placeName": "north augusta",
    "state": "SC"
  },
  {
    "city": "islandton",
    "state_code": "SC",
    "placeMasterId": "P02500000FsoGbwbtHD7ePT4Ikq8juuYh560qeNR",
    "placeName": "islandton",
    "state": "SC"
  },
  {
    "city": "decatur",
    "state_code": "GA",
    "placeMasterId": "P02500000FsoEwM7FNQ5XZLNnTJLKRGjUEchrJsh",
    "placeName": "decatur",
    "state": "GA"
  },
  {
    "city": "lawrenceville",
    "state_code": "GA",
    "placeMasterId": "P02500000FsoExDC6znYFgwqqIBPpuCzr4XxLrtd",
    "placeName": "lawrenceville",
    "state": "GA"
  },
  {
    "city": "newborn",
    "state_code": "GA",
    "placeMasterId": "P02500000FsoExdjXnzHbkkaMhcS5dg7KgDsWtf2",
    "placeName": "newborn",
    "state": "GA"
  },
  {
    "city": "aragon",
    "state_code": "GA",
    "placeMasterId": "P02500000FsoEvV2Nl2cpRjukeRGoyKVZUrUP7CN",
    "placeName": "aragon",
    "state": "GA"
  },
  {
    "city": "cedartown",
    "state_code": "GA",
    "placeMasterId": "P02500000FsoEvvZoZEMBVXeH3sJ4hnclZrwmqDB",
    "placeName": "cedartown",
    "state": "GA"
  },
  {
    "city": "douglasville",
    "state_code": "GA",
    "placeMasterId": "P02500000FsoEwM7FNQ5XZLNnTJLKRGkSlaqR6hG",
    "placeName": "douglasville",
    "state": "GA"
  },
  {
    "city": "tallapoosa",
    "state_code": "GA",
    "placeMasterId": "P02500000FsoEyUoPQMkJsM3PWUWb6cJ187ZivoR",
    "placeName": "tallapoosa",
    "state": "GA"
  },
  {
    "city": "whitesburg",
    "state_code": "GA",
    "placeMasterId": "P02500000FsoEyvLqEYTfw9mvvvYqq5PL6gvzJk0",
    "placeName": "whitesburg",
    "state": "GA"
  },
  {
    "city": "atlanta",
    "state_code": "GA",
    "placeMasterId": "P02500000FsoEvV2Nl2cpRjukeRGoyKXsQZ9lvPs",
    "placeName": "atlanta",
    "state": "GA"
  },
  {
    "city": "atlanta",
    "state_code": "GA",
    "placeMasterId": "P02500000FsoEvV2Nl2cpRjukeRGoyKXsQZ9lvPs",
    "placeName": "atlanta",
    "state": "GA"
  },
  {
    "city": "lyons",
    "state_code": "GA",
    "placeMasterId": "P02500000FsoExM2abC82NY615zlFohNCdf9Pl6F",
    "placeName": "lyons",
    "state": "GA"
  },
  {
    "city": "buford",
    "state_code": "GA",
    "placeMasterId": "P02500000FsoEvmjKxpmOowP6G3xenJGdH3bYfRX",
    "placeName": "buford",
    "state": "GA"
  },
  {
    "city": "commerce",
    "state_code": "GA",
    "placeMasterId": "P02500000FsoEwDGlm1Vksk8cfUzuWmKgysAPUSl",
    "placeName": "commerce",
    "state": "GA"
  },
  {
    "city": "danielsville",
    "state_code": "GA",
    "placeMasterId": "P02500000FsoEwDGlm1Vksk8cfUzuWmNEqaU5wVl",
    "placeName": "danielsville",
    "state": "GA"
  },
  {
    "city": "royston",
    "state_code": "GA",
    "placeMasterId": "P02500000FsoEyD7SDZakV9Z3urplHdbj2jYlo3c",
    "placeName": "royston",
    "state": "GA"
  },
  {
    "city": "washington",
    "state_code": "GA",
    "placeMasterId": "P02500000FsoEyvLqEYTfw9mvvvYqq5Oydeu7fJD",
    "placeName": "washington",
    "state": "GA"
  },
  {
    "city": "lyerly",
    "state_code": "GA",
    "placeMasterId": "P02500000FsoExM2abC82NY615zlFohKkMN0gmCx",
    "placeName": "lyerly",
    "state": "GA"
  },
  {
    "city": "matthews",
    "state_code": "GA",
    "placeMasterId": "P02500000FsoExUt4Cahp49LBto6fjBhgbTzhGqv",
    "placeName": "matthews",
    "state": "GA"
  },
  {
    "city": "norwood",
    "state_code": "GA",
    "placeMasterId": "P02500000FsoExma1PNrORLpXVQnVYARtSvAEwL5",
    "placeName": "norwood",
    "state": "GA"
  },
  {
    "city": "butler",
    "state_code": "GA",
    "placeMasterId": "P02500000FsoEvmjKxpmOowP6G3xenJGxdaS58Dx",
    "placeName": "butler",
    "state": "GA"
  },
  {
    "city": "eatonton",
    "state_code": "GA",
    "placeMasterId": "P02500000FsoEwUxiyofKFwcyH7gkLl5cNJN4T2n",
    "placeName": "eatonton",
    "state": "GA"
  },
  {
    "city": "mcintyre",
    "state_code": "GA",
    "placeMasterId": "P02500000FsoExUt4Cahp49LBto6fjBgb2bjBJ0u",
    "placeName": "mcintyre",
    "state": "GA"
  },
  {
    "city": "ludowici",
    "state_code": "GA",
    "placeMasterId": "P02500000FsoExM2abC82NY615zlFohMKPnPXwUZ",
    "placeName": "ludowici",
    "state": "GA"
  },
  {
    "city": "savannah",
    "state_code": "GA",
    "placeMasterId": "P02500000FsoEyD7SDZakV9Z3urplHdbJAuUvfKW",
    "placeName": "savannah",
    "state": "GA"
  },
  {
    "city": "sale city",
    "state_code": "GA",
    "placeMasterId": "P02500000FsoEyD7SDZakV9Z3urplHdbgMjx9hng",
    "placeName": "sale city",
    "state": "GA"
  },
  {
    "city": "columbus",
    "state_code": "GA",
    "placeMasterId": "P02500000FsoEwDGlm1Vksk8cfUzuWmKM4R9DiHm",
    "placeName": "columbus",
    "state": "GA"
  },
  {
    "city": "fort white",
    "state_code": "FL",
    "placeMasterId": "P02500000FsoErVL0rwSqCv3s9hb7Sc6iHOhDEEm",
    "placeName": "fort white",
    "state": "FL"
  },
  {
    "city": "jacksonville",
    "state_code": "FL",
    "placeMasterId": "P02500000FsoEs4ivHWlyxK2ZMwyn6Zc9nJdRTGT",
    "placeName": "jacksonville",
    "state": "FL"
  },
  {
    "city": "jacksonville",
    "state_code": "FL",
    "placeMasterId": "P02500000FsoEs4ivHWlyxK2ZMwyn6Zc9nJdRTGT",
    "placeName": "jacksonville",
    "state": "FL"
  },
  {
    "city": "jacksonville",
    "state_code": "FL",
    "placeMasterId": "P02500000FsoEs4ivHWlyxK2ZMwyn6Zc9nJdRTGT",
    "placeName": "jacksonville",
    "state": "FL"
  },
  {
    "city": "tallahassee",
    "state_code": "FL",
    "placeMasterId": "P02500000FsoEuV72XGaKdXCX1kqtatxuQPy6zAD",
    "placeName": "tallahassee",
    "state": "FL"
  },
  {
    "city": "tallahassee",
    "state_code": "FL",
    "placeMasterId": "P02500000FsoEuV72XGaKdXCX1kqtatxuQPy6zAD",
    "placeName": "tallahassee",
    "state": "FL"
  },
  {
    "city": "blountstown",
    "state_code": "FL",
    "placeMasterId": "P02500000FsoEqVPfeAQLOiLeX1BC5BUGoPIJYjp",
    "placeName": "blountstown",
    "state": "FL"
  },
  {
    "city": "crestview",
    "state_code": "FL",
    "placeMasterId": "P02500000FsoEqn6cqxZuluq08ds1uAHC0pl9Sws",
    "placeName": "crestview",
    "state": "FL"
  },
  {
    "city": "fort walton beach",
    "state_code": "FL",
    "placeMasterId": "P02500000FsoErVL0rwSqCv3s9hb7Sc4zBC2il8s",
    "placeName": "fort walton beach",
    "state": "FL"
  },
  {
    "city": "winter springs",
    "state_code": "FL",
    "placeMasterId": "P02500000FsoEvMBu9e32l8fZqcvP3q6e4pG1EtO",
    "placeName": "winter springs",
    "state": "FL"
  },
  {
    "city": "mims",
    "state_code": "FL",
    "placeMasterId": "P02500000FsoEt4eGVIoTlWkmzdOiU0BLA51r4jv",
    "placeName": "mims",
    "state": "FL"
  },
  {
    "city": "orange city",
    "state_code": "FL",
    "placeMasterId": "P02500000FsoEtVBhJUXppKUJP4QyDTHg5lr5Vkr",
    "placeName": "orange city",
    "state": "FL"
  },
  {
    "city": "orlando",
    "state_code": "FL",
    "placeMasterId": "P02500000FsoEtVBhJUXppKUJP4QyDTHMDbz9uFq",
    "placeName": "orlando",
    "state": "FL"
  },
  {
    "city": "orlando",
    "state_code": "FL",
    "placeMasterId": "P02500000FsoEtVBhJUXppKUJP4QyDTHMDbz9uFq",
    "placeName": "orlando",
    "state": "FL"
  },
  {
    "city": "orlando",
    "state_code": "FL",
    "placeMasterId": "P02500000FsoEtVBhJUXppKUJP4QyDTHMDbz9uFq",
    "placeName": "orlando",
    "state": "FL"
  },
  {
    "city": "melbourne",
    "state_code": "FL",
    "placeMasterId": "P02500000FsoEsvnmtuEh4vVcBp3IZVpfHG8GKti",
    "placeName": "melbourne",
    "state": "FL"
  },
  {
    "city": "pompano beach",
    "state_code": "FL",
    "placeMasterId": "P02500000FsoEtvj87gHBt8DpoVTDwwP6HVzAGAM",
    "placeName": "pompano beach",
    "state": "FL"
  },
  {
    "city": "miami",
    "state_code": "FL",
    "placeMasterId": "P02500000FsoEsvnmtuEh4vVcBp3IZVnnnRh03zn",
    "placeName": "miami",
    "state": "FL"
  },
  {
    "city": "miami",
    "state_code": "FL",
    "placeMasterId": "P02500000FsoEsvnmtuEh4vVcBp3IZVnnnRh03zn",
    "placeName": "miami",
    "state": "FL"
  },
  {
    "city": "miami",
    "state_code": "FL",
    "placeMasterId": "P02500000FsoEsvnmtuEh4vVcBp3IZVnnnRh03zn",
    "placeName": "miami",
    "state": "FL"
  },
  {
    "city": "fort lauderdale",
    "state_code": "FL",
    "placeMasterId": "P02500000FsoErVL0rwSqCv3s9hb7Sc4XvAWhbEe",
    "placeName": "fort lauderdale",
    "state": "FL"
  },
  {
    "city": "fort lauderdale",
    "state_code": "FL",
    "placeMasterId": "P02500000FsoErVL0rwSqCv3s9hb7Sc4XvAWhbEe",
    "placeName": "fort lauderdale",
    "state": "FL"
  },
  {
    "city": "fort lauderdale",
    "state_code": "FL",
    "placeMasterId": "P02500000FsoErVL0rwSqCv3s9hb7Sc4XvAWhbEe",
    "placeName": "fort lauderdale",
    "state": "FL"
  },
  {
    "city": "west palm beach",
    "state_code": "FL",
    "placeMasterId": "P02500000FsoEuveTLSJghKw3RBt9KN3fVhs2PCt",
    "placeName": "west palm beach",
    "state": "FL"
  },
  {
    "city": "deerfield beach",
    "state_code": "FL",
    "placeMasterId": "P02500000FsoEr4na3kjU97KLkGYrj8xfMm0XmhW",
    "placeName": "deerfield beach",
    "state": "FL"
  },
  {
    "city": "south bay",
    "state_code": "FL",
    "placeMasterId": "P02500000FsoEuMGYvs0XwvxMDwVTgPXuKP5IlPY",
    "placeName": "south bay",
    "state": "FL"
  },
  {
    "city": "tampa",
    "state_code": "FL",
    "placeMasterId": "P02500000FsoEudxW8fA7K8RhpZCJVOG5RK5OQjD",
    "placeName": "tampa",
    "state": "FL"
  },
  {
    "city": "tampa",
    "state_code": "FL",
    "placeMasterId": "P02500000FsoEudxW8fA7K8RhpZCJVOG5RK5OQjD",
    "placeName": "tampa",
    "state": "FL"
  },
  {
    "city": "fort myers",
    "state_code": "FL",
    "placeMasterId": "P02500000FsoErMUXGXt3WJohLtFhY7lIEW7YWt0",
    "placeName": "fort myers",
    "state": "FL"
  },
  {
    "city": "lehigh acres",
    "state_code": "FL",
    "placeMasterId": "P02500000FsoEse6ph757hj1GaCMSkX4VLtFhXwj",
    "placeName": "lehigh acres",
    "state": "FL"
  },
  {
    "city": "lehigh acres",
    "state_code": "FL",
    "placeMasterId": "P02500000FsoEse6ph757hj1GaCMSkX4VLtFhXwj",
    "placeName": "lehigh acres",
    "state": "FL"
  },
  {
    "city": "kissimmee",
    "state_code": "FL",
    "placeMasterId": "P02500000FsoEsDZOsvLldvHkAlKD13zx5ZMuxgh",
    "placeName": "kissimmee",
    "state": "FL"
  },
  {
    "city": "alexander city",
    "state_code": "AL",
    "placeMasterId": "P02500000FsoESg3vuy2CeOTYMPUOvNSCpjOJzPU",
    "placeName": "alexander city",
    "state": "AL"
  },
  {
    "city": "cleveland",
    "state_code": "AL",
    "placeMasterId": "P02500000FsoET6bMj9lYiCD4lqWeeqdmZQlpmo0",
    "placeName": "cleveland",
    "state": "AL"
  },
  {
    "city": "rockford",
    "state_code": "AL",
    "placeMasterId": "P02500000FsoEV6S3AhqYKbdW1DMVPhny30QjoVn",
    "placeName": "rockford",
    "state": "AL"
  },
  {
    "city": "shelby",
    "state_code": "AL",
    "placeMasterId": "P02500000FsoEVO90NV07ho7rcq3LEgW0bP7GQWa",
    "placeName": "shelby",
    "state": "AL"
  },
  {
    "city": "wilton",
    "state_code": "AL",
    "placeMasterId": "P02500000FsoEVxWun5JGSD6Yq5R0se3eJXWDLca",
    "placeName": "wilton",
    "state": "AL"
  },
  {
    "city": "birmingham",
    "state_code": "AL",
    "placeMasterId": "P02500000FsoESouPWMbzKzijADpoprrGKsxshig",
    "placeName": "birmingham",
    "state": "AL"
  },
  {
    "city": "birmingham",
    "state_code": "AL",
    "placeMasterId": "P02500000FsoESouPWMbzKzijADpoprrGKsxshig",
    "placeName": "birmingham",
    "state": "AL"
  },
  {
    "city": "haleyville",
    "state_code": "AL",
    "placeMasterId": "P02500000FsoETxgELXEGpng7aibA7mpHeEI29Eg",
    "placeName": "haleyville",
    "state": "AL"
  },
  {
    "city": "millport",
    "state_code": "AL",
    "placeMasterId": "P02500000FsoEUX48l7XPaCeonxyplkLJpjCaIKX",
    "placeName": "millport",
    "state": "AL"
  },
  {
    "city": "decatur",
    "state_code": "AL",
    "placeMasterId": "P02500000FsoETOIJvwv85OhQNTDUTpKFE3l04az",
    "placeName": "decatur",
    "state": "AL"
  },
  {
    "city": "langston",
    "state_code": "AL",
    "placeMasterId": "P02500000FsoEUFNBYKNqD0ATCLHzwlaTka6QtGi",
    "placeName": "langston",
    "state": "AL"
  },
  {
    "city": "rainbow city",
    "state_code": "AL",
    "placeMasterId": "P02500000FsoEV6S3AhqYKbdW1DMVPhnyFTJPHkl",
    "placeName": "rainbow city",
    "state": "AL"
  },
  {
    "city": "steele",
    "state_code": "AL",
    "placeMasterId": "P02500000FsoEVO90NV07ho7rcq3LEgZraabnLGg",
    "placeName": "steele",
    "state": "AL"
  },
  {
    "city": "montgomery",
    "state_code": "AL",
    "placeMasterId": "P02500000FsoEUX48l7XPaCeonxyplkMDm5NRSjd",
    "placeName": "montgomery",
    "state": "AL"
  },
  {
    "city": "whatley",
    "state_code": "AL",
    "placeMasterId": "P02500000FsoEVogRBgjTlbrO2H5ay9hRUcTqqHu",
    "placeName": "whatley",
    "state": "AL"
  },
  {
    "city": "mobile",
    "state_code": "AL",
    "placeMasterId": "P02500000FsoEUX48l7XPaCeonxyplkKNMXCzpeH",
    "placeName": "mobile",
    "state": "AL"
  },
  {
    "city": "forkland",
    "state_code": "AL",
    "placeMasterId": "P02500000FsoETX8nXLUulzwbBHYuOJjiCzvV8eS",
    "placeName": "forkland",
    "state": "AL"
  },
  {
    "city": "greensboro",
    "state_code": "AL",
    "placeMasterId": "P02500000FsoETopkk8eU9CQwmuFkDIRPOwVUqch",
    "placeName": "greensboro",
    "state": "AL"
  },
  {
    "city": "waverly",
    "state_code": "AL",
    "placeMasterId": "P02500000FsoEVogRBgjTlbrO2H5ay9gAgiqwCmw",
    "placeName": "waverly",
    "state": "AL"
  },
  {
    "city": "bellamy",
    "state_code": "AL",
    "placeMasterId": "P02500000FsoESouPWMbzKzijADpoprpRm0LiFTr",
    "placeName": "bellamy",
    "state": "AL"
  },
  {
    "city": "alexandria",
    "state_code": "TN",
    "placeMasterId": "P02500000FsoGfnSmYuhqxgg0RlT1W8LtmMaWxfm",
    "placeName": "alexandria",
    "state": "TN"
  },
  {
    "city": "chapel hill",
    "state_code": "TN",
    "placeMasterId": "P02500000FsoGg59jlhrQKtAM3O9rL7MTXFhsGE4",
    "placeName": "chapel hill",
    "state": "TN"
  },
  {
    "city": "murfreesboro",
    "state_code": "TN",
    "placeMasterId": "P02500000FsoGhMm2CH3UWIMvHhGcXWWVtkn4xRN",
    "placeName": "murfreesboro",
    "state": "TN"
  },
  {
    "city": "nolensville",
    "state_code": "TN",
    "placeMasterId": "P02500000FsoGhMm2CH3UWIMvHhGcXWZiIitToBP",
    "placeName": "nolensville",
    "state": "TN"
  },
  {
    "city": "pegram",
    "state_code": "TN",
    "placeMasterId": "P02500000FsoGheSzP4D3tUrGtJxSMVCMdh4yxcs",
    "placeName": "pegram",
    "state": "TN"
  },
  {
    "city": "harrison",
    "state_code": "TN",
    "placeMasterId": "P02500000FsoGgeXeBIAZ5I93GdXWz4lPVqbdE5S",
    "placeName": "harrison",
    "state": "TN"
  },
  {
    "city": "south pittsburg",
    "state_code": "TN",
    "placeMasterId": "P02500000FsoGhw9wbrMdGhLcUweIBTzoKEIOGXs",
    "placeName": "south pittsburg",
    "state": "TN"
  },
  {
    "city": "la follette",
    "state_code": "TN",
    "placeMasterId": "P02500000FsoGgwEbO5K8SUdOsGEMo3OQ3HfhpJY",
    "placeName": "la follette",
    "state": "TN"
  },
  {
    "city": "moscow",
    "state_code": "TN",
    "placeMasterId": "P02500000FsoGhDvYasThph7kTsvCd2BJfjc31wb",
    "placeName": "moscow",
    "state": "TN"
  },
  {
    "city": "memphis",
    "state_code": "TN",
    "placeMasterId": "P02500000FsoGh554zTtv95sZg4ZmiXoGr41AEmS",
    "placeName": "memphis",
    "state": "TN"
  },
  {
    "city": "memphis",
    "state_code": "TN",
    "placeMasterId": "P02500000FsoGh554zTtv95sZg4ZmiXoGr41AEmS",
    "placeName": "memphis",
    "state": "TN"
  },
  {
    "city": "bruceton",
    "state_code": "TN",
    "placeMasterId": "P02500000FsoGfwJGAJHdeHvBFZoRQcshwSuoHHJ",
    "placeName": "bruceton",
    "state": "TN"
  },
  {
    "city": "pulaski",
    "state_code": "TN",
    "placeMasterId": "P02500000FsoGheSzP4D3tUrGtJxSMVM9c6oPP1Q",
    "placeName": "pulaski",
    "state": "TN"
  },
  {
    "city": "pleasant hill",
    "state_code": "TN",
    "placeMasterId": "P02500000FsoGheSzP4D3tUrGtJxSMVEahnprT6Q",
    "placeName": "pleasant hill",
    "state": "TN"
  },
  {
    "city": "pelahatchie",
    "state_code": "MS",
    "placeMasterId": "P02500000FsoFi0oiporp3z7zoWiuksrXcQzhK3X",
    "placeName": "pelahatchie",
    "state": "MS"
  },
  {
    "city": "pickens",
    "state_code": "MS",
    "placeMasterId": "P02500000FsoFhryFEQI2NNsp0iNUqOcPxELiGUE",
    "placeName": "pickens",
    "state": "MS"
  },
  {
    "city": "chunky",
    "state_code": "MS",
    "placeMasterId": "P02500000FsoFgjCQPFfksZvQaDc9YTamzjE3x8W",
    "placeName": "chunky",
    "state": "MS"
  },
  {
    "city": "toomsuba",
    "state_code": "MS",
    "placeMasterId": "P02500000FsoFiRM9e0bB7mrWDxlAULzkRWJKiCI",
    "placeName": "toomsuba",
    "state": "MS"
  },
  {
    "city": "bassfield",
    "state_code": "MS",
    "placeMasterId": "P02500000FsoFgRVTCSWBVNR4yavJjUq96OEeJYK",
    "placeName": "bassfield",
    "state": "MS"
  },
  {
    "city": "lumberton",
    "state_code": "MS",
    "placeMasterId": "P02500000FsoFhaHI1d8T0BOTP5gf1PganSH5U31",
    "placeName": "lumberton",
    "state": "MS"
  },
  {
    "city": "moss point",
    "state_code": "MS",
    "placeMasterId": "P02500000FsoFhj7ld1iFgmdeCu24vu69xxwBHOx",
    "placeName": "moss point",
    "state": "MS"
  },
  {
    "city": "newton",
    "state_code": "GA",
    "placeMasterId": "P02500000FsoExdjXnzHbkkaMhcS5dg77qnmzVqG",
    "placeName": "newton",
    "state": "GA"
  },
  {
    "city": "mount washington",
    "state_code": "KY",
    "placeMasterId": "P02500000FsoFP2FDc66Ng5ZoxWmKZjWhGTKFF7w",
    "placeName": "mount washington",
    "state": "KY"
  },
  {
    "city": "louisville",
    "state_code": "KY",
    "placeMasterId": "P02500000FsoFOkYGPIwoIt5TLu5UkkhkzCsPo64",
    "placeName": "louisville",
    "state": "KY"
  },
  {
    "city": "louisville",
    "state_code": "KY",
    "placeMasterId": "P02500000FsoFOkYGPIwoIt5TLu5UkkhkzCsPo64",
    "placeName": "louisville",
    "state": "KY"
  },
  {
    "city": "salvisa",
    "state_code": "KY",
    "placeMasterId": "P02500000FsoFPbd81gPWQUYWAmA0DgsQsmbXKiz",
    "placeName": "salvisa",
    "state": "KY"
  },
  {
    "city": "lexington",
    "state_code": "KY",
    "placeMasterId": "P02500000FsoFOkYGPIwoIt5TLu5UkkeaJQ4MXLq",
    "placeName": "lexington",
    "state": "KY"
  },
  {
    "city": "cawood",
    "state_code": "KY",
    "placeMasterId": "P02500000FsoFNSvxyjkk7Tsu7ayjYLJnpHbg2zm",
    "placeName": "cawood",
    "state": "KY"
  },
  {
    "city": "harlan",
    "state_code": "KY",
    "placeMasterId": "P02500000FsoFOBALzidfYU6m8ehp6nH9w2UWt25",
    "placeName": "harlan",
    "state": "KY"
  },
  {
    "city": "flat lick",
    "state_code": "KY",
    "placeMasterId": "P02500000FsoFNtTOmvU6BHcQX20zHoUFS6T2twO",
    "placeName": "flat lick",
    "state": "KY"
  },
  {
    "city": "symsonia",
    "state_code": "KY",
    "placeMasterId": "P02500000FsoFPkTbd4zJ75ngyaVQ8BRHD9NU9N7",
    "placeName": "symsonia",
    "state": "KY"
  },
  {
    "city": "cave city",
    "state_code": "KY",
    "placeMasterId": "P02500000FsoFNSvxyjkk7Tsu7ayjYLJnUXXg2Ks",
    "placeName": "cave city",
    "state": "KY"
  },
  {
    "city": "beechmont",
    "state_code": "KY",
    "placeMasterId": "P02500000FsoFNBF0lwbAkHOYVyHtjMXvElQG4Y2",
    "placeName": "beechmont",
    "state": "KY"
  },
  {
    "city": "rockport",
    "state_code": "KY",
    "placeMasterId": "P02500000FsoFPSmeQHpjjtJLMxoaJCcGNc7cUv3",
    "placeName": "rockport",
    "state": "KY"
  },
  {
    "city": "corydon",
    "state_code": "KY",
    "placeMasterId": "P02500000FsoFNkcvBWuJUgNFjDfZNK12mGmXrb6",
    "placeName": "corydon",
    "state": "KY"
  },
  {
    "city": "hanson",
    "state_code": "KY",
    "placeMasterId": "P02500000FsoFOBALzidfYU6m8ehp6nDKcK0OYRi",
    "placeName": "hanson",
    "state": "KY"
  },
  {
    "city": "whitley city",
    "state_code": "KY",
    "placeMasterId": "P02500000FsoFQ2AYps8sUII2aDCFxA6RNxwxZ8t",
    "placeName": "whitley city",
    "state": "KY"
  },
  {
    "city": "johnstown",
    "state_code": "OH",
    "placeMasterId": "P02500000FsoGFXivZyVMX9dwcLu7s0FcZ6kEosv",
    "placeName": "johnstown",
    "state": "OH"
  },
  {
    "city": "reynoldsburg",
    "state_code": "OH",
    "placeMasterId": "P02500000FsoGHy72piJiDMnuH9mEMKOu5F5Uhxk",
    "placeName": "reynoldsburg",
    "state": "OH"
  },
  {
    "city": "columbus",
    "state_code": "OH",
    "placeMasterId": "P02500000FsoGDyPfwc9iyXx1mQ6Wqc0NMzPNh3d",
    "placeName": "columbus",
    "state": "OH"
  },
  {
    "city": "columbus",
    "state_code": "OH",
    "placeMasterId": "P02500000FsoGDyPfwc9iyXx1mQ6Wqc0NMzPNh3d",
    "placeName": "columbus",
    "state": "OH"
  },
  {
    "city": "kirby",
    "state_code": "OH",
    "placeMasterId": "P02500000FsoGFgZPBN59Dkt7QAFXmUQ7DPa1LYl",
    "placeName": "kirby",
    "state": "OH"
  },
  {
    "city": "bradner",
    "state_code": "OH",
    "placeMasterId": "P02500000FsoGDGBHvdGnXXj9lMNRIAL0INIA51f",
    "placeName": "bradner",
    "state": "OH"
  },
  {
    "city": "kelleys island",
    "state_code": "OH",
    "placeMasterId": "P02500000FsoGFXivZyVMX9dwcLu7s0B7U92QA19",
    "placeName": "kelleys island",
    "state": "OH"
  },
  {
    "city": "bryan",
    "state_code": "OH",
    "placeMasterId": "P02500000FsoGDP1lX1qaE8yKZAirCeeXswqy32Z",
    "placeName": "bryan",
    "state": "OH"
  },
  {
    "city": "ridgeville corners",
    "state_code": "OH",
    "placeMasterId": "P02500000FsoGI6xWR6tUty354y7eGokjKG1Ew50",
    "placeName": "ridgeville corners",
    "state": "OH"
  },
  {
    "city": "toledo",
    "state_code": "OH",
    "placeMasterId": "P02500000FsoGIpBuS5mQKyGx61qjpGheGoHOM1s",
    "placeName": "toledo",
    "state": "OH"
  },
  {
    "city": "woodsfield",
    "state_code": "OH",
    "placeMasterId": "P02500000FsoGJXQIT4fLlyUp75ZpNiX6FalRJdg",
    "placeName": "woodsfield",
    "state": "OH"
  },
  {
    "city": "macedonia",
    "state_code": "OH",
    "placeMasterId": "P02500000FsoGG76pzYoVHYcdpbHnVxhgliLWK4b",
    "placeName": "macedonia",
    "state": "OH"
  },
  {
    "city": "eastlake",
    "state_code": "OH",
    "placeMasterId": "P02500000FsoGEG6d9PJILkRNO2nMfavcbWmgG69",
    "placeName": "eastlake",
    "state": "OH"
  },
  {
    "city": "rocky river",
    "state_code": "OH",
    "placeMasterId": "P02500000FsoGI6xWR6tUty354y7eGolLN8NG16A",
    "placeName": "rocky river",
    "state": "OH"
  },
  {
    "city": "euclid",
    "state_code": "OH",
    "placeMasterId": "P02500000FsoGEOx6knt52LgYBr8ma5M90fVYXXK",
    "placeName": "euclid",
    "state": "OH"
  },
  {
    "city": "rittman",
    "state_code": "OH",
    "placeMasterId": "P02500000FsoGHy72piJiDMnuH9mEMKV9lU7Plqx",
    "placeName": "rittman",
    "state": "OH"
  },
  {
    "city": "hubbard",
    "state_code": "OH",
    "placeMasterId": "P02500000FsoGFXivZyVMX9dwcLu7s02kHAmzJI7",
    "placeName": "hubbard",
    "state": "OH"
  },
  {
    "city": "niles",
    "state_code": "OH",
    "placeMasterId": "P02500000FsoGH72BDKr05lKrSHhitODU7VDxGtA",
    "placeName": "niles",
    "state": "OH"
  },
  {
    "city": "warren",
    "state_code": "OH",
    "placeMasterId": "P02500000FsoGJ6sresvziAlIheXZeFTtb2K3fnj",
    "placeName": "warren",
    "state": "OH"
  },
  {
    "city": "bloomdale",
    "state_code": "OH",
    "placeMasterId": "P02500000FsoGD7KoKEh0qwTyxY21Nft3VkN8EOK",
    "placeName": "bloomdale",
    "state": "OH"
  },
  {
    "city": "perrysville",
    "state_code": "OH",
    "placeMasterId": "P02500000FsoGHXZc1WaM9Z4NrijycrReZaIMNsF",
    "placeName": "perrysville",
    "state": "OH"
  },
  {
    "city": "north bend",
    "state_code": "OH",
    "placeMasterId": "P02500000FsoGH72BDKr05lKrSHhitOMT4lS3GYC",
    "placeName": "north bend",
    "state": "OH"
  },
  {
    "city": "aberdeen",
    "state_code": "OH",
    "placeMasterId": "P02500000FsoGCXwtueNs6XVHkIeLjiHVEslXM6v",
    "placeName": "aberdeen",
    "state": "OH"
  },
  {
    "city": "leesburg",
    "state_code": "OH",
    "placeMasterId": "P02500000FsoGFpPsmlevuM8IDyaxgyx5DSzHK5s",
    "placeName": "leesburg",
    "state": "OH"
  },
  {
    "city": "wilmington",
    "state_code": "OH",
    "placeMasterId": "P02500000FsoGJXQIT4fLlyUp75ZpNiZ6fuYPRt1",
    "placeName": "wilmington",
    "state": "OH"
  },
  {
    "city": "cincinnati",
    "state_code": "OH",
    "placeMasterId": "P02500000FsoGDpZCLDZwHwhqybl6w7e8Lps6H4x",
    "placeName": "cincinnati",
    "state": "OH"
  },
  {
    "city": "botkins",
    "state_code": "OH",
    "placeMasterId": "P02500000FsoGDGBHvdGnXXj9lMNRIA66acfGzMY",
    "placeName": "botkins",
    "state": "OH"
  },
  {
    "city": "eldorado",
    "state_code": "OH",
    "placeMasterId": "P02500000FsoGEOx6knt52LgYBr8ma5IarZCnMzl",
    "placeName": "eldorado",
    "state": "OH"
  },
  {
    "city": "new weston",
    "state_code": "OH",
    "placeMasterId": "P02500000FsoGH72BDKr05lKrSHhitOB446bg8TM",
    "placeName": "new weston",
    "state": "OH"
  },
  {
    "city": "south charleston",
    "state_code": "OH",
    "placeMasterId": "P02500000FsoGIXUxFIcqxlmbUP9u0HqPPj0wYE4",
    "placeName": "south charleston",
    "state": "OH"
  },
  {
    "city": "vandalia",
    "state_code": "OH",
    "placeMasterId": "P02500000FsoGJ6sresvziAlIheXZeFPleAdyHLu",
    "placeName": "vandalia",
    "state": "OH"
  },
  {
    "city": "verona",
    "state_code": "OH",
    "placeMasterId": "P02500000FsoGJ6sresvziAlIheXZeFIshcCEJRw",
    "placeName": "verona",
    "state": "OH"
  },
  {
    "city": "springfield",
    "state_code": "OH",
    "placeMasterId": "P02500000FsoGIgLQqhCdeN1mIDVJumI8k4ObkdO",
    "placeName": "springfield",
    "state": "OH"
  },
  {
    "city": "wellston",
    "state_code": "OH",
    "placeMasterId": "P02500000FsoGJFjLGHVmOm0TVSszYjsDEHRButV",
    "placeName": "wellston",
    "state": "OH"
  },
  {
    "city": "belpre",
    "state_code": "OH",
    "placeMasterId": "P02500000FsoGD7KoKEh0qwTyxY21NfigJzdnjoZ",
    "placeName": "belpre",
    "state": "OH"
  },
  {
    "city": "lima",
    "state_code": "OH",
    "placeMasterId": "P02500000FsoGFyGMOAEiaxNT1mwNbTDOR7AFdAX",
    "placeName": "lima",
    "state": "OH"
  },
  {
    "city": "anderson",
    "state_code": "IN",
    "placeMasterId": "P02500000FsoF93Rk3hSQioAIya5WWrlzCWe32cS",
    "placeName": "anderson",
    "state": "IN"
  },
  {
    "city": "ingalls",
    "state_code": "IN",
    "placeMasterId": "P02500000FsoFAckzh3o4HPrDoVt7YFsdk7q7cff",
    "placeName": "ingalls",
    "state": "IN"
  },
  {
    "city": "kirklin",
    "state_code": "IN",
    "placeMasterId": "P02500000FsoFAlbTISNqy16OcKEXSkGSthlxRiK",
    "placeName": "kirklin",
    "state": "IN"
  },
  {
    "city": "lebanon",
    "state_code": "IN",
    "placeMasterId": "P02500000FsoFAuRwtqxdecLZQ8ZxNEarcgz6ZGW",
    "placeName": "lebanon",
    "state": "IN"
  },
  {
    "city": "indianapolis",
    "state_code": "IN",
    "placeMasterId": "P02500000FsoFAckzh3o4HPrDoVt7YFuCi8MjR1V",
    "placeName": "indianapolis",
    "state": "IN"
  },
  {
    "city": "highland",
    "state_code": "IN",
    "placeMasterId": "P02500000FsoFATuW5fEHaoc30hXhdlWx25Qhfg2",
    "placeName": "highland",
    "state": "IN"
  },
  {
    "city": "san pierre",
    "state_code": "IN",
    "placeMasterId": "P02500000FsoFC3Dlj1Zv9QIxqdLIf9cKKI1SmKL",
    "placeName": "san pierre",
    "state": "IN"
  },
  {
    "city": "plymouth",
    "state_code": "IN",
    "placeMasterId": "P02500000FsoFBuNI7d08Sp3n2ozskfEdrinXY1B",
    "placeName": "plymouth",
    "state": "IN"
  },
  {
    "city": "albion",
    "state_code": "IN",
    "placeMasterId": "P02500000FsoF8ubGSIse2Cv8Alk6cNSe2Mcxcfy",
    "placeName": "albion",
    "state": "IN"
  },
  {
    "city": "bluffton",
    "state_code": "IN",
    "placeMasterId": "P02500000FsoF9CIDf62DPPPTmOQwRMAMgCnwzF8",
    "placeName": "bluffton",
    "state": "IN"
  },
  {
    "city": "huntington",
    "state_code": "IN",
    "placeMasterId": "P02500000FsoFAckzh3o4HPrDoVt7YFtNu6ZNblC",
    "placeName": "huntington",
    "state": "IN"
  },
  {
    "city": "fowlerton",
    "state_code": "IN",
    "placeMasterId": "P02500000FsoFACDYss4iDc7hP4qromjk7N7RvTk",
    "placeName": "fowlerton",
    "state": "IN"
  },
  {
    "city": "english",
    "state_code": "IN",
    "placeMasterId": "P02500000FsoF9uWbg4v8qPdLnSA1zo3G60uowoG",
    "placeName": "english",
    "state": "IN"
  },
  {
    "city": "clarksville",
    "state_code": "IN",
    "placeMasterId": "P02500000FsoF9cpeTHlZTD90BpTCApF50ofYiJZ",
    "placeName": "clarksville",
    "state": "IN"
  },
  {
    "city": "bloomfield",
    "state_code": "IN",
    "placeMasterId": "P02500000FsoF9CIDf62DPPPTmOQwRM8xIZjDIdI",
    "placeName": "bloomfield",
    "state": "IN"
  },
  {
    "city": "dale",
    "state_code": "IN",
    "placeMasterId": "P02500000FsoF9lg84gLM9oOAzdoc5Jfotlq4yzo",
    "placeName": "dale",
    "state": "IN"
  },
  {
    "city": "odon",
    "state_code": "IN",
    "placeMasterId": "P02500000FsoFBcgKupqZ5cZRRCJ2vgR7umlPUte",
    "placeName": "odon",
    "state": "IN"
  },
  {
    "city": "ambia",
    "state_code": "IN",
    "placeMasterId": "P02500000FsoF93Rk3hSQioAIya5WWrpitL1pYzP",
    "placeName": "ambia",
    "state": "IN"
  },
  {
    "city": "buffalo",
    "state_code": "IN",
    "placeMasterId": "P02500000FsoF9TzArtBmmbtpO17mGKtVEYoHJhe",
    "placeName": "buffalo",
    "state": "IN"
  },
  {
    "city": "crawfordsville",
    "state_code": "IN",
    "placeMasterId": "P02500000FsoF9cpeTHlZTD90BpTCApJM1TqYMbT",
    "placeName": "crawfordsville",
    "state": "IN"
  },
  {
    "city": "darlington",
    "state_code": "IN",
    "placeMasterId": "P02500000FsoF9lg84gLM9oOAzdoc5JdTdLM7v0P",
    "placeName": "darlington",
    "state": "IN"
  },
  {
    "city": "troy",
    "state_code": "MI",
    "placeMasterId": "P02500000FsoFajeN4bQm1Le6q76bHtosaoXIJU9",
    "placeName": "troy",
    "state": "MI"
  },
  {
    "city": "dexter",
    "state_code": "MI",
    "placeMasterId": "P02500000FsoFYAPmDT2deXEyNUt4t5D0Y92s3gZ",
    "placeName": "dexter",
    "state": "MI"
  },
  {
    "city": "taylor",
    "state_code": "MI",
    "placeMasterId": "P02500000FsoFajeN4bQm1Le6q76bHttETloWGdG",
    "placeName": "taylor",
    "state": "MI"
  },
  {
    "city": "detroit",
    "state_code": "MI",
    "placeMasterId": "P02500000FsoFY1ZIc4SqxvznZgXeyauoH5nCTkI",
    "placeName": "detroit",
    "state": "MI"
  },
  {
    "city": "burt",
    "state_code": "MI",
    "placeMasterId": "P02500000FsoFXb1rnsjUu8GHAFVPF7mf4kZk2NX",
    "placeName": "burt",
    "state": "MI"
  },
  {
    "city": "columbiaville",
    "state_code": "MI",
    "placeMasterId": "P02500000FsoFXsip0ft4HKkclsCF46cxl182rNP",
    "placeName": "columbiaville",
    "state": "MI"
  },
  {
    "city": "flint",
    "state_code": "MI",
    "placeMasterId": "P02500000FsoFYJGForcQL8U9BJEUnZe6ic6ZYjH",
    "placeName": "flint",
    "state": "MI"
  },
  {
    "city": "mio",
    "state_code": "MI",
    "placeMasterId": "P02500000FsoFZasYFQoUWXgiPcLFzyyh0e0L7bC",
    "placeName": "mio",
    "state": "MI"
  },
  {
    "city": "sanford",
    "state_code": "MI",
    "placeMasterId": "P02500000FsoFaRxProHCe99lEUPlSvBBi4dmYc1",
    "placeName": "sanford",
    "state": "MI"
  },
  {
    "city": "clifford",
    "state_code": "MI",
    "placeMasterId": "P02500000FsoFXsip0ft4HKkclsCF46Szal1VoHK",
    "placeName": "clifford",
    "state": "MI"
  },
  {
    "city": "oscoda",
    "state_code": "MI",
    "placeMasterId": "P02500000FsoFZsZVSDy3tkB41F25oxeMl1K3Sba",
    "placeName": "oscoda",
    "state": "MI"
  },
  {
    "city": "haslett",
    "state_code": "MI",
    "placeMasterId": "P02500000FsoFYjngd3LmOwDfakGkX2glsLK5l3z",
    "placeName": "haslett",
    "state": "MI"
  },
  {
    "city": "maple rapids",
    "state_code": "MI",
    "placeMasterId": "P02500000FsoFZS24e2EhpwRXbnzq5UcYrrhg10q",
    "placeName": "maple rapids",
    "state": "MI"
  },
  {
    "city": "mulliken",
    "state_code": "MI",
    "placeMasterId": "P02500000FsoFZjj1qpOHD8vtDQgfuTDz93ephjB",
    "placeName": "mulliken",
    "state": "MI"
  },
  {
    "city": "portage",
    "state_code": "MI",
    "placeMasterId": "P02500000FsoFaAGSf17dGwfPcrivdwL0YyChDWU",
    "placeName": "portage",
    "state": "MI"
  },
  {
    "city": "centreville",
    "state_code": "MI",
    "placeMasterId": "P02500000FsoFXsip0ft4HKkclsCF46T07HDg5iu",
    "placeName": "centreville",
    "state": "MI"
  },
  {
    "city": "constantine",
    "state_code": "MI",
    "placeMasterId": "P02500000FsoFY1ZIc4SqxvznZgXeyamBPxfaT1d",
    "placeName": "constantine",
    "state": "MI"
  },
  {
    "city": "martin",
    "state_code": "MI",
    "placeMasterId": "P02500000FsoFZasYFQoUWXgiPcLFzyrfIOEwjJU",
    "placeName": "martin",
    "state": "MI"
  },
  {
    "city": "new buffalo",
    "state_code": "MI",
    "placeMasterId": "P02500000FsoFZjj1qpOHD8vtDQgfuTFYGzB5056",
    "placeName": "new buffalo",
    "state": "MI"
  },
  {
    "city": "grant",
    "state_code": "MI",
    "placeMasterId": "P02500000FsoFYaxD1elziKyUmvvKcYGWY1nTd12",
    "placeName": "grant",
    "state": "MI"
  },
  {
    "city": "rothbury",
    "state_code": "MI",
    "placeMasterId": "P02500000FsoFaJ6wGPhPxXuaQg4LYQo0m41x2n1",
    "placeName": "rothbury",
    "state": "MI"
  },
  {
    "city": "lake leelanau",
    "state_code": "MI",
    "placeMasterId": "P02500000FsoFZAL7RF58SjxC0BJ0GVitMbSZGdb",
    "placeName": "lake leelanau",
    "state": "MI"
  },
  {
    "city": "northport",
    "state_code": "MI",
    "placeMasterId": "P02500000FsoFZjj1qpOHD8vtDQgfuTN4K3Jofv4",
    "placeName": "northport",
    "state": "MI"
  },
  {
    "city": "tustin",
    "state_code": "MI",
    "placeMasterId": "P02500000FsoFajeN4bQm1Le6q76bHtoYaz1eV7F",
    "placeName": "tustin",
    "state": "MI"
  },
  {
    "city": "south range",
    "state_code": "MI",
    "placeMasterId": "P02500000FsoFaantTCqzKkOw2IlBNPSme8HIudg",
    "placeName": "south range",
    "state": "MI"
  },
  {
    "city": "allerton",
    "state_code": "IA",
    "placeMasterId": "P02500000FsoFD396wncPxd1BTJlE2aDLyVeBiUK",
    "placeName": "allerton",
    "state": "IA"
  },
  {
    "city": "bagley",
    "state_code": "IA",
    "placeMasterId": "P02500000FsoFDBzaYCCCeEGMH86dx4bUNJytsYi",
    "placeName": "bagley",
    "state": "IA"
  },
  {
    "city": "dawson",
    "state_code": "IA",
    "placeMasterId": "P02500000FsoFEKlPNMoU92DkhcrzEzXx7Dmz5wz",
    "placeName": "dawson",
    "state": "IA"
  },
  {
    "city": "new virginia",
    "state_code": "IA",
    "placeMasterId": "P02500000FsoFGu00EVCcVqctAF5VdoERBehMrcH",
    "placeName": "new virginia",
    "state": "IA"
  },
  {
    "city": "prairie city",
    "state_code": "IA",
    "placeMasterId": "P02500000FsoFHTNue5VlGFbaNUTBHlhbFqnPYSq",
    "placeName": "prairie city",
    "state": "IA"
  },
  {
    "city": "swan",
    "state_code": "IA",
    "placeMasterId": "P02500000FsoFIKSmGSyTNr4dCMXgkhucen8I0vt",
    "placeName": "swan",
    "state": "IA"
  },
  {
    "city": "little cedar",
    "state_code": "IA",
    "placeMasterId": "P02500000FsoFG2v8c7juOF9qLN10As1XuvoXQ3b",
    "placeName": "little cedar",
    "state": "IA"
  },
  {
    "city": "rock falls",
    "state_code": "IA",
    "placeMasterId": "P02500000FsoFHl4rqsfKdS5vz7A16kSsk9PP1cd",
    "placeName": "rock falls",
    "state": "IA"
  },
  {
    "city": "nashua",
    "state_code": "IA",
    "placeMasterId": "P02500000FsoFGl9Wd6cppFNiMQk5jJqpVn4n4BH",
    "placeName": "nashua",
    "state": "IA"
  },
  {
    "city": "waterloo",
    "state_code": "IA",
    "placeMasterId": "P02500000FsoFIc9jTG82l3YynzEWZgiXBRjamPP",
    "placeName": "waterloo",
    "state": "IA"
  },
  {
    "city": "afton",
    "state_code": "IA",
    "placeMasterId": "P02500000FsoFD396wncPxd1BTJlE2aA61tzcLTd",
    "placeName": "afton",
    "state": "IA"
  },
  {
    "city": "ireton",
    "state_code": "IA",
    "placeMasterId": "P02500000FsoFFcNhnw0YKRQJvvykROrBqIwpncq",
    "placeName": "ireton",
    "state": "IA"
  },
  {
    "city": "lawton",
    "state_code": "IA",
    "placeMasterId": "P02500000FsoFFu4f0jA7hdufXYfaGNedGKjZPZM",
    "placeName": "lawton",
    "state": "IA"
  },
  {
    "city": "maurice",
    "state_code": "IA",
    "placeMasterId": "P02500000FsoFGTSZQJTGS2tMko3FuL7uEr36K4D",
    "placeName": "maurice",
    "state": "IA"
  },
  {
    "city": "oto",
    "state_code": "IA",
    "placeMasterId": "P02500000FsoFHBgxRIMBt37ElrmLSmwbTHu5G65",
    "placeName": "oto",
    "state": "IA"
  },
  {
    "city": "sheldon",
    "state_code": "IA",
    "placeMasterId": "P02500000FsoFI2lp3fou0eaHajqqvjBwhVnInRk",
    "placeName": "sheldon",
    "state": "IA"
  },
  {
    "city": "dow city",
    "state_code": "IA",
    "placeMasterId": "P02500000FsoFETbsylOGpdSvVRDP9TrooNFS0k9",
    "placeName": "dow city",
    "state": "IA"
  },
  {
    "city": "cascade",
    "state_code": "IA",
    "placeMasterId": "P02500000FsoFDlNUxmVLOdF3UNUJb236J2nFGs2",
    "placeName": "cascade",
    "state": "IA"
  },
  {
    "city": "edgewood",
    "state_code": "IA",
    "placeMasterId": "P02500000FsoFEcSMa9y3WEi6JFYp3yHbMejvg2r",
    "placeName": "edgewood",
    "state": "IA"
  },
  {
    "city": "elkport",
    "state_code": "IA",
    "placeMasterId": "P02500000FsoFElIqBYXqCpxH73uEySfJIvfidXJ",
    "placeName": "elkport",
    "state": "IA"
  },
  {
    "city": "farmersburg",
    "state_code": "IA",
    "placeMasterId": "P02500000FsoFEu9Jmx7ctRCRusFesx18mopRSxq",
    "placeName": "farmersburg",
    "state": "IA"
  },
  {
    "city": "baldwin",
    "state_code": "IA",
    "placeMasterId": "P02500000FsoFDBzaYCCCeEGMH86dx4c7SotUuHq",
    "placeName": "baldwin",
    "state": "IA"
  },
  {
    "city": "washington",
    "state_code": "IA",
    "placeMasterId": "P02500000FsoFIl0D4ehpReo9bnZwUB3sreSiA0X",
    "placeName": "washington",
    "state": "IA"
  },
  {
    "city": "crawfordsville",
    "state_code": "IA",
    "placeMasterId": "P02500000FsoFEBuvlyEhSQyZtoWZKV9DPtH6MVZ",
    "placeName": "crawfordsville",
    "state": "IA"
  },
  {
    "city": "brookfield",
    "state_code": "WI",
    "placeMasterId": "P02500000FsoH4laL7HiHCoVV2rv9xrYe99qFgSk",
    "placeName": "brookfield",
    "state": "WI"
  },
  {
    "city": "milwaukee",
    "state_code": "WI",
    "placeMasterId": "P02500000FsoH6lR1YpnGpDvwIEl0iig1pZrPtxd",
    "placeName": "milwaukee",
    "state": "WI"
  },
  {
    "city": "ridgeway",
    "state_code": "WI",
    "placeMasterId": "P02500000FsoHEtgEwQh1zSss5WRpedubsBNFEKy",
    "placeName": "ridgeway",
    "state": "WI"
  },
  {
    "city": "stoughton",
    "state_code": "WI",
    "placeMasterId": "P02500000FsoH833JzOzL0d8VWXrlv7yiljcnMkD",
    "placeName": "stoughton",
    "state": "WI"
  },
  {
    "city": "madison",
    "state_code": "WI",
    "placeMasterId": "P02500000FsoH6caXxRDU8cglUQPaoEDC1yqNdF5",
    "placeName": "madison",
    "state": "WI"
  },
  {
    "city": "columbus",
    "state_code": "WI",
    "placeMasterId": "P02500000FsoH53HIK4rqa0zqeUbzmqIKP2gyONU",
    "placeName": "columbus",
    "state": "WI"
  },
  {
    "city": "rock springs",
    "state_code": "WI",
    "placeMasterId": "P02500000FsoH7lMMmbpldQe9uvAw69At4uUqZyW",
    "placeName": "rock springs",
    "state": "WI"
  },
  {
    "city": "abrams",
    "state_code": "WI",
    "placeMasterId": "P02500000FsoIfe9E6zhTN77FobJmNKje2fwDlLH",
    "placeName": "abrams",
    "state": "WI"
  },
  {
    "city": "armstrong creek",
    "state_code": "WI",
    "placeMasterId": "P02500000FsoIfe9E6zhTN77FobJmNKl4d7fNhzc",
    "placeName": "armstrong creek",
    "state": "WI"
  },
  {
    "city": "athelstane",
    "state_code": "WI",
    "placeMasterId": "P02500000FsoIfmzhiOHG3iMQcPfCHp7R2fWn1dl",
    "placeName": "athelstane",
    "state": "WI"
  },
  {
    "city": "cecil",
    "state_code": "WI",
    "placeMasterId": "P02500000FsoH4uQoigI3tPkfqgGZsLyNjp4EOr0",
    "placeName": "cecil",
    "state": "WI"
  },
  {
    "city": "fence",
    "state_code": "WI",
    "placeMasterId": "P02500000FsoIh4c08xTKF7YzqilxUESMko7zRtb",
    "placeName": "fence",
    "state": "WI"
  },
  {
    "city": "egg harbor",
    "state_code": "WI",
    "placeMasterId": "P02500000FsoHEbzHjdXScGOWTtkzpf3Soo6o2IB",
    "placeName": "egg harbor",
    "state": "WI"
  },
  {
    "city": "green bay",
    "state_code": "WI",
    "placeMasterId": "P02500000FsoH5lVgL3km11DifYL5LIC2lNuCuF7",
    "placeName": "green bay",
    "state": "WI"
  },
  {
    "city": "rib lake",
    "state_code": "WI",
    "placeMasterId": "P02500000FsoHFtbaACjWnfb5iCrl24OYDmyYCkf",
    "placeName": "rib lake",
    "state": "WI"
  },
  {
    "city": "white lake",
    "state_code": "WI",
    "placeMasterId": "P02500000FsoH8Taknaih4Qs1vyu1eb4wWAi0kj0",
    "placeName": "white lake",
    "state": "WI"
  },
  {
    "city": "la crosse",
    "state_code": "WI",
    "placeMasterId": "P02500000FsoH6Ktake3ulQCPsnikzFaVCbte43C",
    "placeName": "la crosse",
    "state": "WI"
  },
  {
    "city": "ferryville",
    "state_code": "WI",
    "placeMasterId": "P02500000FsoH5cfCjfAzKPyXrjzfQnhBaiCWzhT",
    "placeName": "ferryville",
    "state": "WI"
  },
  {
    "city": "la farge",
    "state_code": "WI",
    "placeMasterId": "P02500000FsoH6Ktake3ulQCPsnikzFgafqzolOr",
    "placeName": "la farge",
    "state": "WI"
  },
  {
    "city": "jim falls",
    "state_code": "WI",
    "placeMasterId": "P02500000FsoH6C379FU84oxF4zNL4l8SrWi7CDd",
    "placeName": "jim falls",
    "state": "WI"
  },
  {
    "city": "stockholm",
    "state_code": "WI",
    "placeMasterId": "P02500000FsoHFT49M10AjrrZIlpVIbQJeYvSCtH",
    "placeName": "stockholm",
    "state": "WI"
  },
  {
    "city": "almena",
    "state_code": "WI",
    "placeMasterId": "P02500000FsoHEBRqvRo6YSf04Sik6Bwntp701nK",
    "placeName": "almena",
    "state": "WI"
  },
  {
    "city": "marion",
    "state_code": "WI",
    "placeMasterId": "P02500000FsoH6caXxRDU8cglUQPaoEN8aExaQEW",
    "placeName": "marion",
    "state": "WI"
  },
  {
    "city": "afton",
    "state_code": "MN",
    "placeMasterId": "P02500000FsoFbABnsnA859NdFY8r1N5ocAaBaSf",
    "placeName": "afton",
    "state": "MN"
  },
  {
    "city": "hugo",
    "state_code": "MN",
    "placeMasterId": "P02500000FsoFdRjRX8Oh4lIQ6XfXbCx3J5G1B9d",
    "placeName": "hugo",
    "state": "MN"
  },
  {
    "city": "medford",
    "state_code": "MN",
    "placeMasterId": "P02500000FsoFe9xpY7HcVlWI7bOd9en2MVGczt8",
    "placeName": "medford",
    "state": "MN"
  },
  {
    "city": "newport",
    "state_code": "MN",
    "placeMasterId": "P02500000FsoFeaVGMJ0yZZFoX2Qst7v7USLOhFK",
    "placeName": "newport",
    "state": "MN"
  },
  {
    "city": "rosemount",
    "state_code": "MN",
    "placeMasterId": "P02500000FsoFf9tAltK7JyEVkHoYX5XiHwWtPx8",
    "placeName": "rosemount",
    "state": "MN"
  },
  {
    "city": "zimmerman",
    "state_code": "MN",
    "placeMasterId": "P02500000FsoFgRVTCSWBVNR4yavJjUh98D5jj0r",
    "placeName": "zimmerman",
    "state": "MN"
  },
  {
    "city": "minneapolis",
    "state_code": "MN",
    "placeMasterId": "P02500000FsoFeIoJ9VrPCMlSvPk349D9alJlgNT",
    "placeName": "minneapolis",
    "state": "MN"
  },
  {
    "city": "orr",
    "state_code": "MN",
    "placeMasterId": "P02500000FsoFesCDZ6AXwlkA8f7ii6a7rOJrC65",
    "placeName": "orr",
    "state": "MN"
  },
  {
    "city": "elgin",
    "state_code": "MN",
    "placeMasterId": "P02500000FsoFcRo6JMMCGYaCTrFcDmSRtFIG1ew",
    "placeName": "elgin",
    "state": "MN"
  },
  {
    "city": "lewiston",
    "state_code": "MN",
    "placeMasterId": "P02500000FsoFdsGsLK838Z1wVyhnKg32LGDGySf",
    "placeName": "lewiston",
    "state": "MN"
  },
  {
    "city": "mankato",
    "state_code": "MN",
    "placeMasterId": "P02500000FsoFe9xpY7HcVlWI7bOd9epNsMJNhx3",
    "placeName": "mankato",
    "state": "MN"
  },
  {
    "city": "bricelyn",
    "state_code": "MN",
    "placeMasterId": "P02500000FsoFbjZiINTGpYMKSnWWfKWO4CWfdnO",
    "placeName": "bricelyn",
    "state": "MN"
  },
  {
    "city": "cleveland",
    "state_code": "MN",
    "placeMasterId": "P02500000FsoFc1GfVAcqCkqg4QDMUJHzcL9PGRm",
    "placeName": "cleveland",
    "state": "MN"
  },
  {
    "city": "russell",
    "state_code": "MN",
    "placeMasterId": "P02500000FsoFfIjeNHtu0ZTgY69yRZiyI4JGBJN",
    "placeName": "russell",
    "state": "MN"
  },
  {
    "city": "alberta",
    "state_code": "MN",
    "placeMasterId": "P02500000FsoFbABnsnA859NdFY8r1MxmJCL8P0w",
    "placeName": "alberta",
    "state": "MN"
  },
  {
    "city": "kerkhoven",
    "state_code": "MN",
    "placeMasterId": "P02500000FsoFdaZv8WyTlMXauM0xVhMgIkclCWK",
    "placeName": "kerkhoven",
    "state": "MN"
  },
  {
    "city": "milroy",
    "state_code": "MN",
    "placeMasterId": "P02500000FsoFeIoJ9VrPCMlSvPk349CjZDf0cCt",
    "placeName": "milroy",
    "state": "MN"
  },
  {
    "city": "lowry",
    "state_code": "MN",
    "placeMasterId": "P02500000FsoFe17LwihppAH7Jn3DFAYXMUL9bqX",
    "placeName": "lowry",
    "state": "MN"
  },
  {
    "city": "backus",
    "state_code": "MN",
    "placeMasterId": "P02500000FsoFbJ2HUBjulkco3MUGvrLAqEMkWfZ",
    "placeName": "backus",
    "state": "MN"
  },
  {
    "city": "eagle bend",
    "state_code": "MN",
    "placeMasterId": "P02500000FsoFcRo6JMMCGYaCTrFcDmGRI6pHXHd",
    "placeName": "eagle bend",
    "state": "MN"
  },
  {
    "city": "foxhome",
    "state_code": "MN",
    "placeMasterId": "P02500000FsoFcjV3W9Vldl4Y5TwS2lAY1ZcAKjG",
    "placeName": "foxhome",
    "state": "MN"
  },
  {
    "city": "georgetown",
    "state_code": "MN",
    "placeMasterId": "P02500000FsoFcsLX7Y5YKMJitIHrxFW2roLsOwy",
    "placeName": "georgetown",
    "state": "MN"
  },
  {
    "city": "thief river falls",
    "state_code": "MN",
    "placeMasterId": "P02500000FsoFfs7YmsD2kySNlLXe5XGhWrJlAot",
    "placeName": "thief river falls",
    "state": "MN"
  },
  {
    "city": "east grand forks",
    "state_code": "MN",
    "placeMasterId": "P02500000FsoFcRo6JMMCGYaCTrFcDmMeioSndox",
    "placeName": "east grand forks",
    "state": "MN"
  },
  {
    "city": "colton",
    "state_code": "SD",
    "placeMasterId": "P02500000FsoGdwSZilCe1sUk0CyafldCzR68uIG",
    "placeName": "colton",
    "state": "SD"
  },
  {
    "city": "harrisburg",
    "state_code": "SD",
    "placeMasterId": "P02500000FsoGeN00Www05gEGPe0qPEeqYvVP8WM",
    "placeName": "harrisburg",
    "state": "SD"
  },
  {
    "city": "jefferson",
    "state_code": "SD",
    "placeMasterId": "P02500000FsoGeVqU8LVmmHTRDSMGJj26NsiNRfT",
    "placeName": "jefferson",
    "state": "SD"
  },
  {
    "city": "watertown",
    "state_code": "SD",
    "placeMasterId": "P02500000FsoGfVlpM7YHaUBeq8mBh9sg2nJAlgh",
    "placeName": "watertown",
    "state": "SD"
  },
  {
    "city": "armour",
    "state_code": "SD",
    "placeMasterId": "P02500000FsoGdVv8uZTHy4lDalwKwIb7UjUKB2R",
    "placeName": "armour",
    "state": "SD"
  },
  {
    "city": "bridgewater",
    "state_code": "SD",
    "placeMasterId": "P02500000FsoGdnc67McrLHFZCOdAlHBHIPKtLZy",
    "placeName": "bridgewater",
    "state": "SD"
  },
  {
    "city": "mount vernon",
    "state_code": "SD",
    "placeMasterId": "P02500000FsoGenXRL8fM9Txmp5368hrD4833GiN",
    "placeName": "mount vernon",
    "state": "SD"
  },
  {
    "city": "new holland",
    "state_code": "SD",
    "placeMasterId": "P02500000FsoGenXRL8fM9Txmp5368hzainx9qJt",
    "placeName": "new holland",
    "state": "SD"
  },
  {
    "city": "stickney",
    "state_code": "SD",
    "placeMasterId": "P02500000FsoGfMvLkiyUtswU2KQlmfJwxyFdPKT",
    "placeName": "stickney",
    "state": "SD"
  },
  {
    "city": "valley city",
    "state_code": "ND",
    "placeMasterId": "P02500000FsoGCP6QJFo5PwG6wUIvpDydMNr8pUV",
    "placeName": "valley city",
    "state": "ND"
  },
  {
    "city": "pembina",
    "state_code": "ND",
    "placeMasterId": "P02500000FsoGByYzV44jM8WaX3Gg5kkkr8ZgIVB",
    "placeName": "pembina",
    "state": "ND"
  },
  {
    "city": "leeds",
    "state_code": "ND",
    "placeMasterId": "P02500000FsoGBPB55TlabjXtJnt0RnRaThSLd9q",
    "placeName": "leeds",
    "state": "ND"
  },
  {
    "city": "starkweather",
    "state_code": "ND",
    "placeMasterId": "P02500000FsoGCGFwhrEIjL0w8fxVujaCwmT1gML",
    "placeName": "starkweather",
    "state": "ND"
  },
  {
    "city": "coleharbor",
    "state_code": "ND",
    "placeMasterId": "P02500000FsoGAY6DT6IsU84qUvoUyr7WZC7iohp",
    "placeName": "coleharbor",
    "state": "ND"
  },
  {
    "city": "fairfield",
    "state_code": "ND",
    "placeMasterId": "P02500000FsoI3PJGSl11E7WYUyjmC3Osp0EIqMb",
    "placeName": "fairfield",
    "state": "ND"
  },
  {
    "city": "berthold",
    "state_code": "ND",
    "placeMasterId": "P02500000FsoGAGPGGJ9J6vaUtJ7f9sUbmMgLRsx",
    "placeName": "berthold",
    "state": "ND"
  },
  {
    "city": "maxbass",
    "state_code": "ND",
    "placeMasterId": "P02500000FsoGBgs2IGv9yw2EvQZqGm2Fm4b4XaU",
    "placeName": "maxbass",
    "state": "ND"
  },
  {
    "city": "mohall",
    "state_code": "ND",
    "placeMasterId": "P02500000FsoGBgs2IGv9yw2EvQZqGm569pE2obw",
    "placeName": "mohall",
    "state": "ND"
  },
  {
    "city": "ross",
    "state_code": "ND",
    "placeMasterId": "P02500000FsoGC7PT6SeW2jllKrc60FBXTZa2yhI",
    "placeName": "ross",
    "state": "ND"
  },
  {
    "city": "ryegate",
    "state_code": "MT",
    "placeMasterId": "P02500000FsoFqHuPooLMupK6Pcl9bIPnfqokfwh",
    "placeName": "ryegate",
    "state": "MT"
  },
  {
    "city": "shepherd",
    "state_code": "MT",
    "placeMasterId": "P02500000FsoFqQktQCv9bQZHDR6ZVmgEHlS745a",
    "placeName": "shepherd",
    "state": "MT"
  },
  {
    "city": "flaxville",
    "state_code": "MT",
    "placeMasterId": "P02500000FsoFpHz4b2Is6cbsmwLEDrow7lR800U",
    "placeName": "flaxville",
    "state": "MT"
  },
  {
    "city": "glasgow",
    "state_code": "MT",
    "placeMasterId": "P02500000FsoFpQpYCQsenDr3akge8MGfSn8wYtg",
    "placeName": "glasgow",
    "state": "MT"
  },
  {
    "city": "loma",
    "state_code": "MT",
    "placeMasterId": "P02500000FsoFprMz0cc0r1aa0BitrpCxWIP8iDO",
    "placeName": "loma",
    "state": "MT"
  },
  {
    "city": "hays",
    "state_code": "MT",
    "placeMasterId": "P02500000FsoFpQpYCQsenDr3akge8MILBDs20ul",
    "placeName": "hays",
    "state": "MT"
  },
  {
    "city": "manhattan",
    "state_code": "MT",
    "placeMasterId": "P02500000FsoFprMz0cc0r1aa0BitrpBQVatjd0h",
    "placeName": "manhattan",
    "state": "MT"
  },
  {
    "city": "wisdom",
    "state_code": "MT",
    "placeMasterId": "P02500000FsoFqiRqd04iyd3cp3nPKlWOsPyFgyR",
    "placeName": "wisdom",
    "state": "MT"
  },
  {
    "city": "florence",
    "state_code": "MT",
    "placeMasterId": "P02500000FsoFpHz4b2Is6cbsmwLEDrugG45G0Wp",
    "placeName": "florence",
    "state": "MT"
  },
  {
    "city": "highland park",
    "state_code": "IL",
    "placeMasterId": "P02500000FsoF4LVz9cPW2z5YSmgjShX2afUVSPc",
    "placeName": "highland park",
    "state": "IL"
  },
  {
    "city": "highwood",
    "state_code": "IL",
    "placeMasterId": "P02500000FsoF4LVz9cPW2z5YSmgjShUuLkaASw0",
    "placeName": "highwood",
    "state": "IL"
  },
  {
    "city": "mchenry",
    "state_code": "IL",
    "placeMasterId": "P02500000FsoF5LRKNOS0rBnm5T6eq88Yiaf8drr",
    "placeName": "mchenry",
    "state": "IL"
  },
  {
    "city": "north chicago",
    "state_code": "IL",
    "placeMasterId": "P02500000FsoF6CWBzluiynGouLBAJ4OWftaRV0N",
    "placeName": "north chicago",
    "state": "IL"
  },
  {
    "city": "buffalo grove",
    "state_code": "IL",
    "placeMasterId": "P02500000FsoF1v7rtsbAMlvanyocyNHhRN27BDo",
    "placeName": "buffalo grove",
    "state": "IL"
  },
  {
    "city": "forest park",
    "state_code": "IL",
    "placeMasterId": "P02500000FsoF3dHb8dWabyrgRixduFdrcM10eKl",
    "placeName": "forest park",
    "state": "IL"
  },
  {
    "city": "hanover park",
    "state_code": "IL",
    "placeMasterId": "P02500000FsoF43p1wpFwfmbCr9ztdio4CCFNyEX",
    "placeName": "hanover park",
    "state": "IL"
  },
  {
    "city": "glen ellyn",
    "state_code": "IL",
    "placeMasterId": "P02500000FsoF3m84k26NIa6rFXJ3ok4Yecg4nMh",
    "placeName": "glen ellyn",
    "state": "IL"
  },
  {
    "city": "manhattan",
    "state_code": "IL",
    "placeMasterId": "P02500000FsoF5UHnyn1nXn2wtHS4kcUTnpAsrcm",
    "placeName": "manhattan",
    "state": "IL"
  },
  {
    "city": "worth",
    "state_code": "IL",
    "placeMasterId": "P02500000FsoF8ubGSIse2Cv8Alk6cNRx7crKeRa",
    "placeName": "worth",
    "state": "IL"
  },
  {
    "city": "evergreen park",
    "state_code": "IL",
    "placeMasterId": "P02500000FsoF3UR7XEwnvNcVducDzlHMRPmoUbJ",
    "placeName": "evergreen park",
    "state": "IL"
  },
  {
    "city": "martinton",
    "state_code": "IL",
    "placeMasterId": "P02500000FsoF5d8HaBbaEOI7h5nUf6qjB6yGIry",
    "placeName": "martinton",
    "state": "IL"
  },
  {
    "city": "momence",
    "state_code": "IL",
    "placeMasterId": "P02500000FsoF5lylBaBMuzXIUu8uZbIylOXRGzg",
    "placeName": "momence",
    "state": "IL"
  },
  {
    "city": "rankin",
    "state_code": "IL",
    "placeMasterId": "P02500000FsoF73b3c9NR6OjrjDFfm0bmstkz8sr",
    "placeName": "rankin",
    "state": "IL"
  },
  {
    "city": "woodland",
    "state_code": "IL",
    "placeMasterId": "P02500000FsoF8ubGSIse2Cv8Alk6cNRHbbxxneE",
    "placeName": "woodland",
    "state": "IL"
  },
  {
    "city": "rock island",
    "state_code": "IL",
    "placeMasterId": "P02500000FsoF7CRXDXxDmzz2X1b5gUzS2C8Bvbt",
    "placeName": "rock island",
    "state": "IL"
  },
  {
    "city": "lyndon",
    "state_code": "IL",
    "placeMasterId": "P02500000FsoF5LRKNOS0rBnm5T6eq86cSAubkoA",
    "placeName": "lyndon",
    "state": "IL"
  },
  {
    "city": "prophetstown",
    "state_code": "IL",
    "placeMasterId": "P02500000FsoF6uka0knePnUgvOuFrWDPLWNvhrs",
    "placeName": "prophetstown",
    "state": "IL"
  },
  {
    "city": "bureau",
    "state_code": "IL",
    "placeMasterId": "P02500000FsoHI2IkD9OJ6gGhlO31hQ8OVtH2umu",
    "placeName": "bureau",
    "state": "IL"
  },
  {
    "city": "new bedford",
    "state_code": "IL",
    "placeMasterId": "P02500000FsoF63fiONKwIC1e6WpkOa00SMLi8bD",
    "placeName": "new bedford",
    "state": "IL"
  },
  {
    "city": "seneca",
    "state_code": "IL",
    "placeMasterId": "P02500000FsoF7cyy1jgZqniYwSdLPy4ZJ54rUHx",
    "placeName": "seneca",
    "state": "IL"
  },
  {
    "city": "wenona",
    "state_code": "IL",
    "placeMasterId": "P02500000FsoF8cuJFVj4f0QmZ93GnOi4JzWoNwd",
    "placeName": "wenona",
    "state": "IL"
  },
  {
    "city": "ellisville",
    "state_code": "IL",
    "placeMasterId": "P02500000FsoF3CkAKRnEYB8A2HvOAmZwPvF4u2N",
    "placeName": "ellisville",
    "state": "IL"
  },
  {
    "city": "ipava",
    "state_code": "IL",
    "placeMasterId": "P02500000FsoF4UMSl0zIjaKjGb29NBvufRo6nKw",
    "placeName": "ipava",
    "state": "IL"
  },
  {
    "city": "sciota",
    "state_code": "IL",
    "placeMasterId": "P02500000FsoF7cyy1jgZqniYwSdLPy5My559SJL",
    "placeName": "sciota",
    "state": "IL"
  },
  {
    "city": "viola",
    "state_code": "IL",
    "placeMasterId": "P02500000FsoF8U3pe79HyPBblKhqsuIne4TG5uc",
    "placeName": "viola",
    "state": "IL"
  },
  {
    "city": "green valley",
    "state_code": "IL",
    "placeMasterId": "P02500000FsoF43p1wpFwfmbCr9ztdinx0uwkYOZ",
    "placeName": "green valley",
    "state": "IL"
  },
  {
    "city": "princeville",
    "state_code": "IL",
    "placeMasterId": "P02500000FsoF73b3c9NR6OjrjDFfm0aDWNNT1af",
    "placeName": "princeville",
    "state": "IL"
  },
  {
    "city": "lawndale",
    "state_code": "IL",
    "placeMasterId": "P02500000FsoHLAvFTs5aDteXRFeDkCDtrSRICqI",
    "placeName": "lawndale",
    "state": "IL"
  },
  {
    "city": "stanford",
    "state_code": "IL",
    "placeMasterId": "P02500000FsoF7ufvEWq9E0CuY5KBEwmbyhJGV4Q",
    "placeName": "stanford",
    "state": "IL"
  },
  {
    "city": "champaign",
    "state_code": "IL",
    "placeMasterId": "P02500000FsoF2LfIi4KWQZf7DPqshqIRwcizJVd",
    "placeName": "champaign",
    "state": "IL"
  },
  {
    "city": "charleston",
    "state_code": "IL",
    "placeMasterId": "P02500000FsoF2UVmJSuJ7AuI1ECIcKfnjS5pTxX",
    "placeName": "charleston",
    "state": "IL"
  },
  {
    "city": "brighton",
    "state_code": "IL",
    "placeMasterId": "P02500000FsoF1v7rtsbAMlvanyocyNFbXAfMytE",
    "placeName": "brighton",
    "state": "IL"
  },
  {
    "city": "lovejoy",
    "state_code": "IL",
    "placeMasterId": "P02500000FsoHLScCgfF9b68t2sL3ZB11CbxtwFF",
    "placeName": "lovejoy",
    "state": "IL"
  },
  {
    "city": "ramsey",
    "state_code": "IL",
    "placeMasterId": "P02500000FsoF6uka0knePnUgvOuFrWG63GTDEuv",
    "placeName": "ramsey",
    "state": "IL"
  },
  {
    "city": "staunton",
    "state_code": "IL",
    "placeMasterId": "P02500000FsoF7lpRd8GMXOxjkGylKSUhjmsRftd",
    "placeName": "staunton",
    "state": "IL"
  },
  {
    "city": "collinsville",
    "state_code": "IL",
    "placeMasterId": "P02500000FsoF2dMFurU5nm9Sp2XiWp5ndE8F35Q",
    "placeName": "collinsville",
    "state": "IL"
  },
  {
    "city": "pinckneyville",
    "state_code": "IL",
    "placeMasterId": "P02500000FsoF6lu6PMDrjCFW7aYpx1selxTz0Tb",
    "placeName": "pinckneyville",
    "state": "IL"
  },
  {
    "city": "mount pulaski",
    "state_code": "IL",
    "placeMasterId": "P02500000FsoF63fiONKwIC1e6WpkOZyRszcgtTO",
    "placeName": "mount pulaski",
    "state": "IL"
  },
  {
    "city": "cantrall",
    "state_code": "IL",
    "placeMasterId": "P02500000FsoF2Cop6fkjjyPwPbVSnLw1shDUpN4",
    "placeName": "cantrall",
    "state": "IL"
  },
  {
    "city": "jacksonville",
    "state_code": "IL",
    "placeMasterId": "P02500000FsoF4dCwMPZ5QBZu4PNZHgILKo8H7Hi",
    "placeName": "jacksonville",
    "state": "IL"
  },
  {
    "city": "lincoln",
    "state_code": "IL",
    "placeMasterId": "P02500000FsoF53kNAbIRTzJQTqPp19Q4BxL10N2",
    "placeName": "lincoln",
    "state": "IL"
  },
  {
    "city": "san jose",
    "state_code": "IL",
    "placeMasterId": "P02500000FsoF7U8UQL6nACTO8eHvVTjJWyLaQ06",
    "placeName": "san jose",
    "state": "IL"
  },
  {
    "city": "browns",
    "state_code": "IL",
    "placeMasterId": "P02500000FsoF1v7rtsbAMlvanyocyNFpqgS9IYp",
    "placeName": "browns",
    "state": "IL"
  },
  {
    "city": "christopher",
    "state_code": "IL",
    "placeMasterId": "P02500000FsoF2LfIi4KWQZf7DPqshqNbMQikdyt",
    "placeName": "christopher",
    "state": "IL"
  },
  {
    "city": "logan",
    "state_code": "IL",
    "placeMasterId": "P02500000FsoHLScCgfF9b68t2sL3ZAqzhLFLQa4",
    "placeName": "logan",
    "state": "IL"
  },
  {
    "city": "radom",
    "state_code": "IL",
    "placeMasterId": "P02500000FsoF73b3c9NR6OjrjDFfm0aEMHhO50q",
    "placeName": "radom",
    "state": "IL"
  },
  {
    "city": "xenia",
    "state_code": "IL",
    "placeMasterId": "P02500000FsoF93Rk3hSQioAIya5WWrmvn0mIRMk",
    "placeName": "xenia",
    "state": "IL"
  },
  {
    "city": "rosiclare",
    "state_code": "IL",
    "placeMasterId": "P02500000FsoF7LI0owX0TbEDKpwVazM4ExzOLVl",
    "placeName": "rosiclare",
    "state": "IL"
  },
  {
    "city": "berger",
    "state_code": "MO",
    "placeMasterId": "P02500000FsoFirtaSCKXBab2dOnQDp7NrW6yffM",
    "placeName": "berger",
    "state": "MO"
  },
  {
    "city": "annada",
    "state_code": "MO",
    "placeMasterId": "P02500000FsoFij36qnkkUzLrpaS0JKkpYlwGhdo",
    "placeName": "annada",
    "state": "MO"
  },
  {
    "city": "middletown",
    "state_code": "MO",
    "placeMasterId": "P02500000FsoFm9MZKJbazPE374k2B5gOjypsWMo",
    "placeName": "middletown",
    "state": "MO"
  },
  {
    "city": "downing",
    "state_code": "MO",
    "placeMasterId": "P02500000FsoFk9VsslWbMznbrhuBQEPOyVEpOhr",
    "placeName": "downing",
    "state": "MO"
  },
  {
    "city": "novinger",
    "state_code": "MO",
    "placeMasterId": "P02500000FsoFmikTjtujjoCkKK7hp35pkulO603",
    "placeName": "novinger",
    "state": "MO"
  },
  {
    "city": "rutledge",
    "state_code": "MO",
    "placeMasterId": "P02500000FsoFnZpLMHNRrPfn9CCDHzF8WAUrmG0",
    "placeName": "rutledge",
    "state": "MO"
  },
  {
    "city": "puxico",
    "state_code": "MO",
    "placeMasterId": "P02500000FsoFn9HuY5e5nbwGjl9xYWJBaeZ0Z5n",
    "placeName": "puxico",
    "state": "MO"
  },
  {
    "city": "oak grove",
    "state_code": "MO",
    "placeMasterId": "P02500000FsoFmZu08VKx3CxZWVmHuYo75uQZ8eJ",
    "placeName": "oak grove",
    "state": "MO"
  },
  {
    "city": "pleasant hill",
    "state_code": "MO",
    "placeMasterId": "P02500000FsoFn9HuY5e5nbwGjl9xYW7gGkQmOd8",
    "placeName": "pleasant hill",
    "state": "MO"
  },
  {
    "city": "strasburg",
    "state_code": "MO",
    "placeMasterId": "P02500000FsoFnrWIZ4X1EcA8kot36y9YcVMyeCE",
    "placeName": "strasburg",
    "state": "MO"
  },
  {
    "city": "kansas city",
    "state_code": "MO",
    "placeMasterId": "P02500000FsoFlR8BJKifYP0B610wcdmJLAheztV",
    "placeName": "kansas city",
    "state": "MO"
  },
  {
    "city": "kansas city",
    "state_code": "MO",
    "placeMasterId": "P02500000FsoFlR8BJKifYP0B610wcdmJLAheztV",
    "placeName": "kansas city",
    "state": "MO"
  },
  {
    "city": "burlington junction",
    "state_code": "MO",
    "placeMasterId": "P02500000FsoFjRHUrmdfvzZjqeB5rmXdr6n5eVf",
    "placeName": "burlington junction",
    "state": "MO"
  },
  {
    "city": "cameron",
    "state_code": "MO",
    "placeMasterId": "P02500000FsoFja7yTBDScaoueSWVmGqO2L6bn8g",
    "placeName": "cameron",
    "state": "MO"
  },
  {
    "city": "elmo",
    "state_code": "MO",
    "placeMasterId": "P02500000FsoFkIMMUA6O3b2mfWFbKigotSzkNZX",
    "placeName": "elmo",
    "state": "MO"
  },
  {
    "city": "savannah",
    "state_code": "MO",
    "placeMasterId": "P02500000FsoFnZpLMHNRrPfn9CCDHzRVF8KIBlv",
    "placeName": "savannah",
    "state": "MO"
  },
  {
    "city": "worth",
    "state_code": "MO",
    "placeMasterId": "P02500000FsoFoibABRzjMDdBZgxYZuCi05MCKBt",
    "placeName": "worth",
    "state": "MO"
  },
  {
    "city": "humphreys",
    "state_code": "MO",
    "placeMasterId": "P02500000FsoFlIHhhw8srnl0ICfWi9LUsbRF57V",
    "placeName": "humphreys",
    "state": "MO"
  },
  {
    "city": "kingston",
    "state_code": "MO",
    "placeMasterId": "P02500000FsoFlR8BJKifYP0B610wcdnwcrv1XsO",
    "placeName": "kingston",
    "state": "MO"
  },
  {
    "city": "harrisonville",
    "state_code": "MO",
    "placeMasterId": "P02500000FsoFl0akV8zJUbGegZygtAbSfQnT7ix",
    "placeName": "harrisonville",
    "state": "MO"
  },
  {
    "city": "butler",
    "state_code": "MO",
    "placeMasterId": "P02500000FsoFjRHUrmdfvzZjqeB5rmTFRBbOJAl",
    "placeName": "butler",
    "state": "MO"
  },
  {
    "city": "cleveland",
    "state_code": "MO",
    "placeMasterId": "P02500000FsoFjiyS4ZnFJC45SGrvglJlwKowhF8",
    "placeName": "cleveland",
    "state": "MO"
  },
  {
    "city": "pineville",
    "state_code": "MO",
    "placeMasterId": "P02500000FsoFn0RQwh4J70h5vwoXe1ss85HvBPs",
    "placeName": "pineville",
    "state": "MO"
  },
  {
    "city": "linn",
    "state_code": "MO",
    "placeMasterId": "P02500000FsoFm0W5iv1oInysJGOcGb8iotue34h",
    "placeName": "linn",
    "state": "MO"
  },
  {
    "city": "cairo",
    "state_code": "MO",
    "placeMasterId": "P02500000FsoFjRHUrmdfvzZjqeB5rmVHCCXL3go",
    "placeName": "cairo",
    "state": "MO"
  },
  {
    "city": "renick",
    "state_code": "MO",
    "placeMasterId": "P02500000FsoFnI8O9UDsUDBRXZVNT0VQt9N99Sv",
    "placeName": "renick",
    "state": "MO"
  },
  {
    "city": "otterville",
    "state_code": "MO",
    "placeMasterId": "P02500000FsoFmikTjtujjoCkKK7hp38xOWxbNzn",
    "placeName": "otterville",
    "state": "MO"
  },
  {
    "city": "eminence",
    "state_code": "MO",
    "placeMasterId": "P02500000FsoFkIMMUA6O3b2mfWFbKilY6JfkPsY",
    "placeName": "eminence",
    "state": "MO"
  },
  {
    "city": "mountain view",
    "state_code": "MO",
    "placeMasterId": "P02500000FsoFmR3WX6lAMbiOihQs04SsRkQaePP",
    "placeName": "mountain view",
    "state": "MO"
  },
  {
    "city": "fordland",
    "state_code": "MO",
    "placeMasterId": "P02500000FsoFka3JgxFxQnX8H8wR9hW3RKXvoVB",
    "placeName": "fordland",
    "state": "MO"
  },
  {
    "city": "louisburg",
    "state_code": "MO",
    "placeMasterId": "P02500000FsoFm0W5iv1oInysJGOcGbIW0V8Owg5",
    "placeName": "louisburg",
    "state": "MO"
  },
  {
    "city": "mount vernon",
    "state_code": "MO",
    "placeMasterId": "P02500000FsoFmZu08VKx3CxZWVmHuYdxLpPSFne",
    "placeName": "mount vernon",
    "state": "MO"
  },
  {
    "city": "seligman",
    "state_code": "MO",
    "placeMasterId": "P02500000FsoFnZpLMHNRrPfn9CCDHzMKmzIn9ry",
    "placeName": "seligman",
    "state": "MO"
  },
  {
    "city": "kincaid",
    "state_code": "KS",
    "placeMasterId": "P02500000FsoFKthN7bMbkfTleylD9WeGDqnpWT2",
    "placeName": "kincaid",
    "state": "KS"
  },
  {
    "city": "lenexa",
    "state_code": "KS",
    "placeMasterId": "P02500000FsoFL2XqizwORGiwSn6d40yh5PPI6HP",
    "placeName": "lenexa",
    "state": "KS"
  },
  {
    "city": "frontenac",
    "state_code": "KS",
    "placeMasterId": "P02500000FsoFKKJSi13T0GV4RjNXVZ5naCOIjB1",
    "placeName": "frontenac",
    "state": "KS"
  },
  {
    "city": "americus",
    "state_code": "KS",
    "placeMasterId": "P02500000FsoFJ2hAHRrOorIVDQGmJ9oSjFa4L7T",
    "placeName": "americus",
    "state": "KS"
  },
  {
    "city": "hamilton",
    "state_code": "KS",
    "placeMasterId": "P02500000FsoFKT9wJPdFgrkFFXixQ3W35CxxP5w",
    "placeName": "hamilton",
    "state": "KS"
  },
  {
    "city": "lincolnville",
    "state_code": "KS",
    "placeMasterId": "P02500000FsoFLBOKKOWB7ry7GbS2yVLvqwaaQFR",
    "placeName": "lincolnville",
    "state": "KS"
  },
  {
    "city": "waverly",
    "state_code": "KS",
    "placeMasterId": "P02500000FsoFMkhZxkrogTf26XFdztWlf2QGBgR",
    "placeName": "waverly",
    "state": "KS"
  },
  {
    "city": "palmer",
    "state_code": "KS",
    "placeMasterId": "P02500000FsoFLtciLNP6YsBzHfB8WxB97qmaRZH",
    "placeName": "palmer",
    "state": "KS"
  },
  {
    "city": "bluff city",
    "state_code": "KS",
    "placeMasterId": "P02500000FsoFJTEb5daksf21crJ22cw5LllVwe5",
    "placeName": "bluff city",
    "state": "KS"
  },
  {
    "city": "spivey",
    "state_code": "KS",
    "placeMasterId": "P02500000FsoFMT0ckxiFJHAgUuYoAui6UT5Aau8",
    "placeName": "spivey",
    "state": "KS"
  },
  {
    "city": "wichita",
    "state_code": "KS",
    "placeMasterId": "P02500000FsoFMtY3Z9RbN4uCuLb3uNnBOyNlFLT",
    "placeName": "wichita",
    "state": "KS"
  },
  {
    "city": "edna",
    "state_code": "KS",
    "placeMasterId": "P02500000FsoFK2cVVDttd40iq6ghgaQhO1O8Tdf",
    "placeName": "edna",
    "state": "KS"
  },
  {
    "city": "osborne",
    "state_code": "KS",
    "placeMasterId": "P02500000FsoFLkmEjypJsGwoTqpicSpVQNTMhla",
    "placeName": "osborne",
    "state": "KS"
  },
  {
    "city": "buhler",
    "state_code": "KS",
    "placeMasterId": "P02500000FsoFJTEb5daksf21crJ22ctwyhUHTHl",
    "placeName": "buhler",
    "state": "KS"
  },
  {
    "city": "alton",
    "state_code": "KS",
    "placeMasterId": "P02500000FsoFJ2hAHRrOorIVDQGmJ9pZeV8kr1E",
    "placeName": "alton",
    "state": "KS"
  },
  {
    "city": "quinter",
    "state_code": "KS",
    "placeMasterId": "P02500000FsoFM2TBwlytFTRA5TWYRRagoQ8lQA8",
    "placeName": "quinter",
    "state": "KS"
  },
  {
    "city": "rexford",
    "state_code": "KS",
    "placeMasterId": "P02500000FsoFMBJfYAYfw4gKtHryLvwxA8uI52z",
    "placeName": "rexford",
    "state": "KS"
  },
  {
    "city": "garden city",
    "state_code": "KS",
    "placeMasterId": "P02500000FsoFKKJSi13T0GV4RjNXVZ62nSYlmWw",
    "placeName": "garden city",
    "state": "KS"
  },
  {
    "city": "jetmore",
    "state_code": "KS",
    "placeMasterId": "P02500000FsoFKthN7bMbkfTleylD9WavRTbJbHP",
    "placeName": "jetmore",
    "state": "KS"
  },
  {
    "city": "ulysses",
    "state_code": "KS",
    "placeMasterId": "P02500000FsoFMbr6MMI1zsPrIiuE5P5v1MMwzC2",
    "placeName": "ulysses",
    "state": "KS"
  },
  {
    "city": "elkhart",
    "state_code": "KS",
    "placeMasterId": "P02500000FsoFK2cVVDttd40iq6ghgaPoxvyqxQs",
    "placeName": "elkhart",
    "state": "KS"
  },
  {
    "city": "wahoo",
    "state_code": "NE",
    "placeMasterId": "P02500000FsoFtr4Ltim05qRSUvObNXjeNE1onwe",
    "placeName": "wahoo",
    "state": "NE"
  },
  {
    "city": "omaha",
    "state_code": "NE",
    "placeMasterId": "P02500000FsoFszzUHLJHyEyPg3K5ubV6FuzuT2T",
    "placeName": "omaha",
    "state": "NE"
  },
  {
    "city": "alexandria",
    "state_code": "NE",
    "placeMasterId": "P02500000FsoFqiRqd04iyd3cp3nPKla6VELJVyE",
    "placeName": "alexandria",
    "state": "NE"
  },
  {
    "city": "shickley",
    "state_code": "NE",
    "placeMasterId": "P02500000FsoFtZNOgvcQidx6tIhlYYqbocCgIDl",
    "placeName": "shickley",
    "state": "NE"
  },
  {
    "city": "virginia",
    "state_code": "NE",
    "placeMasterId": "P02500000FsoFtr4Ltim05qRSUvObNXkbJY8Mcoo",
    "placeName": "virginia",
    "state": "NE"
  },
  {
    "city": "ames",
    "state_code": "NE",
    "placeMasterId": "P02500000FsoFqrIKEOeVfEIncs8pFFsg73Q5F7I",
    "placeName": "ames",
    "state": "NE"
  },
  {
    "city": "battle creek",
    "state_code": "NE",
    "placeMasterId": "P02500000FsoFr08npnEILpXyQgUF9kFJSZH5yvV",
    "placeName": "battle creek",
    "state": "NE"
  },
  {
    "city": "verdigre",
    "state_code": "NE",
    "placeMasterId": "P02500000FsoFtr4Ltim05qRSUvObNXhZoPqMn6C",
    "placeName": "verdigre",
    "state": "NE"
  },
  {
    "city": "wynot",
    "state_code": "NE",
    "placeMasterId": "P02500000FsoFtzupV7LmmRgdIjk1I28LDGRpwZt",
    "placeName": "wynot",
    "state": "NE"
  },
  {
    "city": "hazard",
    "state_code": "NE",
    "placeMasterId": "P02500000FsoFs8ucexqZqdVMrBFaRfCJFamooVd",
    "placeName": "hazard",
    "state": "NE"
  },
  {
    "city": "beaver city",
    "state_code": "NE",
    "placeMasterId": "P02500000FsoFr08npnEILpXyQgUF9kHjd1rRkKk",
    "placeName": "beaver city",
    "state": "NE"
  },
  {
    "city": "blue hill",
    "state_code": "NE",
    "placeMasterId": "P02500000FsoFr8zHRBo52Qn9EUpf4EeRf6aoTdi",
    "placeName": "blue hill",
    "state": "NE"
  },
  {
    "city": "kenesaw",
    "state_code": "NE",
    "placeMasterId": "P02500000FsoFsQbZrl09DpziSnwQGe2zPhVxRGZ",
    "placeName": "kenesaw",
    "state": "NE"
  },
  {
    "city": "loomis",
    "state_code": "NE",
    "placeMasterId": "P02500000FsoFsZS3T9ZvuREtGcHqB8PsI8xoRtc",
    "placeName": "loomis",
    "state": "NE"
  },
  {
    "city": "nelson",
    "state_code": "NE",
    "placeMasterId": "P02500000FsoFsr90fwjVHdjEsEyg073BN5mXaKW",
    "placeName": "nelson",
    "state": "NE"
  },
  {
    "city": "sutton",
    "state_code": "NE",
    "placeMasterId": "P02500000FsoFtiDsIKCDPFCHh73BT3J26q2dDg2",
    "placeName": "sutton",
    "state": "NE"
  },
  {
    "city": "upland",
    "state_code": "NE",
    "placeMasterId": "P02500000FsoFtr4Ltim05qRSUvObNXffYmqlkma",
    "placeName": "upland",
    "state": "NE"
  },
  {
    "city": "lewellen",
    "state_code": "NE",
    "placeMasterId": "P02500000FsoFsZS3T9ZvuREtGcHqB8E3E6SeiF8",
    "placeName": "lewellen",
    "state": "NE"
  },
  {
    "city": "ainsworth",
    "state_code": "NE",
    "placeMasterId": "P02500000FsoFqiRqd04iyd3cp3nPKlY3zsPzI07",
    "placeName": "ainsworth",
    "state": "NE"
  },
  {
    "city": "metairie",
    "state_code": "LA",
    "placeMasterId": "P02500000FsoFRtAlg1e5Q6TJ1lggnWuwlbJVoWn",
    "placeName": "metairie",
    "state": "LA"
  },
  {
    "city": "metairie",
    "state_code": "LA",
    "placeMasterId": "P02500000FsoFRtAlg1e5Q6TJ1lggnWuwlbJVoWn",
    "placeName": "metairie",
    "state": "LA"
  },
  {
    "city": "arabi",
    "state_code": "LA",
    "placeMasterId": "P02500000FsoFQB12RGifAtXDO1XfreZcGFRXFow",
    "placeName": "arabi",
    "state": "LA"
  },
  {
    "city": "new orleans",
    "state_code": "LA",
    "placeMasterId": "P02500000FsoFS21FHQDs6hiTpa26i1JVz94sOtB",
    "placeName": "new orleans",
    "state": "LA"
  },
  {
    "city": "franklinton",
    "state_code": "LA",
    "placeMasterId": "P02500000FsoFR25u3eBNIV0GCtcBKao8NtPeXuf",
    "placeName": "franklinton",
    "state": "LA"
  },
  {
    "city": "madisonville",
    "state_code": "LA",
    "placeMasterId": "P02500000FsoFRkKI4d4IjVE8DxLGt2crtGLcdT7",
    "placeName": "madisonville",
    "state": "LA"
  },
  {
    "city": "springfield",
    "state_code": "LA",
    "placeMasterId": "P02500000FsoFSkFdIP6nXhwLqdlCGT8Gt8wG0e6",
    "placeName": "springfield",
    "state": "LA"
  },
  {
    "city": "mandeville",
    "state_code": "LA",
    "placeMasterId": "P02500000FsoFRtAlg1e5Q6TJ1lggnWrIGj0diGo",
    "placeName": "mandeville",
    "state": "LA"
  },
  {
    "city": "scott",
    "state_code": "LA",
    "placeMasterId": "P02500000FsoFSbP9h0X0r6hB2pPmLyjelxlD8Gv",
    "placeName": "scott",
    "state": "LA"
  },
  {
    "city": "oberlin",
    "state_code": "LA",
    "placeMasterId": "P02500000FsoFSArisonenIxedONWcVdFK3EwWIF",
    "placeName": "oberlin",
    "state": "LA"
  },
  {
    "city": "pitkin",
    "state_code": "LA",
    "placeMasterId": "P02500000FsoFSJiCUDNRTuCpRCiwWzzLCD8TKha",
    "placeName": "pitkin",
    "state": "LA"
  },
  {
    "city": "grosse tete",
    "state_code": "LA",
    "placeMasterId": "P02500000FsoFRAwNf2l9z6FR0hxbF5CO519ExVX",
    "placeName": "grosse tete",
    "state": "LA"
  },
  {
    "city": "greenwood",
    "state_code": "LA",
    "placeMasterId": "P02500000FsoFRJmrGRKwfhUboWJ19ZPFaI7Rwk1",
    "placeName": "greenwood",
    "state": "LA"
  },
  {
    "city": "vivian",
    "state_code": "LA",
    "placeMasterId": "P02500000FsoFSt66tngaEJBWeS6cAxaKqCzcaG5",
    "placeName": "vivian",
    "state": "LA"
  },
  {
    "city": "hodge",
    "state_code": "LA",
    "placeMasterId": "P02500000FsoFRSdKrpujMIjmcKeR43gQ1y2NbRP",
    "placeName": "hodge",
    "state": "LA"
  },
  {
    "city": "natchitoches",
    "state_code": "LA",
    "placeMasterId": "P02500000FsoFS21FHQDs6hiTpa26i1MnFTeKb3I",
    "placeName": "natchitoches",
    "state": "LA"
  },
  {
    "city": "fountain hill",
    "state_code": "AR",
    "placeMasterId": "P02500000FsoEbNh3i9F6Z2PBMwYtVGBHMe9GF7J",
    "placeName": "fountain hill",
    "state": "AR"
  },
  {
    "city": "hamburg",
    "state_code": "AR",
    "placeMasterId": "P02500000FsoEbfO0uwOfwEtWyZFjKEtNoXUqmXh",
    "placeName": "hamburg",
    "state": "AR"
  },
  {
    "city": "louann",
    "state_code": "AR",
    "placeMasterId": "P02500000FsoEcElvKWhogdsEBodOyCMyaKKY1ga",
    "placeName": "louann",
    "state": "AR"
  },
  {
    "city": "nashville",
    "state_code": "AR",
    "placeMasterId": "P02500000FsoEcWSsXJrO3qMZnRKEnB5cvbicElN",
    "placeName": "nashville",
    "state": "AR"
  },
  {
    "city": "wilton",
    "state_code": "AR",
    "placeMasterId": "P02500000FsoEdWODl5tss34nQ7kAAbiWCQls8aQ",
    "placeName": "wilton",
    "state": "AR"
  },
  {
    "city": "benton",
    "state_code": "AR",
    "placeMasterId": "P02500000FsoEafSfhAMB82BJLspnwoLUSigyQGV",
    "placeName": "benton",
    "state": "AR"
  },
  {
    "city": "cabot",
    "state_code": "AR",
    "placeMasterId": "P02500000FsoEaoJ9IYvxodQU9hBDrIfH9CpyjK2",
    "placeName": "cabot",
    "state": "AR"
  },
  {
    "city": "england",
    "state_code": "AR",
    "placeMasterId": "P02500000FsoEbNh3i9F6Z2PBMwYtVG90hgVqxFx",
    "placeName": "england",
    "state": "AR"
  },
  {
    "city": "searcy",
    "state_code": "AR",
    "placeMasterId": "P02500000FsoEcx0JLVak7e66CsMUWeFKRsFPgM4",
    "placeName": "searcy",
    "state": "AR"
  },
  {
    "city": "keiser",
    "state_code": "AR",
    "placeMasterId": "P02500000FsoEc5vRj88202d3O0Hz3hzFOmzSScN",
    "placeName": "keiser",
    "state": "AR"
  },
  {
    "city": "wilson",
    "state_code": "AR",
    "placeMasterId": "P02500000FsoEdWODl5tss34nQ7kAAbjfpP59u8G",
    "placeName": "wilson",
    "state": "AR"
  },
  {
    "city": "pollard",
    "state_code": "AR",
    "placeMasterId": "P02500000FsoEco9pk70xR2qvP414c9rKHcdDWga",
    "placeName": "pollard",
    "state": "AR"
  },
  {
    "city": "success",
    "state_code": "AR",
    "placeMasterId": "P02500000FsoEd5qmwuAWoFLH0ghuR8bjmsXDQYp",
    "placeName": "success",
    "state": "AR"
  },
  {
    "city": "williford",
    "state_code": "AR",
    "placeMasterId": "P02500000FsoEdWODl5tss34nQ7kAAbgIwQAZ6YL",
    "placeName": "williford",
    "state": "AR"
  },
  {
    "city": "berryville",
    "state_code": "AR",
    "placeMasterId": "P02500000FsoEafSfhAMB82BJLspnwoGr5pzJ74A",
    "placeName": "berryville",
    "state": "AR"
  },
  {
    "city": "eureka springs",
    "state_code": "AR",
    "placeMasterId": "P02500000FsoEbNh3i9F6Z2PBMwYtVG9HZg287nz",
    "placeName": "eureka springs",
    "state": "AR"
  },
  {
    "city": "bentonville",
    "state_code": "AR",
    "placeMasterId": "P02500000FsoEafSfhAMB82BJLspnwoIq9BdysoO",
    "placeName": "bentonville",
    "state": "AR"
  },
  {
    "city": "hartman",
    "state_code": "AR",
    "placeMasterId": "P02500000FsoEboEUWKyScq8hmNb9EjGe1k4rsvD",
    "placeName": "hartman",
    "state": "AR"
  },
  {
    "city": "greenwood",
    "state_code": "AR",
    "placeMasterId": "P02500000FsoEbWXXJXotFdeMAkuJPkXqkrRHE6a",
    "placeName": "greenwood",
    "state": "AR"
  },
  {
    "city": "amber",
    "state_code": "OK",
    "placeMasterId": "P02500000FsoGJp7Ffrov9AzAiiGfChP0ey1Qzc4",
    "placeName": "amber",
    "state": "OK"
  },
  {
    "city": "guthrie",
    "state_code": "OK",
    "placeMasterId": "P02500000FsoGLXGyuckLONvGMSPg8ZgTCf3QnhU",
    "placeName": "guthrie",
    "state": "OK"
  },
  {
    "city": "harrah",
    "state_code": "OK",
    "placeMasterId": "P02500000FsoGLXGyuckLONvGMSPg8ZgTL5nm0lE",
    "placeName": "harrah",
    "state": "OK"
  },
  {
    "city": "norman",
    "state_code": "OK",
    "placeMasterId": "P02500000FsoGMg2njnMctBsemxB1QUbHJdaKM5C",
    "placeName": "norman",
    "state": "OK"
  },
  {
    "city": "spencer",
    "state_code": "OK",
    "placeMasterId": "P02500000FsoGNOHBkmFYKC6Wo0u6ywelnVtQEPt",
    "placeName": "spencer",
    "state": "OK"
  },
  {
    "city": "oklahoma city",
    "state_code": "OK",
    "placeMasterId": "P02500000FsoGMg2njnMctBsemxB1QUgVkw3g3BI",
    "placeName": "oklahoma city",
    "state": "OK"
  },
  {
    "city": "oklahoma city",
    "state_code": "OK",
    "placeMasterId": "P02500000FsoGMg2njnMctBsemxB1QUgVkw3g3BI",
    "placeName": "oklahoma city",
    "state": "OK"
  },
  {
    "city": "mannsville",
    "state_code": "OK",
    "placeMasterId": "P02500000FsoGMFVMvbdGpO98NW8lh1dMC8f4JBW",
    "placeName": "mannsville",
    "state": "OK"
  },
  {
    "city": "hollister",
    "state_code": "OK",
    "placeMasterId": "P02500000FsoGLXGyuckLONvGMSPg8ZsjrMka9d0",
    "placeName": "hollister",
    "state": "OK"
  },
  {
    "city": "burlington",
    "state_code": "OK",
    "placeMasterId": "P02500000FsoGKOVA5S83tZxrvxeKqeerbjUXjaZ",
    "placeName": "burlington",
    "state": "OK"
  },
  {
    "city": "jet",
    "state_code": "OK",
    "placeMasterId": "P02500000FsoGLoxw7PtulaPby56VxYNM0uhcyHj",
    "placeName": "jet",
    "state": "OK"
  },
  {
    "city": "laverne",
    "state_code": "OK",
    "placeMasterId": "P02500000FsoGLxoPioThSBemltRvs2pcprEYnaS",
    "placeName": "laverne",
    "state": "OK"
  },
  {
    "city": "catoosa",
    "state_code": "OK",
    "placeMasterId": "P02500000FsoGKXLdgqhqaBD2jlzkl969N7tr3ok",
    "placeName": "catoosa",
    "state": "OK"
  },
  {
    "city": "claremore",
    "state_code": "OK",
    "placeMasterId": "P02500000FsoGKgC7IFHdGmSDXaLAfdRtpBKDNwm",
    "placeName": "claremore",
    "state": "OK"
  },
  {
    "city": "kiowa",
    "state_code": "OK",
    "placeMasterId": "P02500000FsoGLxoPioThSBemltRvs2p4mJKuq2y",
    "placeName": "kiowa",
    "state": "OK"
  },
  {
    "city": "bokchito",
    "state_code": "OK",
    "placeMasterId": "P02500000FsoGK6oCseyUWNTWKKxV1gA3MtwXENq",
    "placeName": "bokchito",
    "state": "OK"
  },
  {
    "city": "agra",
    "state_code": "OK",
    "placeMasterId": "P02500000FsoGJp7Ffrov9AzAiiGfChBzJjNgJZO",
    "placeName": "agra",
    "state": "OK"
  },
  {
    "city": "carney",
    "state_code": "OK",
    "placeMasterId": "P02500000FsoGKOVA5S83tZxrvxeKqelynUggDGW",
    "placeName": "carney",
    "state": "OK"
  },
  {
    "city": "mill creek",
    "state_code": "OK",
    "placeMasterId": "P02500000FsoGMOLqX0D3VzOJBKUBbVyUbZnanUU",
    "placeName": "mill creek",
    "state": "OK"
  },
  {
    "city": "paden",
    "state_code": "OK",
    "placeMasterId": "P02500000FsoGMotHLBwPZn7palWRKz3UK6CZC9M",
    "placeName": "paden",
    "state": "OK"
  },
  {
    "city": "spiro",
    "state_code": "OK",
    "placeMasterId": "P02500000FsoGNOHBkmFYKC6Wo0u6ywa18k3q7pr",
    "placeName": "spiro",
    "state": "OK"
  },
  {
    "city": "westville",
    "state_code": "OK",
    "placeMasterId": "P02500000FsoGNxf6AMYh4b5E1GHmcu8AAk6sTQu",
    "placeName": "westville",
    "state": "OK"
  },
  {
    "city": "allen",
    "state_code": "TX",
    "placeMasterId": "P02500000FsoGiMhNQ35zKV58uNgXuxBhSzjEifu",
    "placeName": "allen",
    "state": "TX"
  },
  {
    "city": "carrollton",
    "state_code": "TX",
    "placeMasterId": "P02500000FsoGjeJfqcI3VuHi8gnJ7MXGWnfbcgm",
    "placeName": "carrollton",
    "state": "TX"
  },
  {
    "city": "garland",
    "state_code": "TX",
    "placeMasterId": "P02500000FsoGlMTP5NDTl7DnmQwK3F4Um6WEIeJ",
    "placeName": "garland",
    "state": "TX"
  },
  {
    "city": "grand prairie",
    "state_code": "TX",
    "placeMasterId": "P02500000FsoGleAMIAN38Ji9O3d9sDli4yFRK7s",
    "placeName": "grand prairie",
    "state": "TX"
  },
  {
    "city": "grand prairie",
    "state_code": "TX",
    "placeMasterId": "P02500000FsoGleAMIAN38Ji9O3d9sDli4yFRK7s",
    "placeName": "grand prairie",
    "state": "TX"
  },
  {
    "city": "mckinney",
    "state_code": "TX",
    "placeMasterId": "P02500000FsoGnmrWL71pRKNlREoQXZEUhipDZkX",
    "placeName": "mckinney",
    "state": "TX"
  },
  {
    "city": "plano",
    "state_code": "TX",
    "placeMasterId": "P02500000FsoGpMAlyTNSzw4gHAc1YxIwpOpGjrg",
    "placeName": "plano",
    "state": "TX"
  },
  {
    "city": "richardson",
    "state_code": "TX",
    "placeMasterId": "P02500000FsoGpvYgO3gbkL3NUPzhCukhB7xHjYP",
    "placeName": "richardson",
    "state": "TX"
  },
  {
    "city": "forney",
    "state_code": "TX",
    "placeMasterId": "P02500000FsoGlDcvTydh4Vycycau8kgf1qJwLHa",
    "placeName": "forney",
    "state": "TX"
  },
  {
    "city": "red oak",
    "state_code": "TX",
    "placeMasterId": "P02500000FsoGpdrjBGX2N8Z1snIrNwGZ4eYEUGQ",
    "placeName": "red oak",
    "state": "TX"
  },
  {
    "city": "dallas",
    "state_code": "TX",
    "placeMasterId": "P02500000FsoGkMY3rbAywuVa9kWOfoNE7vnQ9N4",
    "placeName": "dallas",
    "state": "TX"
  },
  {
    "city": "dallas",
    "state_code": "TX",
    "placeMasterId": "P02500000FsoGkMY3rbAywuVa9kWOfoNE7vnQ9N4",
    "placeName": "dallas",
    "state": "TX"
  },
  {
    "city": "roxton",
    "state_code": "TX",
    "placeMasterId": "P02500000FsoGq4P9zSGOQwIYIEL77PH6NWkhHB4",
    "placeName": "roxton",
    "state": "TX"
  },
  {
    "city": "beckville",
    "state_code": "TX",
    "placeMasterId": "P02500000FsoGinEoEEpLOIofJoineQHS4EI1epb",
    "placeName": "beckville",
    "state": "TX"
  },
  {
    "city": "quitman",
    "state_code": "TX",
    "placeMasterId": "P02500000FsoGpV1FZrxFgXJr4yxRTRpG8oTqeur",
    "placeName": "quitman",
    "state": "TX"
  },
  {
    "city": "lufkin",
    "state_code": "TX",
    "placeMasterId": "P02500000FsoGne12jiS2kj8adQT0d52WJQDytSv",
    "placeName": "lufkin",
    "state": "TX"
  },
  {
    "city": "center",
    "state_code": "TX",
    "placeMasterId": "P02500000FsoGjeJfqcI3VuHi8gnJ7MYDKh7kn2L",
    "placeName": "center",
    "state": "TX"
  },
  {
    "city": "jasper",
    "state_code": "TX",
    "placeMasterId": "P02500000FsoGmVFDuXplFvBCCvhfL9y9URW3Lhj",
    "placeName": "jasper",
    "state": "TX"
  },
  {
    "city": "nacogdoches",
    "state_code": "TX",
    "placeMasterId": "P02500000FsoGoV5uM5uksKbdSIXW617IZrIt52Q",
    "placeName": "nacogdoches",
    "state": "TX"
  },
  {
    "city": "alvarado",
    "state_code": "TX",
    "placeMasterId": "P02500000FsoGiVXr1Rfm16KJiC1xpRRNThv2xAr",
    "placeName": "alvarado",
    "state": "TX"
  },
  {
    "city": "fort worth",
    "state_code": "TX",
    "placeMasterId": "P02500000FsoGlMTP5NDTl7DnmQwK3EqQnKzuFlE",
    "placeName": "fort worth",
    "state": "TX"
  },
  {
    "city": "goree",
    "state_code": "TX",
    "placeMasterId": "P02500000FsoGleAMIAN38Ji9O3d9sDd1X1rb0vG",
    "placeName": "goree",
    "state": "TX"
  },
  {
    "city": "newcastle",
    "state_code": "TX",
    "placeMasterId": "P02500000FsoGoV5uM5uksKbdSIXW61BYVMiKIiy",
    "placeName": "newcastle",
    "state": "TX"
  },
  {
    "city": "clifton",
    "state_code": "TX",
    "placeMasterId": "P02500000FsoGjnA9S0rqCVWswV8j1r2BJe116OJ",
    "placeName": "clifton",
    "state": "TX"
  },
  {
    "city": "houston",
    "state_code": "TX",
    "placeMasterId": "P02500000FsoGmDYGhkgBsigqbJ0pWBK8GcFdEcU",
    "placeName": "houston",
    "state": "TX"
  },
  {
    "city": "houston",
    "state_code": "TX",
    "placeMasterId": "P02500000FsoGmDYGhkgBsigqbJ0pWBK8GcFdEcU",
    "placeName": "houston",
    "state": "TX"
  },
  {
    "city": "houston",
    "state_code": "TX",
    "placeMasterId": "P02500000FsoGmDYGhkgBsigqbJ0pWBK8GcFdEcU",
    "placeName": "houston",
    "state": "TX"
  },
  {
    "city": "houston",
    "state_code": "TX",
    "placeMasterId": "P02500000FsoGmDYGhkgBsigqbJ0pWBK8GcFdEcU",
    "placeName": "houston",
    "state": "TX"
  },
  {
    "city": "willis",
    "state_code": "TX",
    "placeMasterId": "P02500000FsoGs4FqR0LO3LizXbAxsGRm2f58XjZ",
    "placeName": "willis",
    "state": "TX"
  },
  {
    "city": "mont belvieu",
    "state_code": "TX",
    "placeMasterId": "P02500000FsoGoDOx9IlBV87HqfqgH2L3NL5S3m0",
    "placeName": "mont belvieu",
    "state": "TX"
  },
  {
    "city": "rosharon",
    "state_code": "TX",
    "placeMasterId": "P02500000FsoGpvYgO3gbkL3NUPzhCuwCxv3NSLD",
    "placeName": "rosharon",
    "state": "TX"
  },
  {
    "city": "port arthur",
    "state_code": "TX",
    "placeMasterId": "P02500000FsoGpMAlyTNSzw4gHAc1YxKs64nn0qB",
    "placeName": "port arthur",
    "state": "TX"
  },
  {
    "city": "beaumont",
    "state_code": "TX",
    "placeMasterId": "P02500000FsoGinEoEEpLOIofJoineQDrbqYiyGU",
    "placeName": "beaumont",
    "state": "TX"
  },
  {
    "city": "bloomington",
    "state_code": "TX",
    "placeMasterId": "P02500000FsoGiw5HpdP84u3q7d4DYuamxxAu5RQ",
    "placeName": "bloomington",
    "state": "TX"
  },
  {
    "city": "pearsall",
    "state_code": "TX",
    "placeMasterId": "P02500000FsoGp4TolgDtcjaKfXvBjyiNDH7ni8K",
    "placeName": "pearsall",
    "state": "TX"
  },
  {
    "city": "san antonio",
    "state_code": "TX",
    "placeMasterId": "P02500000FsoGqM67CFPxo8mttr1wwNqfYQdpCPu",
    "placeName": "san antonio",
    "state": "TX"
  },
  {
    "city": "san antonio",
    "state_code": "TX",
    "placeMasterId": "P02500000FsoGqM67CFPxo8mttr1wwNqfYQdpCPu",
    "placeName": "san antonio",
    "state": "TX"
  },
  {
    "city": "bayside",
    "state_code": "TX",
    "placeMasterId": "P02500000FsoGinEoEEpLOIofJoineQAh9lsN3y2",
    "placeName": "bayside",
    "state": "TX"
  },
  {
    "city": "brownsville",
    "state_code": "TX",
    "placeMasterId": "P02500000FsoGjDmF2QYhS6YBjFl3NtYVw5QcyWp",
    "placeName": "brownsville",
    "state": "TX"
  },
  {
    "city": "edinburg",
    "state_code": "TX",
    "placeMasterId": "P02500000FsoGkn5UfmuL0iF6ZBYePHSuXIKYATl",
    "placeName": "edinburg",
    "state": "TX"
  },
  {
    "city": "mission",
    "state_code": "TX",
    "placeMasterId": "P02500000FsoGoDOx9IlBV87HqfqgH2OshU3ZxXh",
    "placeName": "mission",
    "state": "TX"
  },
  {
    "city": "buda",
    "state_code": "TX",
    "placeMasterId": "P02500000FsoGjDmF2QYhS6YBjFl3NtUep23ixiS",
    "placeName": "buda",
    "state": "TX"
  },
  {
    "city": "burnet",
    "state_code": "TX",
    "placeMasterId": "P02500000FsoGjVTCFDiGpJ2XKsRtCs6EDa76g9K",
    "placeName": "burnet",
    "state": "TX"
  },
  {
    "city": "lockhart",
    "state_code": "TX",
    "placeMasterId": "P02500000FsoGnVAZ8JsG47tPpc7aiaUSGw4KaE3",
    "placeName": "lockhart",
    "state": "TX"
  },
  {
    "city": "pflugerville",
    "state_code": "TX",
    "placeMasterId": "P02500000FsoGpDKIN4ngJKpVTMGbeSxjS9dNqxE",
    "placeName": "pflugerville",
    "state": "TX"
  },
  {
    "city": "utopia",
    "state_code": "TX",
    "placeMasterId": "P02500000FsoGrUrw1Q2FIwkIKLnIEJ2wpDNczTE",
    "placeName": "utopia",
    "state": "TX"
  },
  {
    "city": "giddings",
    "state_code": "TX",
    "placeMasterId": "P02500000FsoGlVJsglnGRiSyaFHjxjNinUgLEep",
    "placeName": "giddings",
    "state": "TX"
  },
  {
    "city": "boys ranch",
    "state_code": "TX",
    "placeMasterId": "P02500000FsoGjDmF2QYhS6YBjFl3NtHfJ7TESd9",
    "placeName": "boys ranch",
    "state": "TX"
  },
  {
    "city": "higgins",
    "state_code": "TX",
    "placeMasterId": "P02500000FsoGmDYGhkgBsigqbJ0pWB48N2Yd53l",
    "placeName": "higgins",
    "state": "TX"
  },
  {
    "city": "mobeetie",
    "state_code": "TX",
    "placeMasterId": "P02500000FsoGoDOx9IlBV87HqfqgH2L0GyLt6C6",
    "placeName": "mobeetie",
    "state": "TX"
  },
  {
    "city": "tulia",
    "state_code": "TX",
    "placeMasterId": "P02500000FsoGrUrw1Q2FIwkIKLnIEIpRXszHAw4",
    "placeName": "tulia",
    "state": "TX"
  },
  {
    "city": "lubbock",
    "state_code": "TX",
    "placeMasterId": "P02500000FsoGne12jiS2kj8adQT0d50AbRrldL6",
    "placeName": "lubbock",
    "state": "TX"
  },
  {
    "city": "hamlin",
    "state_code": "TX",
    "placeMasterId": "P02500000FsoGln0ptYwpouxKBryZmi4cPNZjlfF",
    "placeName": "hamlin",
    "state": "TX"
  },
  {
    "city": "rule",
    "state_code": "TX",
    "placeMasterId": "P02500000FsoGq4P9zSGOQwIYIEL77PJSUBzRZ8H",
    "placeName": "rule",
    "state": "TX"
  },
  {
    "city": "midland",
    "state_code": "TX",
    "placeMasterId": "P02500000FsoGo4YTXuBOoWs72rVGMY10s9Q1EL7",
    "placeName": "midland",
    "state": "TX"
  },
  {
    "city": "gail",
    "state_code": "TX",
    "placeMasterId": "P02500000FsoGlMTP5NDTl7DnmQwK3F3gHEw22wA",
    "placeName": "gail",
    "state": "TX"
  },
  {
    "city": "garden city",
    "state_code": "TX",
    "placeMasterId": "P02500000FsoGlMTP5NDTl7DnmQwK3F4iira1pAW",
    "placeName": "garden city",
    "state": "TX"
  },
  {
    "city": "odessa",
    "state_code": "TX",
    "placeMasterId": "P02500000FsoGommrYt4KFX5z3vELuzmdASlNucj",
    "placeName": "odessa",
    "state": "TX"
  },
  {
    "city": "tornillo",
    "state_code": "TX",
    "placeMasterId": "P02500000FsoGrM1SQ1SScLV7WXRsJobd9Gc98Gl",
    "placeName": "tornillo",
    "state": "TX"
  },
  {
    "city": "englewood",
    "state_code": "CO",
    "placeMasterId": "P02500000FsoEnDwgm39Hatie3LEa7uzwOVvOryu",
    "placeName": "englewood",
    "state": "CO"
  },
  {
    "city": "kremmling",
    "state_code": "CO",
    "placeMasterId": "P02500000FsoEnnKbBdSQLIhLGacFlsSmLRVtPk5",
    "placeName": "kremmling",
    "state": "CO"
  },
  {
    "city": "silver plume",
    "state_code": "CO",
    "placeMasterId": "P02500000FsoEoePSo0v8SuAO5SglEoezXwN8Cuv",
    "placeName": "silver plume",
    "state": "CO"
  },
  {
    "city": "weldona",
    "state_code": "CO",
    "placeMasterId": "P02500000FsoEow6Q0o4hq6ejh5Nb3nPtDPTdVIp",
    "placeName": "weldona",
    "state": "CO"
  },
  {
    "city": "colorado springs",
    "state_code": "CO",
    "placeMasterId": "P02500000FsoEmwFjZFziDhEIRiXkIwGl9Aki2Up",
    "placeName": "colorado springs",
    "state": "CO"
  },
  {
    "city": "branson",
    "state_code": "CO",
    "placeMasterId": "P02500000FsoEmeYmMSq8qUjwq5quTxVh6WOoU31",
    "placeName": "branson",
    "state": "CO"
  },
  {
    "city": "saguache",
    "state_code": "CO",
    "placeMasterId": "P02500000FsoEoVYzCcLLmIvDHeLLKKIYLzfhXNn",
    "placeName": "saguache",
    "state": "CO"
  },
  {
    "city": "coaldale",
    "state_code": "CO",
    "placeMasterId": "P02500000FsoEmwFjZFziDhEIRiXkIwC0HtkfgkD",
    "placeName": "coaldale",
    "state": "CO"
  },
  {
    "city": "paonia",
    "state_code": "CO",
    "placeMasterId": "P02500000FsoEoDs1zpBmP6Qrg1eVVLaZVsCCrcJ",
    "placeName": "paonia",
    "state": "CO"
  },
  {
    "city": "grand junction",
    "state_code": "CO",
    "placeMasterId": "P02500000FsoEnMnANRj4HUxor9a02PMjaevUqpr",
    "placeName": "grand junction",
    "state": "CO"
  },
  {
    "city": "aspen",
    "state_code": "CO",
    "placeMasterId": "P02500000FsoEmViIl4GM9tUm2HVUZTAqkfu9oNA",
    "placeName": "aspen",
    "state": "CO"
  },
  {
    "city": "hayden",
    "state_code": "CO",
    "placeMasterId": "P02500000FsoEnVddyqIqy6CzexvPwtkPEXRgYZ7",
    "placeName": "hayden",
    "state": "CO"
  },
  {
    "city": "rawlins",
    "state_code": "WY",
    "placeMasterId": "P02500000FsoH9TW61MlBsdaFYfJx21kfsR0Q8sr",
    "placeName": "rawlins",
    "state": "WY"
  },
  {
    "city": "saratoga",
    "state_code": "WY",
    "placeMasterId": "P02500000FsoH9cMZclKyZEpQMTfMwWC5dX5y18w",
    "placeName": "saratoga",
    "state": "WY"
  },
  {
    "city": "ralston",
    "state_code": "WY",
    "placeMasterId": "P02500000FsoH9TW61MlBsdaFYfJx21g5QLbJmjX",
    "placeName": "ralston",
    "state": "WY"
  },
  {
    "city": "kaycee",
    "state_code": "WY",
    "placeMasterId": "P02500000FsoH9Bp8oZbcVR5tx2d7D30tGo9BSND",
    "placeName": "kaycee",
    "state": "WY"
  },
  {
    "city": "wilson",
    "state_code": "WY",
    "placeMasterId": "P02500000FsoH9lD3E9ulFq4bAI0mr0SVg3wzRoz",
    "placeName": "wilson",
    "state": "WY"
  },
  {
    "city": "basalt",
    "state_code": "ID",
    "placeMasterId": "P02500000FsoEzvHBSKWAkMV9YbymDW0r6H7YRVr",
    "placeName": "basalt",
    "state": "ID"
  },
  {
    "city": "grace",
    "state_code": "ID",
    "placeMasterId": "P02500000FsoF0LocGWFWoAEfy311wz7IsdP9OXy",
    "placeName": "grace",
    "state": "ID"
  },
  {
    "city": "filer",
    "state_code": "ID",
    "placeMasterId": "P02500000FsoF0Cy8f7fk7YzVAEfc2Uk3n03C6wq",
    "placeName": "filer",
    "state": "ID"
  },
  {
    "city": "hazelton",
    "state_code": "ID",
    "placeMasterId": "P02500000FsoF0LocGWFWoAEfy311wz8k1fYn7ap",
    "placeName": "hazelton",
    "state": "ID"
  },
  {
    "city": "elk city",
    "state_code": "ID",
    "placeMasterId": "P02500000FsoF0Cy8f7fk7YzVAEfc2UkiLEN9cLa",
    "placeName": "elk city",
    "state": "ID"
  },
  {
    "city": "meridian",
    "state_code": "ID",
    "placeMasterId": "P02500000FsoF0dVZTJP6BMj1ZfhrlxqarQXhqOE",
    "placeName": "meridian",
    "state": "ID"
  },
  {
    "city": "dover",
    "state_code": "ID",
    "placeMasterId": "P02500000FsoF0Cy8f7fk7YzVAEfc2UkI1OFnqc5",
    "placeName": "dover",
    "state": "ID"
  },
  {
    "city": "duchesne",
    "state_code": "UT",
    "placeMasterId": "P02500000FsoGsddkqaeWnkhgkqYdWDulru65dmd",
    "placeName": "duchesne",
    "state": "UT"
  },
  {
    "city": "fort duchesne",
    "state_code": "UT",
    "placeMasterId": "P02500000FsoGsvKi3No6AxC2MTFTLCYMWkGTLoR",
    "placeName": "fort duchesne",
    "state": "UT"
  },
  {
    "city": "sandy",
    "state_code": "UT",
    "placeMasterId": "P02500000FsoGtmPZflGoIYf5BLJyo8xBgipiRbZ",
    "placeName": "sandy",
    "state": "UT"
  },
  {
    "city": "sandy",
    "state_code": "UT",
    "placeMasterId": "P02500000FsoGtmPZflGoIYf5BLJyo8xBgipiRbZ",
    "placeName": "sandy",
    "state": "UT"
  },
  {
    "city": "salt lake city",
    "state_code": "UT",
    "placeMasterId": "P02500000FsoGtmPZflGoIYf5BLJyo8m8TJqdpCK",
    "placeName": "salt lake city",
    "state": "UT"
  },
  {
    "city": "salt lake city",
    "state_code": "UT",
    "placeMasterId": "P02500000FsoGtmPZflGoIYf5BLJyo8m8TJqdpCK",
    "placeName": "salt lake city",
    "state": "UT"
  },
  {
    "city": "salt lake city",
    "state_code": "UT",
    "placeMasterId": "P02500000FsoGtmPZflGoIYf5BLJyo8m8TJqdpCK",
    "placeName": "salt lake city",
    "state": "UT"
  },
  {
    "city": "plymouth",
    "state_code": "UT",
    "placeMasterId": "P02500000FsoGtUicSy7EvMAjZid8zAFa2EDsynQ",
    "placeName": "plymouth",
    "state": "UT"
  },
  {
    "city": "phoenix",
    "state_code": "AZ",
    "placeMasterId": "P02500000FsoEZWgqrzjtdEDuvO4SetJca76kZR3",
    "placeName": "phoenix",
    "state": "AZ"
  },
  {
    "city": "phoenix",
    "state_code": "AZ",
    "placeMasterId": "P02500000FsoEZWgqrzjtdEDuvO4SetJca76kZR3",
    "placeName": "phoenix",
    "state": "AZ"
  },
  {
    "city": "scottsdale",
    "state_code": "AZ",
    "placeMasterId": "P02500000FsoEZoNo4mtT0QiGX0lITs2v218sukG",
    "placeName": "scottsdale",
    "state": "AZ"
  },
  {
    "city": "glendale",
    "state_code": "AZ",
    "placeMasterId": "P02500000FsoEYoSSr0qyCE02uKLN6RQeREgGOxx",
    "placeName": "glendale",
    "state": "AZ"
  },
  {
    "city": "patagonia",
    "state_code": "AZ",
    "placeMasterId": "P02500000FsoEZNqNGbA6wcyk7Zj2kOx9HcZo0yp",
    "placeName": "patagonia",
    "state": "AZ"
  },
  {
    "city": "tucson",
    "state_code": "AZ",
    "placeMasterId": "P02500000FsoEa64lHa32NdCc8dS8IqpdZHyNtyf",
    "placeName": "tucson",
    "state": "AZ"
  },
  {
    "city": "tucson",
    "state_code": "AZ",
    "placeMasterId": "P02500000FsoEa64lHa32NdCc8dS8IqpdZHyNtyf",
    "placeName": "tucson",
    "state": "AZ"
  },
  {
    "city": "tucson",
    "state_code": "AZ",
    "placeMasterId": "P02500000FsoEa64lHa32NdCc8dS8IqpdZHyNtyf",
    "placeName": "tucson",
    "state": "AZ"
  },
  {
    "city": "tucson",
    "state_code": "AZ",
    "placeMasterId": "P02500000FsoEa64lHa32NdCc8dS8IqpdZHyNtyf",
    "placeName": "tucson",
    "state": "AZ"
  },
  {
    "city": "tucson",
    "state_code": "AZ",
    "placeMasterId": "P02500000FsoEa64lHa32NdCc8dS8IqpdZHyNtyf",
    "placeName": "tucson",
    "state": "AZ"
  },
  {
    "city": "flagstaff",
    "state_code": "AZ",
    "placeMasterId": "P02500000FsoEYoSSr0qyCE02uKLN6RSdBpSqOm4",
    "placeName": "flagstaff",
    "state": "AZ"
  },
  {
    "city": "second mesa",
    "state_code": "AZ",
    "placeMasterId": "P02500000FsoEZoNo4mtT0QiGX0lITs6RRCt28e5",
    "placeName": "second mesa",
    "state": "AZ"
  },
  {
    "city": "prescott valley",
    "state_code": "AZ",
    "placeMasterId": "P02500000FsoEZfXKTOJgJpT5jCPsZNiZr3eAGfD",
    "placeName": "prescott valley",
    "state": "AZ"
  },
  {
    "city": "fort mohave",
    "state_code": "AZ",
    "placeMasterId": "P02500000FsoEYoSSr0qyCE02uKLN6RRz60kZR7w",
    "placeName": "fort mohave",
    "state": "AZ"
  },
  {
    "city": "crownpoint",
    "state_code": "NM",
    "placeMasterId": "P02500000FsoFyhqaPCOhSGlNoX8oMCOKyQ1eKJG",
    "placeName": "crownpoint",
    "state": "NM"
  },
  {
    "city": "cimarron",
    "state_code": "NM",
    "placeMasterId": "P02500000FsoFyZ06nnoulfWD0inORhy0jrM7LrG",
    "placeName": "cimarron",
    "state": "NM"
  },
  {
    "city": "maxwell",
    "state_code": "NM",
    "placeMasterId": "P02500000FsoFzYvS1ZrPZsEQdPDJp8QvsnOxqUB",
    "placeName": "maxwell",
    "state": "NM"
  },
  {
    "city": "magdalena",
    "state_code": "NM",
    "placeMasterId": "P02500000FsoFzYvS1ZrPZsEQdPDJp8UhCK3R39r",
    "placeName": "magdalena",
    "state": "NM"
  },
  {
    "city": "salem",
    "state_code": "NM",
    "placeMasterId": "P02500000FsoG0H9q2YkL0sSIeSwPNaKlzLvoTQB",
    "placeName": "salem",
    "state": "NM"
  },
  {
    "city": "las cruces",
    "state_code": "NM",
    "placeMasterId": "P02500000FsoFzQ4yQBHctGzFpartueC0C0ojOkG",
    "placeName": "las cruces",
    "state": "NM"
  },
  {
    "city": "la mesa",
    "state_code": "NM",
    "placeMasterId": "P02500000FsoFzQ4yQBHctGzFpartue3q9SmPquj",
    "placeName": "la mesa",
    "state": "NM"
  },
  {
    "city": "lordsburg",
    "state_code": "NM",
    "placeMasterId": "P02500000FsoFzYvS1ZrPZsEQdPDJp8QROZS82gy",
    "placeName": "lordsburg",
    "state": "NM"
  },
  {
    "city": "clovis",
    "state_code": "NM",
    "placeMasterId": "P02500000FsoFyZ06nnoulfWD0inORi1if41u0Ez",
    "placeName": "clovis",
    "state": "NM"
  },
  {
    "city": "melrose",
    "state_code": "NM",
    "placeMasterId": "P02500000FsoFzYvS1ZrPZsEQdPDJp8fZys79pmH",
    "placeName": "melrose",
    "state": "NM"
  },
  {
    "city": "encino",
    "state_code": "NM",
    "placeMasterId": "P02500000FsoFyqh40ayU8s0YcLUEGgg7LZLHSbV",
    "placeName": "encino",
    "state": "NM"
  },
  {
    "city": "sun valley",
    "state_code": "NV",
    "placeMasterId": "P02500000FsoFui9DW6EiDRuVJnT6qU2eeKsWVMU",
    "placeName": "sun valley",
    "state": "NV"
  },
  {
    "city": "tacoma",
    "state_code": "WA",
    "placeMasterId": "P02500000FsoH1LGsdlrQiOdJlNd866Yu1WjXF5B",
    "placeName": "tacoma",
    "state": "WA"
  },
  {
    "city": "tacoma",
    "state_code": "WA",
    "placeMasterId": "P02500000FsoH1LGsdlrQiOdJlNd866Yu1WjXF5B",
    "placeName": "tacoma",
    "state": "WA"
  },
  {
    "city": "olympia",
    "state_code": "WA",
    "placeMasterId": "P02500000FsoH0d2UcmyVHOPRkJu2Xed29tfTdi7",
    "placeName": "olympia",
    "state": "WA"
  },
  {
    "city": "elma",
    "state_code": "WA",
    "placeMasterId": "P02500000FsoGz3jEzQcrimiWuO6RWGj5YCj5UH3",
    "placeName": "elma",
    "state": "WA"
  },
  {
    "city": "oakville",
    "state_code": "WA",
    "placeMasterId": "P02500000FsoH0d2UcmyVHOPRkJu2XecUDXRE79Z",
    "placeName": "oakville",
    "state": "WA"
  },
  {
    "city": "bingen",
    "state_code": "WA",
    "placeMasterId": "P02500000FsoGyULKZqJiyNjph8ilsJ2c5tQCx1L",
    "placeName": "bingen",
    "state": "WA"
  },
  {
    "city": "naselle",
    "state_code": "WA",
    "placeMasterId": "P02500000FsoH0LLXPzovuBv68hDCig2dXGmqfOy",
    "placeName": "naselle",
    "state": "WA"
  },
  {
    "city": "vancouver",
    "state_code": "WA",
    "placeMasterId": "P02500000FsoH1cxpqZ105b7fN0Jxv5AzaVoQseW",
    "placeName": "vancouver",
    "state": "WA"
  },
  {
    "city": "winthrop",
    "state_code": "WA",
    "placeMasterId": "P02500000FsoH1loJRxammCMqAofNpZdojhnaDWZ",
    "placeName": "winthrop",
    "state": "WA"
  },
  {
    "city": "sunnyside",
    "state_code": "WA",
    "placeMasterId": "P02500000FsoH1LGsdlrQiOdJlNd866aoPsBRx49",
    "placeName": "sunnyside",
    "state": "WA"
  },
  {
    "city": "oakesdale",
    "state_code": "WA",
    "placeMasterId": "P02500000FsoH0UC11OOianAGwVYcdAMSO3Yknkj",
    "placeName": "oakesdale",
    "state": "WA"
  },
  {
    "city": "spokane",
    "state_code": "WA",
    "placeMasterId": "P02500000FsoH1CQP2NHe1nO8xZHiBcLVG93v2e9",
    "placeName": "spokane",
    "state": "WA"
  },
  {
    "city": "touchet",
    "state_code": "WA",
    "placeMasterId": "P02500000FsoH1U7MFARDOzsUZByY0at1frUcOEx",
    "placeName": "touchet",
    "state": "WA"
  },
  {
    "city": "port lions",
    "state_code": "AK",
    "placeMasterId": "P02500000FsoEXNzgp357KDYIsCtBzXkVaryONGK",
    "placeName": "port lions",
    "state": "AK"
  },
  {
    "city": "akutan",
    "state_code": "AK",
    "placeMasterId": "P02500000FsoEVxWun5JGSD6Yq5R0se3WrmMXQxQ",
    "placeName": "akutan",
    "state": "AK"
  },
  {
    "city": "mekoryuk",
    "state_code": "AK",
    "placeMasterId": "P02500000FsoEX6IjcFvXx13xGaCMAZ0DVv2Q42l",
    "placeName": "mekoryuk",
    "state": "AK"
  },
  {
    "city": "quinhagak",
    "state_code": "AK",
    "placeMasterId": "P02500000FsoEXWqAQReu0onTg1Ebu27FObp7OaJ",
    "placeName": "quinhagak",
    "state": "AK"
  },
  {
    "city": "russian mission",
    "state_code": "AK",
    "placeMasterId": "P02500000FsoEXNzgp357KDYIsCtBzXjsv5JLuSH",
    "placeName": "russian mission",
    "state": "AK"
  },
  {
    "city": "sterling",
    "state_code": "AK",
    "placeMasterId": "P02500000FsoEXfge1qEghQ2eTpa1oWVKdn2Cj95",
    "placeName": "sterling",
    "state": "AK"
  },
  {
    "city": "tyonek",
    "state_code": "AK",
    "placeMasterId": "P02500000FsoEXoX7dEoTO1HpHdvRj0s3lQldO0m",
    "placeName": "tyonek",
    "state": "AK"
  },
  {
    "city": "north pole",
    "state_code": "AK",
    "placeMasterId": "P02500000FsoEXF9DDeVKdcJ84OXm53OV320yW6m",
    "placeName": "north pole",
    "state": "AK"
  },
  {
    "city": "teller",
    "state_code": "AK",
    "placeMasterId": "P02500000FsoEXoX7dEoTO1HpHdvRj0rRJn6aXR1",
    "placeName": "teller",
    "state": "AK"
  },
  {
    "city": "ambler",
    "state_code": "AK",
    "placeMasterId": "P02500000FsoEVxWun5JGSD6Yq5R0se1ZpIlIL9G",
    "placeName": "ambler",
    "state": "AK"
  },
  {
    "city": "nuiqsut",
    "state_code": "AK",
    "placeMasterId": "P02500000FsoEXF9DDeVKdcJ84OXm53NoW2SiRqQ",
    "placeName": "nuiqsut",
    "state": "AK"
  },
  {
    "city": "los angeles",
    "state_code": "CA",
    "placeMasterId": "P02500000FsoEiEJyfAwnXs9Xvv8xEm0Sp2kcekK",
    "placeName": "los angeles",
    "state": "CA"
  },
  {
    "city": "gardena",
    "state_code": "CA",
    "placeMasterId": "P02500000FsoEgf0j1ob9zGSd5zLMDNtozkE6oq6",
    "placeName": "gardena",
    "state": "CA"
  },
  {
    "city": "lawndale",
    "state_code": "CA",
    "placeMasterId": "P02500000FsoEhwd1SNnEAffCKIS7PnC0leRIocP",
    "placeName": "lawndale",
    "state": "CA"
  },
  {
    "city": "long beach",
    "state_code": "CA",
    "placeMasterId": "P02500000FsoEiEJyfAwnXs9Xvv8xElwosKjKxLA",
    "placeName": "long beach",
    "state": "CA"
  },
  {
    "city": "arcadia",
    "state_code": "CA",
    "placeMasterId": "P02500000FsoEdo5Axt3SFFZ91kQzzaSx0ldLRoK",
    "placeName": "arcadia",
    "state": "CA"
  },
  {
    "city": "agoura hills",
    "state_code": "CA",
    "placeMasterId": "P02500000FsoEdfEhMUTfYeJyDw5a566EuBcP501",
    "placeName": "agoura hills",
    "state": "CA"
  },
  {
    "city": "santa clarita",
    "state_code": "CA",
    "placeMasterId": "P02500000FsoEknYZWJKvugYgOXMTdaeRypQ7Ejy",
    "placeName": "santa clarita",
    "state": "CA"
  },
  {
    "city": "baldwin park",
    "state_code": "CA",
    "placeMasterId": "P02500000FsoEdwveZHdEvqoJpYmPu4ojzmRjTes",
    "placeName": "baldwin park",
    "state": "CA"
  },
  {
    "city": "chino hills",
    "state_code": "CA",
    "placeMasterId": "P02500000FsoEf5hTOSFWQeliG3XlBzoa7mbF5QR",
    "placeName": "chino hills",
    "state": "CA"
  },
  {
    "city": "san dimas",
    "state_code": "CA",
    "placeMasterId": "P02500000FsoEkVrcJWBMXU4KmufdobunbUZe4VF",
    "placeName": "san dimas",
    "state": "CA"
  },
  {
    "city": "chula vista",
    "state_code": "CA",
    "placeMasterId": "P02500000FsoEfEXwzqpJ7G0t3rtB6U98fMniHey",
    "placeName": "chula vista",
    "state": "CA"
  },
  {
    "city": "san diego",
    "state_code": "CA",
    "placeMasterId": "P02500000FsoEkVrcJWBMXU4KmufdobvSE82FU0j",
    "placeName": "san diego",
    "state": "CA"
  },
  {
    "city": "palm springs",
    "state_code": "CA",
    "placeMasterId": "P02500000FsoEjVwH5k8rjHM7AEFiRBKGeyucZ5S",
    "placeName": "palm springs",
    "state": "CA"
  },
  {
    "city": "summerland",
    "state_code": "CA",
    "placeMasterId": "P02500000FsoElMwTvte4f5XNbmk9HY9mNti6vKt",
    "placeName": "summerland",
    "state": "CA"
  },
  {
    "city": "menifee",
    "state_code": "CA",
    "placeMasterId": "P02500000FsoEiW0vry6Mv4dtXXpn3klicEYNfFq",
    "placeName": "menifee",
    "state": "CA"
  },
  {
    "city": "camp nelson",
    "state_code": "CA",
    "placeMasterId": "P02500000FsoEefA2aGWAMr2BqcVVSWgViCRSVdD",
    "placeName": "camp nelson",
    "state": "CA"
  },
  {
    "city": "richgrove",
    "state_code": "CA",
    "placeMasterId": "P02500000FsoEk5KBVKS0TgKoNTdO58q8AovOVH2",
    "placeName": "richgrove",
    "state": "CA"
  },
  {
    "city": "three rivers",
    "state_code": "CA",
    "placeMasterId": "P02500000FsoElVmxXIDrLgmYPb5ZC2WvfvACVhK",
    "placeName": "three rivers",
    "state": "CA"
  },
  {
    "city": "tulare",
    "state_code": "CA",
    "placeMasterId": "P02500000FsoEledR8gne2I1jDPQz6WsL3vtbJaK",
    "placeName": "tulare",
    "state": "CA"
  },
  {
    "city": "morro bay",
    "state_code": "CA",
    "placeMasterId": "P02500000FsoEiwYMg9piysNPwys2nDprobdyLg8",
    "placeName": "morro bay",
    "state": "CA"
  },
  {
    "city": "dinuba",
    "state_code": "CA",
    "placeMasterId": "P02500000FsoEfnvrPR8RrezaH7GqkRcuJduYfpi",
    "placeName": "dinuba",
    "state": "CA"
  },
  {
    "city": "fresno",
    "state_code": "CA",
    "placeMasterId": "P02500000FsoEgf0j1ob9zGSd5zLMDNqyCZUrC3I",
    "placeName": "fresno",
    "state": "CA"
  },
  {
    "city": "fresno",
    "state_code": "CA",
    "placeMasterId": "P02500000FsoEgf0j1ob9zGSd5zLMDNqyCZUrC3I",
    "placeName": "fresno",
    "state": "CA"
  },
  {
    "city": "fresno",
    "state_code": "CA",
    "placeMasterId": "P02500000FsoEgf0j1ob9zGSd5zLMDNqyCZUrC3I",
    "placeName": "fresno",
    "state": "CA"
  },
  {
    "city": "fresno",
    "state_code": "CA",
    "placeMasterId": "P02500000FsoEgf0j1ob9zGSd5zLMDNqyCZUrC3I",
    "placeName": "fresno",
    "state": "CA"
  },
  {
    "city": "fresno",
    "state_code": "CA",
    "placeMasterId": "P02500000FsoEgf0j1ob9zGSd5zLMDNqyCZUrC3I",
    "placeName": "fresno",
    "state": "CA"
  },
  {
    "city": "gonzales",
    "state_code": "CA",
    "placeMasterId": "P02500000FsoEgnrCdDAwfrhntngm7sFCf44Qu97",
    "placeName": "gonzales",
    "state": "CA"
  },
  {
    "city": "moss beach",
    "state_code": "CA",
    "placeMasterId": "P02500000FsoEj5OqHYPVfTcaknDShiAzqGnsMFs",
    "placeName": "moss beach",
    "state": "CA"
  },
  {
    "city": "redwood city",
    "state_code": "CA",
    "placeMasterId": "P02500000FsoEkEAf6j1nAHZzBHynzdC6HiHxNvU",
    "placeName": "redwood city",
    "state": "CA"
  },
  {
    "city": "san francisco",
    "state_code": "CA",
    "placeMasterId": "P02500000FsoEkVrcJWBMXU4KmufdobtfKVREvsP",
    "placeName": "san francisco",
    "state": "CA"
  },
  {
    "city": "concord",
    "state_code": "CA",
    "placeMasterId": "P02500000FsoEfNOQbFP5nrG3rgEb0yVfbyJpBt7",
    "placeName": "concord",
    "state": "CA"
  },
  {
    "city": "livermore",
    "state_code": "CA",
    "placeMasterId": "P02500000FsoEi5TV3mN0rGuN86nXKHbrdblVn9U",
    "placeName": "livermore",
    "state": "CA"
  },
  {
    "city": "martinez",
    "state_code": "CA",
    "placeMasterId": "P02500000FsoEiW0vry6Mv4dtXXpn3ki2AZ6MAhY",
    "placeName": "martinez",
    "state": "CA"
  },
  {
    "city": "oakley",
    "state_code": "CA",
    "placeMasterId": "P02500000FsoEjN5nULZ52g6wMPuIWgwDroEgisx",
    "placeName": "oakley",
    "state": "CA"
  },
  {
    "city": "stockton",
    "state_code": "CA",
    "placeMasterId": "P02500000FsoElE60KV4HyUICnyOjN3mM5drQo04",
    "placeName": "stockton",
    "state": "CA"
  },
  {
    "city": "winton",
    "state_code": "CA",
    "placeMasterId": "P02500000FsoEmMrp9fgZTIFbETA4eyiZnO3zAKs",
    "placeName": "winton",
    "state": "CA"
  },
  {
    "city": "sebastopol",
    "state_code": "CA",
    "placeMasterId": "P02500000FsoEkwP37huibHnrCLhtY52SkVDYeGe",
    "placeName": "sebastopol",
    "state": "CA"
  },
  {
    "city": "rio dell",
    "state_code": "CA",
    "placeMasterId": "P02500000FsoEkEAf6j1nAHZzBHynzdBDAHbkB39",
    "placeName": "rio dell",
    "state": "CA"
  },
  {
    "city": "placerville",
    "state_code": "CA",
    "placeMasterId": "P02500000FsoEjndEIXIR6TqSlqwYGA4R60ZtLs6",
    "placeName": "placerville",
    "state": "CA"
  },
  {
    "city": "dutch flat",
    "state_code": "CA",
    "placeMasterId": "P02500000FsoEfwmL0piEYGEl4vcGew0SXGA0Ykr",
    "placeName": "dutch flat",
    "state": "CA"
  },
  {
    "city": "sacramento",
    "state_code": "CA",
    "placeMasterId": "P02500000FsoEkVrcJWBMXU4KmufdobsP4JCiDgI",
    "placeName": "sacramento",
    "state": "CA"
  },
  {
    "city": "arbuckle",
    "state_code": "CA",
    "placeMasterId": "P02500000FsoEdo5Axt3SFFZ91kQzzaSX0eFTe2i",
    "placeName": "arbuckle",
    "state": "CA"
  },
  {
    "city": "biggs",
    "state_code": "CA",
    "placeMasterId": "P02500000FsoEeEcbm4moJ3IfRBTFj3bHZX3oYUV",
    "placeName": "biggs",
    "state": "CA"
  },
  {
    "city": "dunnigan",
    "state_code": "CA",
    "placeMasterId": "P02500000FsoEfwmL0piEYGEl4vcGew1SpopVjSO",
    "placeName": "dunnigan",
    "state": "CA"
  },
  {
    "city": "redding",
    "state_code": "CA",
    "placeMasterId": "P02500000FsoEkEAf6j1nAHZzBHynzd8rsupDAqv",
    "placeName": "redding",
    "state": "CA"
  },
  {
    "city": "old station",
    "state_code": "CA",
    "placeMasterId": "P02500000FsoEjVwH5k8rjHM7AEFiRBI3igARYk0",
    "placeName": "old station",
    "state": "CA"
  },
  {
    "city": "weaverville",
    "state_code": "CA",
    "placeMasterId": "P02500000FsoEm5ArwsX065lFcqTEq00TwCkPmuV",
    "placeName": "weaverville",
    "state": "CA"
  },
  {
    "city": "south lake tahoe",
    "state_code": "CA",
    "placeMasterId": "P02500000FsoEl5FWj6UVHt320A3JSZOIkJyqWar",
    "placeName": "south lake tahoe",
    "state": "CA"
  },
  {
    "city": "hana",
    "state_code": "HI",
    "placeMasterId": "P02500000FsoEzD2nRLdFJMHHXYFgf48zfJkyXvt",
    "placeName": "hana",
    "state": "HI"
  },
  {
    "city": "kekaha",
    "state_code": "HI",
    "placeMasterId": "P02500000FsoEzLtH2kD1zxWSLMb6ZYYJBvKxyg4",
    "placeName": "kekaha",
    "state": "HI"
  },
  {
    "city": "rainier",
    "state_code": "OR",
    "placeMasterId": "P02500000FsoGPofJ0W3u0PGUSomDTGsF6qDkjGK",
    "placeName": "rainier",
    "state": "OR"
  },
  {
    "city": "damascus",
    "state_code": "OR",
    "placeMasterId": "P02500000FsoGOX30Zwrpp03vEVfSGrcBQxQCXKU",
    "placeName": "damascus",
    "state": "OR"
  },
  {
    "city": "portland",
    "state_code": "OR",
    "placeMasterId": "P02500000FsoGPfopP7U7Jo1Jf0QnYmTaqhg2Hwh",
    "placeName": "portland",
    "state": "OR"
  },
  {
    "city": "salem",
    "state_code": "OR",
    "placeMasterId": "P02500000FsoGPxVmbudgh0VfGd7dNl8njuxSNWh",
    "placeName": "salem",
    "state": "OR"
  },
  {
    "city": "glendale",
    "state_code": "OR",
    "placeMasterId": "P02500000FsoGOojxmk1PCCYGq8MI5qKdIq3P59R",
    "placeName": "glendale",
    "state": "OR"
  },
  {
    "city": "rogue river",
    "state_code": "OR",
    "placeMasterId": "P02500000FsoGPofJ0W3u0PGUSomDTGmJXxXhkUY",
    "placeName": "rogue river",
    "state": "OR"
  },
  {
    "city": "bend",
    "state_code": "OR",
    "placeMasterId": "P02500000FsoGOFM3N9iGRnZZcsycRsuaGa3qkle",
    "placeName": "bend",
    "state": "OR"
  },
  {
    "city": "federal way",
    "state_code": "WA",
    "placeMasterId": "P02500000FsoGzCZiapCePNxhiCRrQl1d84jQKnI",
    "placeName": "federal way",
    "state": "WA"
  },
  {
    "city": "enumclaw",
    "state_code": "WA",
    "placeMasterId": "P02500000FsoGzCZiapCePNxhiCRrQkseHpPTbHS",
    "placeName": "enumclaw",
    "state": "WA"
  },
  {
    "city": "mercer island",
    "state_code": "WA",
    "placeMasterId": "P02500000FsoH0CV3obF9DafvKsrmoBeQoVyPLGA",
    "placeName": "mercer island",
    "state": "WA"
  },
  {
    "city": "seattle",
    "state_code": "WA",
    "placeMasterId": "P02500000FsoH13ZvQyhrLC8y9kwIH7vOQ9mB44J",
    "placeName": "seattle",
    "state": "WA"
  },
  {
    "city": "marblemount",
    "state_code": "WA",
    "placeMasterId": "P02500000FsoH03eaDCfMWzQkX4WMthO5AsdqfgF",
    "placeName": "marblemount",
    "state": "WA"
  },
  {
    "city": "silverdale",
    "state_code": "WA",
    "placeMasterId": "P02500000FsoH13ZvQyhrLC8y9kwIH7w45JGEHHL",
    "placeName": "silverdale",
    "state": "WA"
  },
  {
    "city": "poulsbo",
    "state_code": "WA",
    "placeMasterId": "P02500000FsoH0lsyEBYHxzecY8FSS9Dhtt7edBB",
    "placeName": "poulsbo",
    "state": "WA"
  },
  {
    "city": "puyallup",
    "state_code": "WA",
    "placeMasterId": "P02500000FsoH0ujRpa84eatnLwasMdN1YTtCRxU",
    "placeName": "puyallup",
    "state": "WA"
  },
  {
    "city": "seabeck",
    "state_code": "WA",
    "placeMasterId": "P02500000FsoH13ZvQyhrLC8y9kwIH7sK0XCA94t",
    "placeName": "seabeck",
    "state": "WA"
  },
  {
    "city": "suquamish",
    "state_code": "WA",
    "placeMasterId": "P02500000FsoH1U7MFARDOzsUZByY0aouoldMt4B",
    "placeName": "suquamish",
    "state": "WA"
  },
  {
    "city": "vaughn",
    "state_code": "WA",
    "placeMasterId": "P02500000FsoH1cxpqZ105b7fN0Jxv5FZPdHV9NE",
    "placeName": "vaughn",
    "state": "WA"
  },
  {
    "city": "winlock",
    "state_code": "WA",
    "placeMasterId": "P02500000FsoH1loJRxammCMqAofNpZcxOqOKBtg",
    "placeName": "winlock",
    "state": "WA"
  },
  {
    "city": "chelan",
    "state_code": "WA",
    "placeMasterId": "P02500000FsoGydBoBEtVeyz0Ux4BmnagOuhPTBQ",
    "placeName": "chelan",
    "state": "WA"
  },
  {
    "city": "pateros",
    "state_code": "WA",
    "placeMasterId": "P02500000FsoH0lsyEBYHxzecY8FSS91kch9xbtw",
    "placeName": "pateros",
    "state": "WA"
  },
  {
    "city": "cusick",
    "state_code": "WA",
    "placeMasterId": "P02500000FsoGyuslO2352BTM6Zl1bmKszghVcfP",
    "placeName": "cusick",
    "state": "WA"
  },
  {
    "city": "malo",
    "state_code": "WA",
    "placeMasterId": "P02500000FsoH03eaDCfMWzQkX4WMthJhUjETFgv",
    "placeName": "malo",
    "state": "WA"
  },
  {
    "city": "orient",
    "state_code": "WA",
    "placeMasterId": "P02500000FsoH0d2UcmyVHOPRkJu2Xecixi09IWK",
    "placeName": "orient",
    "state": "WA"
  },
  {
    "city": "washtucna",
    "state_code": "WA",
    "placeMasterId": "P02500000FsoH1cxpqZ105b7fN0Jxv5LgDPhJ93r",
    "placeName": "washtucna",
    "state": "WA"
  },
  {
    "city": "grayling",
    "state_code": "AK",
    "placeMasterId": "P02500000FsoEWflIo4CBtDKQr9A6R5ro7a6wzdi",
    "placeName": "grayling",
    "state": "AK"
  },
  {
    "city": "holy cross",
    "state_code": "AK",
    "placeMasterId": "P02500000FsoEWflIo4CBtDKQr9A6R5rq0hZ22BP",
    "placeName": "holy cross",
    "state": "AK"
  },
  {
    "city": "hooper bay",
    "state_code": "AK",
    "placeMasterId": "P02500000FsoEWflIo4CBtDKQr9A6R5sMjiMTjM5",
    "placeName": "hooper bay",
    "state": "AK"
  },
  {
    "city": "skwentna",
    "state_code": "AK",
    "placeMasterId": "P02500000FsoEXfge1qEghQ2eTpa1oWUTSwxfUOE",
    "placeName": "skwentna",
    "state": "AK"
  },
  {
    "city": "talkeetna",
    "state_code": "AK",
    "placeMasterId": "P02500000FsoEXoX7dEoTO1HpHdvRj0pbdFK2xQe",
    "placeName": "talkeetna",
    "state": "AK"
  },
  {
    "city": "tuluksak",
    "state_code": "AK",
    "placeMasterId": "P02500000FsoEXoX7dEoTO1HpHdvRj0sRYpllLmp",
    "placeName": "tuluksak",
    "state": "AK"
  },
  {
    "city": "houston",
    "state_code": "AK",
    "placeMasterId": "P02500000FsoEWflIo4CBtDKQr9A6R5uFyRoPrTa",
    "placeName": "houston",
    "state": "AK"
  },
  {
    "city": "fairbanks",
    "state_code": "AK",
    "placeMasterId": "P02500000FsoEWWupCfcPCc5G3KogWbX3A1nKP4z",
    "placeName": "fairbanks",
    "state": "AK"
  },
  {
    "city": "central",
    "state_code": "AK",
    "placeMasterId": "P02500000FsoEWFDrzsSppPauRi7qhclBYbpxiuZ",
    "placeName": "central",
    "state": "AK"
  },
  {
    "city": "minto",
    "state_code": "AK",
    "placeMasterId": "P02500000FsoEX6IjcFvXx13xGaCMAYz23tnWlob",
    "placeName": "minto",
    "state": "AK"
  },
  {
    "city": "gustavus",
    "state_code": "AK",
    "placeMasterId": "P02500000FsoEWWupCfcPCc5G3KogWbY1WnWifvb",
    "placeName": "gustavus",
    "state": "AK"
  },
  {
    "city": "harrison",
    "state_code": "GA",
    "placeMasterId": "P02500000FsoEwvV9n0OgJkMUgYj05EBT0f6IMRR",
    "placeName": "harrison",
    "state": "GA"
  },
  {
    "city": "pinehurst",
    "state_code": "GA",
    "placeMasterId": "P02500000FsoExvQV0mRB7x4iJF8vSenR1yqJPX8",
    "placeName": "pinehurst",
    "state": "GA"
  },
  {
    "city": "warner robins",
    "state_code": "GA",
    "placeMasterId": "P02500000FsoEyvLqEYTfw9mvvvYqq5O93HROii0",
    "placeName": "warner robins",
    "state": "GA"
  },
  {
    "city": "brunswick",
    "state_code": "GA",
    "placeMasterId": "P02500000FsoEvmjKxpmOowP6G3xenJDcS0xDtom",
    "placeName": "brunswick",
    "state": "GA"
  },
  {
    "city": "screven",
    "state_code": "GA",
    "placeMasterId": "P02500000FsoEyLxvoyAXBkoEigBBC7tqepwxWDO",
    "placeName": "screven",
    "state": "GA"
  },
  {
    "city": "valdosta",
    "state_code": "GA",
    "placeMasterId": "P02500000FsoEymVMd9ttFYXl87DQvb2eUneqOft",
    "placeName": "valdosta",
    "state": "GA"
  },
  {
    "city": "lakeland",
    "state_code": "GA",
    "placeMasterId": "P02500000FsoExDC6znYFgwqqIBPpuCwMwRpWyb5",
    "placeName": "lakeland",
    "state": "GA"
  },
  {
    "city": "ocilla",
    "state_code": "GA",
    "placeMasterId": "P02500000FsoExma1PNrORLpXVQnVYARqA3A49lj",
    "placeName": "ocilla",
    "state": "GA"
  },
  {
    "city": "lake city",
    "state_code": "FL",
    "placeMasterId": "P02500000FsoEsMPsUJvYKWWuyZfcvYIhR2EtRwr",
    "placeName": "lake city",
    "state": "FL"
  },
  {
    "city": "orange park",
    "state_code": "FL",
    "placeMasterId": "P02500000FsoEtMLDi5y38jF8bG5YIyxMM6pW6Ru",
    "placeName": "orange park",
    "state": "FL"
  },
  {
    "city": "hastings",
    "state_code": "FL",
    "placeMasterId": "P02500000FsoErn1y4jcPa7YDlKHxHaptCjjAFxu",
    "placeName": "hastings",
    "state": "FL"
  },
  {
    "city": "palm coast",
    "state_code": "FL",
    "placeMasterId": "P02500000FsoEtVBhJUXppKUJP4QyDTKgPoITjvC",
    "placeName": "palm coast",
    "state": "FL"
  },
  {
    "city": "jacksonville",
    "state_code": "FL",
    "placeMasterId": "P02500000FsoEs4ivHWlyxK2ZMwyn6Zc9nJdRTGT",
    "placeName": "jacksonville",
    "state": "FL"
  },
  {
    "city": "hosford",
    "state_code": "FL",
    "placeMasterId": "P02500000FsoEs4ivHWlyxK2ZMwyn6ZZJjmp1N3X",
    "placeName": "hosford",
    "state": "FL"
  },
  {
    "city": "monticello",
    "state_code": "FL",
    "placeMasterId": "P02500000FsoEt4eGVIoTlWkmzdOiU0CwDo9Gw2A",
    "placeName": "monticello",
    "state": "FL"
  },
  {
    "city": "altha",
    "state_code": "FL",
    "placeMasterId": "P02500000FsoEq4sEpygzKuc87a8wLiPUDs3ZHUL",
    "placeName": "altha",
    "state": "FL"
  },
  {
    "city": "pensacola",
    "state_code": "FL",
    "placeMasterId": "P02500000FsoEte2Aut7cVvjUCsmO7xi1ABLGBK0",
    "placeName": "pensacola",
    "state": "FL"
  },
  {
    "city": "century",
    "state_code": "FL",
    "placeMasterId": "P02500000FsoEqn6cqxZuluq08ds1uAESj6cwM6v",
    "placeName": "century",
    "state": "FL"
  },
  {
    "city": "trenton",
    "state_code": "FL",
    "placeMasterId": "P02500000FsoEudxW8fA7K8RhpZCJVOIHoScTiLc",
    "placeName": "trenton",
    "state": "FL"
  },
  {
    "city": "debary",
    "state_code": "FL",
    "placeMasterId": "P02500000FsoEr4na3kjU97KLkGYrj8zWr29ACZV",
    "placeName": "debary",
    "state": "FL"
  },
  {
    "city": "zellwood",
    "state_code": "FL",
    "placeMasterId": "P02500000FsoEvMBu9e32l8fZqcvP3q9nxeDIxqC",
    "placeName": "zellwood",
    "state": "FL"
  },
  {
    "city": "hialeah",
    "state_code": "FL",
    "placeMasterId": "P02500000FsoErvsRg8CCGinOZ8dNC5CWcpArNmA",
    "placeName": "hialeah",
    "state": "FL"
  },
  {
    "city": "hollywood",
    "state_code": "FL",
    "placeMasterId": "P02500000FsoErvsRg8CCGinOZ8dNC5DYkbxOTEU",
    "placeName": "hollywood",
    "state": "FL"
  },
  {
    "city": "homestead",
    "state_code": "FL",
    "placeMasterId": "P02500000FsoErvsRg8CCGinOZ8dNC5FcyBHlPvk",
    "placeName": "homestead",
    "state": "FL"
  },
  {
    "city": "miami",
    "state_code": "FL",
    "placeMasterId": "P02500000FsoEsvnmtuEh4vVcBp3IZVnnnRh03zn",
    "placeName": "miami",
    "state": "FL"
  },
  {
    "city": "fort lauderdale",
    "state_code": "FL",
    "placeMasterId": "P02500000FsoErVL0rwSqCv3s9hb7Sc4XvAWhbEe",
    "placeName": "fort lauderdale",
    "state": "FL"
  },
  {
    "city": "fort lauderdale",
    "state_code": "FL",
    "placeMasterId": "P02500000FsoErVL0rwSqCv3s9hb7Sc4XvAWhbEe",
    "placeName": "fort lauderdale",
    "state": "FL"
  },
  {
    "city": "fort lauderdale",
    "state_code": "FL",
    "placeMasterId": "P02500000FsoErVL0rwSqCv3s9hb7Sc4XvAWhbEe",
    "placeName": "fort lauderdale",
    "state": "FL"
  },
  {
    "city": "west palm beach",
    "state_code": "FL",
    "placeMasterId": "P02500000FsoEuveTLSJghKw3RBt9KN3fVhs2PCt",
    "placeName": "west palm beach",
    "state": "FL"
  },
  {
    "city": "wellington",
    "state_code": "FL",
    "placeMasterId": "P02500000FsoEv4UwwqtTNwBEF0EZErNepYSJ2fe",
    "placeName": "wellington",
    "state": "FL"
  },
  {
    "city": "jupiter",
    "state_code": "FL",
    "placeMasterId": "P02500000FsoEsDZOsvLldvHkAlKD13x1mDkXZSB",
    "placeName": "jupiter",
    "state": "FL"
  },
  {
    "city": "center hill",
    "state_code": "FL",
    "placeMasterId": "P02500000FsoEqeG9FZ085JapKpWbzftzLBeWKpZ",
    "placeName": "center hill",
    "state": "FL"
  },
  {
    "city": "wimauma",
    "state_code": "FL",
    "placeMasterId": "P02500000FsoEvDLQYFTG4XQP2oZz9LoCrJ9aGuj",
    "placeName": "wimauma",
    "state": "FL"
  },
  {
    "city": "tampa",
    "state_code": "FL",
    "placeMasterId": "P02500000FsoEudxW8fA7K8RhpZCJVOG5RK5OQjD",
    "placeName": "tampa",
    "state": "FL"
  },
  {
    "city": "clearwater",
    "state_code": "FL",
    "placeMasterId": "P02500000FsoEqn6cqxZuluq08ds1uAGuY1C0NsC",
    "placeName": "clearwater",
    "state": "FL"
  },
  {
    "city": "sebring",
    "state_code": "FL",
    "placeMasterId": "P02500000FsoEuMGYvs0XwvxMDwVTgPWPurB9bJo",
    "placeName": "sebring",
    "state": "FL"
  },
  {
    "city": "lehigh acres",
    "state_code": "FL",
    "placeMasterId": "P02500000FsoEse6ph757hj1GaCMSkX4VLtFhXwj",
    "placeName": "lehigh acres",
    "state": "FL"
  },
  {
    "city": "punta gorda",
    "state_code": "FL",
    "placeMasterId": "P02500000FsoEtvj87gHBt8DpoVTDwwPT0CFz3QF",
    "placeName": "punta gorda",
    "state": "FL"
  },
  {
    "city": "naples",
    "state_code": "FL",
    "placeMasterId": "P02500000FsoEtDUk6hOGS7zxnRk8OUWxbxM86aZ",
    "placeName": "naples",
    "state": "FL"
  },
  {
    "city": "palmetto",
    "state_code": "FL",
    "placeMasterId": "P02500000FsoEtVBhJUXppKUJP4QyDTKgALOEN90",
    "placeName": "palmetto",
    "state": "FL"
  },
  {
    "city": "spring hill",
    "state_code": "FL",
    "placeMasterId": "P02500000FsoEuV72XGaKdXCX1kqtattjqNbN4Jx",
    "placeName": "spring hill",
    "state": "FL"
  },
  {
    "city": "childersburg",
    "state_code": "AL",
    "placeMasterId": "P02500000FsoET6bMj9lYiCD4lqWeeqcMmpTm6iZ",
    "placeName": "childersburg",
    "state": "AL"
  },
  {
    "city": "kellyton",
    "state_code": "AL",
    "placeMasterId": "P02500000FsoEUFNBYKNqD0ATCLHzwlY5qPwF0J7",
    "placeName": "kellyton",
    "state": "AL"
  },
  {
    "city": "sterrett",
    "state_code": "AL",
    "placeMasterId": "P02500000FsoEVO90NV07ho7rcq3LEgZKo6DLeqK",
    "placeName": "sterrett",
    "state": "AL"
  },
  {
    "city": "eutaw",
    "state_code": "AL",
    "placeMasterId": "P02500000FsoETX8nXLUulzwbBHYuOJgFQN7PL78",
    "placeName": "eutaw",
    "state": "AL"
  },
  {
    "city": "vance",
    "state_code": "AL",
    "placeMasterId": "P02500000FsoEVogRBgjTlbrO2H5ay9eVlXyxkhO",
    "placeName": "vance",
    "state": "AL"
  },
  {
    "city": "beaverton",
    "state_code": "AL",
    "placeMasterId": "P02500000FsoESouPWMbzKzijADpoprsKO2vVOqr",
    "placeName": "beaverton",
    "state": "AL"
  },
  {
    "city": "cherokee",
    "state_code": "AL",
    "placeMasterId": "P02500000FsoESxkt7lBm1axty2BEkMGyQ1OyG6w",
    "placeName": "cherokee",
    "state": "AL"
  },
  {
    "city": "grant",
    "state_code": "AL",
    "placeMasterId": "P02500000FsoETopkk8eU9CQwmuFkDIQfKBNq6oa",
    "placeName": "grant",
    "state": "AL"
  },
  {
    "city": "brewton",
    "state_code": "AL",
    "placeMasterId": "P02500000FsoESouPWMbzKzijADpoprtvaLKK7ze",
    "placeName": "brewton",
    "state": "AL"
  },
  {
    "city": "citronelle",
    "state_code": "AL",
    "placeMasterId": "P02500000FsoET6bMj9lYiCD4lqWeeqZyo8YA1W6",
    "placeName": "citronelle",
    "state": "AL"
  },
  {
    "city": "pine hill",
    "state_code": "AL",
    "placeMasterId": "P02500000FsoEUxbZZJGle0OLDP15VDS4c6fbzN5",
    "placeName": "pine hill",
    "state": "AL"
  },
  {
    "city": "auburn",
    "state_code": "AL",
    "placeMasterId": "P02500000FsoESg3vuy2CeOTYMPUOvNTeitpY04r",
    "placeName": "auburn",
    "state": "AL"
  },
  {
    "city": "carthage",
    "state_code": "TN",
    "placeMasterId": "P02500000FsoGg59jlhrQKtAM3O9rL76m61788zR",
    "placeName": "carthage",
    "state": "TN"
  },
  {
    "city": "clarksville",
    "state_code": "TN",
    "placeMasterId": "P02500000FsoGgE0DN6RD1UPWrCVHFbZ8LdFBVG2",
    "placeName": "clarksville",
    "state": "TN"
  },
  {
    "city": "cross plains",
    "state_code": "TN",
    "placeMasterId": "P02500000FsoGgE0DN6RD1UPWrCVHFbdacae7UEe",
    "placeName": "cross plains",
    "state": "TN"
  }
]