[
  {
    "city": "denver",
    "state_code": "CO",
    "placeMasterId": "P02500000FsoEmwFjZFziDhEIRiXkIwGQWtD2cc9",
    "placeName": "denver",
    "state": "CO"
  },
  {
    "city": "denver",
    "state_code": "CO",
    "placeMasterId": "P02500000FsoEmwFjZFziDhEIRiXkIwGQWtD2cc9",
    "placeName": "denver",
    "state": "CO"
  },
  {
    "city": "boulder",
    "state_code": "CO",
    "placeMasterId": "P02500000FsoEmeYmMSq8qUjwq5quTxTxPmoV1Le",
    "placeName": "boulder",
    "state": "CO"
  },
  {
    "city": "golden",
    "state_code": "CO",
    "placeMasterId": "P02500000FsoEnVddyqIqy6CzexvPwtfjuUD30Yo",
    "placeName": "golden",
    "state": "CO"
  },
  {
    "city": "evergreen",
    "state_code": "CO",
    "placeMasterId": "P02500000FsoEnDwgm39Hatie3LEa7uybjcSLtHx",
    "placeName": "evergreen",
    "state": "CO"
  },
  {
    "city": "idledale",
    "state_code": "CO",
    "placeMasterId": "P02500000FsoEneU7aEsdehSASmGprO3OTV7W9xn",
    "placeName": "idledale",
    "state": "CO"
  },
  {
    "city": "colorado springs",
    "state_code": "CO",
    "placeMasterId": "P02500000FsoEmwFjZFziDhEIRiXkIwGl9Aki2Up",
    "placeName": "colorado springs",
    "state": "CO"
  },
  {
    "city": "pueblo",
    "state_code": "CO",
    "placeMasterId": "P02500000FsoEoMiVbDlZ5hg2TpzvPpwAiu1FV6U",
    "placeName": "pueblo",
    "state": "CO"
  },
  {
    "city": "colorado city",
    "state_code": "CO",
    "placeMasterId": "P02500000FsoEmwFjZFziDhEIRiXkIwG6TzE7TR4",
    "placeName": "colorado city",
    "state": "CO"
  },
  {
    "city": "sanford",
    "state_code": "CO",
    "placeMasterId": "P02500000FsoEoePSo0v8SuAO5SglEofnTlygano",
    "placeName": "sanford",
    "state": "CO"
  },
  {
    "city": "salida",
    "state_code": "CO",
    "placeMasterId": "P02500000FsoEoePSo0v8SuAO5SglEoedAj9l4WD",
    "placeName": "salida",
    "state": "CO"
  },
  {
    "city": "rockvale",
    "state_code": "CO",
    "placeMasterId": "P02500000FsoEoMiVbDlZ5hg2TpzvPpyAsAIrE0Y",
    "placeName": "rockvale",
    "state": "CO"
  },
  {
    "city": "dolores",
    "state_code": "CO",
    "placeMasterId": "P02500000FsoEn56DAeZUuITTFWtADQaujxFunaz",
    "placeName": "dolores",
    "state": "CO"
  },
  {
    "city": "ridgway",
    "state_code": "CO",
    "placeMasterId": "P02500000FsoEoVYzCcLLmIvDHeLLKKJ8e46cm5P",
    "placeName": "ridgway",
    "state": "CO"
  },
  {
    "city": "telluride",
    "state_code": "CO",
    "placeMasterId": "P02500000FsoEonFwPPUv9VPYtH2B9J2Uzm6RvuF",
    "placeName": "telluride",
    "state": "CO"
  },
  {
    "city": "fruita",
    "state_code": "CO",
    "placeMasterId": "P02500000FsoEnMnANRj4HUxor9a02PKZtdalhVF",
    "placeName": "fruita",
    "state": "CO"
  },
  {
    "city": "rangely",
    "state_code": "CO",
    "placeMasterId": "P02500000FsoEoMiVbDlZ5hg2TpzvPpyGLcEtnfd",
    "placeName": "rangely",
    "state": "CO"
  },
  {
    "city": "burns",
    "state_code": "WY",
    "placeMasterId": "P02500000FsoH8u8BbmS38EbYLPwHO489iKOX409",
    "placeName": "burns",
    "state": "WY"
  },
  {
    "city": "lost springs",
    "state_code": "WY",
    "placeMasterId": "P02500000FsoH9KfcPyBPC2L4kqyX7XFFBqCMsMm",
    "placeName": "lost springs",
    "state": "WY"
  },
  {
    "city": "dixon",
    "state_code": "WY",
    "placeMasterId": "P02500000FsoH8u8BbmS38EbYLPwHO4HnKC6INfP",
    "placeName": "dixon",
    "state": "WY"
  },
  {
    "city": "wamsutter",
    "state_code": "WY",
    "placeMasterId": "P02500000FsoH9lD3E9ulFq4bAI0mr0QdgdK0s1O",
    "placeName": "wamsutter",
    "state": "WY"
  },
  {
    "city": "fort washakie",
    "state_code": "WY",
    "placeMasterId": "P02500000FsoH92yfDB1popqj9EHhIYckR3IXC0q",
    "placeName": "fort washakie",
    "state": "WY"
  },
  {
    "city": "hulett",
    "state_code": "WY",
    "placeMasterId": "P02500000FsoH9Bp8oZbcVR5tx2d7D38GXkdGl13",
    "placeName": "hulett",
    "state": "WY"
  },
  {
    "city": "clearmont",
    "state_code": "WY",
    "placeMasterId": "P02500000FsoH8u8BbmS38EbYLPwHO4FaM8WBNIE",
    "placeName": "clearmont",
    "state": "WY"
  },
  {
    "city": "kelly",
    "state_code": "WY",
    "placeMasterId": "P02500000FsoH9Bp8oZbcVR5tx2d7D34220jndWr",
    "placeName": "kelly",
    "state": "WY"
  },
  {
    "city": "arimo",
    "state_code": "ID",
    "placeMasterId": "P02500000FsoEzvHBSKWAkMV9YbymDW01uRFUT9E",
    "placeName": "arimo",
    "state": "ID"
  },
  {
    "city": "preston",
    "state_code": "ID",
    "placeMasterId": "P02500000FsoF0mM34hysrxyCNU3HgSEXZ2LpecW",
    "placeName": "preston",
    "state": "ID"
  },
  {
    "city": "dietrich",
    "state_code": "ID",
    "placeMasterId": "P02500000FsoF0Cy8f7fk7YzVAEfc2UjQQ610wne",
    "placeName": "dietrich",
    "state": "ID"
  },
  {
    "city": "roberts",
    "state_code": "ID",
    "placeMasterId": "P02500000FsoF0mM34hysrxyCNU3HgSGzAusOZAl",
    "placeName": "roberts",
    "state": "ID"
  },
  {
    "city": "leadore",
    "state_code": "ID",
    "placeMasterId": "P02500000FsoF0Uf5rupJUlTqlrMRrTUSVwWTweb",
    "placeName": "leadore",
    "state": "ID"
  },
  {
    "city": "reubens",
    "state_code": "ID",
    "placeMasterId": "P02500000FsoF0mM34hysrxyCNU3HgSGDg7ugJMF",
    "placeName": "reubens",
    "state": "ID"
  },
  {
    "city": "caldwell",
    "state_code": "ID",
    "placeMasterId": "P02500000FsoF047f3j5xQxkKMQKC80OYbW46OTl",
    "placeName": "caldwell",
    "state": "ID"
  },
  {
    "city": "emmett",
    "state_code": "ID",
    "placeMasterId": "P02500000FsoF0Cy8f7fk7YzVAEfc2UnAAdoXKNp",
    "placeName": "emmett",
    "state": "ID"
  },
  {
    "city": "placerville",
    "state_code": "ID",
    "placeMasterId": "P02500000FsoF0mM34hysrxyCNU3HgSE2Oo4uHRt",
    "placeName": "placerville",
    "state": "ID"
  },
  {
    "city": "garden city",
    "state_code": "ID",
    "placeMasterId": "P02500000FsoF0LocGWFWoAEfy311wz6QjeNsDb9",
    "placeName": "garden city",
    "state": "ID"
  },
  {
    "city": "genesee",
    "state_code": "ID",
    "placeMasterId": "P02500000FsoF0Cy8f7fk7YzVAEfc2UlhFi2xbFq",
    "placeName": "genesee",
    "state": "ID"
  },
  {
    "city": "echo",
    "state_code": "UT",
    "placeMasterId": "P02500000FsoGsddkqaeWnkhgkqYdWE3aVd1cQM5",
    "placeName": "echo",
    "state": "UT"
  },
  {
    "city": "fielding",
    "state_code": "UT",
    "placeMasterId": "P02500000FsoGsmUERzEJULwrYeu3QiGKb7EZyFp",
    "placeName": "fielding",
    "state": "UT"
  },
  {
    "city": "joseph",
    "state_code": "UT",
    "placeMasterId": "P02500000FsoGt4BBemNsrYRDAHatFgyIN2ALyLJ",
    "placeName": "joseph",
    "state": "UT"
  },
  {
    "city": "phoenix",
    "state_code": "AZ",
    "placeMasterId": "P02500000FsoEZWgqrzjtdEDuvO4SetJca76kZR3",
    "placeName": "phoenix",
    "state": "AZ"
  },
  {
    "city": "phoenix",
    "state_code": "AZ",
    "placeMasterId": "P02500000FsoEZWgqrzjtdEDuvO4SetJca76kZR3",
    "placeName": "phoenix",
    "state": "AZ"
  },
  {
    "city": "phoenix",
    "state_code": "AZ",
    "placeMasterId": "P02500000FsoEZWgqrzjtdEDuvO4SetJca76kZR3",
    "placeName": "phoenix",
    "state": "AZ"
  },
  {
    "city": "mesa",
    "state_code": "AZ",
    "placeMasterId": "P02500000FsoEZEztfCaKG1jZJlNcpuaRxnUeQgp",
    "placeName": "mesa",
    "state": "AZ"
  },
  {
    "city": "mesa",
    "state_code": "AZ",
    "placeMasterId": "P02500000FsoEZEztfCaKG1jZJlNcpuaRxnUeQgp",
    "placeName": "mesa",
    "state": "AZ"
  },
  {
    "city": "glendale",
    "state_code": "AZ",
    "placeMasterId": "P02500000FsoEYoSSr0qyCE02uKLN6RQeREgGOxx",
    "placeName": "glendale",
    "state": "AZ"
  },
  {
    "city": "litchfield park",
    "state_code": "AZ",
    "placeMasterId": "P02500000FsoEZEztfCaKG1jZJlNcpuXL270yKPm",
    "placeName": "litchfield park",
    "state": "AZ"
  },
  {
    "city": "surprise",
    "state_code": "AZ",
    "placeMasterId": "P02500000FsoEZxEHgBTFh1xRKp6iOMSORrjKMSL",
    "placeName": "surprise",
    "state": "AZ"
  },
  {
    "city": "tucson",
    "state_code": "AZ",
    "placeMasterId": "P02500000FsoEa64lHa32NdCc8dS8IqpdZHyNtyf",
    "placeName": "tucson",
    "state": "AZ"
  },
  {
    "city": "williams",
    "state_code": "AZ",
    "placeMasterId": "P02500000FsoEaNliUNCbkpgxkG8y7pWvMN6IzEO",
    "placeName": "williams",
    "state": "AZ"
  },
  {
    "city": "cottonwood",
    "state_code": "AZ",
    "placeMasterId": "P02500000FsoEYWlVeDhOp1VhIheXHSh5zfIKY4p",
    "placeName": "cottonwood",
    "state": "AZ"
  },
  {
    "city": "jerome",
    "state_code": "AZ",
    "placeMasterId": "P02500000FsoEZ69Q3o0XZQUOVx2CvQAJAA6NxGU",
    "placeName": "jerome",
    "state": "AZ"
  },
  {
    "city": "kingman",
    "state_code": "AZ",
    "placeMasterId": "P02500000FsoEYxIwSPQkspFDi8gn0vqDKwMyJoZ",
    "placeName": "kingman",
    "state": "AZ"
  },
  {
    "city": "lake havasu city",
    "state_code": "AZ",
    "placeMasterId": "P02500000FsoEZ69Q3o0XZQUOVx2CvQEbcLwIlbq",
    "placeName": "lake havasu city",
    "state": "AZ"
  },
  {
    "city": "kirtland",
    "state_code": "NM",
    "placeMasterId": "P02500000FsoFz8O1DO83W4UuDyB45fTomL9VrIs",
    "placeName": "kirtland",
    "state": "NM"
  },
  {
    "city": "anthony",
    "state_code": "NM",
    "placeMasterId": "P02500000FsoFyHJ9b0fLOT1rP66YcjF0klzOHZm",
    "placeName": "anthony",
    "state": "NM"
  },
  {
    "city": "hope",
    "state_code": "NM",
    "placeMasterId": "P02500000FsoFz8O1DO83W4UuDyB45fT7pZRIJW8",
    "placeName": "hope",
    "state": "NM"
  },
  {
    "city": "corona",
    "state_code": "NM",
    "placeMasterId": "P02500000FsoFyhqaPCOhSGlNoX8oMCGZzcGelTu",
    "placeName": "corona",
    "state": "NM"
  },
  {
    "city": "timberon",
    "state_code": "NM",
    "placeMasterId": "P02500000FsoG0YqnFLtuO4weG5dFCZ5Gn1wnKfD",
    "placeName": "timberon",
    "state": "NM"
  },
  {
    "city": "henderson",
    "state_code": "NV",
    "placeMasterId": "P02500000FsoFuQSGJJ58qFQ9iAmH1VFxDxgAeEI",
    "placeName": "henderson",
    "state": "NV"
  },
  {
    "city": "las vegas",
    "state_code": "NV",
    "placeMasterId": "P02500000FsoFuQSGJJ58qFQ9iAmH1VC0RKB5lYR",
    "placeName": "las vegas",
    "state": "NV"
  },
  {
    "city": "las vegas",
    "state_code": "NV",
    "placeMasterId": "P02500000FsoFuQSGJJ58qFQ9iAmH1VC0RKB5lYR",
    "placeName": "las vegas",
    "state": "NV"
  },
  {
    "city": "las vegas",
    "state_code": "NV",
    "placeMasterId": "P02500000FsoFuQSGJJ58qFQ9iAmH1VC0RKB5lYR",
    "placeName": "las vegas",
    "state": "NV"
  },
  {
    "city": "gardnerville",
    "state_code": "NV",
    "placeMasterId": "P02500000FsoFuHbmhuVM9eAyuMQr70ngKKG0xCO",
    "placeName": "gardnerville",
    "state": "NV"
  },
  {
    "city": "reno",
    "state_code": "NV",
    "placeMasterId": "P02500000FsoFuZIjuhevWqfKVz7gvzemDKMzraO",
    "placeName": "reno",
    "state": "NV"
  },
  {
    "city": "oconee",
    "state_code": "GA",
    "placeMasterId": "P02500000FsoExma1PNrORLpXVQnVYAPqohwgvn8",
    "placeName": "oconee",
    "state": "GA"
  },
  {
    "city": "darien",
    "state_code": "GA",
    "placeMasterId": "P02500000FsoEwDGlm1Vksk8cfUzuWmQHI36FyPJ",
    "placeName": "darien",
    "state": "GA"
  },
  {
    "city": "folkston",
    "state_code": "GA",
    "placeMasterId": "P02500000FsoEwdoCaDF6wXs94w2AGFT5PgHYGNn",
    "placeName": "folkston",
    "state": "GA"
  },
  {
    "city": "hoboken",
    "state_code": "GA",
    "placeMasterId": "P02500000FsoEx4LdOOyT0LbfUN4Pzia7uENcZMI",
    "placeName": "hoboken",
    "state": "GA"
  },
  {
    "city": "ray city",
    "state_code": "GA",
    "placeMasterId": "P02500000FsoEy4GycB0xoYJt73ULN9Cxo45wkB8",
    "placeName": "ray city",
    "state": "GA"
  },
  {
    "city": "leesburg",
    "state_code": "GA",
    "placeMasterId": "P02500000FsoExM2abC82NY615zlFohJDQxBFuqd",
    "placeName": "leesburg",
    "state": "GA"
  },
  {
    "city": "thomasville",
    "state_code": "GA",
    "placeMasterId": "P02500000FsoEyUoPQMkJsM3PWUWb6cLRY0oAf9G",
    "placeName": "thomasville",
    "state": "GA"
  },
  {
    "city": "columbus",
    "state_code": "GA",
    "placeMasterId": "P02500000FsoEwDGlm1Vksk8cfUzuWmKM4R9DiHm",
    "placeName": "columbus",
    "state": "GA"
  },
  {
    "city": "daytona beach",
    "state_code": "FL",
    "placeMasterId": "P02500000FsoEr4na3kjU97KLkGYrj8xivEZhdJx",
    "placeName": "daytona beach",
    "state": "FL"
  },
  {
    "city": "interlachen",
    "state_code": "FL",
    "placeMasterId": "P02500000FsoEs4ivHWlyxK2ZMwyn6ZZz9GJrtGK",
    "placeName": "interlachen",
    "state": "FL"
  },
  {
    "city": "jacksonville",
    "state_code": "FL",
    "placeMasterId": "P02500000FsoEs4ivHWlyxK2ZMwyn6Zc9nJdRTGT",
    "placeName": "jacksonville",
    "state": "FL"
  },
  {
    "city": "tallahassee",
    "state_code": "FL",
    "placeMasterId": "P02500000FsoEuV72XGaKdXCX1kqtatxuQPy6zAD",
    "placeName": "tallahassee",
    "state": "FL"
  },
  {
    "city": "ebro",
    "state_code": "FL",
    "placeMasterId": "P02500000FsoErDe3f9JGpiZWY4uHddNxgwXCiRK",
    "placeName": "ebro",
    "state": "FL"
  },
  {
    "city": "eglin afb",
    "state_code": "FL",
    "placeMasterId": "P02500000FsoEr4na3kjU97KLkGYrj90nKJ9do74",
    "placeName": "eglin afb",
    "state": "FL"
  },
  {
    "city": "horseshoe beach",
    "state_code": "FL",
    "placeMasterId": "P02500000FsoErvsRg8CCGinOZ8dNC5E3LfbrIsD",
    "placeName": "horseshoe beach",
    "state": "FL"
  },
  {
    "city": "altamonte springs",
    "state_code": "FL",
    "placeMasterId": "P02500000FsoEq4sEpygzKuc87a8wLiMd53BBeA6",
    "placeName": "altamonte springs",
    "state": "FL"
  },
  {
    "city": "apopka",
    "state_code": "FL",
    "placeMasterId": "P02500000FsoEqDiiRNGm1VrIvOUMGClUgLgddJ2",
    "placeName": "apopka",
    "state": "FL"
  },
  {
    "city": "lake helen",
    "state_code": "FL",
    "placeMasterId": "P02500000FsoEsMPsUJvYKWWuyZfcvYLfgokkJqI",
    "placeName": "lake helen",
    "state": "FL"
  },
  {
    "city": "hialeah",
    "state_code": "FL",
    "placeMasterId": "P02500000FsoErvsRg8CCGinOZ8dNC5CWcpArNmA",
    "placeName": "hialeah",
    "state": "FL"
  },
  {
    "city": "hollywood",
    "state_code": "FL",
    "placeMasterId": "P02500000FsoErvsRg8CCGinOZ8dNC5DYkbxOTEU",
    "placeName": "hollywood",
    "state": "FL"
  },
  {
    "city": "pompano beach",
    "state_code": "FL",
    "placeMasterId": "P02500000FsoEtvj87gHBt8DpoVTDwwP6HVzAGAM",
    "placeName": "pompano beach",
    "state": "FL"
  },
  {
    "city": "pompano beach",
    "state_code": "FL",
    "placeMasterId": "P02500000FsoEtvj87gHBt8DpoVTDwwP6HVzAGAM",
    "placeName": "pompano beach",
    "state": "FL"
  },
  {
    "city": "miami",
    "state_code": "FL",
    "placeMasterId": "P02500000FsoEsvnmtuEh4vVcBp3IZVnnnRh03zn",
    "placeName": "miami",
    "state": "FL"
  },
  {
    "city": "fort lauderdale",
    "state_code": "FL",
    "placeMasterId": "P02500000FsoErVL0rwSqCv3s9hb7Sc4XvAWhbEe",
    "placeName": "fort lauderdale",
    "state": "FL"
  },
  {
    "city": "fort lauderdale",
    "state_code": "FL",
    "placeMasterId": "P02500000FsoErVL0rwSqCv3s9hb7Sc4XvAWhbEe",
    "placeName": "fort lauderdale",
    "state": "FL"
  },
  {
    "city": "fort lauderdale",
    "state_code": "FL",
    "placeMasterId": "P02500000FsoErVL0rwSqCv3s9hb7Sc4XvAWhbEe",
    "placeName": "fort lauderdale",
    "state": "FL"
  },
  {
    "city": "fort lauderdale",
    "state_code": "FL",
    "placeMasterId": "P02500000FsoErVL0rwSqCv3s9hb7Sc4XvAWhbEe",
    "placeName": "fort lauderdale",
    "state": "FL"
  },
  {
    "city": "west palm beach",
    "state_code": "FL",
    "placeMasterId": "P02500000FsoEuveTLSJghKw3RBt9KN3fVhs2PCt",
    "placeName": "west palm beach",
    "state": "FL"
  },
  {
    "city": "plant city",
    "state_code": "FL",
    "placeMasterId": "P02500000FsoEtmseWHhPCWyf0h7o2S4rYK3jZeq",
    "placeName": "plant city",
    "state": "FL"
  },
  {
    "city": "apollo beach",
    "state_code": "FL",
    "placeMasterId": "P02500000FsoEqDiiRNGm1VrIvOUMGCjNiVMZ42c",
    "placeName": "apollo beach",
    "state": "FL"
  },
  {
    "city": "tampa",
    "state_code": "FL",
    "placeMasterId": "P02500000FsoEudxW8fA7K8RhpZCJVOG5RK5OQjD",
    "placeName": "tampa",
    "state": "FL"
  },
  {
    "city": "lakeland",
    "state_code": "FL",
    "placeMasterId": "P02500000FsoEsMPsUJvYKWWuyZfcvYKMAG7ePey",
    "placeName": "lakeland",
    "state": "FL"
  },
  {
    "city": "north fort myers",
    "state_code": "FL",
    "placeMasterId": "P02500000FsoEtDUk6hOGS7zxnRk8OUaUHMupWsG",
    "placeName": "north fort myers",
    "state": "FL"
  },
  {
    "city": "port charlotte",
    "state_code": "FL",
    "placeMasterId": "P02500000FsoEtmseWHhPCWyf0h7o2S6ULmS1eGT",
    "placeName": "port charlotte",
    "state": "FL"
  },
  {
    "city": "punta gorda",
    "state_code": "FL",
    "placeMasterId": "P02500000FsoEtvj87gHBt8DpoVTDwwPT0CFz3QF",
    "placeName": "punta gorda",
    "state": "FL"
  },
  {
    "city": "bradenton",
    "state_code": "FL",
    "placeMasterId": "P02500000FsoEqVPfeAQLOiLeX1BC5BUGpFKoSYy",
    "placeName": "bradenton",
    "state": "FL"
  },
  {
    "city": "sarasota",
    "state_code": "FL",
    "placeMasterId": "P02500000FsoEu4Zbj4qyZjT0cJodrQpDdnRoRQk",
    "placeName": "sarasota",
    "state": "FL"
  },
  {
    "city": "sarasota",
    "state_code": "FL",
    "placeMasterId": "P02500000FsoEu4Zbj4qyZjT0cJodrQpDdnRoRQk",
    "placeName": "sarasota",
    "state": "FL"
  },
  {
    "city": "crystal river",
    "state_code": "FL",
    "placeMasterId": "P02500000FsoEqvx6SM9hSW5AwSDRoehshXE6Xvs",
    "placeName": "crystal river",
    "state": "FL"
  },
  {
    "city": "spring hill",
    "state_code": "FL",
    "placeMasterId": "P02500000FsoEuV72XGaKdXCX1kqtattjqNbN4Jx",
    "placeName": "spring hill",
    "state": "FL"
  },
  {
    "city": "palm city",
    "state_code": "FL",
    "placeMasterId": "P02500000FsoEtVBhJUXppKUJP4QyDTKepje8Bmn",
    "placeName": "palm city",
    "state": "FL"
  },
  {
    "city": "brookside",
    "state_code": "AL",
    "placeMasterId": "P02500000FsoESxkt7lBm1axty2BEkMDtRXdK44Z",
    "placeName": "brookside",
    "state": "AL"
  },
  {
    "city": "northport",
    "state_code": "AL",
    "placeMasterId": "P02500000FsoEUol5xugyxP9APaffaj2sIklJ0pc",
    "placeName": "northport",
    "state": "AL"
  },
  {
    "city": "cordova",
    "state_code": "AL",
    "placeMasterId": "P02500000FsoET6bMj9lYiCD4lqWeeqbiKsjCpfQ",
    "placeName": "cordova",
    "state": "AL"
  },
  {
    "city": "hodges",
    "state_code": "AL",
    "placeMasterId": "P02500000FsoEU6Whwvo3WOvIOWwa2HCiMDgBdB6",
    "placeName": "hodges",
    "state": "AL"
  },
  {
    "city": "russellville",
    "state_code": "AL",
    "placeMasterId": "P02500000FsoEVFIWm6QL1Csgp1hvKCADgvnKHoI",
    "placeName": "russellville",
    "state": "AL"
  },
  {
    "city": "gurley",
    "state_code": "AL",
    "placeMasterId": "P02500000FsoETxgELXEGpng7aibA7mnvm4UarjT",
    "placeName": "gurley",
    "state": "AL"
  },
  {
    "city": "section",
    "state_code": "AL",
    "placeMasterId": "P02500000FsoEVO90NV07ho7rcq3LEgX3ariAzpX",
    "placeName": "section",
    "state": "AL"
  },
  {
    "city": "centre",
    "state_code": "AL",
    "placeMasterId": "P02500000FsoET6bMj9lYiCD4lqWeeqZrMA2TMjc",
    "placeName": "centre",
    "state": "AL"
  },
  {
    "city": "luverne",
    "state_code": "AL",
    "placeMasterId": "P02500000FsoEUODf9ixctbPe09dPrFwDXcUciTs",
    "placeName": "luverne",
    "state": "AL"
  },
  {
    "city": "pike road",
    "state_code": "AL",
    "placeMasterId": "P02500000FsoEUxbZZJGle0OLDP15VDTEJFZP3Dg",
    "placeName": "pike road",
    "state": "AL"
  },
  {
    "city": "wetumpka",
    "state_code": "AL",
    "placeMasterId": "P02500000FsoEVxWun5JGSD6Yq5R0se0HV3b5H0y",
    "placeName": "wetumpka",
    "state": "AL"
  },
  {
    "city": "anniston",
    "state_code": "AL",
    "placeMasterId": "P02500000FsoESg3vuy2CeOTYMPUOvNVPm3E4hRx",
    "placeName": "anniston",
    "state": "AL"
  },
  {
    "city": "mobile",
    "state_code": "AL",
    "placeMasterId": "P02500000FsoEUX48l7XPaCeonxyplkKNMXCzpeH",
    "placeName": "mobile",
    "state": "AL"
  },
  {
    "city": "lanett",
    "state_code": "AL",
    "placeMasterId": "P02500000FsoEUFNBYKNqD0ATCLHzwlXvAZXXTNW",
    "placeName": "lanett",
    "state": "AL"
  },
  {
    "city": "york",
    "state_code": "AL",
    "placeMasterId": "P02500000FsoEVxWun5JGSD6Yq5R0se2Nr1JfpVj",
    "placeName": "york",
    "state": "AL"
  },
  {
    "city": "nashville",
    "state_code": "TN",
    "placeMasterId": "P02500000FsoGhMm2CH3UWIMvHhGcXWZ0CJVUMa1",
    "placeName": "nashville",
    "state": "TN"
  },
  {
    "city": "copperhill",
    "state_code": "TN",
    "placeMasterId": "P02500000FsoGgE0DN6RD1UPWrCVHFbZmvD88cX4",
    "placeName": "copperhill",
    "state": "TN"
  },
  {
    "city": "pelham",
    "state_code": "TN",
    "placeMasterId": "P02500000FsoGheSzP4D3tUrGtJxSMVC9OC9vYdt",
    "placeName": "pelham",
    "state": "TN"
  },
  {
    "city": "sewanee",
    "state_code": "TN",
    "placeMasterId": "P02500000FsoGhnJT0Smqa66Rh8IsGzZqt2DQ83U",
    "placeName": "sewanee",
    "state": "TN"
  },
  {
    "city": "gatlinburg",
    "state_code": "TN",
    "placeMasterId": "P02500000FsoGgeXeBIAZ5I93GdXWz4fsceH91kZ",
    "placeName": "gatlinburg",
    "state": "TN"
  },
  {
    "city": "maryville",
    "state_code": "TN",
    "placeMasterId": "P02500000FsoGhDvYasThph7kTsvCd29RxZgaPGg",
    "placeName": "maryville",
    "state": "TN"
  },
  {
    "city": "mosheim",
    "state_code": "TN",
    "placeMasterId": "P02500000FsoGhMm2CH3UWIMvHhGcXWbFDj3lyKM",
    "placeName": "mosheim",
    "state": "TN"
  },
  {
    "city": "oliver springs",
    "state_code": "TN",
    "placeMasterId": "P02500000FsoGhMm2CH3UWIMvHhGcXWYrz6hgLk9",
    "placeName": "oliver springs",
    "state": "TN"
  },
  {
    "city": "sneedville",
    "state_code": "TN",
    "placeMasterId": "P02500000FsoGhw9wbrMdGhLcUweIBTvkF8P0D0u",
    "placeName": "sneedville",
    "state": "TN"
  },
  {
    "city": "millington",
    "state_code": "TN",
    "placeMasterId": "P02500000FsoGhDvYasThph7kTsvCd27dyXjQf01",
    "placeName": "millington",
    "state": "TN"
  },
  {
    "city": "memphis",
    "state_code": "TN",
    "placeMasterId": "P02500000FsoGh554zTtv95sZg4ZmiXoGr41AEmS",
    "placeName": "memphis",
    "state": "TN"
  },
  {
    "city": "paris",
    "state_code": "TN",
    "placeMasterId": "P02500000FsoGhVcVnfdHCtc65Vc2S0u7TbDHjBI",
    "placeName": "paris",
    "state": "TN"
  },
  {
    "city": "adamsville",
    "state_code": "TN",
    "placeMasterId": "P02500000FsoGfnSmYuhqxgg0RlT1W8QrkVinVts",
    "placeName": "adamsville",
    "state": "TN"
  },
  {
    "city": "gadsden",
    "state_code": "TN",
    "placeMasterId": "P02500000FsoGgVhAZtamOgtsSpC74aTAV5fSf6l",
    "placeName": "gadsden",
    "state": "TN"
  },
  {
    "city": "waynesboro",
    "state_code": "TN",
    "placeMasterId": "P02500000FsoGiDqtoeWCdtpy6ZL80SkB57NhuMI",
    "placeName": "waynesboro",
    "state": "TN"
  },
  {
    "city": "clarkrange",
    "state_code": "TN",
    "placeMasterId": "P02500000FsoGg59jlhrQKtAM3O9rL7NpzgwGI1B",
    "placeName": "clarkrange",
    "state": "TN"
  },
  {
    "city": "batesville",
    "state_code": "MS",
    "placeMasterId": "P02500000FsoFgRVTCSWBVNR4yavJjUtHQtAvu5Y",
    "placeName": "batesville",
    "state": "MS"
  },
  {
    "city": "alligator",
    "state_code": "MS",
    "placeMasterId": "P02500000FsoFgaLwnr5yBygFmPGjdz4ckL19Hkm",
    "placeName": "alligator",
    "state": "MS"
  },
  {
    "city": "benoit",
    "state_code": "MS",
    "placeMasterId": "P02500000FsoFgaLwnr5yBygFmPGjdz5vxQLAUEF",
    "placeName": "benoit",
    "state": "MS"
  },
  {
    "city": "rienzi",
    "state_code": "MS",
    "placeMasterId": "P02500000FsoFi0oiporp3z7zoWiuksrMM7OFr8l",
    "placeName": "rienzi",
    "state": "MS"
  },
  {
    "city": "schlater",
    "state_code": "MS",
    "placeMasterId": "P02500000FsoFi9fCRDRbkaNAcL4KfNC1E36E5bd",
    "placeName": "schlater",
    "state": "MS"
  },
  {
    "city": "lexington",
    "state_code": "MS",
    "placeMasterId": "P02500000FsoFhaHI1d8T0BOTP5gf1Pi2ZIwff3u",
    "placeName": "lexington",
    "state": "MS"
  },
  {
    "city": "satartia",
    "state_code": "MS",
    "placeMasterId": "P02500000FsoFi9fCRDRbkaNAcL4KfN8o3zerjQQ",
    "placeName": "satartia",
    "state": "MS"
  },
  {
    "city": "jackson",
    "state_code": "MS",
    "placeMasterId": "P02500000FsoFhRQoQEYgJa9IbHLF6vGkcb3WK7F",
    "placeName": "jackson",
    "state": "MS"
  },
  {
    "city": "starkville",
    "state_code": "MS",
    "placeMasterId": "P02500000FsoFiIVg2c1ORBcLQ9PkZrUOb7YvOfw",
    "placeName": "starkville",
    "state": "MS"
  },
  {
    "city": "new haven",
    "state_code": "KY",
    "placeMasterId": "P02500000FsoFP2FDc66Ng5ZoxWmKZjPCfr08DE8",
    "placeName": "new haven",
    "state": "KY"
  },
  {
    "city": "boston",
    "state_code": "KY",
    "placeMasterId": "P02500000FsoFNK5UNLAxQsdjJmdJdqu0es27ZSo",
    "placeName": "boston",
    "state": "KY"
  },
  {
    "city": "fort knox",
    "state_code": "KY",
    "placeMasterId": "P02500000FsoFO2JsOK3srsrbKqMPCIstzmNmlHS",
    "placeName": "fort knox",
    "state": "KY"
  },
  {
    "city": "louisville",
    "state_code": "KY",
    "placeMasterId": "P02500000FsoFOkYGPIwoIt5TLu5UkkhkzCsPo64",
    "placeName": "louisville",
    "state": "KY"
  },
  {
    "city": "louisville",
    "state_code": "KY",
    "placeMasterId": "P02500000FsoFOkYGPIwoIt5TLu5UkkhkzCsPo64",
    "placeName": "louisville",
    "state": "KY"
  },
  {
    "city": "jeffersonville",
    "state_code": "KY",
    "placeMasterId": "P02500000FsoFObhmnuN1cHqIY5k4qGHDNW39BEF",
    "placeName": "jeffersonville",
    "state": "KY"
  },
  {
    "city": "paris",
    "state_code": "KY",
    "placeMasterId": "P02500000FsoFPB5hDUgAMgozlL7kUDsV27SUlmt",
    "placeName": "paris",
    "state": "KY"
  },
  {
    "city": "sadieville",
    "state_code": "KY",
    "placeMasterId": "P02500000FsoFPSmeQHpjjtJLMxoaJCfBeOaEr1I",
    "placeName": "sadieville",
    "state": "KY"
  },
  {
    "city": "salt lick",
    "state_code": "KY",
    "placeMasterId": "P02500000FsoFPSmeQHpjjtJLMxoaJCj6opMFYEJ",
    "placeName": "salt lick",
    "state": "KY"
  },
  {
    "city": "lancaster",
    "state_code": "KY",
    "placeMasterId": "P02500000FsoFObhmnuN1cHqIY5k4qGKnczJYb7C",
    "placeName": "lancaster",
    "state": "KY"
  },
  {
    "city": "lexington",
    "state_code": "KY",
    "placeMasterId": "P02500000FsoFOkYGPIwoIt5TLu5UkkeaJQ4MXLq",
    "placeName": "lexington",
    "state": "KY"
  },
  {
    "city": "frankfort",
    "state_code": "KY",
    "placeMasterId": "P02500000FsoFO2JsOK3srsrbKqMPCIpbQNWokAK",
    "placeName": "frankfort",
    "state": "KY"
  },
  {
    "city": "manchester",
    "state_code": "KY",
    "placeMasterId": "P02500000FsoFOtOk0hWazUKe9iQufEyYhHrRczO",
    "placeName": "manchester",
    "state": "KY"
  },
  {
    "city": "ghent",
    "state_code": "KY",
    "placeMasterId": "P02500000FsoFO2JsOK3srsrbKqMPCIvgNxXX86r",
    "placeName": "ghent",
    "state": "KY"
  },
  {
    "city": "newport",
    "state_code": "KY",
    "placeMasterId": "P02500000FsoFP2FDc66Ng5ZoxWmKZjQJq7oxLpv",
    "placeName": "newport",
    "state": "KY"
  },
  {
    "city": "dwale",
    "state_code": "KY",
    "placeMasterId": "P02500000FsoFNkcvBWuJUgNFjDfZNK7kWKoLZ81",
    "placeName": "dwale",
    "state": "KY"
  },
  {
    "city": "mayking",
    "state_code": "KY",
    "placeMasterId": "P02500000FsoFOtOk0hWazUKe9iQufF83vRCjbpu",
    "placeName": "mayking",
    "state": "KY"
  },
  {
    "city": "columbus",
    "state_code": "KY",
    "placeMasterId": "P02500000FsoFNbmRa8KWo584vPK9Spev44Kyf06",
    "placeName": "columbus",
    "state": "KY"
  },
  {
    "city": "lovelaceville",
    "state_code": "KY",
    "placeMasterId": "P02500000FsoFOkYGPIwoIt5TLu5Ukkm9TK3hpUY",
    "placeName": "lovelaceville",
    "state": "KY"
  },
  {
    "city": "brownsville",
    "state_code": "KY",
    "placeMasterId": "P02500000FsoFNSvxyjkk7Tsu7ayjYLGIycSj65F",
    "placeName": "brownsville",
    "state": "KY"
  },
  {
    "city": "morgantown",
    "state_code": "KY",
    "placeMasterId": "P02500000FsoFP2FDc66Ng5ZoxWmKZjNH3KdPoFM",
    "placeName": "morgantown",
    "state": "KY"
  },
  {
    "city": "earlington",
    "state_code": "KY",
    "placeMasterId": "P02500000FsoFNkcvBWuJUgNFjDfZNK8FJkNBhi6",
    "placeName": "earlington",
    "state": "KY"
  },
  {
    "city": "pine knot",
    "state_code": "KY",
    "placeMasterId": "P02500000FsoFPB5hDUgAMgozlL7kUDpBlR7tn6x",
    "placeName": "pine knot",
    "state": "KY"
  },
  {
    "city": "canal winchester",
    "state_code": "OH",
    "placeMasterId": "P02500000FsoGDXsF8QQMukDVMz4H78zWmbYbINg",
    "placeName": "canal winchester",
    "state": "OH"
  },
  {
    "city": "marion",
    "state_code": "OH",
    "placeMasterId": "P02500000FsoGGOnnCLy4el6zRDydKwK743oJ4l9",
    "placeName": "marion",
    "state": "OH"
  },
  {
    "city": "quincy",
    "state_code": "OH",
    "placeMasterId": "P02500000FsoGHpGZEJjvWlYjTLQoRq8L8YzeoUD",
    "placeName": "quincy",
    "state": "OH"
  },
  {
    "city": "rudolph",
    "state_code": "OH",
    "placeMasterId": "P02500000FsoGIFo02VTHaZIFsmT4BJ8sW3jVZbB",
    "placeName": "rudolph",
    "state": "OH"
  },
  {
    "city": "edon",
    "state_code": "OH",
    "placeMasterId": "P02500000FsoGEOx6knt52LgYBr8ma5BNEVYsOkD",
    "placeName": "edon",
    "state": "OH"
  },
  {
    "city": "hicksville",
    "state_code": "OH",
    "placeMasterId": "P02500000FsoGFG1yNBLn9x9b0jDI31NmAI24hx9",
    "placeName": "hicksville",
    "state": "OH"
  },
  {
    "city": "holland",
    "state_code": "OH",
    "placeMasterId": "P02500000FsoGFOsRyZvZqYOloXYhxVex1Qm7BSm",
    "placeName": "holland",
    "state": "OH"
  },
  {
    "city": "malta",
    "state_code": "OH",
    "placeMasterId": "P02500000FsoGGFxJaxOHy9rodPdDQRuMcXm72mu",
    "placeName": "malta",
    "state": "OH"
  },
  {
    "city": "holloway",
    "state_code": "OH",
    "placeMasterId": "P02500000FsoGFOsRyZvZqYOloXYhxVhnnqFpdC2",
    "placeName": "holloway",
    "state": "OH"
  },
  {
    "city": "cleveland",
    "state_code": "OH",
    "placeMasterId": "P02500000FsoGDpZCLDZwHwhqybl6w7hFiW8c2lu",
    "placeName": "cleveland",
    "state": "OH"
  },
  {
    "city": "cleveland",
    "state_code": "OH",
    "placeMasterId": "P02500000FsoGDpZCLDZwHwhqybl6w7hFiW8c2lu",
    "placeName": "cleveland",
    "state": "OH"
  },
  {
    "city": "cleveland",
    "state_code": "OH",
    "placeMasterId": "P02500000FsoGDpZCLDZwHwhqybl6w7hFiW8c2lu",
    "placeName": "cleveland",
    "state": "OH"
  },
  {
    "city": "creston",
    "state_code": "OH",
    "placeMasterId": "P02500000FsoGDyPfwc9iyXx1mQ6Wqc7cQInBMv0",
    "placeName": "creston",
    "state": "OH"
  },
  {
    "city": "tallmadge",
    "state_code": "OH",
    "placeMasterId": "P02500000FsoGIgLQqhCdeN1mIDVJumQocxvUgmC",
    "placeName": "tallmadge",
    "state": "OH"
  },
  {
    "city": "campbell",
    "state_code": "OH",
    "placeMasterId": "P02500000FsoGDXsF8QQMukDVMz4H78pBOA01R4l",
    "placeName": "campbell",
    "state": "OH"
  },
  {
    "city": "dalton",
    "state_code": "OH",
    "placeMasterId": "P02500000FsoGE7G9Y0jVf9CCaERwl6NnxFs3ht9",
    "placeName": "dalton",
    "state": "OH"
  },
  {
    "city": "dellroy",
    "state_code": "OH",
    "placeMasterId": "P02500000FsoGE7G9Y0jVf9CCaERwl6SLPoy6Vaq",
    "placeName": "dellroy",
    "state": "OH"
  },
  {
    "city": "louisville",
    "state_code": "OH",
    "placeMasterId": "P02500000FsoGG76pzYoVHYcdpbHnVxZ1KD5MlWl",
    "placeName": "louisville",
    "state": "OH"
  },
  {
    "city": "wooster",
    "state_code": "OH",
    "placeMasterId": "P02500000FsoGJXQIT4fLlyUp75ZpNiYsBxr2fHC",
    "placeName": "wooster",
    "state": "OH"
  },
  {
    "city": "bettsville",
    "state_code": "OH",
    "placeMasterId": "P02500000FsoGD7KoKEh0qwTyxY21NfrhStTNUjg",
    "placeName": "bettsville",
    "state": "OH"
  },
  {
    "city": "collins",
    "state_code": "OH",
    "placeMasterId": "P02500000FsoGDpZCLDZwHwhqybl6w7od1JXJqaR",
    "placeName": "collins",
    "state": "OH"
  },
  {
    "city": "kings mills",
    "state_code": "OH",
    "placeMasterId": "P02500000FsoGFgZPBN59Dkt7QAFXmUafstHxR90",
    "placeName": "kings mills",
    "state": "OH"
  },
  {
    "city": "blanchester",
    "state_code": "OH",
    "placeMasterId": "P02500000FsoGDGBHvdGnXXj9lMNRIA7UmKfoxpF",
    "placeName": "blanchester",
    "state": "OH"
  },
  {
    "city": "port william",
    "state_code": "OH",
    "placeMasterId": "P02500000FsoGHpGZEJjvWlYjTLQoRq7SRz69Xic",
    "placeName": "port william",
    "state": "OH"
  },
  {
    "city": "cincinnati",
    "state_code": "OH",
    "placeMasterId": "P02500000FsoGDpZCLDZwHwhqybl6w7e8Lps6H4x",
    "placeName": "cincinnati",
    "state": "OH"
  },
  {
    "city": "cincinnati",
    "state_code": "OH",
    "placeMasterId": "P02500000FsoGDpZCLDZwHwhqybl6w7e8Lps6H4x",
    "placeName": "cincinnati",
    "state": "OH"
  },
  {
    "city": "gratis",
    "state_code": "OH",
    "placeMasterId": "P02500000FsoGF7BUlmm0TLuQCurs8WyAiRWqkbO",
    "placeName": "gratis",
    "state": "OH"
  },
  {
    "city": "new paris",
    "state_code": "OH",
    "placeMasterId": "P02500000FsoGH72BDKr05lKrSHhitO7JCkAl8Pi",
    "placeName": "new paris",
    "state": "OH"
  },
  {
    "city": "port jefferson",
    "state_code": "OH",
    "placeMasterId": "P02500000FsoGHpGZEJjvWlYjTLQoRpxxW35qZhH",
    "placeName": "port jefferson",
    "state": "OH"
  },
  {
    "city": "yellow springs",
    "state_code": "OH",
    "placeMasterId": "P02500000FsoGJgGm4TF8SZjzutvFICw7QJUlfLb",
    "placeName": "yellow springs",
    "state": "OH"
  },
  {
    "city": "dayton",
    "state_code": "OH",
    "placeMasterId": "P02500000FsoGE7G9Y0jVf9CCaERwl6OdIDcWstb",
    "placeName": "dayton",
    "state": "OH"
  },
  {
    "city": "dayton",
    "state_code": "OH",
    "placeMasterId": "P02500000FsoGE7G9Y0jVf9CCaERwl6OdIDcWstb",
    "placeName": "dayton",
    "state": "OH"
  },
  {
    "city": "chillicothe",
    "state_code": "OH",
    "placeMasterId": "P02500000FsoGDpZCLDZwHwhqybl6w7bjaRf2ajj",
    "placeName": "chillicothe",
    "state": "OH"
  },
  {
    "city": "lima",
    "state_code": "OH",
    "placeMasterId": "P02500000FsoGFyGMOAEiaxNT1mwNbTDOR7AFdAX",
    "placeName": "lima",
    "state": "OH"
  },
  {
    "city": "westfield",
    "state_code": "IN",
    "placeMasterId": "P02500000FsoFClS9k0SqaQWprh4ODbSzR4eI4wG",
    "placeName": "westfield",
    "state": "IN"
  },
  {
    "city": "shelby",
    "state_code": "IN",
    "placeMasterId": "P02500000FsoFCC4FKQ9hq1Y8eRgiZdvnGuUrwez",
    "placeName": "shelby",
    "state": "IN"
  },
  {
    "city": "merrillville",
    "state_code": "IN",
    "placeMasterId": "P02500000FsoFBC8u6e7D1opv1lGnCDKoqOB6vnu",
    "placeName": "merrillville",
    "state": "IN"
  },
  {
    "city": "argos",
    "state_code": "IN",
    "placeMasterId": "P02500000FsoF9CIDf62DPPPTmOQwRM9E6UheE0y",
    "placeName": "argos",
    "state": "IN"
  },
  {
    "city": "etna green",
    "state_code": "IN",
    "placeMasterId": "P02500000FsoFA3N5HTUvX0sWbGVRuIOf86jBCf3",
    "placeName": "etna green",
    "state": "IN"
  },
  {
    "city": "leesburg",
    "state_code": "IN",
    "placeMasterId": "P02500000FsoFAuRwtqxdecLZQ8ZxNEaaMnCaESb",
    "placeName": "leesburg",
    "state": "IN"
  },
  {
    "city": "topeka",
    "state_code": "IN",
    "placeMasterId": "P02500000FsoFCcbg8bt3tpHf3siyJ73Rr4E4PFy",
    "placeName": "topeka",
    "state": "IN"
  },
  {
    "city": "decatur",
    "state_code": "IN",
    "placeMasterId": "P02500000FsoF9lg84gLM9oOAzdoc5Jd7ot0OJz2",
    "placeName": "decatur",
    "state": "IN"
  },
  {
    "city": "grabill",
    "state_code": "IN",
    "placeMasterId": "P02500000FsoFAL42UGeUuDMsCtCHjH6N9I8v0IT",
    "placeName": "grabill",
    "state": "IN"
  },
  {
    "city": "wolcottville",
    "state_code": "IN",
    "placeMasterId": "P02500000FsoFCuIdLP2dH1m0fVPo85og057UlY4",
    "placeName": "wolcottville",
    "state": "IN"
  },
  {
    "city": "kokomo",
    "state_code": "IN",
    "placeMasterId": "P02500000FsoFAlbTISNqy16OcKEXSkDzu64BpwT",
    "placeName": "kokomo",
    "state": "IN"
  },
  {
    "city": "amboy",
    "state_code": "IN",
    "placeMasterId": "P02500000FsoF93Rk3hSQioAIya5WWrlR2QUJHUm",
    "placeName": "amboy",
    "state": "IN"
  },
  {
    "city": "batesville",
    "state_code": "IN",
    "placeMasterId": "P02500000FsoF9CIDf62DPPPTmOQwRMA9204RzEa",
    "placeName": "batesville",
    "state": "IN"
  },
  {
    "city": "guilford",
    "state_code": "IN",
    "placeMasterId": "P02500000FsoHRjrDE6dhpWuYObXRej8kzAE2oEO",
    "placeName": "guilford",
    "state": "IN"
  },
  {
    "city": "leavenworth",
    "state_code": "IN",
    "placeMasterId": "P02500000FsoFAuRwtqxdecLZQ8ZxNEbJt0D4xYt",
    "placeName": "leavenworth",
    "state": "IN"
  },
  {
    "city": "new albany",
    "state_code": "IN",
    "placeMasterId": "P02500000FsoFBKzNi2gziQ55pZcD6hjmPzgQLwt",
    "placeName": "new albany",
    "state": "IN"
  },
  {
    "city": "elizabethtown",
    "state_code": "IN",
    "placeMasterId": "P02500000FsoFA3N5HTUvX0sWbGVRuINCljTaiZP",
    "placeName": "elizabethtown",
    "state": "IN"
  },
  {
    "city": "montpelier",
    "state_code": "IN",
    "placeMasterId": "P02500000FsoFBKzNi2gziQ55pZcD6hj0EPMReve",
    "placeName": "montpelier",
    "state": "IN"
  },
  {
    "city": "orleans",
    "state_code": "IN",
    "placeMasterId": "P02500000FsoFBlWoWEQLmDocF0eSqAq4XJiHLIS",
    "placeName": "orleans",
    "state": "IN"
  },
  {
    "city": "stinesville",
    "state_code": "IN",
    "placeMasterId": "P02500000FsoFCKuivojUWcnJSG28U8K6ulQapMj",
    "placeName": "stinesville",
    "state": "IN"
  },
  {
    "city": "mackey",
    "state_code": "IN",
    "placeMasterId": "P02500000FsoFAuRwtqxdecLZQ8ZxNEeKTiToBxn",
    "placeName": "mackey",
    "state": "IN"
  },
  {
    "city": "somerville",
    "state_code": "IN",
    "placeMasterId": "P02500000FsoFCKuivojUWcnJSG28U8IOFbsVt7P",
    "placeName": "somerville",
    "state": "IN"
  },
  {
    "city": "hymera",
    "state_code": "IN",
    "placeMasterId": "P02500000FsoFATuW5fEHaoc30hXhdlY7c2s3lCp",
    "placeName": "hymera",
    "state": "IN"
  },
  {
    "city": "riley",
    "state_code": "IN",
    "placeMasterId": "P02500000FsoFBuNI7d08Sp3n2ozskfGMOx4OLEU",
    "placeName": "riley",
    "state": "IN"
  },
  {
    "city": "new market",
    "state_code": "IN",
    "placeMasterId": "P02500000FsoFBTprJRGmP1KGdNxd1C4psKhutfI",
    "placeName": "new market",
    "state": "IN"
  },
  {
    "city": "fraser",
    "state_code": "MI",
    "placeMasterId": "P02500000FsoFYS6jQGCD1jjJz7Zui44jjP7Sv0V",
    "placeName": "fraser",
    "state": "MI"
  },
  {
    "city": "warren",
    "state_code": "MI",
    "placeMasterId": "P02500000FsoFasUqg00YhwtHdvS1COERdkHO5aB",
    "placeName": "warren",
    "state": "MI"
  },
  {
    "city": "warren",
    "state_code": "MI",
    "placeMasterId": "P02500000FsoFasUqg00YhwtHdvS1COERdkHO5aB",
    "placeName": "warren",
    "state": "MI"
  },
  {
    "city": "dearborn",
    "state_code": "MI",
    "placeMasterId": "P02500000FsoFY1ZIc4SqxvznZgXeyaqr2imSlK7",
    "placeName": "dearborn",
    "state": "MI"
  },
  {
    "city": "hamburg",
    "state_code": "MI",
    "placeMasterId": "P02500000FsoHk0CKQqWDmQErEXkwHQmBKMVLQUz",
    "placeName": "hamburg",
    "state": "MI"
  },
  {
    "city": "detroit",
    "state_code": "MI",
    "placeMasterId": "P02500000FsoFY1ZIc4SqxvznZgXeyauoH5nCTkI",
    "placeName": "detroit",
    "state": "MI"
  },
  {
    "city": "sterling heights",
    "state_code": "MI",
    "placeMasterId": "P02500000FsoFaantTCqzKkOw2IlBNPew0W6kvCi",
    "placeName": "sterling heights",
    "state": "MI"
  },
  {
    "city": "metamora",
    "state_code": "MI",
    "placeMasterId": "P02500000FsoFZS24e2EhpwRXbnzq5UkDWNwroyA",
    "placeName": "metamora",
    "state": "MI"
  },
  {
    "city": "whittemore",
    "state_code": "MI",
    "placeMasterId": "P02500000FsoFasUqg00YhwtHdvS1COOOWzXDPCR",
    "placeName": "whittemore",
    "state": "MI"
  },
  {
    "city": "kalamazoo",
    "state_code": "MI",
    "placeMasterId": "P02500000FsoFZ1UdpqVLm8i1CMxaM1Y4EtACkYj",
    "placeName": "kalamazoo",
    "state": "MI"
  },
  {
    "city": "battle creek",
    "state_code": "MI",
    "placeMasterId": "P02500000FsoFXJKub5ZvWvlvYcoZQ8zAKmml2L8",
    "placeName": "battle creek",
    "state": "MI"
  },
  {
    "city": "battle creek",
    "state_code": "MI",
    "placeMasterId": "P02500000FsoFXJKub5ZvWvlvYcoZQ8zAKmml2L8",
    "placeName": "battle creek",
    "state": "MI"
  },
  {
    "city": "dowling",
    "state_code": "MI",
    "placeMasterId": "P02500000FsoFY1ZIc4SqxvznZgXeyawW84Pfagw",
    "placeName": "dowling",
    "state": "MI"
  },
  {
    "city": "clinton",
    "state_code": "MI",
    "placeMasterId": "P02500000FsoFXsip0ft4HKkclsCF46TpzbzyavT",
    "placeName": "clinton",
    "state": "MI"
  },
  {
    "city": "ada",
    "state_code": "MI",
    "placeMasterId": "P02500000FsoHgijLYjF9ybbqkroKKAI4dUby5L3",
    "placeName": "ada",
    "state": "MI"
  },
  {
    "city": "benzonia",
    "state_code": "MI",
    "placeMasterId": "P02500000FsoFXJKub5ZvWvlvYcoZQ98TT8EkRRd",
    "placeName": "benzonia",
    "state": "MI"
  },
  {
    "city": "kaleva",
    "state_code": "MI",
    "placeMasterId": "P02500000FsoFYseAERvZ5XSqOYcARX8dDHKl4YQ",
    "placeName": "kaleva",
    "state": "MI"
  },
  {
    "city": "onekama",
    "state_code": "MI",
    "placeMasterId": "P02500000FsoFZsZVSDy3tkB41F25oxkuPhbxJk4",
    "placeName": "onekama",
    "state": "MI"
  },
  {
    "city": "carp lake",
    "state_code": "MI",
    "placeMasterId": "P02500000FsoFXjsLPHJHajVRy3qp9c32G3Q5fIS",
    "placeName": "carp lake",
    "state": "MI"
  },
  {
    "city": "manistique",
    "state_code": "MI",
    "placeMasterId": "P02500000FsoFZS24e2EhpwRXbnzq5UUx7sNCtWJ",
    "placeName": "manistique",
    "state": "MI"
  },
  {
    "city": "marquette",
    "state_code": "MI",
    "placeMasterId": "P02500000FsoFZS24e2EhpwRXbnzq5UhccEBDES9",
    "placeName": "marquette",
    "state": "MI"
  },
  {
    "city": "bessemer",
    "state_code": "MI",
    "placeMasterId": "P02500000FsoFXSBOCU9iDX16MR9zKdOt7nUdiTm",
    "placeName": "bessemer",
    "state": "MI"
  },
  {
    "city": "ames",
    "state_code": "IA",
    "placeMasterId": "P02500000FsoFDBzaYCCCeEGMH86dx4YC6hJTgCq",
    "placeName": "ames",
    "state": "IA"
  },
  {
    "city": "cambridge",
    "state_code": "IA",
    "placeMasterId": "P02500000FsoFDlNUxmVLOdF3UNUJb2244stUsK1",
    "placeName": "cambridge",
    "state": "IA"
  },
  {
    "city": "colfax",
    "state_code": "IA",
    "placeMasterId": "P02500000FsoFE34SAZeulpjP60B9Q0pf7lZoGUg",
    "placeName": "colfax",
    "state": "IA"
  },
  {
    "city": "ferguson",
    "state_code": "IA",
    "placeMasterId": "P02500000FsoFElIqBYXqCpxH73uEySgaMYWoOUC",
    "placeName": "ferguson",
    "state": "IA"
  },
  {
    "city": "new providence",
    "state_code": "IA",
    "placeMasterId": "P02500000FsoFGu00EVCcVqctAF5VdoDwSRMYe1N",
    "placeName": "new providence",
    "state": "IA"
  },
  {
    "city": "truro",
    "state_code": "IA",
    "placeMasterId": "P02500000FsoFITJFrrYG4SJo0At6fCIvq0By0yJ",
    "placeName": "truro",
    "state": "IA"
  },
  {
    "city": "des moines",
    "state_code": "IA",
    "placeMasterId": "P02500000FsoFETbsylOGpdSvVRDP9Ttytdspgxt",
    "placeName": "des moines",
    "state": "IA"
  },
  {
    "city": "urbandale",
    "state_code": "IA",
    "placeMasterId": "P02500000FsoFIc9jTG82l3YynzEWZgdXVWmw3nx",
    "placeName": "urbandale",
    "state": "IA"
  },
  {
    "city": "swaledale",
    "state_code": "IA",
    "placeMasterId": "P02500000FsoFIKSmGSyTNr4dCMXgkhx5j5Olwn9",
    "placeName": "swaledale",
    "state": "IA"
  },
  {
    "city": "bancroft",
    "state_code": "IA",
    "placeMasterId": "P02500000FsoFDBzaYCCCeEGMH86dx4Ywa9lzNeC",
    "placeName": "bancroft",
    "state": "IA"
  },
  {
    "city": "callender",
    "state_code": "IA",
    "placeMasterId": "P02500000FsoFDlNUxmVLOdF3UNUJb21VaRZm8V4",
    "placeName": "callender",
    "state": "IA"
  },
  {
    "city": "emmetsburg",
    "state_code": "IA",
    "placeMasterId": "P02500000FsoFElIqBYXqCpxH73uEySbtpgchiTI",
    "placeName": "emmetsburg",
    "state": "IA"
  },
  {
    "city": "lone rock",
    "state_code": "IA",
    "placeMasterId": "P02500000FsoFGBlcDWJh4qP19BMQ5MK92b0MiQ5",
    "placeName": "lone rock",
    "state": "IA"
  },
  {
    "city": "ottosen",
    "state_code": "IA",
    "placeMasterId": "P02500000FsoFHBgxRIMBt37ElrmLSmvTearfVfR",
    "placeName": "ottosen",
    "state": "IA"
  },
  {
    "city": "renwick",
    "state_code": "IA",
    "placeMasterId": "P02500000FsoFHcEOFU5XwqqlBIobCG5LZyyTkMT",
    "placeName": "renwick",
    "state": "IA"
  },
  {
    "city": "bristow",
    "state_code": "IA",
    "placeMasterId": "P02500000FsoFDcX1MNvYi1zsgZ8tgXeqJ6A0MtP",
    "placeName": "bristow",
    "state": "IA"
  },
  {
    "city": "stout",
    "state_code": "IA",
    "placeMasterId": "P02500000FsoFIKSmGSyTNr4dCMXgkhuHHfw2fSV",
    "placeName": "stout",
    "state": "IA"
  },
  {
    "city": "cromwell",
    "state_code": "IA",
    "placeMasterId": "P02500000FsoFEBuvlyEhSQyZtoWZKVCOyFlzQmq",
    "placeName": "cromwell",
    "state": "IA"
  },
  {
    "city": "cumberland",
    "state_code": "IA",
    "placeMasterId": "P02500000FsoFEKlPNMoU92DkhcrzEzVna8zNU5b",
    "placeName": "cumberland",
    "state": "IA"
  },
  {
    "city": "holstein",
    "state_code": "IA",
    "placeMasterId": "P02500000FsoFFTXECXQldqB987dKWuTozQ5veym",
    "placeName": "holstein",
    "state": "IA"
  },
  {
    "city": "moville",
    "state_code": "IA",
    "placeMasterId": "P02500000FsoFGu00EVCcVqctAF5VdoBLORrAndy",
    "placeName": "moville",
    "state": "IA"
  },
  {
    "city": "onawa",
    "state_code": "IA",
    "placeMasterId": "P02500000FsoFH2qTptmPCRs3y3QvYIbiSCJXMBj",
    "placeName": "onawa",
    "state": "IA"
  },
  {
    "city": "matlock",
    "state_code": "IA",
    "placeMasterId": "P02500000FsoFGTSZQJTGS2tMko3FuL5PvHAZCAq",
    "placeName": "matlock",
    "state": "IA"
  },
  {
    "city": "ralston",
    "state_code": "IA",
    "placeMasterId": "P02500000FsoFHTNue5VlGFbaNUTBHlhZHE5kqvj",
    "placeName": "ralston",
    "state": "IA"
  },
  {
    "city": "schleswig",
    "state_code": "IA",
    "placeMasterId": "P02500000FsoFI2lp3fou0eaHajqqvjBmPHKCoYC",
    "placeName": "schleswig",
    "state": "IA"
  },
  {
    "city": "dunlap",
    "state_code": "IA",
    "placeMasterId": "P02500000FsoFETbsylOGpdSvVRDP9TtbssL6zu1",
    "placeName": "dunlap",
    "state": "IA"
  },
  {
    "city": "magnolia",
    "state_code": "IA",
    "placeMasterId": "P02500000FsoFGBlcDWJh4qP19BMQ5MOs5m9TOqW",
    "placeName": "magnolia",
    "state": "IA"
  },
  {
    "city": "bellevue",
    "state_code": "IA",
    "placeMasterId": "P02500000FsoFDKq49alzKpVX4wS3rYxCTdRhAoA",
    "placeName": "bellevue",
    "state": "IA"
  },
  {
    "city": "belle plaine",
    "state_code": "IA",
    "placeMasterId": "P02500000FsoFDKq49alzKpVX4wS3rYxZh459CR9",
    "placeName": "belle plaine",
    "state": "IA"
  },
  {
    "city": "prairieburg",
    "state_code": "IA",
    "placeMasterId": "P02500000FsoFHTNue5VlGFbaNUTBHlfl0ktObDb",
    "placeName": "prairieburg",
    "state": "IA"
  },
  {
    "city": "deep river",
    "state_code": "IA",
    "placeMasterId": "P02500000FsoFEKlPNMoU92DkhcrzEzZJlhERMla",
    "placeName": "deep river",
    "state": "IA"
  },
  {
    "city": "fairfax",
    "state_code": "IA",
    "placeMasterId": "P02500000FsoFElIqBYXqCpxH73uEySdAbcUlCJI",
    "placeName": "fairfax",
    "state": "IA"
  },
  {
    "city": "batavia",
    "state_code": "IA",
    "placeMasterId": "P02500000FsoFDKq49alzKpVX4wS3rYwUInvwFxQ",
    "placeName": "batavia",
    "state": "IA"
  },
  {
    "city": "cantril",
    "state_code": "IA",
    "placeMasterId": "P02500000FsoFDlNUxmVLOdF3UNUJb23TRfwO9yo",
    "placeName": "cantril",
    "state": "IA"
  },
  {
    "city": "udell",
    "state_code": "IA",
    "placeMasterId": "P02500000FsoFITJFrrYG4SJo0At6fCKhMMfZ5fv",
    "placeName": "udell",
    "state": "IA"
  },
  {
    "city": "bennett",
    "state_code": "IA",
    "placeMasterId": "P02500000FsoFDKq49alzKpVX4wS3rYwNroOu0RA",
    "placeName": "bennett",
    "state": "IA"
  },
  {
    "city": "long grove",
    "state_code": "IA",
    "placeMasterId": "P02500000FsoFGBlcDWJh4qP19BMQ5MKRLpViE0V",
    "placeName": "long grove",
    "state": "IA"
  },
  {
    "city": "low moor",
    "state_code": "IA",
    "placeMasterId": "P02500000FsoFGBlcDWJh4qP19BMQ5MN6zy02Z9f",
    "placeName": "low moor",
    "state": "IA"
  },
  {
    "city": "welton",
    "state_code": "IA",
    "placeMasterId": "P02500000FsoFIl0D4ehpReo9bnZwUB7pn5d9037",
    "placeName": "welton",
    "state": "IA"
  },
  {
    "city": "adell",
    "state_code": "WI",
    "placeMasterId": "P02500000FsoH4CCQhhP8SPWnpcXUJtxzrHKv81N",
    "placeName": "adell",
    "state": "WI"
  },
  {
    "city": "belgium",
    "state_code": "WI",
    "placeMasterId": "P02500000FsoHFKDfkcQO3GcOUxU5O70Aar6b1va",
    "placeName": "belgium",
    "state": "WI"
  },
  {
    "city": "east troy",
    "state_code": "WI",
    "placeMasterId": "P02500000FsoHFtbaACjWnfb5iCrl24TPO9KUCwO",
    "placeName": "east troy",
    "state": "WI"
  },
  {
    "city": "lake geneva",
    "state_code": "WI",
    "placeMasterId": "P02500000FsoH6Ktake3ulQCPsnikzFeJJMULIjZ",
    "placeName": "lake geneva",
    "state": "WI"
  },
  {
    "city": "sturtevant",
    "state_code": "WI",
    "placeMasterId": "P02500000FsoH833JzOzL0d8VWXrlv7u9Em3eQ2M",
    "placeName": "sturtevant",
    "state": "WI"
  },
  {
    "city": "waukesha",
    "state_code": "WI",
    "placeMasterId": "P02500000FsoH8KkHCC8uNpcr8AYbk6ewAxOIwXa",
    "placeName": "waukesha",
    "state": "WI"
  },
  {
    "city": "racine",
    "state_code": "WI",
    "placeMasterId": "P02500000FsoH7cVtBDFywpOz76pWBemPplBbDcJ",
    "placeName": "racine",
    "state": "WI"
  },
  {
    "city": "fort atkinson",
    "state_code": "WI",
    "placeMasterId": "P02500000FsoH5lVgL3km11DifYL5LHybD3J4R0f",
    "placeName": "fort atkinson",
    "state": "WI"
  },
  {
    "city": "madison",
    "state_code": "WI",
    "placeMasterId": "P02500000FsoH6caXxRDU8cglUQPaoEDC1yqNdF5",
    "placeName": "madison",
    "state": "WI"
  },
  {
    "city": "beetown",
    "state_code": "WI",
    "placeMasterId": "P02500000FsoIfvqBJmr2kJbbQE0cCJUXG8ueB4w",
    "placeName": "beetown",
    "state": "WI"
  },
  {
    "city": "grand marsh",
    "state_code": "WI",
    "placeMasterId": "P02500000FsoH5lVgL3km11DifYL5LI7ojpXu5ph",
    "placeName": "grand marsh",
    "state": "WI"
  },
  {
    "city": "waupun",
    "state_code": "WI",
    "placeMasterId": "P02500000FsoH8KkHCC8uNpcr8AYbk6jmscXAKfE",
    "placeName": "waupun",
    "state": "WI"
  },
  {
    "city": "sobieski",
    "state_code": "WI",
    "placeMasterId": "P02500000FsoH7uCqO0PYK1tKijWM0dX7YXFyazq",
    "placeName": "sobieski",
    "state": "WI"
  },
  {
    "city": "suring",
    "state_code": "WI",
    "placeMasterId": "P02500000FsoH833JzOzL0d8VWXrlv840jrw70Ns",
    "placeName": "suring",
    "state": "WI"
  },
  {
    "city": "birnamwood",
    "state_code": "WI",
    "placeMasterId": "P02500000FsoHFkl6Yo9k74LuuOWL7aFbMKKyXsB",
    "placeName": "birnamwood",
    "state": "WI"
  },
  {
    "city": "lublin",
    "state_code": "WI",
    "placeMasterId": "P02500000FsoH6Tk4M2dhS1Ragc4Atjyhix7r4PX",
    "placeName": "lublin",
    "state": "WI"
  },
  {
    "city": "mattoon",
    "state_code": "WI",
    "placeMasterId": "P02500000FsoH6caXxRDU8cglUQPaoENOWJfhzkD",
    "placeName": "mattoon",
    "state": "WI"
  },
  {
    "city": "rothschild",
    "state_code": "WI",
    "placeMasterId": "P02500000FsoH7cVtBDFywpOz76pWBexSFSMzRKt",
    "placeName": "rothschild",
    "state": "WI"
  },
  {
    "city": "phelps",
    "state_code": "WI",
    "placeMasterId": "P02500000FsoIjM9dnIhtEjTmhiIe44OJJ7Ym51S",
    "placeName": "phelps",
    "state": "WI"
  },
  {
    "city": "necedah",
    "state_code": "WI",
    "placeMasterId": "P02500000FsoHF2WiXpGog482tKnFZ88sb9tduCA",
    "placeName": "necedah",
    "state": "WI"
  },
  {
    "city": "steuben",
    "state_code": "WI",
    "placeMasterId": "P02500000FsoH7uCqO0PYK1tKijWM0diZVeGO1AZ",
    "placeName": "steuben",
    "state": "WI"
  },
  {
    "city": "colfax",
    "state_code": "WI",
    "placeMasterId": "P02500000FsoHEbzHjdXScGOWTtkzpf5spMbBYgr",
    "placeName": "colfax",
    "state": "WI"
  },
  {
    "city": "la pointe",
    "state_code": "WI",
    "placeMasterId": "P02500000FsoIhvgrlKw2Mj22faqSxAhmBdgqgqQ",
    "placeName": "la pointe",
    "state": "WI"
  },
  {
    "city": "odanah",
    "state_code": "WI",
    "placeMasterId": "P02500000FsoH7BySN1Wct1fShfnGSBlZF7wax6j",
    "placeName": "odanah",
    "state": "WI"
  },
  {
    "city": "turtle lake",
    "state_code": "WI",
    "placeMasterId": "P02500000FsoHEKIKWqNtF3uAsH4A0gJTbn6eG04",
    "placeName": "turtle lake",
    "state": "WI"
  },
  {
    "city": "appleton",
    "state_code": "WI",
    "placeMasterId": "P02500000FsoH4L2uJ5yv90lydQsuEOI0ztVfxyJ",
    "placeName": "appleton",
    "state": "WI"
  },
  {
    "city": "coloma",
    "state_code": "WI",
    "placeMasterId": "P02500000FsoHGBIXMzt6As5RJpYar36pS2H78t1",
    "placeName": "coloma",
    "state": "WI"
  },
  {
    "city": "isanti",
    "state_code": "MN",
    "placeMasterId": "P02500000FsoFdRjRX8Oh4lIQ6XfXbD4GJfQNfgN",
    "placeName": "isanti",
    "state": "MN"
  },
  {
    "city": "nerstrand",
    "state_code": "MN",
    "placeMasterId": "P02500000FsoFeaVGMJ0yZZFoX2Qst7vTf3Doh0K",
    "placeName": "nerstrand",
    "state": "MN"
  },
  {
    "city": "rush city",
    "state_code": "MN",
    "placeMasterId": "P02500000FsoFfIjeNHtu0ZTgY69yRZiPrNRT9hX",
    "placeName": "rush city",
    "state": "MN"
  },
  {
    "city": "stillwater",
    "state_code": "MN",
    "placeMasterId": "P02500000FsoFfjH5BTdG4NDCxXCEB2viTMCa8PG",
    "placeName": "stillwater",
    "state": "MN"
  },
  {
    "city": "mayer",
    "state_code": "MN",
    "placeMasterId": "P02500000FsoFe9xpY7HcVlWI7bOd9epE2D90xVw",
    "placeName": "mayer",
    "state": "MN"
  },
  {
    "city": "south haven",
    "state_code": "MN",
    "placeMasterId": "P02500000FsoFfaQba53TNly29iqoGYi5Eo2BlHr",
    "placeName": "south haven",
    "state": "MN"
  },
  {
    "city": "minneapolis",
    "state_code": "MN",
    "placeMasterId": "P02500000FsoFeIoJ9VrPCMlSvPk349D9alJlgNT",
    "placeName": "minneapolis",
    "state": "MN"
  },
  {
    "city": "minneapolis",
    "state_code": "MN",
    "placeMasterId": "P02500000FsoFeIoJ9VrPCMlSvPk349D9alJlgNT",
    "placeName": "minneapolis",
    "state": "MN"
  },
  {
    "city": "minneapolis",
    "state_code": "MN",
    "placeMasterId": "P02500000FsoFeIoJ9VrPCMlSvPk349D9alJlgNT",
    "placeName": "minneapolis",
    "state": "MN"
  },
  {
    "city": "finlayson",
    "state_code": "MN",
    "placeMasterId": "P02500000FsoFcjV3W9Vldl4Y5TwS2l72ZORoUw8",
    "placeName": "finlayson",
    "state": "MN"
  },
  {
    "city": "wrenshall",
    "state_code": "MN",
    "placeMasterId": "P02500000FsoFgRVTCSWBVNR4yavJjUi7MzbtvE3",
    "placeName": "wrenshall",
    "state": "MN"
  },
  {
    "city": "duluth",
    "state_code": "MN",
    "placeMasterId": "P02500000FsoFcRo6JMMCGYaCTrFcDmMBFYsYM4N",
    "placeName": "duluth",
    "state": "MN"
  },
  {
    "city": "minnesota city",
    "state_code": "MN",
    "placeMasterId": "P02500000FsoFeIoJ9VrPCMlSvPk3498UzHci5Uv",
    "placeName": "minnesota city",
    "state": "MN"
  },
  {
    "city": "oronoco",
    "state_code": "MN",
    "placeMasterId": "P02500000FsoFejLjxhalGAUzKqmIncFHZ3PS7Sl",
    "placeName": "oronoco",
    "state": "MN"
  },
  {
    "city": "stewartville",
    "state_code": "MN",
    "placeMasterId": "P02500000FsoFfjH5BTdG4NDCxXCEB2p8WyOO1tx",
    "placeName": "stewartville",
    "state": "MN"
  },
  {
    "city": "waltham",
    "state_code": "MN",
    "placeMasterId": "P02500000FsoFg9oVzfMc8AwjMyETuVxzIMAjtZa",
    "placeName": "waltham",
    "state": "MN"
  },
  {
    "city": "le center",
    "state_code": "MN",
    "placeMasterId": "P02500000FsoFdsGsLK838Z1wVyhnKg0T3vk80sr",
    "placeName": "le center",
    "state": "MN"
  },
  {
    "city": "ellsworth",
    "state_code": "MN",
    "placeMasterId": "P02500000FsoFcaeZukvyx9pNHfb28GhgOu9VgWJ",
    "placeName": "ellsworth",
    "state": "MN"
  },
  {
    "city": "holloway",
    "state_code": "MN",
    "placeMasterId": "P02500000FsoFdIsxvjouOA3FIjK7gimQgpIH0Gg",
    "placeName": "holloway",
    "state": "MN"
  },
  {
    "city": "brooten",
    "state_code": "MN",
    "placeMasterId": "P02500000FsoFbjZiINTGpYMKSnWWfKTEtxbJ5gs",
    "placeName": "brooten",
    "state": "MN"
  },
  {
    "city": "royalton",
    "state_code": "MN",
    "placeMasterId": "P02500000FsoFf9tAltK7JyEVkHoYX5UCjjeW2nT",
    "placeName": "royalton",
    "state": "MN"
  },
  {
    "city": "felton",
    "state_code": "MN",
    "placeMasterId": "P02500000FsoFcaeZukvyx9pNHfb28Gsxb2rjp9J",
    "placeName": "felton",
    "state": "MN"
  },
  {
    "city": "underwood",
    "state_code": "MN",
    "placeMasterId": "P02500000FsoFfs7YmsD2kySNlLXe5XIRsNPAZPY",
    "placeName": "underwood",
    "state": "MN"
  },
  {
    "city": "bemidji",
    "state_code": "MN",
    "placeMasterId": "P02500000FsoFbajEgytU8x79ezB6kq40VOsCqBX",
    "placeName": "bemidji",
    "state": "MN"
  },
  {
    "city": "crookston",
    "state_code": "MN",
    "placeMasterId": "P02500000FsoFcA796ZCctM5qsEYmOnfErUcUlRk",
    "placeName": "crookston",
    "state": "MN"
  },
  {
    "city": "canistota",
    "state_code": "SD",
    "placeMasterId": "P02500000FsoGdnc67McrLHFZCOdAlHFqfQfuQsy",
    "placeName": "canistota",
    "state": "SD"
  },
  {
    "city": "lesterville",
    "state_code": "SD",
    "placeMasterId": "P02500000FsoGeegxjk5ZSsic1GhgEDNwI0HM2ue",
    "placeName": "lesterville",
    "state": "SD"
  },
  {
    "city": "oldham",
    "state_code": "SD",
    "placeMasterId": "P02500000FsoGewNuwXF8q5CxctOW3CNosVMnG9d",
    "placeName": "oldham",
    "state": "SD"
  },
  {
    "city": "vermillion",
    "state_code": "SD",
    "placeMasterId": "P02500000FsoGfMvLkiyUtswU2KQlmfOoMj2lx2O",
    "placeName": "vermillion",
    "state": "SD"
  },
  {
    "city": "wilmot",
    "state_code": "SD",
    "placeMasterId": "P02500000FsoGfecIxW84H5Qpdx7bbe7b0vdJV1f",
    "placeName": "wilmot",
    "state": "SD"
  },
  {
    "city": "carthage",
    "state_code": "SD",
    "placeMasterId": "P02500000FsoGdnc67McrLHFZCOdAlHLc2cI9twH",
    "placeName": "carthage",
    "state": "SD"
  },
  {
    "city": "ree heights",
    "state_code": "SD",
    "placeMasterId": "P02500000FsoGf5EOXvovWgS8QhjvxgifedoVnUg",
    "placeName": "ree heights",
    "state": "SD"
  },
  {
    "city": "mound city",
    "state_code": "SD",
    "placeMasterId": "P02500000FsoGenXRL8fM9Txmp5368hqW31cw9qn",
    "placeName": "mound city",
    "state": "SD"
  },
  {
    "city": "belle fourche",
    "state_code": "SD",
    "placeMasterId": "P02500000FsoGdelcVy34eg0OOaHkqmrqju8OjJG",
    "placeName": "belle fourche",
    "state": "SD"
  },
  {
    "city": "enderlin",
    "state_code": "ND",
    "placeMasterId": "P02500000FsoGApnAftSRrKZC6YVKnpt2qrdloPD",
    "placeName": "enderlin",
    "state": "ND"
  },
  {
    "city": "fingal",
    "state_code": "ND",
    "placeMasterId": "P02500000FsoGApnAftSRrKZC6YVKnq12one2Gwt",
    "placeName": "fingal",
    "state": "ND"
  },
  {
    "city": "harwood",
    "state_code": "ND",
    "placeMasterId": "P02500000FsoGB7U7sgc1EX3XiBCAcocICmoFvv3",
    "placeName": "harwood",
    "state": "ND"
  },
  {
    "city": "fordville",
    "state_code": "ND",
    "placeMasterId": "P02500000FsoGApnAftSRrKZC6YVKnpsM2fKYdF7",
    "placeName": "fordville",
    "state": "ND"
  },
  {
    "city": "goodrich",
    "state_code": "ND",
    "placeMasterId": "P02500000FsoGB7U7sgc1EX3XiBCAcodI35Gc0iR",
    "placeName": "goodrich",
    "state": "ND"
  },
  {
    "city": "balfour",
    "state_code": "ND",
    "placeMasterId": "P02500000FsoGAGPGGJ9J6vaUtJ7f9sNiCXmzOrc",
    "placeName": "balfour",
    "state": "ND"
  },
  {
    "city": "los angeles",
    "state_code": "CA",
    "placeMasterId": "P02500000FsoEiEJyfAwnXs9Xvv8xEm0Sp2kcekK",
    "placeName": "los angeles",
    "state": "CA"
  },
  {
    "city": "los angeles",
    "state_code": "CA",
    "placeMasterId": "P02500000FsoEiEJyfAwnXs9Xvv8xEm0Sp2kcekK",
    "placeName": "los angeles",
    "state": "CA"
  },
  {
    "city": "los angeles",
    "state_code": "CA",
    "placeMasterId": "P02500000FsoEiEJyfAwnXs9Xvv8xEm0Sp2kcekK",
    "placeName": "los angeles",
    "state": "CA"
  },
  {
    "city": "culver city",
    "state_code": "CA",
    "placeMasterId": "P02500000FsoEfWEuCdysUSVEfUa0vSsxg2VnIp1",
    "placeName": "culver city",
    "state": "CA"
  },
  {
    "city": "inglewood",
    "state_code": "CA",
    "placeMasterId": "P02500000FsoEhEOdROuIjfRKJEj1rLNsoCk4oxk",
    "placeName": "inglewood",
    "state": "CA"
  },
  {
    "city": "santa monica",
    "state_code": "CA",
    "placeMasterId": "P02500000FsoEknYZWJKvugYgOXMTdadyET1MSKo",
    "placeName": "santa monica",
    "state": "CA"
  },
  {
    "city": "mission hills",
    "state_code": "CA",
    "placeMasterId": "P02500000FsoEinht4lFwIH8F9AWcsjQBGIMc66v",
    "placeName": "mission hills",
    "state": "CA"
  },
  {
    "city": "walnut",
    "state_code": "CA",
    "placeMasterId": "P02500000FsoElwKOLTxDPUW4p27ovVeglOhNQ7f",
    "placeName": "walnut",
    "state": "CA"
  },
  {
    "city": "jamul",
    "state_code": "CA",
    "placeMasterId": "P02500000FsoEhNF72nU5QGgV734RlpjkOVOrx6Z",
    "placeName": "jamul",
    "state": "CA"
  },
  {
    "city": "el cajon",
    "state_code": "CA",
    "placeMasterId": "P02500000FsoEfwmL0piEYGEl4vcGew40bqFuFs7",
    "placeName": "el cajon",
    "state": "CA"
  },
  {
    "city": "el cajon",
    "state_code": "CA",
    "placeMasterId": "P02500000FsoEfwmL0piEYGEl4vcGew40bqFuFs7",
    "placeName": "el cajon",
    "state": "CA"
  },
  {
    "city": "san diego",
    "state_code": "CA",
    "placeMasterId": "P02500000FsoEkVrcJWBMXU4KmufdobvSE82FU0j",
    "placeName": "san diego",
    "state": "CA"
  },
  {
    "city": "san diego",
    "state_code": "CA",
    "placeMasterId": "P02500000FsoEkVrcJWBMXU4KmufdobvSE82FU0j",
    "placeName": "san diego",
    "state": "CA"
  },
  {
    "city": "apple valley",
    "state_code": "CA",
    "placeMasterId": "P02500000FsoEdo5Axt3SFFZ91kQzzaRduk9E3VB",
    "placeName": "apple valley",
    "state": "CA"
  },
  {
    "city": "jurupa valley",
    "state_code": "CA",
    "placeMasterId": "P02500000FsoEhNF72nU5QGgV734RlpkwAA3EFpA",
    "placeName": "jurupa valley",
    "state": "CA"
  },
  {
    "city": "san jacinto",
    "state_code": "CA",
    "placeMasterId": "P02500000FsoEkei5uul9E5JVaj13j6H2RAbyzMK",
    "placeName": "san jacinto",
    "state": "CA"
  },
  {
    "city": "temecula",
    "state_code": "CA",
    "placeMasterId": "P02500000FsoElVmxXIDrLgmYPb5ZC2XFPwEYYTa",
    "placeName": "temecula",
    "state": "CA"
  },
  {
    "city": "anaheim",
    "state_code": "CA",
    "placeMasterId": "P02500000FsoEdo5Axt3SFFZ91kQzzaRbZXxINei",
    "placeName": "anaheim",
    "state": "CA"
  },
  {
    "city": "garden grove",
    "state_code": "CA",
    "placeMasterId": "P02500000FsoEgWAFQQ1NIfDSIAzwItXKd1qktLQ",
    "placeName": "garden grove",
    "state": "CA"
  },
  {
    "city": "yorba linda",
    "state_code": "CA",
    "placeMasterId": "P02500000FsoEmViIl4GM9tUm2HVUZT4ra9R0Q0b",
    "placeName": "yorba linda",
    "state": "CA"
  },
  {
    "city": "san joaquin",
    "state_code": "CA",
    "placeMasterId": "P02500000FsoEkei5uul9E5JVaj13j6FY9mIKVv2",
    "placeName": "san joaquin",
    "state": "CA"
  },
  {
    "city": "traver",
    "state_code": "CA",
    "placeMasterId": "P02500000FsoEledR8gne2I1jDPQz6WrH0TO7Mc7",
    "placeName": "traver",
    "state": "CA"
  },
  {
    "city": "seaside",
    "state_code": "CA",
    "placeMasterId": "P02500000FsoEkwP37huibHnrCLhtY53viYDQeuY",
    "placeName": "seaside",
    "state": "CA"
  },
  {
    "city": "sunnyvale",
    "state_code": "CA",
    "placeMasterId": "P02500000FsoElMwTvte4f5XNbmk9HY85cDelRDT",
    "placeName": "sunnyvale",
    "state": "CA"
  },
  {
    "city": "san francisco",
    "state_code": "CA",
    "placeMasterId": "P02500000FsoEkVrcJWBMXU4KmufdobtfKVREvsP",
    "placeName": "san francisco",
    "state": "CA"
  },
  {
    "city": "hayward",
    "state_code": "CA",
    "placeMasterId": "P02500000FsoEgwhgEbkjMSwyhc2C2Mfm4cwqsa7",
    "placeName": "hayward",
    "state": "CA"
  },
  {
    "city": "oakland",
    "state_code": "CA",
    "placeMasterId": "P02500000FsoEjN5nULZ52g6wMPuIWgwHJpxtC9b",
    "placeName": "oakland",
    "state": "CA"
  },
  {
    "city": "richmond",
    "state_code": "CA",
    "placeMasterId": "P02500000FsoEk5KBVKS0TgKoNTdO58qCxkwixOm",
    "placeName": "richmond",
    "state": "CA"
  },
  {
    "city": "campbell",
    "state_code": "CA",
    "placeMasterId": "P02500000FsoEefA2aGWAMr2BqcVVSWiXI6dWqwK",
    "placeName": "campbell",
    "state": "CA"
  },
  {
    "city": "castroville",
    "state_code": "CA",
    "placeMasterId": "P02500000FsoEewqzn3fjk3WXSFCLHVOPuUYK2IH",
    "placeName": "castroville",
    "state": "CA"
  },
  {
    "city": "san jose",
    "state_code": "CA",
    "placeMasterId": "P02500000FsoEkei5uul9E5JVaj13j6FZZ7utLyF",
    "placeName": "san jose",
    "state": "CA"
  },
  {
    "city": "san jose",
    "state_code": "CA",
    "placeMasterId": "P02500000FsoEkei5uul9E5JVaj13j6FZZ7utLyF",
    "placeName": "san jose",
    "state": "CA"
  },
  {
    "city": "stockton",
    "state_code": "CA",
    "placeMasterId": "P02500000FsoElE60KV4HyUICnyOjN3mM5drQo04",
    "placeName": "stockton",
    "state": "CA"
  },
  {
    "city": "newman",
    "state_code": "CA",
    "placeMasterId": "P02500000FsoEjEFJswzIM4rlYbYscCYVaiSnoPM",
    "placeName": "newman",
    "state": "CA"
  },
  {
    "city": "little river",
    "state_code": "CA",
    "placeMasterId": "P02500000FsoEi5TV3mN0rGuN86nXKHdcputU94j",
    "placeName": "little river",
    "state": "CA"
  },
  {
    "city": "crescent city",
    "state_code": "CA",
    "placeMasterId": "P02500000FsoEfWEuCdysUSVEfUa0vStyK6qsIlU",
    "placeName": "crescent city",
    "state": "CA"
  },
  {
    "city": "gasquet",
    "state_code": "CA",
    "placeMasterId": "P02500000FsoEgf0j1ob9zGSd5zLMDNv8eynrNnd",
    "placeName": "gasquet",
    "state": "CA"
  },
  {
    "city": "loleta",
    "state_code": "CA",
    "placeMasterId": "P02500000FsoEi5TV3mN0rGuN86nXKHclHBCyZQk",
    "placeName": "loleta",
    "state": "CA"
  },
  {
    "city": "scotia",
    "state_code": "CA",
    "placeMasterId": "P02500000FsoEknYZWJKvugYgOXMTdag4jd2iagd",
    "placeName": "scotia",
    "state": "CA"
  },
  {
    "city": "weott",
    "state_code": "CA",
    "placeMasterId": "P02500000FsoEm5ArwsX065lFcqTEq005QZK3nup",
    "placeName": "weott",
    "state": "CA"
  },
  {
    "city": "leggett",
    "state_code": "CA",
    "placeMasterId": "P02500000FsoEhwd1SNnEAffCKIS7PnGhVHBT3MU",
    "placeName": "leggett",
    "state": "CA"
  },
  {
    "city": "wheatland",
    "state_code": "CA",
    "placeMasterId": "P02500000FsoEm5ArwsX065lFcqTEq03hrJi7rT9",
    "placeName": "wheatland",
    "state": "CA"
  },
  {
    "city": "beale afb",
    "state_code": "CA",
    "placeMasterId": "P02500000FsoEdwveZHdEvqoJpYmPu4qBNsKjfAL",
    "placeName": "beale afb",
    "state": "CA"
  },
  {
    "city": "crescent mills",
    "state_code": "CA",
    "placeMasterId": "P02500000FsoEfNOQbFP5nrG3rgEb0yXiGZsTCqL",
    "placeName": "crescent mills",
    "state": "CA"
  },
  {
    "city": "gridley",
    "state_code": "CA",
    "placeMasterId": "P02500000FsoEgwhgEbkjMSwyhc2C2McqHCLvX2K",
    "placeName": "gridley",
    "state": "CA"
  },
  {
    "city": "fall river mills",
    "state_code": "CA",
    "placeMasterId": "P02500000FsoEgNJlp1Rac3yHUMeWOP6Sqx7Sbie",
    "placeName": "fall river mills",
    "state": "CA"
  },
  {
    "city": "hayfork",
    "state_code": "CA",
    "placeMasterId": "P02500000FsoEh5Y9q0KW34C9VQNbwqySicBtyW4",
    "placeName": "hayfork",
    "state": "CA"
  },
  {
    "city": "mineral",
    "state_code": "CA",
    "placeMasterId": "P02500000FsoEinht4lFwIH8F9AWcsjTene6YD17",
    "placeName": "mineral",
    "state": "CA"
  },
  {
    "city": "litchfield",
    "state_code": "CA",
    "placeMasterId": "P02500000FsoEi5TV3mN0rGuN86nXKHddScJmywp",
    "placeName": "litchfield",
    "state": "CA"
  },
  {
    "city": "eleele",
    "state_code": "HI",
    "placeMasterId": "P02500000FsoEz4CJpx3Scl26jjuGkZmT8I700wQ",
    "placeName": "eleele",
    "state": "HI"
  },
  {
    "city": "kaunakakai",
    "state_code": "HI",
    "placeMasterId": "P02500000FsoEzD2nRLdFJMHHXYFgf4CCGcmn7fg",
    "placeName": "kaunakakai",
    "state": "HI"
  },
  {
    "city": "kilauea",
    "state_code": "HI",
    "placeMasterId": "P02500000FsoEzLtH2kD1zxWSLMb6ZYVRs2jGUMi",
    "placeName": "kilauea",
    "state": "HI"
  },
  {
    "city": "laie",
    "state_code": "HI",
    "placeMasterId": "P02500000FsoEzLtH2kD1zxWSLMb6ZYZKlT5kYmz",
    "placeName": "laie",
    "state": "HI"
  },
  {
    "city": "pearl city",
    "state_code": "HI",
    "placeMasterId": "P02500000FsoEzUjke8mogYld9AwWU2y9raXuOBJ",
    "placeName": "pearl city",
    "state": "HI"
  },
  {
    "city": "honolulu",
    "state_code": "HI",
    "placeMasterId": "P02500000FsoEzdaEFXMbNA0nwzHwOXKc1cb4u6p",
    "placeName": "honolulu",
    "state": "HI"
  },
  {
    "city": "honolulu",
    "state_code": "HI",
    "placeMasterId": "P02500000FsoEzdaEFXMbNA0nwzHwOXKc1cb4u6p",
    "placeName": "honolulu",
    "state": "HI"
  },
  {
    "city": "oregon city",
    "state_code": "OR",
    "placeMasterId": "P02500000FsoGPfopP7U7Jo1Jf0QnYmW9G9kydv0",
    "placeName": "oregon city",
    "state": "OR"
  },
  {
    "city": "hillsboro",
    "state_code": "OR",
    "placeMasterId": "P02500000FsoGOxaRO8bBsnnRdwhi0KnA0AhN7Kt",
    "placeName": "hillsboro",
    "state": "OR"
  },
  {
    "city": "oceanside",
    "state_code": "OR",
    "placeMasterId": "P02500000FsoGPfopP7U7Jo1Jf0QnYmXjVzpRhVK",
    "placeName": "oceanside",
    "state": "OR"
  },
  {
    "city": "salem",
    "state_code": "OR",
    "placeMasterId": "P02500000FsoGPxVmbudgh0VfGd7dNl8njuxSNWh",
    "placeName": "salem",
    "state": "OR"
  },
  {
    "city": "canyonville",
    "state_code": "OR",
    "placeMasterId": "P02500000FsoGOX30Zwrpp03vEVfSGrUawYH3qM3",
    "placeName": "canyonville",
    "state": "OR"
  },
  {
    "city": "drain",
    "state_code": "OR",
    "placeMasterId": "P02500000FsoGOojxmk1PCCYGq8MI5qE1rZc6wZn",
    "placeName": "drain",
    "state": "OR"
  },
  {
    "city": "oakridge",
    "state_code": "OR",
    "placeMasterId": "P02500000FsoGPWyLniuKdCm8rC5NeIBmTwa34gX",
    "placeName": "oakridge",
    "state": "OR"
  },
  {
    "city": "medford",
    "state_code": "OR",
    "placeMasterId": "P02500000FsoGPO7sCKKXwbWy3Njxjnh7xWme5Op",
    "placeName": "medford",
    "state": "OR"
  },
  {
    "city": "adrian",
    "state_code": "OR",
    "placeMasterId": "P02500000FsoGOFM3N9iGRnZZcsycRsla4brD5kR",
    "placeName": "adrian",
    "state": "OR"
  },
  {
    "city": "nyssa",
    "state_code": "OR",
    "placeMasterId": "P02500000FsoGPfopP7U7Jo1Jf0QnYmPlTg31iGD",
    "placeName": "nyssa",
    "state": "OR"
  },
  {
    "city": "kenmore",
    "state_code": "WA",
    "placeMasterId": "P02500000FsoGzd79P0w0TBhE7dU7AE8bVPBS10V",
    "placeName": "kenmore",
    "state": "WA"
  },
  {
    "city": "bellingham",
    "state_code": "WA",
    "placeMasterId": "P02500000FsoGyLUqyRjwHmUetKNLxotcfpDA0PG",
    "placeName": "bellingham",
    "state": "WA"
  },
  {
    "city": "concrete",
    "state_code": "WA",
    "placeMasterId": "P02500000FsoGym2HmdTILaEBIlPbhHyiBv6LVCi",
    "placeName": "concrete",
    "state": "WA"
  },
  {
    "city": "freeland",
    "state_code": "WA",
    "placeMasterId": "P02500000FsoGzLQCCDmR5zCsW0nHLFHceazS1ix",
    "placeName": "freeland",
    "state": "WA"
  },
  {
    "city": "marysville",
    "state_code": "WA",
    "placeMasterId": "P02500000FsoH0CV3obF9DafvKsrmoBYqmE23CxR",
    "placeName": "marysville",
    "state": "WA"
  },
  {
    "city": "fox island",
    "state_code": "WA",
    "placeMasterId": "P02500000FsoGzCZiapCePNxhiCRrQl6t5gjDQ8I",
    "placeName": "fox island",
    "state": "WA"
  },
  {
    "city": "neah bay",
    "state_code": "WA",
    "placeMasterId": "P02500000FsoH0LLXPzovuBv68hDCifzaGhYWJKt",
    "placeName": "neah bay",
    "state": "WA"
  },
  {
    "city": "port orchard",
    "state_code": "WA",
    "placeMasterId": "P02500000FsoH0lsyEBYHxzecY8FSS97GsyYW7Ur",
    "placeName": "port orchard",
    "state": "WA"
  },
  {
    "city": "tacoma",
    "state_code": "WA",
    "placeMasterId": "P02500000FsoH1LGsdlrQiOdJlNd866Yu1WjXF5B",
    "placeName": "tacoma",
    "state": "WA"
  },
  {
    "city": "lacey",
    "state_code": "WA",
    "placeMasterId": "P02500000FsoGzd79P0w0TBhE7dU7AEESAYXWjHo",
    "placeName": "lacey",
    "state": "WA"
  },
  {
    "city": "copalis beach",
    "state_code": "WA",
    "placeMasterId": "P02500000FsoGym2HmdTILaEBIlPbhHxuZGRQCHp",
    "placeName": "copalis beach",
    "state": "WA"
  },
  {
    "city": "amboy",
    "state_code": "WA",
    "placeMasterId": "P02500000FsoGyCeNN3A9bBFU5W1w3KShDZYEdns",
    "placeName": "amboy",
    "state": "WA"
  },
  {
    "city": "yacolt",
    "state_code": "WA",
    "placeMasterId": "P02500000FsoH1loJRxammCMqAofNpZiYPkfEhZs",
    "placeName": "yacolt",
    "state": "WA"
  },
  {
    "city": "wenatchee",
    "state_code": "WA",
    "placeMasterId": "P02500000FsoH1loJRxammCMqAofNpZjM3FJuY4V",
    "placeName": "wenatchee",
    "state": "WA"
  },
  {
    "city": "moses lake",
    "state_code": "WA",
    "placeMasterId": "P02500000FsoH0LLXPzovuBv68hDCifwYM3E6JAg",
    "placeName": "moses lake",
    "state": "WA"
  },
  {
    "city": "yakima",
    "state_code": "WA",
    "placeMasterId": "P02500000FsoH1loJRxammCMqAofNpZiywt4eY6R",
    "placeName": "yakima",
    "state": "WA"
  },
  {
    "city": "moxee",
    "state_code": "WA",
    "placeMasterId": "P02500000FsoH0LLXPzovuBv68hDCifzbyIO34JJ",
    "placeName": "moxee",
    "state": "WA"
  },
  {
    "city": "nespelem",
    "state_code": "WA",
    "placeMasterId": "P02500000FsoH0LLXPzovuBv68hDCig09gNzCy87",
    "placeName": "nespelem",
    "state": "WA"
  },
  {
    "city": "springdale",
    "state_code": "WA",
    "placeMasterId": "P02500000FsoH1CQP2NHe1nO8xZHiBcKeadeOqgU",
    "placeName": "springdale",
    "state": "WA"
  },
  {
    "city": "spokane",
    "state_code": "WA",
    "placeMasterId": "P02500000FsoH1CQP2NHe1nO8xZHiBcLVG93v2e9",
    "placeName": "spokane",
    "state": "WA"
  },
  {
    "city": "pomeroy",
    "state_code": "WA",
    "placeMasterId": "P02500000FsoH0lsyEBYHxzecY8FSS8zD4yEuejd",
    "placeName": "pomeroy",
    "state": "WA"
  },
  {
    "city": "cordova",
    "state_code": "AK",
    "placeMasterId": "P02500000FsoEWO4LbH2cW0q5FWTGc76caedwJiE",
    "placeName": "cordova",
    "state": "AK"
  },
  {
    "city": "larsen bay",
    "state_code": "AK",
    "placeMasterId": "P02500000FsoEWxSG0rLlGPomSlqwG4ediWIHIKg",
    "placeName": "larsen bay",
    "state": "AK"
  },
  {
    "city": "new stuyahok",
    "state_code": "AK",
    "placeMasterId": "P02500000FsoEX6IjcFvXx13xGaCMAZ2VKl4lbyW",
    "placeName": "new stuyahok",
    "state": "AK"
  },
  {
    "city": "nightmute",
    "state_code": "AK",
    "placeMasterId": "P02500000FsoEXF9DDeVKdcJ84OXm53MPx1oXdCu",
    "placeName": "nightmute",
    "state": "AK"
  },
  {
    "city": "nikolai",
    "state_code": "AK",
    "placeMasterId": "P02500000FsoEX6IjcFvXx13xGaCMAZ3GpvSSCMb",
    "placeName": "nikolai",
    "state": "AK"
  },
  {
    "city": "koyuk",
    "state_code": "AK",
    "placeMasterId": "P02500000FsoEWxSG0rLlGPomSlqwG4daZ1ASc3R",
    "placeName": "koyuk",
    "state": "AK"
  },
  {
    "city": "chalkyitsik",
    "state_code": "AK",
    "placeMasterId": "P02500000FsoEWFDrzsSppPauRi7qhcl1oQwj7zs",
    "placeName": "chalkyitsik",
    "state": "AK"
  },
  {
    "city": "wrangell",
    "state_code": "AK",
    "placeMasterId": "P02500000FsoEXxNbEdOG4cX05SGrdVF7Pp5cb1n",
    "placeName": "wrangell",
    "state": "AK"
  },
  {
    "city": "gill",
    "state_code": "MA",
    "placeMasterId": "P02500000FsoHdixJtP7fXzTBsoYYBsYssZh6Qyx",
    "placeName": "gill",
    "state": "MA"
  },
  {
    "city": "ashland",
    "state_code": "MA",
    "placeMasterId": "P02500000FsoHdRGMgby6AmyqHBriMtcWnXZTF4p",
    "placeName": "ashland",
    "state": "MA"
  },
  {
    "city": "winchester",
    "state_code": "MA",
    "placeMasterId": "P02500000FsoHB2pLej6pRFHAOb7Y3PtCsNUHggV",
    "placeName": "winchester",
    "state": "MA"
  },
  {
    "city": "somerville",
    "state_code": "MA",
    "placeMasterId": "P02500000FsoFWsnTmtqZT82P9BmJgfq2Pk9jnoT",
    "placeName": "somerville",
    "state": "MA"
  },
  {
    "city": "somerville",
    "state_code": "MA",
    "placeMasterId": "P02500000FsoFWsnTmtqZT82P9BmJgfq2Pk9jnoT",
    "placeName": "somerville",
    "state": "MA"
  },
  {
    "city": "buzzards bay",
    "state_code": "MA",
    "placeMasterId": "P02500000FsoFWSG2yi7DPKIsjkk3xCfMhcpCjGG",
    "placeName": "buzzards bay",
    "state": "MA"
  },
  {
    "city": "vineyard haven",
    "state_code": "MA",
    "placeMasterId": "P02500000FsoFWsnTmtqZT82P9BmJgfoa09aXSQG",
    "placeName": "vineyard haven",
    "state": "MA"
  },
  {
    "city": "new bedford",
    "state_code": "MA",
    "placeMasterId": "P02500000FsoFWb6Wa6h05vY3XZ5Trh9cEAayOJT",
    "placeName": "new bedford",
    "state": "MA"
  },
  {
    "city": "candia",
    "state_code": "NH",
    "placeMasterId": "P02500000FsoIBOi0ExKzhlEJUS5BDU6rAdHHSjt",
    "placeName": "candia",
    "state": "NH"
  },
  {
    "city": "nashua",
    "state_code": "NH",
    "placeMasterId": "P02500000FsoFuzqAitOHaeOqvQ9wfShffTuAHJR",
    "placeName": "nashua",
    "state": "NH"
  },
  {
    "city": "andover",
    "state_code": "NH",
    "placeMasterId": "P02500000FsoIBFrWdYlD19z8gdjlIznWsaUkV2P",
    "placeName": "andover",
    "state": "NH"
  },
  {
    "city": "pittsfield",
    "state_code": "NH",
    "placeMasterId": "P02500000FsoHBl3jfhzksFV2PeqdbrgSZJKMVBP",
    "placeName": "pittsfield",
    "state": "NH"
  },
  {
    "city": "weare",
    "state_code": "NH",
    "placeMasterId": "P02500000FsoICFmrrKnhpMhMJK9ggQEGoWdxhZ2",
    "placeName": "weare",
    "state": "NH"
  },
  {
    "city": "wentworth",
    "state_code": "NH",
    "placeMasterId": "P02500000FsoICFmrrKnhpMhMJK9ggQGS3guWMn0",
    "placeName": "wentworth",
    "state": "NH"
  },
  {
    "city": "littleton",
    "state_code": "NH",
    "placeMasterId": "P02500000FsoHBcDG4JPyBeFrbqVDhNMbqPfTYPF",
    "placeName": "littleton",
    "state": "NH"
  },
  {
    "city": "milton",
    "state_code": "NH",
    "placeMasterId": "P02500000FsoIBpFR394LlYxptt7QwxGRzI3KJkC",
    "placeName": "milton",
    "state": "NH"
  },
  {
    "city": "new durham",
    "state_code": "NH",
    "placeMasterId": "P02500000FsoIBy5ueXe8SAD0hhSqrRWXOKWwAc5",
    "placeName": "new durham",
    "state": "NH"
  },
  {
    "city": "plaistow",
    "state_code": "NH",
    "placeMasterId": "P02500000FsoIBy5ueXe8SAD0hhSqrRaair7fiCa",
    "placeName": "plaistow",
    "state": "NH"
  },
  {
    "city": "rochester",
    "state_code": "NH",
    "placeMasterId": "P02500000FsoFv8geKHy4HFe1jEVMZww7TZVHyRe",
    "placeName": "rochester",
    "state": "NH"
  },
  {
    "city": "south berwick",
    "state_code": "ME",
    "placeMasterId": "P02500000FsoHgIBukXVnunsKLQm4ahBYNUO3hS3",
    "placeName": "south berwick",
    "state": "ME"
  },
  {
    "city": "casco",
    "state_code": "ME",
    "placeMasterId": "P02500000FsoHf0ZcJyJjjOfl77fJOHiudceTXSY",
    "placeName": "casco",
    "state": "ME"
  },
  {
    "city": "windham",
    "state_code": "ME",
    "placeMasterId": "P02500000FsoHgijLYjF9ybbqkroKKACq3V3ER4g",
    "placeName": "windham",
    "state": "ME"
  },
  {
    "city": "sabattus",
    "state_code": "ME",
    "placeMasterId": "P02500000FsoHgIBukXVnunsKLQm4ahB2fbkBESu",
    "placeName": "sabattus",
    "state": "ME"
  },
  {
    "city": "sumner",
    "state_code": "ME",
    "placeMasterId": "P02500000FsoHgR2OLw5abP7V9F7UVBX1IQFegjR",
    "placeName": "sumner",
    "state": "ME"
  },
  {
    "city": "frankfort",
    "state_code": "ME",
    "placeMasterId": "P02500000FsoHfR738A35nCPHWYhZ7kqRf0lxriB",
    "placeName": "frankfort",
    "state": "ME"
  },
  {
    "city": "penobscot",
    "state_code": "ME",
    "placeMasterId": "P02500000FsoHg0UxXkMEXbNyjo5EliRZNtcUXLH",
    "placeName": "penobscot",
    "state": "ME"
  },
  {
    "city": "sangerville",
    "state_code": "ME",
    "placeMasterId": "P02500000FsoHgIBukXVnunsKLQm4ah6EBa8o0bw",
    "placeName": "sangerville",
    "state": "ME"
  },
  {
    "city": "brooksville",
    "state_code": "ME",
    "placeMasterId": "P02500000FsoHerj8iZjx2nQaJJJtTnSHNBZykSo",
    "placeName": "brooksville",
    "state": "ME"
  },
  {
    "city": "fort fairfield",
    "state_code": "ME",
    "placeMasterId": "P02500000FsoHABkU2Le7Jdo7Zj32aTXl1NUOc6r",
    "placeName": "fort fairfield",
    "state": "ME"
  },
  {
    "city": "south thomaston",
    "state_code": "ME",
    "placeMasterId": "P02500000FsoHgR2OLw5abP7V9F7UVBPZNyCS9H7",
    "placeName": "south thomaston",
    "state": "ME"
  },
  {
    "city": "skowhegan",
    "state_code": "ME",
    "placeMasterId": "P02500000FsoHAl8ORvxG42momyQiER0Mg6IyFde",
    "placeName": "skowhegan",
    "state": "ME"
  },
  {
    "city": "thorndike",
    "state_code": "ME",
    "placeMasterId": "P02500000FsoHgZsrxKfNI0Mfx3SuPflryf3Mgbw",
    "placeName": "thorndike",
    "state": "ME"
  },
  {
    "city": "newbury",
    "state_code": "VT",
    "placeMasterId": "P02500000FsoHE2bNK3EJrrPpGeNKBhddfxRHL5A",
    "placeName": "newbury",
    "state": "VT"
  },
  {
    "city": "quechee",
    "state_code": "VT",
    "placeMasterId": "P02500000FsoGuLnU5LZx2xdmOaheS6PinMYGWNQ",
    "placeName": "quechee",
    "state": "VT"
  },
  {
    "city": "shaftsbury",
    "state_code": "VT",
    "placeMasterId": "P02500000FsoIfDbnIny7JJNjPAHWdrcgHSKBViE",
    "placeName": "shaftsbury",
    "state": "VT"
  },
  {
    "city": "huntington",
    "state_code": "VT",
    "placeMasterId": "P02500000FsoIen4MUcElFVeCzjFGuOVOUj2Q6cF",
    "placeName": "huntington",
    "state": "VT"
  },
  {
    "city": "williston",
    "state_code": "VT",
    "placeMasterId": "P02500000FsoIfVIkVb7ggVs50myMSqPqU90tdB8",
    "placeName": "williston",
    "state": "VT"
  },
  {
    "city": "newport",
    "state_code": "VT",
    "placeMasterId": "P02500000FsoGuLnU5LZx2xdmOaheS6I2zc3GrUo",
    "placeName": "newport",
    "state": "VT"
  },
  {
    "city": "west burke",
    "state_code": "VT",
    "placeMasterId": "P02500000FsoGuUdxgk9jjYsxCP34Man8kLcGrnS",
    "placeName": "west burke",
    "state": "VT"
  },
  {
    "city": "suffield",
    "state_code": "CT",
    "placeMasterId": "P02500000FsoHGtWvNym1bsJJKtHgPUvMHcJ3puS",
    "placeName": "suffield",
    "state": "CT"
  },
  {
    "city": "bozrah",
    "state_code": "CT",
    "placeMasterId": "P02500000FsoHGBIXMzt6As5RJpYar3LJR1G2D7t",
    "placeName": "bozrah",
    "state": "CT"
  },
  {
    "city": "killingworth",
    "state_code": "CT",
    "placeMasterId": "P02500000FsoHGSzUZn2fY4ZmvSFQg1xRV4sTfEl",
    "placeName": "killingworth",
    "state": "CT"
  },
  {
    "city": "easton",
    "state_code": "CT",
    "placeMasterId": "P02500000FsoHGK90yOSsrTKc7du0lXcE4FiCeqM",
    "placeName": "easton",
    "state": "CT"
  },
  {
    "city": "new canaan",
    "state_code": "CT",
    "placeMasterId": "P02500000FsoHGkgRmaCEvH48X4wGV0Zyy9PdhCn",
    "placeName": "new canaan",
    "state": "CT"
  },
  {
    "city": "caldwell",
    "state_code": "NJ",
    "placeMasterId": "P02500000FsoFvQNbX57deS8NKrCCOvorpeI7trw",
    "placeName": "caldwell",
    "state": "NJ"
  },
  {
    "city": "warren",
    "state_code": "NJ",
    "placeMasterId": "P02500000FsoIDXPAHtzm0ltvXdGRspcvfOFhc4e",
    "placeName": "warren",
    "state": "NJ"
  },
  {
    "city": "rutherford",
    "state_code": "NJ",
    "placeMasterId": "P02500000FsoFxQEHydCdGrYoaE239mynOnJerAz",
    "placeName": "rutherford",
    "state": "NJ"
  },
  {
    "city": "westfield",
    "state_code": "NJ",
    "placeMasterId": "P02500000FsoFxzcCODVm1GXVnTPinkSCwDL0HwY",
    "placeName": "westfield",
    "state": "NJ"
  },
  {
    "city": "secaucus",
    "state_code": "NJ",
    "placeMasterId": "P02500000FsoFxZ4la1mPxSnzO2NT4HPa9o4ZYvb",
    "placeName": "secaucus",
    "state": "NJ"
  },
  {
    "city": "irvington",
    "state_code": "NJ",
    "placeMasterId": "P02500000FsoICy1FsJgdGMvEKNsmEs6tvpeZc0P",
    "placeName": "irvington",
    "state": "NJ"
  },
  {
    "city": "jersey city",
    "state_code": "NJ",
    "placeMasterId": "P02500000FsoFwQIwkrA8SeqaxXc7mMMNxqPJn2t",
    "placeName": "jersey city",
    "state": "NJ"
  },
  {
    "city": "franklin lakes",
    "state_code": "NJ",
    "placeMasterId": "P02500000FsoFvzlVwfQmOr74Y6Zs2tFBFSnXIFa",
    "placeName": "franklin lakes",
    "state": "NJ"
  },
  {
    "city": "little ferry",
    "state_code": "NJ",
    "placeMasterId": "P02500000FsoFwZ9QMFjv9G5llLxXgqkpMXWSPQH",
    "placeName": "little ferry",
    "state": "NJ"
  },
  {
    "city": "belvidere",
    "state_code": "NJ",
    "placeMasterId": "P02500000FsoFvHX7vgXqxqtCX2qmURWipd3dUNF",
    "placeName": "belvidere",
    "state": "NJ"
  },
  {
    "city": "columbia",
    "state_code": "NJ",
    "placeMasterId": "P02500000FsoFvZE58ThQL3NY8fXcJQBkNKGqWkh",
    "placeName": "columbia",
    "state": "NJ"
  },
  {
    "city": "national park",
    "state_code": "NJ",
    "placeMasterId": "P02500000FsoFwqqNZ2tUWSa7MyeNVpQkVJoPPyu",
    "placeName": "national park",
    "state": "NJ"
  },
  {
    "city": "pennsauken",
    "state_code": "NJ",
    "placeMasterId": "P02500000FsoIDFiD56qCdZPZw0Zc3qy1j8cyUg7",
    "placeName": "pennsauken",
    "state": "NJ"
  },
  {
    "city": "port republic",
    "state_code": "NJ",
    "placeMasterId": "P02500000FsoFxHNoNEcqaGJdmPgdFIWpr5NFquV",
    "placeName": "port republic",
    "state": "NJ"
  },
  {
    "city": "princeton",
    "state_code": "NJ",
    "placeMasterId": "P02500000FsoFxQEHydCdGrYoaE239mqojrhbtXm",
    "placeName": "princeton",
    "state": "NJ"
  },
  {
    "city": "fords",
    "state_code": "NJ",
    "placeMasterId": "P02500000FsoFvzlVwfQmOr74Y6Zs2tAp14Ic27W",
    "placeName": "fords",
    "state": "NJ"
  },
  {
    "city": "katonah",
    "state_code": "NY",
    "placeMasterId": "P02500000FsoG2zEuV5iG4I6butVLgtRspmABMc5",
    "placeName": "katonah",
    "state": "NY"
  },
  {
    "city": "middletown",
    "state_code": "NY",
    "placeMasterId": "P02500000FsoG3PmLJHRc85q8KKXbQMg6Zny0yP4",
    "placeName": "middletown",
    "state": "NY"
  },
  {
    "city": "new city",
    "state_code": "NY",
    "placeMasterId": "P02500000FsoG3hTIW4bBVIKTvxERFLLWCQtl9tF",
    "placeName": "new city",
    "state": "NY"
  },
  {
    "city": "manhasset",
    "state_code": "NY",
    "placeMasterId": "P02500000FsoG3PmLJHRc85q8KKXbQMUaxzVOSLa",
    "placeName": "manhasset",
    "state": "NY"
  },
  {
    "city": "new hyde park",
    "state_code": "NY",
    "placeMasterId": "P02500000FsoG3qJm7TAyBtZejlZr9pckzHLyevi",
    "placeName": "new hyde park",
    "state": "NY"
  },
  {
    "city": "brooklyn",
    "state_code": "NY",
    "placeMasterId": "P02500000FsoHCc8bI5SSzqy5EWv94nnzJKQNSS5",
    "placeName": "brooklyn",
    "state": "NY"
  },
  {
    "city": "williston park",
    "state_code": "NY",
    "placeMasterId": "P02500000FsoG5qASZ1FxoJ05z8PhuglrDHgwwyZ",
    "placeName": "williston park",
    "state": "NY"
  },
  {
    "city": "north babylon",
    "state_code": "NY",
    "placeMasterId": "P02500000FsoG3qJm7TAyBtZejlZr9peDxKD1m67",
    "placeName": "north babylon",
    "state": "NY"
  },
  {
    "city": "commack",
    "state_code": "NY",
    "placeMasterId": "P02500000FsoG1Ym8T7wPCHersm3AZzpqkO0FwFX",
    "placeName": "commack",
    "state": "NY"
  },
  {
    "city": "lake grove",
    "state_code": "NY",
    "placeMasterId": "P02500000FsoG385O6UI2ktLmihqlbNwExYs9EMy",
    "placeName": "lake grove",
    "state": "NY"
  },
  {
    "city": "rocky point",
    "state_code": "NY",
    "placeMasterId": "P02500000FsoG4YYA8S3tctnWkpIwiHR87B8fQpF",
    "placeName": "rocky point",
    "state": "NY"
  },
  {
    "city": "seaford",
    "state_code": "NY",
    "placeMasterId": "P02500000FsoG4qF7LFDT06HsMRzmXGEra9tS1Qr",
    "placeName": "seaford",
    "state": "NY"
  },
  {
    "city": "smithtown",
    "state_code": "NY",
    "placeMasterId": "P02500000FsoHDKMzJ4LOQrBxFaeEdFoeSUU4MKc",
    "placeName": "smithtown",
    "state": "NY"
  },
  {
    "city": "amagansett",
    "state_code": "NY",
    "placeMasterId": "P02500000FsoG0qXkS93TlHQzriK51XpWQmgcxqQ",
    "placeName": "amagansett",
    "state": "NY"
  },
  {
    "city": "mastic",
    "state_code": "NY",
    "placeMasterId": "P02500000FsoG3PmLJHRc85q8KKXbQMdHiJvQK6M",
    "placeName": "mastic",
    "state": "NY"
  },
  {
    "city": "mattituck",
    "state_code": "NY",
    "placeMasterId": "P02500000FsoG3Ycoug1Ooh5J88t1Kqsnawkxuxb",
    "placeName": "mattituck",
    "state": "NY"
  },
  {
    "city": "peconic",
    "state_code": "NY",
    "placeMasterId": "P02500000FsoG4GrCveuKFhJB9Cc6tIiihujidam",
    "placeName": "peconic",
    "state": "NY"
  },
  {
    "city": "lake pleasant",
    "state_code": "NY",
    "placeMasterId": "P02500000FsoIFOPN83Uywa5BzBksjCRNZoe6fLL",
    "placeName": "lake pleasant",
    "state": "NY"
  },
  {
    "city": "poestenkill",
    "state_code": "NY",
    "placeMasterId": "P02500000FsoHD2g26HBp3ehbdxxOoH8BmDNi5VL",
    "placeName": "poestenkill",
    "state": "NY"
  },
  {
    "city": "valatie",
    "state_code": "NY",
    "placeMasterId": "P02500000FsoG5Pd1kpWbkVGZZhNSBDkG9ngZABq",
    "placeName": "valatie",
    "state": "NY"
  },
  {
    "city": "copake",
    "state_code": "NY",
    "placeMasterId": "P02500000FsoIEXKVVg2Goyc9AJgNGG9QaEMqqQL",
    "placeName": "copake",
    "state": "NY"
  },
  {
    "city": "pine bush",
    "state_code": "NY",
    "placeMasterId": "P02500000FsoG4GrCveuKFhJB9Cc6tIoCQqJclUV",
    "placeName": "pine bush",
    "state": "NY"
  },
  {
    "city": "red hook",
    "state_code": "NY",
    "placeMasterId": "P02500000FsoHCKRe5IItceTjcuEJFp75Q7gYF8e",
    "placeName": "red hook",
    "state": "NY"
  },
  {
    "city": "rhinecliff",
    "state_code": "NY",
    "placeMasterId": "P02500000FsoG4PhgX3U6wIYLx0xWnnIJo9uOSG0",
    "placeName": "rhinecliff",
    "state": "NY"
  },
  {
    "city": "corinth",
    "state_code": "NY",
    "placeMasterId": "P02500000FsoHDBWVhflbkFwmRmIoilKBBA26Sbc",
    "placeName": "corinth",
    "state": "NY"
  },
  {
    "city": "north hudson",
    "state_code": "NY",
    "placeMasterId": "P02500000FsoIFxnHXdo7gz3tCR8YNA20rp9BZ88",
    "placeName": "north hudson",
    "state": "NY"
  },
  {
    "city": "keeseville",
    "state_code": "NY",
    "placeMasterId": "P02500000FsoG385O6UI2ktLmihqlbNmjpVfvlXW",
    "placeName": "keeseville",
    "state": "NY"
  },
  {
    "city": "saranac lake",
    "state_code": "NY",
    "placeMasterId": "P02500000FsoG4hOdjqdgJV2hYdeMcly0e5VD6nv",
    "placeName": "saranac lake",
    "state": "NY"
  },
  {
    "city": "dryden",
    "state_code": "NY",
    "placeMasterId": "P02500000FsoHDTDSuSvB7SR83OzeXk4d2nrMVtW",
    "placeName": "dryden",
    "state": "NY"
  },
  {
    "city": "minoa",
    "state_code": "NY",
    "placeMasterId": "P02500000FsoG3Ycoug1Ooh5J88t1KqxbiLCYTTf",
    "placeName": "minoa",
    "state": "NY"
  },
  {
    "city": "weedsport",
    "state_code": "NY",
    "placeMasterId": "P02500000FsoG5YTVME6OR6VkNVis5iC62MftS40",
    "placeName": "weedsport",
    "state": "NY"
  },
  {
    "city": "syracuse",
    "state_code": "NY",
    "placeMasterId": "P02500000FsoG57w4Y2N2NImDy4gcMF3udu0wEbR",
    "placeName": "syracuse",
    "state": "NY"
  },
  {
    "city": "hamilton",
    "state_code": "NY",
    "placeMasterId": "P02500000FsoHCc8bI5SSzqy5EWv94o2O2QYpbXQ",
    "placeName": "hamilton",
    "state": "NY"
  },
  {
    "city": "newport",
    "state_code": "NY",
    "placeMasterId": "P02500000FsoHCc8bI5SSzqy5EWv94nsHgUgCtRd",
    "placeName": "newport",
    "state": "NY"
  },
  {
    "city": "sherburne",
    "state_code": "NY",
    "placeMasterId": "P02500000FsoHC2kgsV9KFRzO1HXTQqYldgKfQmY",
    "placeName": "sherburne",
    "state": "NY"
  },
  {
    "city": "stratford",
    "state_code": "NY",
    "placeMasterId": "P02500000FsoIGxiclPqcVBm6p7YTkaTyCrPjl9K",
    "placeName": "stratford",
    "state": "NY"
  },
  {
    "city": "waterville",
    "state_code": "NY",
    "placeMasterId": "P02500000FsoG5YTVME6OR6VkNVis5iDFxToPnjJ",
    "placeName": "waterville",
    "state": "NY"
  },
  {
    "city": "westmoreland",
    "state_code": "NY",
    "placeMasterId": "P02500000FsoIHOG3ZbZyYzVdEYajU3aFiq1NeSr",
    "placeName": "westmoreland",
    "state": "NY"
  },
  {
    "city": "henderson",
    "state_code": "NY",
    "placeMasterId": "P02500000FsoIF6iPvGLPZNaqNZ42uDmZDlaYo8Q",
    "placeName": "henderson",
    "state": "NY"
  },
  {
    "city": "natural bridge",
    "state_code": "NY",
    "placeMasterId": "P02500000FsoG3hTIW4bBVIKTvxERFLIuNCxYOAw",
    "placeName": "natural bridge",
    "state": "NY"
  },
  {
    "city": "three mile bay",
    "state_code": "NY",
    "placeMasterId": "P02500000FsoG5GmY9Qwp3u1Olt22GjIf1QQ0RJM",
    "placeName": "three mile bay",
    "state": "NY"
  },
  {
    "city": "deposit",
    "state_code": "NY",
    "placeMasterId": "P02500000FsoHCBbATtj6w3EYp5stLKlSRUhJjjW",
    "placeName": "deposit",
    "state": "NY"
  },
  {
    "city": "akron",
    "state_code": "NY",
    "placeMasterId": "P02500000FsoG0qXkS93TlHQzriK51XnwbEmzS5G",
    "placeName": "akron",
    "state": "NY"
  },
  {
    "city": "alden",
    "state_code": "NY",
    "placeMasterId": "P02500000FsoHCKRe5IItceTjcuEJFp8pXLyhnjX",
    "placeName": "alden",
    "state": "NY"
  },
  {
    "city": "buffalo",
    "state_code": "NY",
    "placeMasterId": "P02500000FsoG1H5BGKmpp5AWH9MKl12AT3E2vOM",
    "placeName": "buffalo",
    "state": "NY"
  },
  {
    "city": "geneseo",
    "state_code": "NY",
    "placeMasterId": "P02500000FsoHCc8bI5SSzqy5EWv94nxYumHwj3w",
    "placeName": "geneseo",
    "state": "NY"
  },
  {
    "city": "hamlin",
    "state_code": "NY",
    "placeMasterId": "P02500000FsoIF6iPvGLPZNaqNZ42uDhTFjKkM0p",
    "placeName": "hamlin",
    "state": "NY"
  },
  {
    "city": "phelps",
    "state_code": "NY",
    "placeMasterId": "P02500000FsoHCtpYUsc2N3SQq9bytmd57dVpI7Y",
    "placeName": "phelps",
    "state": "NY"
  },
  {
    "city": "scottsville",
    "state_code": "NY",
    "placeMasterId": "P02500000FsoG4qF7LFDT06HsMRzmXGDIf2Z1uiu",
    "placeName": "scottsville",
    "state": "NY"
  },
  {
    "city": "victor",
    "state_code": "NY",
    "placeMasterId": "P02500000FsoHD2g26HBp3ehbdxxOoGv2tqRc16g",
    "placeName": "victor",
    "state": "NY"
  },
  {
    "city": "rochester",
    "state_code": "NY",
    "placeMasterId": "P02500000FsoG4YYA8S3tctnWkpIwiHXc7FWLpT6",
    "placeName": "rochester",
    "state": "NY"
  },
  {
    "city": "rochester",
    "state_code": "NY",
    "placeMasterId": "P02500000FsoG4YYA8S3tctnWkpIwiHXc7FWLpT6",
    "placeName": "rochester",
    "state": "NY"
  },
  {
    "city": "jamestown",
    "state_code": "NY",
    "placeMasterId": "P02500000FsoG2zEuV5iG4I6butVLgtOF8sNmX7z",
    "placeName": "jamestown",
    "state": "NY"
  },
  {
    "city": "angelica",
    "state_code": "NY",
    "placeMasterId": "P02500000FsoHBtuDH6ZXYqkDDTC3WM0W4hfQKGO",
    "placeName": "angelica",
    "state": "NY"
  },
  {
    "city": "hinsdale",
    "state_code": "NY",
    "placeMasterId": "P02500000FsoIF6iPvGLPZNaqNZ42uDpwZ4Kx88L",
    "placeName": "hinsdale",
    "state": "NY"
  },
  {
    "city": "limestone",
    "state_code": "NY",
    "placeMasterId": "P02500000FsoG3GvrhsrpRUaxWWCBVsAKpM5Tcsb",
    "placeName": "limestone",
    "state": "NY"
  },
  {
    "city": "belmont",
    "state_code": "NY",
    "placeMasterId": "P02500000FsoG0zOE3XdGRsgAfWfUw2F1pWp9lLc",
    "placeName": "belmont",
    "state": "NY"
  },
  {
    "city": "breesport",
    "state_code": "NY",
    "placeMasterId": "P02500000FsoG18EhewD38TvLTL0uqWe6nOoP3hC",
    "placeName": "breesport",
    "state": "NY"
  },
  {
    "city": "dalton",
    "state_code": "NY",
    "placeMasterId": "P02500000FsoG1hcc4WWBssu2gaOaUU9gpRheLxi",
    "placeName": "dalton",
    "state": "NY"
  },
  {
    "city": "ithaca",
    "state_code": "NY",
    "placeMasterId": "P02500000FsoG2qOQth8TNgrR759vmPABaFg60HT",
    "placeName": "ithaca",
    "state": "NY"
  },
  {
    "city": "mckeesport",
    "state_code": "PA",
    "placeMasterId": "P02500000FsoGVfMsjlj6B2IdP6wLpMCwxDFHgSS",
    "placeName": "mckeesport",
    "state": "PA"
  },
  {
    "city": "hiller",
    "state_code": "PA",
    "placeMasterId": "P02500000FsoGUNkaJCX1zd64AnpacwjSU5RGuZf",
    "placeName": "hiller",
    "state": "PA"
  },
  {
    "city": "fairhope",
    "state_code": "PA",
    "placeMasterId": "P02500000FsoGTEylU1ukUp8fkJ4FL1rGtOi1Fsh",
    "placeName": "fairhope",
    "state": "PA"
  },
  {
    "city": "saltsburg",
    "state_code": "PA",
    "placeMasterId": "P02500000FsoGYWIQnhGnv3C7TLqi39VNmO3pgA1",
    "placeName": "saltsburg",
    "state": "PA"
  },
  {
    "city": "shelocta",
    "state_code": "PA",
    "placeMasterId": "P02500000FsoGYnzO0UQNIFgT4yXXs8JkgHnY6vD",
    "placeName": "shelocta",
    "state": "PA"
  },
  {
    "city": "driftwood",
    "state_code": "PA",
    "placeMasterId": "P02500000FsoGSfar4RbbkQ9yX3gZh4DvCMmRoCv",
    "placeName": "driftwood",
    "state": "PA"
  },
  {
    "city": "vintondale",
    "state_code": "PA",
    "placeMasterId": "P02500000FsoGZwlCpf2en3drVTItA3KhAoXDJVq",
    "placeName": "vintondale",
    "state": "PA"
  },
  {
    "city": "erie",
    "state_code": "PA",
    "placeMasterId": "P02500000FsoGT68HsdKxoDtUwUipQXb9IbBAKWB",
    "placeName": "erie",
    "state": "PA"
  },
  {
    "city": "erie",
    "state_code": "PA",
    "placeMasterId": "P02500000FsoGT68HsdKxoDtUwUipQXb9IbBAKWB",
    "placeName": "erie",
    "state": "PA"
  },
  {
    "city": "gratz",
    "state_code": "PA",
    "placeMasterId": "P02500000FsoGTxD9V0nfvpMXlMnKtTeA5wjUksa",
    "placeName": "gratz",
    "state": "PA"
  },
  {
    "city": "harrisburg",
    "state_code": "PA",
    "placeMasterId": "P02500000FsoGU63d6PNScQbiZB8kny65f71GTm1",
    "placeName": "harrisburg",
    "state": "PA"
  },
  {
    "city": "marion",
    "state_code": "PA",
    "placeMasterId": "P02500000FsoGVoDMLAIsrdXoCvHljqbFBUwajr7",
    "placeName": "marion",
    "state": "PA"
  },
  {
    "city": "needmore",
    "state_code": "PA",
    "placeMasterId": "P02500000FsoGWfIDxXlazF0r1nMHCmgEu7rcXG0",
    "placeName": "needmore",
    "state": "PA"
  },
  {
    "city": "east prospect",
    "state_code": "PA",
    "placeMasterId": "P02500000FsoGSoRKfqBOR1P9Ks1zbYk2D8hvdoW",
    "placeName": "east prospect",
    "state": "PA"
  },
  {
    "city": "hughesville",
    "state_code": "PA",
    "placeMasterId": "P02500000FsoGUfRXVzgbMpaPmQWQRvR1YH22hON",
    "placeName": "hughesville",
    "state": "PA"
  },
  {
    "city": "picture rocks",
    "state_code": "PA",
    "placeMasterId": "P02500000FsoGXfDZBJo5nRj4eTmCaDH4XHytT7p",
    "placeName": "picture rocks",
    "state": "PA"
  },
  {
    "city": "millville",
    "state_code": "PA",
    "placeMasterId": "P02500000FsoGWEkn9M2EvRHKcMK1TJflLYPluv3",
    "placeName": "millville",
    "state": "PA"
  },
  {
    "city": "coal township",
    "state_code": "PA",
    "placeMasterId": "P02500000FsoIQfH5mN61E2PxSL2thtrmWvu4xft",
    "placeName": "coal township",
    "state": "PA"
  },
  {
    "city": "martins creek",
    "state_code": "PA",
    "placeMasterId": "P02500000FsoGVoDMLAIsrdXoCvHljqZWe7xQuNK",
    "placeName": "martins creek",
    "state": "PA"
  },
  {
    "city": "nazareth",
    "state_code": "PA",
    "placeMasterId": "P02500000FsoGWWRkM9BoIdlgDz0rIITX0upyoaW",
    "placeName": "nazareth",
    "state": "PA"
  },
  {
    "city": "pocono pines",
    "state_code": "PA",
    "placeMasterId": "P02500000FsoGXfDZBJo5nRj4eTmCaDP5Ze2p9lp",
    "placeName": "pocono pines",
    "state": "PA"
  },
  {
    "city": "factoryville",
    "state_code": "PA",
    "placeMasterId": "P02500000FsoGTEylU1ukUp8fkJ4FL1pkh2Zrnrb",
    "placeName": "factoryville",
    "state": "PA"
  },
  {
    "city": "lansdowne",
    "state_code": "PA",
    "placeMasterId": "P02500000FsoGVEpRvZzk7EZ6zfu65t0rdNqBFuo",
    "placeName": "lansdowne",
    "state": "PA"
  },
  {
    "city": "philadelphia",
    "state_code": "PA",
    "placeMasterId": "P02500000FsoGXWN5ZvEJ6qTtqfQmfiyVODy6MPW",
    "placeName": "philadelphia",
    "state": "PA"
  },
  {
    "city": "malvern",
    "state_code": "PA",
    "placeMasterId": "P02500000FsoGVoDMLAIsrdXoCvHljqRXTToGANU",
    "placeName": "malvern",
    "state": "PA"
  },
  {
    "city": "norristown",
    "state_code": "PA",
    "placeMasterId": "P02500000FsoGWwzBAKvAMRVCdQ371lSotpGly68",
    "placeName": "norristown",
    "state": "PA"
  },
  {
    "city": "birdsboro",
    "state_code": "PA",
    "placeMasterId": "P02500000FsoGR6HbR5FyBoT3h7syfgKrc9ztvmK",
    "placeName": "birdsboro",
    "state": "PA"
  },
  {
    "city": "douglassville",
    "state_code": "PA",
    "placeMasterId": "P02500000FsoGSfar4RbbkQ9yX3gZh4CoIjw2Rhd",
    "placeName": "douglassville",
    "state": "PA"
  },
  {
    "city": "townsend",
    "state_code": "DE",
    "placeMasterId": "P02500000FsoEq4sEpygzKuc87a8wLiMfBtP9Zma",
    "placeName": "townsend",
    "state": "DE"
  },
  {
    "city": "wilmington",
    "state_code": "DE",
    "placeMasterId": "P02500000FsoEq4sEpygzKuc87a8wLiOkGKX6CVd",
    "placeName": "wilmington",
    "state": "DE"
  },
  {
    "city": "milford",
    "state_code": "DE",
    "placeMasterId": "P02500000FsoEpnBHdBXPxi7mVxS6WjiUBNXgv2j",
    "placeName": "milford",
    "state": "DE"
  },
  {
    "city": "millville",
    "state_code": "DE",
    "placeMasterId": "P02500000FsoEpnBHdBXPxi7mVxS6WjgPctFEI6u",
    "placeName": "millville",
    "state": "DE"
  },
  {
    "city": "washington",
    "state_code": "DC",
    "placeMasterId": "P02500000FsoEq4sEpygzKuc87a8wLiQYg142PzN",
    "placeName": "washington",
    "state": "DC"
  },
  {
    "city": "washington",
    "state_code": "DC",
    "placeMasterId": "P02500000FsoEq4sEpygzKuc87a8wLiQYg142PzN",
    "placeName": "washington",
    "state": "DC"
  },
  {
    "city": "washington",
    "state_code": "DC",
    "placeMasterId": "P02500000FsoEq4sEpygzKuc87a8wLiQYg142PzN",
    "placeName": "washington",
    "state": "DC"
  },
  {
    "city": "indian head",
    "state_code": "MD",
    "placeMasterId": "P02500000FsoFUk6JjxBnA7Mn60b31KOzsavVeQL",
    "placeName": "indian head",
    "state": "MD"
  },
  {
    "city": "beltsville",
    "state_code": "MD",
    "placeMasterId": "P02500000FsoFTSU1JNziyiADrhUHouxJynV0deu",
    "placeName": "beltsville",
    "state": "MD"
  },
  {
    "city": "mount rainier",
    "state_code": "MD",
    "placeMasterId": "P02500000FsoFVJUE9XUvuWLUJFyifHj9DZLNCX9",
    "placeName": "mount rainier",
    "state": "MD"
  },
  {
    "city": "chesapeake beach",
    "state_code": "MD",
    "placeMasterId": "P02500000FsoFTkAyWB9ILueZTKB7dtlKVHT3zFj",
    "placeName": "chesapeake beach",
    "state": "MD"
  },
  {
    "city": "hyattsville",
    "state_code": "MD",
    "placeMasterId": "P02500000FsoFUk6JjxBnA7Mn60b31KN4Wj0BAWZ",
    "placeName": "hyattsville",
    "state": "MD"
  },
  {
    "city": "jessup",
    "state_code": "MD",
    "placeMasterId": "P02500000FsoFUk6JjxBnA7Mn60b31KJzALPPX6J",
    "placeName": "jessup",
    "state": "MD"
  },
  {
    "city": "burtonsville",
    "state_code": "MD",
    "placeMasterId": "P02500000FsoFTbKUumZVfJPOfVphjPQ1LJSNiIy",
    "placeName": "burtonsville",
    "state": "MD"
  },
  {
    "city": "clarksburg",
    "state_code": "MD",
    "placeMasterId": "P02500000FsoFTt1S7Zj52VtkH8WXYO4ZxmeTGr7",
    "placeName": "clarksburg",
    "state": "MD"
  },
  {
    "city": "montgomery village",
    "state_code": "MD",
    "placeMasterId": "P02500000FsoFV1nGwkLMXJr8hdHsqJCZ1OQMpGa",
    "placeName": "montgomery village",
    "state": "MD"
  },
  {
    "city": "baltimore",
    "state_code": "MD",
    "placeMasterId": "P02500000FsoFTSU1JNziyiADrhUHous91WaBH4V",
    "placeName": "baltimore",
    "state": "MD"
  },
  {
    "city": "church hill",
    "state_code": "MD",
    "placeMasterId": "P02500000FsoFTkAyWB9ILueZTKB7dtvKOsy9c38",
    "placeName": "church hill",
    "state": "MD"
  },
  {
    "city": "rock hall",
    "state_code": "MD",
    "placeMasterId": "P02500000FsoFVbBBMKeVHippusfYUGgidXNzkDn",
    "placeName": "rock hall",
    "state": "MD"
  },
  {
    "city": "stevensville",
    "state_code": "MD",
    "placeMasterId": "P02500000FsoFVss8Z7o4evKBWVMOJFRIvvsgifv",
    "placeName": "stevensville",
    "state": "MD"
  },
  {
    "city": "sharpsburg",
    "state_code": "MD",
    "placeMasterId": "P02500000FsoFVk1exjEHyK50ih0yOl1lEplAxso",
    "placeName": "sharpsburg",
    "state": "MD"
  },
  {
    "city": "crisfield",
    "state_code": "MD",
    "placeMasterId": "P02500000FsoFTt1S7Zj52VtkH8WXYODQNdbbCa1",
    "placeName": "crisfield",
    "state": "MD"
  },
  {
    "city": "dunn loring",
    "state_code": "VA",
    "placeMasterId": "P02500000FsoGvUZIuWCEXlbAp5Szk1VGAkXZ5uc",
    "placeName": "dunn loring",
    "state": "VA"
  },
  {
    "city": "fairfax",
    "state_code": "VA",
    "placeMasterId": "P02500000FsoGvdPmVum1EMqLctoPeVgSVwMaiOw",
    "placeName": "fairfax",
    "state": "VA"
  },
  {
    "city": "springfield",
    "state_code": "VA",
    "placeMasterId": "P02500000FsoGxdGSxSr0qmGmsGeGPMrB2k1mMjc",
    "placeName": "springfield",
    "state": "VA"
  },
  {
    "city": "woodbridge",
    "state_code": "VA",
    "placeMasterId": "P02500000FsoGy3ntleaMua0JHhgW8q1lhMRPo3v",
    "placeName": "woodbridge",
    "state": "VA"
  },
  {
    "city": "alexandria",
    "state_code": "VA",
    "placeMasterId": "P02500000FsoGuUdxgk9jjYsxCP34MaiKDaDtr2h",
    "placeName": "alexandria",
    "state": "VA"
  },
  {
    "city": "dahlgren",
    "state_code": "VA",
    "placeMasterId": "P02500000FsoGvLipJ7cRrAM01H7ZpX3p3dJRBF4",
    "placeName": "dahlgren",
    "state": "VA"
  },
  {
    "city": "madison",
    "state_code": "VA",
    "placeMasterId": "P02500000FsoGwUUe8IEjLyJORlsv7RtHv6Xn1ic",
    "placeName": "madison",
    "state": "VA"
  },
  {
    "city": "schuyler",
    "state_code": "VA",
    "placeMasterId": "P02500000FsoGxUPzM4HEAB1c4SIqUsTbLivWlJE",
    "placeName": "schuyler",
    "state": "VA"
  },
  {
    "city": "harborton",
    "state_code": "VA",
    "placeMasterId": "P02500000FsoGvv6jihvabZKhEWVFTUTMyHNqeYP",
    "placeName": "harborton",
    "state": "VA"
  },
  {
    "city": "colonial heights",
    "state_code": "VA",
    "placeMasterId": "P02500000FsoGvLipJ7cRrAM01H7ZpWu2VGzYNxg",
    "placeName": "colonial heights",
    "state": "VA"
  },
  {
    "city": "gasburg",
    "state_code": "VA",
    "placeMasterId": "P02500000FsoGvmGG7JLnuy5WQi9pZ05Ev9M4lQj",
    "placeName": "gasburg",
    "state": "VA"
  },
  {
    "city": "parrott",
    "state_code": "VA",
    "placeMasterId": "P02500000FsoGx3sYXsXs6NI5f1GalPUnmRT8vWg",
    "placeName": "parrott",
    "state": "VA"
  },
  {
    "city": "penhook",
    "state_code": "VA",
    "placeMasterId": "P02500000FsoGx3sYXsXs6NI5f1GalPWA9L0A547",
    "placeName": "penhook",
    "state": "VA"
  },
  {
    "city": "riner",
    "state_code": "VA",
    "placeMasterId": "P02500000FsoGxCj29H7emyXGSpc0ftqT1Zy4nhX",
    "placeName": "riner",
    "state": "VA"
  },
  {
    "city": "clifton forge",
    "state_code": "VA",
    "placeMasterId": "P02500000FsoGvCsLhj2fAZ6pDSm9v2eSfXLYzlZ",
    "placeName": "clifton forge",
    "state": "VA"
  },
  {
    "city": "pocahontas",
    "state_code": "VA",
    "placeMasterId": "P02500000FsoGx3sYXsXs6NI5f1GalPORkUseH4z",
    "placeName": "pocahontas",
    "state": "VA"
  },
  {
    "city": "charleston",
    "state_code": "WV",
    "placeMasterId": "P02500000FsoH2LCDrXtvWbLXO433TXAEFw0vAwR",
    "placeName": "charleston",
    "state": "WV"
  },
  {
    "city": "wayne",
    "state_code": "WV",
    "placeMasterId": "P02500000FsoH43Lx6IpLloHd1oC4PPeUIeNBBQq",
    "placeName": "wayne",
    "state": "WV"
  },
  {
    "city": "henlawson",
    "state_code": "WV",
    "placeMasterId": "P02500000FsoH2ua8H8D4H0KEbJQj7Ub9oO7FFyI",
    "placeName": "henlawson",
    "state": "WV"
  },
  {
    "city": "beaver",
    "state_code": "WV",
    "placeMasterId": "P02500000FsoH1uen3MAZSnc0yd0nk48hu7xZQFu",
    "placeName": "beaver",
    "state": "WV"
  },
  {
    "city": "macarthur",
    "state_code": "WV",
    "placeMasterId": "P02500000FsoH3CH5TvMdeCoaCw7YwTJ7iWJ64Db",
    "placeName": "macarthur",
    "state": "WV"
  },
  {
    "city": "windsor heights",
    "state_code": "WV",
    "placeMasterId": "P02500000FsoH4CCQhhP8SPWnpcXUJtyEehmrIs3",
    "placeName": "windsor heights",
    "state": "WV"
  },
  {
    "city": "helvetia",
    "state_code": "WV",
    "placeMasterId": "P02500000FsoH2ua8H8D4H0KEbJQj7UaAemmUNsG",
    "placeName": "helvetia",
    "state": "WV"
  },
  {
    "city": "granville",
    "state_code": "WV",
    "placeMasterId": "P02500000FsoH2ua8H8D4H0KEbJQj7UWVyUMEG5j",
    "placeName": "granville",
    "state": "WV"
  },
  {
    "city": "fort ashby",
    "state_code": "WV",
    "placeMasterId": "P02500000FsoH2ctB4L3UtnpszgjtIVwuQ07DWYQ",
    "placeName": "fort ashby",
    "state": "WV"
  },
  {
    "city": "pilot mountain",
    "state_code": "NC",
    "placeMasterId": "P02500000FsoG8pwUELNSEv8krBfU2yc7SyqajIW",
    "placeName": "pilot mountain",
    "state": "NC"
  },
  {
    "city": "high point",
    "state_code": "NC",
    "placeMasterId": "P02500000FsoG7YKBnmBO3VwBcsYiqZMYSFM4NK8",
    "placeName": "high point",
    "state": "NC"
  },
  {
    "city": "milton",
    "state_code": "NC",
    "placeMasterId": "P02500000FsoG8GYZol4JUWA3dwHoP1J6eGxhZKW",
    "placeName": "milton",
    "state": "NC"
  },
  {
    "city": "pittsboro",
    "state_code": "NC",
    "placeMasterId": "P02500000FsoG8pwUELNSEv8krBfU2ycPsAyDzh9",
    "placeName": "pittsboro",
    "state": "NC"
  },
  {
    "city": "trinity",
    "state_code": "NC",
    "placeMasterId": "P02500000FsoG9h1LqiqAMWbng3jzVuzuPd2fpqI",
    "placeName": "trinity",
    "state": "NC"
  },
  {
    "city": "yanceyville",
    "state_code": "NC",
    "placeMasterId": "P02500000FsoGA7YmeuZWQKLK5UmFFO4D6Vg2gBa",
    "placeName": "yanceyville",
    "state": "NC"
  },
  {
    "city": "greensboro",
    "state_code": "NC",
    "placeMasterId": "P02500000FsoG7PTiCNbbMuh0p4DIw54JG0aDyyU",
    "placeName": "greensboro",
    "state": "NC"
  },
  {
    "city": "benson",
    "state_code": "NC",
    "placeMasterId": "P02500000FsoG67rPloPXBVURal6Xjffs4U4ZmWT",
    "placeName": "benson",
    "state": "NC"
  },
  {
    "city": "chapel hill",
    "state_code": "NC",
    "placeMasterId": "P02500000FsoG6YOqa08tFJDy0C8nT8oAogyZUyx",
    "placeName": "chapel hill",
    "state": "NC"
  },
  {
    "city": "four oaks",
    "state_code": "NC",
    "placeMasterId": "P02500000FsoG77mkzaS1ziCfDRWT76O3OHRIkLL",
    "placeName": "four oaks",
    "state": "NC"
  },
  {
    "city": "durham",
    "state_code": "NC",
    "placeMasterId": "P02500000FsoG6q5nmnIScViJbopdI7bFzX5TYCc",
    "placeName": "durham",
    "state": "NC"
  },
  {
    "city": "grimesland",
    "state_code": "NC",
    "placeMasterId": "P02500000FsoG7YKBnmBO3VwBcsYiqZFDosa0tLL",
    "placeName": "grimesland",
    "state": "NC"
  },
  {
    "city": "pantego",
    "state_code": "NC",
    "placeMasterId": "P02500000FsoG8h60cwnfYJta3NK48UKqbJDZ9DY",
    "placeName": "pantego",
    "state": "NC"
  },
  {
    "city": "roanoke rapids",
    "state_code": "NC",
    "placeMasterId": "P02500000FsoG8ymxpjxEvWNvf00txT2jF4xJDpr",
    "placeName": "roanoke rapids",
    "state": "NC"
  },
  {
    "city": "seaboard",
    "state_code": "NC",
    "placeMasterId": "P02500000FsoG9GTv2X6oIisHGchjmRmgy52WUM8",
    "placeName": "seaboard",
    "state": "NC"
  },
  {
    "city": "simpson",
    "state_code": "NC",
    "placeMasterId": "P02500000FsoG9PKOdvgazK7S4R39gw57hxmSJga",
    "placeName": "simpson",
    "state": "NC"
  },
  {
    "city": "wilson",
    "state_code": "NC",
    "placeMasterId": "P02500000FsoG9yiJ3Vzjjj69HgQpKtjYrl6cYLo",
    "placeName": "wilson",
    "state": "NC"
  },
  {
    "city": "waves",
    "state_code": "NC",
    "placeMasterId": "P02500000FsoG9prpS7Px37qyTs5PQPKQaXUIJJx",
    "placeName": "waves",
    "state": "NC"
  },
  {
    "city": "east spencer",
    "state_code": "NC",
    "placeMasterId": "P02500000FsoG6q5nmnIScViJbopdI7ZdXRCLomB",
    "placeName": "east spencer",
    "state": "NC"
  },
  {
    "city": "shelby",
    "state_code": "NC",
    "placeMasterId": "P02500000FsoG9GTv2X6oIisHGchjmRz2OKIcMbu",
    "placeName": "shelby",
    "state": "NC"
  },
  {
    "city": "charlotte",
    "state_code": "NC",
    "placeMasterId": "P02500000FsoG6YOqa08tFJDy0C8nT8qHEOhlkFv",
    "placeName": "charlotte",
    "state": "NC"
  },
  {
    "city": "newton grove",
    "state_code": "NC",
    "placeMasterId": "P02500000FsoG8YFX1YDsriePFYyeDzrY6k4y0eN",
    "placeName": "newton grove",
    "state": "NC"
  },
  {
    "city": "red springs",
    "state_code": "NC",
    "placeMasterId": "P02500000FsoG8ymxpjxEvWNvf00txT4V6CmNkX2",
    "placeName": "red springs",
    "state": "NC"
  },
  {
    "city": "shannon",
    "state_code": "NC",
    "placeMasterId": "P02500000FsoG9PKOdvgazK7S4R39gw5k1cLHBZ3",
    "placeName": "shannon",
    "state": "NC"
  },
  {
    "city": "wilmington",
    "state_code": "NC",
    "placeMasterId": "P02500000FsoGA7YmeuZWQKLK5UmFFNulrAI1CsW",
    "placeName": "wilmington",
    "state": "NC"
  },
  {
    "city": "kure beach",
    "state_code": "NC",
    "placeMasterId": "P02500000FsoG7q190ZKxQiQXEVFYfYFTVY1R0LA",
    "placeName": "kure beach",
    "state": "NC"
  },
  {
    "city": "ocean isle beach",
    "state_code": "NC",
    "placeMasterId": "P02500000FsoG8h60cwnfYJta3NK48UFagBEseMF",
    "placeName": "ocean isle beach",
    "state": "NC"
  },
  {
    "city": "arapahoe",
    "state_code": "NC",
    "placeMasterId": "P02500000FsoG5z0wAPpkUuFGmwl7pBCwzZKvQul",
    "placeName": "arapahoe",
    "state": "NC"
  },
  {
    "city": "new bern",
    "state_code": "NC",
    "placeMasterId": "P02500000FsoG8YFX1YDsriePFYyeDzzsucCg03q",
    "placeName": "new bern",
    "state": "NC"
  },
  {
    "city": "cullowhee",
    "state_code": "NC",
    "placeMasterId": "P02500000FsoG6hFKBOifvuT8o0UDNdEHaZS95gF",
    "placeName": "cullowhee",
    "state": "NC"
  },
  {
    "city": "highlands",
    "state_code": "NC",
    "placeMasterId": "P02500000FsoG7YKBnmBO3VwBcsYiqZKCqd21YIu",
    "placeName": "highlands",
    "state": "NC"
  },
  {
    "city": "eutawville",
    "state_code": "SC",
    "placeMasterId": "P02500000FsoGbeuw4Py52GZx9DRu5vm3Ioq0iSE",
    "placeName": "eutawville",
    "state": "SC"
  },
  {
    "city": "mcbee",
    "state_code": "SC",
    "placeMasterId": "P02500000FsoGcN9K5Or0TGnpAHAzeNTCMaWM9y1",
    "placeName": "mcbee",
    "state": "SC"
  },
  {
    "city": "orangeburg",
    "state_code": "SC",
    "placeMasterId": "P02500000FsoGceqHIC0ZqTIAltrpTMLrHUN4oKh",
    "placeName": "orangeburg",
    "state": "SC"
  },
  {
    "city": "columbia",
    "state_code": "SC",
    "placeMasterId": "P02500000FsoGbW4ST1OILfKmLP6UBRJpkapmyqZ",
    "placeName": "columbia",
    "state": "SC"
  },
  {
    "city": "gaffney",
    "state_code": "SC",
    "placeMasterId": "P02500000FsoGbnlPfoXrirp7x1nK0Q4HBa8R8Rv",
    "placeName": "gaffney",
    "state": "SC"
  },
  {
    "city": "mayo",
    "state_code": "SC",
    "placeMasterId": "P02500000FsoGcN9K5Or0TGnpAHAzeNZuNtZNsZJ",
    "placeName": "mayo",
    "state": "SC"
  },
  {
    "city": "moncks corner",
    "state_code": "SC",
    "placeMasterId": "P02500000FsoGcN9K5Or0TGnpAHAzeNaErvLLny5",
    "placeName": "moncks corner",
    "state": "SC"
  },
  {
    "city": "florence",
    "state_code": "SC",
    "placeMasterId": "P02500000FsoGbnlPfoXrirp7x1nK0PySuHMNkHx",
    "placeName": "florence",
    "state": "SC"
  },
  {
    "city": "greenville",
    "state_code": "SC",
    "placeMasterId": "P02500000FsoGbwbtHD7ePT4Ikq8juuKkVY6QuEs",
    "placeName": "greenville",
    "state": "SC"
  },
  {
    "city": "walhalla",
    "state_code": "SC",
    "placeMasterId": "P02500000FsoGdN4fJAtVHTW2mxav1o4F3OmfnL4",
    "placeName": "walhalla",
    "state": "SC"
  },
  {
    "city": "chesterfield",
    "state_code": "SC",
    "placeMasterId": "P02500000FsoGbW4ST1OILfKmLP6UBRF0UY6cOUm",
    "placeName": "chesterfield",
    "state": "SC"
  },
  {
    "city": "beaufort",
    "state_code": "SC",
    "placeMasterId": "P02500000FsoGbENVGEEiySqQjmPeMSdXgboltfr",
    "placeName": "beaufort",
    "state": "SC"
  },
  {
    "city": "lawrenceville",
    "state_code": "GA",
    "placeMasterId": "P02500000FsoExDC6znYFgwqqIBPpuCzr4XxLrtd",
    "placeName": "lawrenceville",
    "state": "GA"
  },
  {
    "city": "marietta",
    "state_code": "GA",
    "placeMasterId": "P02500000FsoExM2abC82NY615zlFohL9dHDdiW0",
    "placeName": "marietta",
    "state": "GA"
  },
  {
    "city": "mableton",
    "state_code": "GA",
    "placeMasterId": "P02500000FsoExM2abC82NY615zlFohL6DIheVHB",
    "placeName": "mableton",
    "state": "GA"
  },
  {
    "city": "talking rock",
    "state_code": "GA",
    "placeMasterId": "P02500000FsoEyUoPQMkJsM3PWUWb6cLn2iCjYho",
    "placeName": "talking rock",
    "state": "GA"
  },
  {
    "city": "thomaston",
    "state_code": "GA",
    "placeMasterId": "P02500000FsoEydet1lK6YxIaKIs116dv3zOmYAR",
    "placeName": "thomaston",
    "state": "GA"
  },
  {
    "city": "garfield",
    "state_code": "GA",
    "placeMasterId": "P02500000FsoEwmegBbotd97JskNaAjq9uFAKZ1o",
    "placeName": "garfield",
    "state": "GA"
  },
  {
    "city": "glenwood",
    "state_code": "GA",
    "placeMasterId": "P02500000FsoEwmegBbotd97JskNaAjqgeerG4yg",
    "placeName": "glenwood",
    "state": "GA"
  },
  {
    "city": "portal",
    "state_code": "GA",
    "placeMasterId": "P02500000FsoExvQV0mRB7x4iJF8vSerBH6E3lo8",
    "placeName": "portal",
    "state": "GA"
  },
  {
    "city": "helen",
    "state_code": "GA",
    "placeMasterId": "P02500000FsoEwvV9n0OgJkMUgYj05EF11d01MqN",
    "placeName": "helen",
    "state": "GA"
  },
  {
    "city": "nicholson",
    "state_code": "GA",
    "placeMasterId": "P02500000FsoExma1PNrORLpXVQnVYAQFyaqQqUs",
    "placeName": "nicholson",
    "state": "GA"
  },
  {
    "city": "tallulah falls",
    "state_code": "GA",
    "placeMasterId": "P02500000FsoEyUoPQMkJsM3PWUWb6cJI6uXcwq2",
    "placeName": "tallulah falls",
    "state": "GA"
  },
  {
    "city": "toccoa",
    "state_code": "GA",
    "placeMasterId": "P02500000FsoEydet1lK6YxIaKIs116emtFnuapV",
    "placeName": "toccoa",
    "state": "GA"
  },
  {
    "city": "bogart",
    "state_code": "GA",
    "placeMasterId": "P02500000FsoEvdsrMRCc8L9vSFcEsougVtnKMYT",
    "placeName": "bogart",
    "state": "GA"
  },
  {
    "city": "colbert",
    "state_code": "GA",
    "placeMasterId": "P02500000FsoEw4QIAcvyC8tRrgeUcHxPDlBHg1b",
    "placeName": "colbert",
    "state": "GA"
  },
  {
    "city": "rutledge",
    "state_code": "GA",
    "placeMasterId": "P02500000FsoEyD7SDZakV9Z3urplHdbL37S1wXS",
    "placeName": "rutledge",
    "state": "GA"
  },
  {
    "city": "harlem",
    "state_code": "GA",
    "placeMasterId": "P02500000FsoEwvV9n0OgJkMUgYj05EBhutKXLmb",
    "placeName": "harlem",
    "state": "GA"
  },
  {
    "city": "thomson",
    "state_code": "GA",
    "placeMasterId": "P02500000FsoEyUoPQMkJsM3PWUWb6cKILJRI5lJ",
    "placeName": "thomson",
    "state": "GA"
  },
  {
    "city": "cochran",
    "state_code": "GA",
    "placeMasterId": "P02500000FsoEw4QIAcvyC8tRrgeUcI2GqUWMNXf",
    "placeName": "cochran",
    "state": "GA"
  },
  {
    "city": "gray",
    "state_code": "GA",
    "placeMasterId": "P02500000FsoEwmegBbotd97JskNaAjtG3ffnKzn",
    "placeName": "gray",
    "state": "GA"
  },
  {
    "city": "perry",
    "state_code": "GA",
    "placeMasterId": "P02500000FsoExvQV0mRB7x4iJF8vSep0Qm7IIzr",
    "placeName": "perry",
    "state": "GA"
  },
  {
    "city": "macon",
    "state_code": "GA",
    "placeMasterId": "P02500000FsoExUt4Cahp49LBto6fjBgwFvKC0bb",
    "placeName": "macon",
    "state": "GA"
  },
  {
    "city": "fort stewart",
    "state_code": "GA",
    "placeMasterId": "P02500000FsoEwmegBbotd97JskNaAjsEy2gRvzj",
    "placeName": "fort stewart",
    "state": "GA"
  },
  {
    "city": "savannah",
    "state_code": "GA",
    "placeMasterId": "P02500000FsoEyD7SDZakV9Z3urplHdbJAuUvfKW",
    "placeName": "savannah",
    "state": "GA"
  },
  {
    "city": "lake park",
    "state_code": "GA",
    "placeMasterId": "P02500000FsoExM2abC82NY615zlFohIvdawLBTV",
    "placeName": "lake park",
    "state": "GA"
  },
  {
    "city": "arabi",
    "state_code": "GA",
    "placeMasterId": "P02500000FsoEvV2Nl2cpRjukeRGoyKY6Q1RdPB4",
    "placeName": "arabi",
    "state": "GA"
  },
  {
    "city": "ellenton",
    "state_code": "GA",
    "placeMasterId": "P02500000FsoEwdoCaDF6wXs94w2AGFRv8Q7vDj3",
    "placeName": "ellenton",
    "state": "GA"
  },
  {
    "city": "talbotton",
    "state_code": "GA",
    "placeMasterId": "P02500000FsoEydet1lK6YxIaKIs116fUREnO8uL",
    "placeName": "talbotton",
    "state": "GA"
  },
  {
    "city": "jasper",
    "state_code": "FL",
    "placeMasterId": "P02500000FsoEs4ivHWlyxK2ZMwyn6ZdQkAMU7gT",
    "placeName": "jasper",
    "state": "FL"
  },
  {
    "city": "new smyrna beach",
    "state_code": "FL",
    "placeMasterId": "P02500000FsoEtDUk6hOGS7zxnRk8OUWrujBMJiu",
    "placeName": "new smyrna beach",
    "state": "FL"
  },
  {
    "city": "apalachicola",
    "state_code": "FL",
    "placeMasterId": "P02500000FsoEq4sEpygzKuc87a8wLiOZqQq6fqS",
    "placeName": "apalachicola",
    "state": "FL"
  },
  {
    "city": "eastpoint",
    "state_code": "FL",
    "placeMasterId": "P02500000FsoErDe3f9JGpiZWY4uHddKRSTPj7KT",
    "placeName": "eastpoint",
    "state": "FL"
  },
  {
    "city": "panama city",
    "state_code": "FL",
    "placeMasterId": "P02500000FsoEte2Aut7cVvjUCsmO7xed8yxJdcN",
    "placeName": "panama city",
    "state": "FL"
  },
  {
    "city": "pensacola",
    "state_code": "FL",
    "placeMasterId": "P02500000FsoEte2Aut7cVvjUCsmO7xi1ABLGBK0",
    "placeName": "pensacola",
    "state": "FL"
  },
  {
    "city": "orlando",
    "state_code": "FL",
    "placeMasterId": "P02500000FsoEtVBhJUXppKUJP4QyDTHMDbz9uFq",
    "placeName": "orlando",
    "state": "FL"
  },
  {
    "city": "orlando",
    "state_code": "FL",
    "placeMasterId": "P02500000FsoEtVBhJUXppKUJP4QyDTHMDbz9uFq",
    "placeName": "orlando",
    "state": "FL"
  },
  {
    "city": "orlando",
    "state_code": "FL",
    "placeMasterId": "P02500000FsoEtVBhJUXppKUJP4QyDTHMDbz9uFq",
    "placeName": "orlando",
    "state": "FL"
  },
  {
    "city": "cape canaveral",
    "state_code": "FL",
    "placeMasterId": "P02500000FsoEqeG9FZ085JapKpWbzfrFm0RQCeI",
    "placeName": "cape canaveral",
    "state": "FL"
  },
  {
    "city": "marathon",
    "state_code": "FL",
    "placeMasterId": "P02500000FsoEse6ph757hj1GaCMSkX6v3mqOQMS",
    "placeName": "marathon",
    "state": "FL"
  },
  {
    "city": "miami gardens",
    "state_code": "FL",
    "placeMasterId": "P02500000FsoEsvnmtuEh4vVcBp3IZVncVNJIj6C",
    "placeName": "miami gardens",
    "state": "FL"
  },
  {
    "city": "miami",
    "state_code": "FL",
    "placeMasterId": "P02500000FsoEsvnmtuEh4vVcBp3IZVnnnRh03zn",
    "placeName": "miami",
    "state": "FL"
  },
  {
    "city": "miami beach",
    "state_code": "FL",
    "placeMasterId": "P02500000FsoEsvnmtuEh4vVcBp3IZVokjlG7wuw",
    "placeName": "miami beach",
    "state": "FL"
  },
  {
    "city": "miami",
    "state_code": "FL",
    "placeMasterId": "P02500000FsoEsvnmtuEh4vVcBp3IZVnnnRh03zn",
    "placeName": "miami",
    "state": "FL"
  },
  {
    "city": "miami",
    "state_code": "FL",
    "placeMasterId": "P02500000FsoEsvnmtuEh4vVcBp3IZVnnnRh03zn",
    "placeName": "miami",
    "state": "FL"
  },
  {
    "city": "clewiston",
    "state_code": "FL",
    "placeMasterId": "P02500000FsoEqn6cqxZuluq08ds1uAFxDXgjWnO",
    "placeName": "clewiston",
    "state": "FL"
  },
  {
    "city": "coleman",
    "state_code": "FL",
    "placeMasterId": "P02500000FsoEqn6cqxZuluq08ds1uAI7fqYAJsO",
    "placeName": "coleman",
    "state": "FL"
  },
  {
    "city": "lutz",
    "state_code": "FL",
    "placeMasterId": "P02500000FsoEsmxJIVeuOKGRO0hsf1SfA84faQT",
    "placeName": "lutz",
    "state": "FL"
  },
  {
    "city": "riverview",
    "state_code": "FL",
    "placeMasterId": "P02500000FsoEu4Zbj4qyZjT0cJodrQpRW1mD4c8",
    "placeName": "riverview",
    "state": "FL"
  },
  {
    "city": "pinellas park",
    "state_code": "FL",
    "placeMasterId": "P02500000FsoEtmseWHhPCWyf0h7o2S1TYv9MCDM",
    "placeName": "pinellas park",
    "state": "FL"
  },
  {
    "city": "fort meade",
    "state_code": "FL",
    "placeMasterId": "P02500000FsoErMUXGXt3WJohLtFhY7jgLVrOOY5",
    "placeName": "fort meade",
    "state": "FL"
  },
  {
    "city": "ona",
    "state_code": "FL",
    "placeMasterId": "P02500000FsoEtMLDi5y38jF8bG5YIyv49wTYZwB",
    "placeName": "ona",
    "state": "FL"
  },
  {
    "city": "estero",
    "state_code": "FL",
    "placeMasterId": "P02500000FsoErDe3f9JGpiZWY4uHddLxxIIEeba",
    "placeName": "estero",
    "state": "FL"
  },
  {
    "city": "naples",
    "state_code": "FL",
    "placeMasterId": "P02500000FsoEtDUk6hOGS7zxnRk8OUWxbxM86aZ",
    "placeName": "naples",
    "state": "FL"
  },
  {
    "city": "naples",
    "state_code": "FL",
    "placeMasterId": "P02500000FsoEtDUk6hOGS7zxnRk8OUWxbxM86aZ",
    "placeName": "naples",
    "state": "FL"
  },
  {
    "city": "naples",
    "state_code": "FL",
    "placeMasterId": "P02500000FsoEtDUk6hOGS7zxnRk8OUWxbxM86aZ",
    "placeName": "naples",
    "state": "FL"
  },
  {
    "city": "bradenton",
    "state_code": "FL",
    "placeMasterId": "P02500000FsoEqVPfeAQLOiLeX1BC5BUGpFKoSYy",
    "placeName": "bradenton",
    "state": "FL"
  },
  {
    "city": "sarasota",
    "state_code": "FL",
    "placeMasterId": "P02500000FsoEu4Zbj4qyZjT0cJodrQpDdnRoRQk",
    "placeName": "sarasota",
    "state": "FL"
  },
  {
    "city": "north port",
    "state_code": "FL",
    "placeMasterId": "P02500000FsoEtDUk6hOGS7zxnRk8OUaiDW51aDQ",
    "placeName": "north port",
    "state": "FL"
  },
  {
    "city": "north port",
    "state_code": "FL",
    "placeMasterId": "P02500000FsoEtDUk6hOGS7zxnRk8OUaiDW51aDQ",
    "placeName": "north port",
    "state": "FL"
  },
  {
    "city": "inverness",
    "state_code": "FL",
    "placeMasterId": "P02500000FsoEs4ivHWlyxK2ZMwyn6ZbIN88JWIM",
    "placeName": "inverness",
    "state": "FL"
  },
  {
    "city": "lecanto",
    "state_code": "FL",
    "placeMasterId": "P02500000FsoEse6ph757hj1GaCMSkX7ZFB7i6gN",
    "placeName": "lecanto",
    "state": "FL"
  },
  {
    "city": "brooksville",
    "state_code": "FL",
    "placeMasterId": "P02500000FsoEqeG9FZ085JapKpWbzfrUjbP6P2v",
    "placeName": "brooksville",
    "state": "FL"
  },
  {
    "city": "new port richey",
    "state_code": "FL",
    "placeMasterId": "P02500000FsoEtDUk6hOGS7zxnRk8OUWxrQqsvbM",
    "placeName": "new port richey",
    "state": "FL"
  },
  {
    "city": "fort pierce",
    "state_code": "FL",
    "placeMasterId": "P02500000FsoErMUXGXt3WJohLtFhY7n1iT0LCoC",
    "placeName": "fort pierce",
    "state": "FL"
  },
  {
    "city": "baileyton",
    "state_code": "AL",
    "placeMasterId": "P02500000FsoESouPWMbzKzijADpoprpoYnNwzUp",
    "placeName": "baileyton",
    "state": "AL"
  },
  {
    "city": "goodwater",
    "state_code": "AL",
    "placeMasterId": "P02500000FsoETfzH8k4hSbBlz5uKIo4bzHwJj6X",
    "placeName": "goodwater",
    "state": "AL"
  },
  {
    "city": "helena",
    "state_code": "AL",
    "placeMasterId": "P02500000FsoETxgELXEGpng7aibA7mqzvJA8au9",
    "placeName": "helena",
    "state": "AL"
  },
  {
    "city": "warrior",
    "state_code": "AL",
    "placeMasterId": "P02500000FsoEVogRBgjTlbrO2H5ay9e9XqaHKCL",
    "placeName": "warrior",
    "state": "AL"
  },
  {
    "city": "birmingham",
    "state_code": "AL",
    "placeMasterId": "P02500000FsoESouPWMbzKzijADpoprrGKsxshig",
    "placeName": "birmingham",
    "state": "AL"
  },
  {
    "city": "birmingham",
    "state_code": "AL",
    "placeMasterId": "P02500000FsoESouPWMbzKzijADpoprrGKsxshig",
    "placeName": "birmingham",
    "state": "AL"
  },
  {
    "city": "brookwood",
    "state_code": "AL",
    "placeMasterId": "P02500000FsoESxkt7lBm1axty2BEkMEz1Vokfbe",
    "placeName": "brookwood",
    "state": "AL"
  },
  {
    "city": "kennedy",
    "state_code": "AL",
    "placeMasterId": "P02500000FsoEUFNBYKNqD0ATCLHzwlZAhlOSGE3",
    "placeName": "kennedy",
    "state": "AL"
  },
  {
    "city": "elkmont",
    "state_code": "AL",
    "placeMasterId": "P02500000FsoETX8nXLUulzwbBHYuOJibV2FLh4f",
    "placeName": "elkmont",
    "state": "AL"
  },
  {
    "city": "henagar",
    "state_code": "AL",
    "placeMasterId": "P02500000FsoETxgELXEGpng7aibA7mqKXcsdgoY",
    "placeName": "henagar",
    "state": "AL"
  },
  {
    "city": "eclectic",
    "state_code": "AL",
    "placeMasterId": "P02500000FsoETOIJvwv85OhQNTDUTpMcmLBZqAX",
    "placeName": "eclectic",
    "state": "AL"
  },
  {
    "city": "georgiana",
    "state_code": "AL",
    "placeMasterId": "P02500000FsoETfzH8k4hSbBlz5uKIo61jeOaed2",
    "placeName": "georgiana",
    "state": "AL"
  },
  {
    "city": "montgomery",
    "state_code": "AL",
    "placeMasterId": "P02500000FsoEUX48l7XPaCeonxyplkMDm5NRSjd",
    "placeName": "montgomery",
    "state": "AL"
  },
  {
    "city": "montgomery",
    "state_code": "AL",
    "placeMasterId": "P02500000FsoEUX48l7XPaCeonxyplkMDm5NRSjd",
    "placeName": "montgomery",
    "state": "AL"
  },
  {
    "city": "delta",
    "state_code": "AL",
    "placeMasterId": "P02500000FsoETOIJvwv85OhQNTDUTpKR6ir171m",
    "placeName": "delta",
    "state": "AL"
  },
  {
    "city": "midland city",
    "state_code": "AL",
    "placeMasterId": "P02500000FsoEUX48l7XPaCeonxyplkI5nM2BGzv",
    "placeName": "midland city",
    "state": "AL"
  },
  {
    "city": "river falls",
    "state_code": "AL",
    "placeMasterId": "P02500000FsoEV6S3AhqYKbdW1DMVPhooBPUltfR",
    "placeName": "river falls",
    "state": "AL"
  },
  {
    "city": "daphne",
    "state_code": "AL",
    "placeMasterId": "P02500000FsoETOIJvwv85OhQNTDUTpK6ftrZdND",
    "placeName": "daphne",
    "state": "AL"
  },
  {
    "city": "daphne",
    "state_code": "AL",
    "placeMasterId": "P02500000FsoETOIJvwv85OhQNTDUTpK6ftrZdND",
    "placeName": "daphne",
    "state": "AL"
  },
  {
    "city": "elberta",
    "state_code": "AL",
    "placeMasterId": "P02500000FsoETOIJvwv85OhQNTDUTpNd0SGXZUd",
    "placeName": "elberta",
    "state": "AL"
  },
  {
    "city": "brentwood",
    "state_code": "TN",
    "placeMasterId": "P02500000FsoGfwJGAJHdeHvBFZoRQcsBQGoda51",
    "placeName": "brentwood",
    "state": "TN"
  },
  {
    "city": "kingston springs",
    "state_code": "TN",
    "placeMasterId": "P02500000FsoGgwEbO5K8SUdOsGEMo3MNkr4G2WM",
    "placeName": "kingston springs",
    "state": "TN"
  },
  {
    "city": "lafayette",
    "state_code": "TN",
    "placeMasterId": "P02500000FsoGgwEbO5K8SUdOsGEMo3PUXCQAtbC",
    "placeName": "lafayette",
    "state": "TN"
  },
  {
    "city": "kingsport",
    "state_code": "TN",
    "placeMasterId": "P02500000FsoGgwEbO5K8SUdOsGEMo3MxSIHySjZ",
    "placeName": "kingsport",
    "state": "TN"
  },
  {
    "city": "maryville",
    "state_code": "TN",
    "placeMasterId": "P02500000FsoGhDvYasThph7kTsvCd29RxZgaPGg",
    "placeName": "maryville",
    "state": "TN"
  },
  {
    "city": "knoxville",
    "state_code": "TN",
    "placeMasterId": "P02500000FsoGgwEbO5K8SUdOsGEMo3NrnN3KYab",
    "placeName": "knoxville",
    "state": "TN"
  },
  {
    "city": "gallaway",
    "state_code": "TN",
    "placeMasterId": "P02500000FsoGgeXeBIAZ5I93GdXWz4bUpSMvEzC",
    "placeName": "gallaway",
    "state": "TN"
  },
  {
    "city": "obion",
    "state_code": "TN",
    "placeMasterId": "P02500000FsoGhVcVnfdHCtc65Vc2S0s4NrqwFEY",
    "placeName": "obion",
    "state": "TN"
  },
  {
    "city": "collinwood",
    "state_code": "TN",
    "placeMasterId": "P02500000FsoGgE0DN6RD1UPWrCVHFbbwZzqHqAC",
    "placeName": "collinwood",
    "state": "TN"
  },
  {
    "city": "ashland",
    "state_code": "MS",
    "placeMasterId": "P02500000FsoFgRVTCSWBVNR4yavJjUqkvf48F3m",
    "placeName": "ashland",
    "state": "MS"
  },
  {
    "city": "indianola",
    "state_code": "MS",
    "placeMasterId": "P02500000FsoFhRQoQEYgJa9IbHLF6vIoyfGzpYd",
    "placeName": "indianola",
    "state": "MS"
  },
  {
    "city": "shannon",
    "state_code": "MS",
    "placeMasterId": "P02500000FsoFi9fCRDRbkaNAcL4KfNDyyL3r05J",
    "placeName": "shannon",
    "state": "MS"
  },
  {
    "city": "tishomingo",
    "state_code": "MS",
    "placeMasterId": "P02500000FsoFiRM9e0bB7mrWDxlAULwbfwZZpTF",
    "placeName": "tishomingo",
    "state": "MS"
  },
  {
    "city": "forest",
    "state_code": "MS",
    "placeMasterId": "P02500000FsoFh9jrDRP6wNewzeePHwdDmqzUd6T",
    "placeName": "forest",
    "state": "MS"
  },
  {
    "city": "leakesville",
    "state_code": "MS",
    "placeMasterId": "P02500000FsoFhRQoQEYgJa9IbHLF6vRuB0PKprn",
    "placeName": "leakesville",
    "state": "MS"
  },
  {
    "city": "poplarville",
    "state_code": "MS",
    "placeMasterId": "P02500000FsoFi0oiporp3z7zoWiuksodF4ddQfb",
    "placeName": "poplarville",
    "state": "MS"
  },
  {
    "city": "foxworth",
    "state_code": "MS",
    "placeMasterId": "P02500000FsoFh9jrDRP6wNewzeePHwkLEXCxdw1",
    "placeName": "foxworth",
    "state": "MS"
  },
  {
    "city": "biloxi",
    "state_code": "MS",
    "placeMasterId": "P02500000FsoFgaLwnr5yBygFmPGjdzA8ATHpH98",
    "placeName": "biloxi",
    "state": "MS"
  },
  {
    "city": "monticello",
    "state_code": "MS",
    "placeMasterId": "P02500000FsoFhj7ld1iFgmdeCu24vu2XKS4c69O",
    "placeName": "monticello",
    "state": "MS"
  },
  {
    "city": "louisville",
    "state_code": "KY",
    "placeMasterId": "P02500000FsoFOkYGPIwoIt5TLu5UkkhkzCsPo64",
    "placeName": "louisville",
    "state": "KY"
  },
  {
    "city": "louisville",
    "state_code": "KY",
    "placeMasterId": "P02500000FsoFOkYGPIwoIt5TLu5UkkhkzCsPo64",
    "placeName": "louisville",
    "state": "KY"
  },
  {
    "city": "frankfort",
    "state_code": "KY",
    "placeMasterId": "P02500000FsoFO2JsOK3srsrbKqMPCIpbQNWokAK",
    "placeName": "frankfort",
    "state": "KY"
  },
  {
    "city": "kenvir",
    "state_code": "KY",
    "placeMasterId": "P02500000FsoFOSrJCVnEvgb7kHOevlzIKflntZP",
    "placeName": "kenvir",
    "state": "KY"
  },
  {
    "city": "oneida",
    "state_code": "KY",
    "placeMasterId": "P02500000FsoFPB5hDUgAMgozlL7kUDsnR1l8Jx7",
    "placeName": "oneida",
    "state": "KY"
  },
  {
    "city": "berry",
    "state_code": "KY",
    "placeMasterId": "P02500000FsoFNBF0lwbAkHOYVyHtjMaMqi3pgic",
    "placeName": "berry",
    "state": "KY"
  },
  {
    "city": "erlanger",
    "state_code": "KY",
    "placeMasterId": "P02500000FsoFNtTOmvU6BHcQX20zHoQhNxEQmz3",
    "placeName": "erlanger",
    "state": "KY"
  },
  {
    "city": "germantown",
    "state_code": "KY",
    "placeMasterId": "P02500000FsoFO2JsOK3srsrbKqMPCIv29WSSADQ",
    "placeName": "germantown",
    "state": "KY"
  },
  {
    "city": "dayton",
    "state_code": "KY",
    "placeMasterId": "P02500000FsoFNkcvBWuJUgNFjDfZNK5L6RsKL4A",
    "placeName": "dayton",
    "state": "KY"
  },
  {
    "city": "greenup",
    "state_code": "KY",
    "placeMasterId": "P02500000FsoFOK0pb7DSF5LwwT3F1HYL6vaJzHH",
    "placeName": "greenup",
    "state": "KY"
  },
  {
    "city": "south shore",
    "state_code": "KY",
    "placeMasterId": "P02500000FsoFPkTbd4zJ75ngyaVQ8BErweCydZs",
    "placeName": "south shore",
    "state": "KY"
  },
  {
    "city": "virgie",
    "state_code": "KY",
    "placeMasterId": "P02500000FsoFPtK5ETZ5nh2rmOqq2fhig2ZWZRo",
    "placeName": "virgie",
    "state": "KY"
  },
  {
    "city": "millstone",
    "state_code": "KY",
    "placeMasterId": "P02500000FsoFP2FDc66Ng5ZoxWmKZjPr8MW3tas",
    "placeName": "millstone",
    "state": "KY"
  },
  {
    "city": "bandana",
    "state_code": "KY",
    "placeMasterId": "P02500000FsoFNBF0lwbAkHOYVyHtjMXnpJpxK5r",
    "placeName": "bandana",
    "state": "KY"
  },
  {
    "city": "benton",
    "state_code": "KY",
    "placeMasterId": "P02500000FsoFNBF0lwbAkHOYVyHtjMXFsV0VyBB",
    "placeName": "benton",
    "state": "KY"
  },
  {
    "city": "mayfield",
    "state_code": "KY",
    "placeMasterId": "P02500000FsoFOtOk0hWazUKe9iQufF3ApYh3SPK",
    "placeName": "mayfield",
    "state": "KY"
  },
  {
    "city": "guthrie",
    "state_code": "KY",
    "placeMasterId": "P02500000FsoFOK0pb7DSF5LwwT3F1HZX2ibBRTv",
    "placeName": "guthrie",
    "state": "KY"
  },
  {
    "city": "campbellsville",
    "state_code": "KY",
    "placeMasterId": "P02500000FsoFNK5UNLAxQsdjJmdJdqySIrhm1XM",
    "placeName": "campbellsville",
    "state": "KY"
  },
  {
    "city": "centerburg",
    "state_code": "OH",
    "placeMasterId": "P02500000FsoGDgiijp09bLSgAnPh1dKNstTnA9L",
    "placeName": "centerburg",
    "state": "OH"
  },
  {
    "city": "delaware",
    "state_code": "OH",
    "placeMasterId": "P02500000FsoGE7G9Y0jVf9CCaERwl6VsWgWX5zz",
    "placeName": "delaware",
    "state": "OH"
  },
  {
    "city": "dublin",
    "state_code": "OH",
    "placeMasterId": "P02500000FsoGEOx6knt52LgYBr8ma56pnocLsS8",
    "placeName": "dublin",
    "state": "OH"
  },
  {
    "city": "north lewisburg",
    "state_code": "OH",
    "placeMasterId": "P02500000FsoGH72BDKr05lKrSHhitOLcvVdubxX",
    "placeName": "north lewisburg",
    "state": "OH"
  },
  {
    "city": "stoutsville",
    "state_code": "OH",
    "placeMasterId": "P02500000FsoGIgLQqhCdeN1mIDVJumHn6jR1YRk",
    "placeName": "stoutsville",
    "state": "OH"
  },
  {
    "city": "west jefferson",
    "state_code": "OH",
    "placeMasterId": "P02500000FsoGJOZorg5Z5NFeJHEPTE57pSPhNri",
    "placeName": "west jefferson",
    "state": "OH"
  },
  {
    "city": "kenton",
    "state_code": "OH",
    "placeMasterId": "P02500000FsoGFgZPBN59Dkt7QAFXmUTB6zZfsdP",
    "placeName": "kenton",
    "state": "OH"
  },
  {
    "city": "mount victory",
    "state_code": "OH",
    "placeMasterId": "P02500000FsoGGpLE0XhQiYqVqf0t4PWL2n0izNr",
    "placeName": "mount victory",
    "state": "OH"
  },
  {
    "city": "hamler",
    "state_code": "OH",
    "placeMasterId": "P02500000FsoGF7BUlmm0TLuQCurs8X3zNMDV0LH",
    "placeName": "hamler",
    "state": "OH"
  },
  {
    "city": "pioneer",
    "state_code": "OH",
    "placeMasterId": "P02500000FsoGHXZc1WaM9Z4NrijycrRsvFUyavt",
    "placeName": "pioneer",
    "state": "OH"
  },
  {
    "city": "kimbolton",
    "state_code": "OH",
    "placeMasterId": "P02500000FsoGFgZPBN59Dkt7QAFXmUVDHnmev3a",
    "placeName": "kimbolton",
    "state": "OH"
  },
  {
    "city": "grafton",
    "state_code": "OH",
    "placeMasterId": "P02500000FsoGEyL1AOCDmkfFP6WSE2YsD2R9E0U",
    "placeName": "grafton",
    "state": "OH"
  },
  {
    "city": "lorain",
    "state_code": "OH",
    "placeMasterId": "P02500000FsoGFyGMOAEiaxNT1mwNbTOLsVg5ycs",
    "placeName": "lorain",
    "state": "OH"
  },
  {
    "city": "northfield",
    "state_code": "OH",
    "placeMasterId": "P02500000FsoGHFseojQmmMa2G638nsXIIq5zGq3",
    "placeName": "northfield",
    "state": "OH"
  },
  {
    "city": "rock creek",
    "state_code": "OH",
    "placeMasterId": "P02500000FsoGI6xWR6tUty354y7eGomXrXCccaX",
    "placeName": "rock creek",
    "state": "OH"
  },
  {
    "city": "euclid",
    "state_code": "OH",
    "placeMasterId": "P02500000FsoGEOx6knt52LgYBr8ma5M90fVYXXK",
    "placeName": "euclid",
    "state": "OH"
  },
  {
    "city": "akron",
    "state_code": "OH",
    "placeMasterId": "P02500000FsoGCXwtueNs6XVHkIeLjiMh8uljxTa",
    "placeName": "akron",
    "state": "OH"
  },
  {
    "city": "fredericksburg",
    "state_code": "OH",
    "placeMasterId": "P02500000FsoGEge3xb2ePYAtnTpcP3rWZwawVY0",
    "placeName": "fredericksburg",
    "state": "OH"
  },
  {
    "city": "canton",
    "state_code": "OH",
    "placeMasterId": "P02500000FsoGDXsF8QQMukDVMz4H790las5R4Gr",
    "placeName": "canton",
    "state": "OH"
  },
  {
    "city": "hamilton",
    "state_code": "OH",
    "placeMasterId": "P02500000FsoGF7BUlmm0TLuQCurs8WznCJabQe8",
    "placeName": "hamilton",
    "state": "OH"
  },
  {
    "city": "hamilton",
    "state_code": "OH",
    "placeMasterId": "P02500000FsoGF7BUlmm0TLuQCurs8WznCJabQe8",
    "placeName": "hamilton",
    "state": "OH"
  },
  {
    "city": "clarksville",
    "state_code": "OH",
    "placeMasterId": "P02500000FsoGDpZCLDZwHwhqybl6w7cPOlQKv2U",
    "placeName": "clarksville",
    "state": "OH"
  },
  {
    "city": "morrow",
    "state_code": "OH",
    "placeMasterId": "P02500000FsoGGgUkP97e1xbL2qfT9vE9mPz47FK",
    "placeName": "morrow",
    "state": "OH"
  },
  {
    "city": "cincinnati",
    "state_code": "OH",
    "placeMasterId": "P02500000FsoGDpZCLDZwHwhqybl6w7e8Lps6H4x",
    "placeName": "cincinnati",
    "state": "OH"
  },
  {
    "city": "gettysburg",
    "state_code": "OH",
    "placeMasterId": "P02500000FsoGEpUXYzcR69Q4bIB2JYP0IgKdRV5",
    "placeName": "gettysburg",
    "state": "OH"
  },
  {
    "city": "sidney",
    "state_code": "OH",
    "placeMasterId": "P02500000FsoGIOeTdu34HAXQgaoU5nhAUsCQwxi",
    "placeName": "sidney",
    "state": "OH"
  },
  {
    "city": "dayton",
    "state_code": "OH",
    "placeMasterId": "P02500000FsoGE7G9Y0jVf9CCaERwl6OdIDcWstb",
    "placeName": "dayton",
    "state": "OH"
  },
  {
    "city": "dayton",
    "state_code": "OH",
    "placeMasterId": "P02500000FsoGE7G9Y0jVf9CCaERwl6OdIDcWstb",
    "placeName": "dayton",
    "state": "OH"
  },
  {
    "city": "crown city",
    "state_code": "OH",
    "placeMasterId": "P02500000FsoGDyPfwc9iyXx1mQ6Wqc2LXFVkERH",
    "placeName": "crown city",
    "state": "OH"
  },
  {
    "city": "lima",
    "state_code": "OH",
    "placeMasterId": "P02500000FsoGFyGMOAEiaxNT1mwNbTDOR7AFdAX",
    "placeName": "lima",
    "state": "OH"
  },
  {
    "city": "chickasaw",
    "state_code": "OH",
    "placeMasterId": "P02500000FsoGDpZCLDZwHwhqybl6w7Zx45CKSpz",
    "placeName": "chickasaw",
    "state": "OH"
  },
  {
    "city": "dola",
    "state_code": "OH",
    "placeMasterId": "P02500000FsoGEG6d9PJILkRNO2nMfagA7vENxHc",
    "placeName": "dola",
    "state": "OH"
  },
  {
    "city": "lapel",
    "state_code": "IN",
    "placeMasterId": "P02500000FsoFAlbTISNqy16OcKEXSkGfThUaFrb",
    "placeName": "lapel",
    "state": "IN"
  },
  {
    "city": "greenfield",
    "state_code": "IN",
    "placeMasterId": "P02500000FsoFACDYss4iDc7hP4qromlzpLGh8zk",
    "placeName": "greenfield",
    "state": "IN"
  },
  {
    "city": "indianapolis",
    "state_code": "IN",
    "placeMasterId": "P02500000FsoFAckzh3o4HPrDoVt7YFuCi8MjR1V",
    "placeName": "indianapolis",
    "state": "IN"
  },
  {
    "city": "munster",
    "state_code": "IN",
    "placeMasterId": "P02500000FsoFBTprJRGmP1KGdNxd1C4HdXOxyj6",
    "placeName": "munster",
    "state": "IN"
  },
  {
    "city": "gary",
    "state_code": "IN",
    "placeMasterId": "P02500000FsoFAL42UGeUuDMsCtCHjH6C1Ea8Vf2",
    "placeName": "gary",
    "state": "IN"
  },
  {
    "city": "burket",
    "state_code": "IN",
    "placeMasterId": "P02500000FsoF9TzArtBmmbtpO17mGKvLoES3QEN",
    "placeName": "burket",
    "state": "IN"
  },
  {
    "city": "new carlisle",
    "state_code": "IN",
    "placeMasterId": "P02500000FsoFBKzNi2gziQ55pZcD6hjTGzsnJXg",
    "placeName": "new carlisle",
    "state": "IN"
  },
  {
    "city": "notre dame",
    "state_code": "IN",
    "placeMasterId": "P02500000FsoFBcgKupqZ5cZRRCJ2vgTksZeSjAs",
    "placeName": "notre dame",
    "state": "IN"
  },
  {
    "city": "south bend",
    "state_code": "IN",
    "placeMasterId": "P02500000FsoFCC4FKQ9hq1Y8eRgiZdyg3XsySz8",
    "placeName": "south bend",
    "state": "IN"
  },
  {
    "city": "fort wayne",
    "state_code": "IN",
    "placeMasterId": "P02500000FsoFACDYss4iDc7hP4qromiuPZZ994H",
    "placeName": "fort wayne",
    "state": "IN"
  },
  {
    "city": "north manchester",
    "state_code": "IN",
    "placeMasterId": "P02500000FsoFBTprJRGmP1KGdNxd1C6bDHRgnwE",
    "placeName": "north manchester",
    "state": "IN"
  },
  {
    "city": "lawrenceburg",
    "state_code": "IN",
    "placeMasterId": "P02500000FsoFAuRwtqxdecLZQ8ZxNEb0EtU67bf",
    "placeName": "lawrenceburg",
    "state": "IN"
  },
  {
    "city": "patriot",
    "state_code": "IN",
    "placeMasterId": "P02500000FsoFBlWoWEQLmDocF0eSqApPvfqMFnK",
    "placeName": "patriot",
    "state": "IN"
  },
  {
    "city": "dupont",
    "state_code": "IN",
    "placeMasterId": "P02500000FsoF9uWbg4v8qPdLnSA1zo2qjqfbeIJ",
    "placeName": "dupont",
    "state": "IN"
  },
  {
    "city": "muncie",
    "state_code": "IN",
    "placeMasterId": "P02500000FsoFBKzNi2gziQ55pZcD6hjHnegWN5v",
    "placeName": "muncie",
    "state": "IN"
  },
  {
    "city": "muncie",
    "state_code": "IN",
    "placeMasterId": "P02500000FsoFBKzNi2gziQ55pZcD6hjHnegWN5v",
    "placeName": "muncie",
    "state": "IN"
  },
  {
    "city": "middletown",
    "state_code": "IN",
    "placeMasterId": "P02500000FsoFBC8u6e7D1opv1lGnCDM3PsekUwV",
    "placeName": "middletown",
    "state": "IN"
  },
  {
    "city": "mount summit",
    "state_code": "IN",
    "placeMasterId": "P02500000FsoFBKzNi2gziQ55pZcD6hjvKpBkuFI",
    "placeName": "mount summit",
    "state": "IN"
  },
  {
    "city": "sandborn",
    "state_code": "IN",
    "placeMasterId": "P02500000FsoFC3Dlj1Zv9QIxqdLIf9b9IXIumka",
    "placeName": "sandborn",
    "state": "IN"
  },
  {
    "city": "shoals",
    "state_code": "IN",
    "placeMasterId": "P02500000FsoFCC4FKQ9hq1Y8eRgiZdyGK9bLAJQ",
    "placeName": "shoals",
    "state": "IN"
  },
  {
    "city": "new goshen",
    "state_code": "IN",
    "placeMasterId": "P02500000FsoFBTprJRGmP1KGdNxd1C5Fs5Xk5G3",
    "placeName": "new goshen",
    "state": "IN"
  },
  {
    "city": "dayton",
    "state_code": "IN",
    "placeMasterId": "P02500000FsoF9lg84gLM9oOAzdoc5JejNtXyLWD",
    "placeName": "dayton",
    "state": "IN"
  },
  {
    "city": "kentland",
    "state_code": "IN",
    "placeMasterId": "P02500000FsoFAlbTISNqy16OcKEXSkDA0VKpY72",
    "placeName": "kentland",
    "state": "IN"
  },
  {
    "city": "monon",
    "state_code": "IN",
    "placeMasterId": "P02500000FsoFBC8u6e7D1opv1lGnCDP4boXuOEU",
    "placeName": "monon",
    "state": "IN"
  },
  {
    "city": "troy",
    "state_code": "MI",
    "placeMasterId": "P02500000FsoFajeN4bQm1Le6q76bHtosaoXIJU9",
    "placeName": "troy",
    "state": "MI"
  },
  {
    "city": "warren",
    "state_code": "MI",
    "placeMasterId": "P02500000FsoFasUqg00YhwtHdvS1COERdkHO5aB",
    "placeName": "warren",
    "state": "MI"
  },
  {
    "city": "ann arbor",
    "state_code": "MI",
    "placeMasterId": "P02500000FsoFX1dxOIQM9jHZx07jbAPjgnqdjRL",
    "placeName": "ann arbor",
    "state": "MI"
  },
  {
    "city": "dearborn",
    "state_code": "MI",
    "placeMasterId": "P02500000FsoFY1ZIc4SqxvznZgXeyaqr2imSlK7",
    "placeName": "dearborn",
    "state": "MI"
  },
  {
    "city": "grosse pointe",
    "state_code": "MI",
    "placeMasterId": "P02500000FsoFYjngd3LmOwDfakGkX2cZ5TGdw5h",
    "placeName": "grosse pointe",
    "state": "MI"
  },
  {
    "city": "farmington",
    "state_code": "MI",
    "placeMasterId": "P02500000FsoFYJGForcQL8U9BJEUnZXmDCwU1Zs",
    "placeName": "farmington",
    "state": "MI"
  },
  {
    "city": "hemlock",
    "state_code": "MI",
    "placeMasterId": "P02500000FsoFYjngd3LmOwDfakGkX2dYWS4DAk8",
    "placeName": "hemlock",
    "state": "MI"
  },
  {
    "city": "midland",
    "state_code": "MI",
    "placeMasterId": "P02500000FsoFZasYFQoUWXgiPcLFzyydRElbHy8",
    "placeName": "midland",
    "state": "MI"
  },
  {
    "city": "bay city",
    "state_code": "MI",
    "placeMasterId": "P02500000FsoFXJKub5ZvWvlvYcoZQ96EfM7aCn2",
    "placeName": "bay city",
    "state": "MI"
  },
  {
    "city": "elsie",
    "state_code": "MI",
    "placeMasterId": "P02500000FsoFYJGForcQL8U9BJEUnZUiSkCNu97",
    "placeName": "elsie",
    "state": "MI"
  },
  {
    "city": "ionia",
    "state_code": "MI",
    "placeMasterId": "P02500000FsoFYseAERvZ5XSqOYcARXAfUwsgCRf",
    "placeName": "ionia",
    "state": "MI"
  },
  {
    "city": "muir",
    "state_code": "MI",
    "placeMasterId": "P02500000FsoFZjj1qpOHD8vtDQgfuTHK41eXwyG",
    "placeName": "muir",
    "state": "MI"
  },
  {
    "city": "ovid",
    "state_code": "MI",
    "placeMasterId": "P02500000FsoFZsZVSDy3tkB41F25oxogPHeBeVf",
    "placeName": "ovid",
    "state": "MI"
  },
  {
    "city": "sidney",
    "state_code": "MI",
    "placeMasterId": "P02500000FsoHn8ophZDUtdcguPM8KD15iB9U5Hd",
    "placeName": "sidney",
    "state": "MI"
  },
  {
    "city": "kalamazoo",
    "state_code": "MI",
    "placeMasterId": "P02500000FsoFZ1UdpqVLm8i1CMxaM1Y4EtACkYj",
    "placeName": "kalamazoo",
    "state": "MI"
  },
  {
    "city": "colon",
    "state_code": "MI",
    "placeMasterId": "P02500000FsoFXsip0ft4HKkclsCF46YDWOHH0Cm",
    "placeName": "colon",
    "state": "MI"
  },
  {
    "city": "leslie",
    "state_code": "MI",
    "placeMasterId": "P02500000FsoFZJBb2dev9LCMnzeQB07PFy8GhqL",
    "placeName": "leslie",
    "state": "MI"
  },
  {
    "city": "big rapids",
    "state_code": "MI",
    "placeMasterId": "P02500000FsoFXSBOCU9iDX16MR9zKdKB7PdIECL",
    "placeName": "big rapids",
    "state": "MI"
  },
  {
    "city": "comstock park",
    "state_code": "MI",
    "placeMasterId": "P02500000FsoFXsip0ft4HKkclsCF46cCL610YAy",
    "placeName": "comstock park",
    "state": "MI"
  },
  {
    "city": "montague",
    "state_code": "MI",
    "placeMasterId": "P02500000FsoFZasYFQoUWXgiPcLFzz48fLxq3rl",
    "placeName": "montague",
    "state": "MI"
  },
  {
    "city": "manistee",
    "state_code": "MI",
    "placeMasterId": "P02500000FsoFZJBb2dev9LCMnzeQB0HkLaIyAiq",
    "placeName": "manistee",
    "state": "MI"
  },
  {
    "city": "mesick",
    "state_code": "MI",
    "placeMasterId": "P02500000FsoFZasYFQoUWXgiPcLFzyvKjjl0iCX",
    "placeName": "mesick",
    "state": "MI"
  },
  {
    "city": "mackinaw city",
    "state_code": "MI",
    "placeMasterId": "P02500000FsoFZJBb2dev9LCMnzeQB0LdcKxZgqC",
    "placeName": "mackinaw city",
    "state": "MI"
  },
  {
    "city": "indian river",
    "state_code": "MI",
    "placeMasterId": "P02500000FsoFZ1UdpqVLm8i1CMxaM1OZG9cciLB",
    "placeName": "indian river",
    "state": "MI"
  },
  {
    "city": "au train",
    "state_code": "MI",
    "placeMasterId": "P02500000FsoHh9GmMuyW2PLNAIqa3dFOO7Bjkwr",
    "placeName": "au train",
    "state": "MI"
  },
  {
    "city": "felch",
    "state_code": "MI",
    "placeMasterId": "P02500000FsoHjHxwPrdILQ0zDU1qiyvlSjHAmVA",
    "placeName": "felch",
    "state": "MI"
  },
  {
    "city": "palmer",
    "state_code": "MI",
    "placeMasterId": "P02500000FsoFZsZVSDy3tkB41F25oxl1y7EbzT2",
    "placeName": "palmer",
    "state": "MI"
  },
  {
    "city": "atlantic",
    "state_code": "IA",
    "placeMasterId": "P02500000FsoFDKq49alzKpVX4wS3rYtr3Vc4NTj",
    "placeName": "atlantic",
    "state": "IA"
  },
  {
    "city": "coon rapids",
    "state_code": "IA",
    "placeMasterId": "P02500000FsoFE34SAZeulpjP60B9Q0onDL6kiGl",
    "placeName": "coon rapids",
    "state": "IA"
  },
  {
    "city": "granger",
    "state_code": "IA",
    "placeMasterId": "P02500000FsoFF2znOLhPa2Rcigb4nRPmcoreAbp",
    "placeName": "granger",
    "state": "IA"
  },
  {
    "city": "kellogg",
    "state_code": "IA",
    "placeMasterId": "P02500000FsoFFlEBPKaL12fUjkKALtGY8E95u9T",
    "placeName": "kellogg",
    "state": "IA"
  },
  {
    "city": "lucas",
    "state_code": "IA",
    "placeMasterId": "P02500000FsoFGKc5outTlReBwzhpzqiIQnyYBxo",
    "placeName": "lucas",
    "state": "IA"
  },
  {
    "city": "milo",
    "state_code": "IA",
    "placeMasterId": "P02500000FsoFGcJ31i338e8XYcOfopSyArJGR1N",
    "placeName": "milo",
    "state": "IA"
  },
  {
    "city": "newton",
    "state_code": "IA",
    "placeMasterId": "P02500000FsoFH2qTptmPCRs3y3QvYIYnAiIq3TJ",
    "placeName": "newton",
    "state": "IA"
  },
  {
    "city": "thornburg",
    "state_code": "IA",
    "placeMasterId": "P02500000FsoFITJFrrYG4SJo0At6fCHLWdgSmM7",
    "placeName": "thornburg",
    "state": "IA"
  },
  {
    "city": "buffalo center",
    "state_code": "IA",
    "placeMasterId": "P02500000FsoFDlNUxmVLOdF3UNUJb21WY7sgcm1",
    "placeName": "buffalo center",
    "state": "IA"
  },
  {
    "city": "fertile",
    "state_code": "IA",
    "placeMasterId": "P02500000FsoFEu9Jmx7ctRCRusFesx0XO5yXY6G",
    "placeName": "fertile",
    "state": "IA"
  },
  {
    "city": "woden",
    "state_code": "IA",
    "placeMasterId": "P02500000FsoFItqgg3Hc8G3KPbvMOfWC2BHIkVr",
    "placeName": "woden",
    "state": "IA"
  },
  {
    "city": "humboldt",
    "state_code": "IA",
    "placeMasterId": "P02500000FsoFFTXECXQldqB987dKWuUudpEshAo",
    "placeName": "humboldt",
    "state": "IA"
  },
  {
    "city": "webster city",
    "state_code": "IA",
    "placeMasterId": "P02500000FsoFIl0D4ehpReo9bnZwUB4ThFVUWvp",
    "placeName": "webster city",
    "state": "IA"
  },
  {
    "city": "charles city",
    "state_code": "IA",
    "placeMasterId": "P02500000FsoFDuDyZB585EUEIBpjVWQqXSZ9LXV",
    "placeName": "charles city",
    "state": "IA"
  },
  {
    "city": "maynard",
    "state_code": "IA",
    "placeMasterId": "P02500000FsoFGTSZQJTGS2tMko3FuL6io4KuuJD",
    "placeName": "maynard",
    "state": "IA"
  },
  {
    "city": "akron",
    "state_code": "IA",
    "placeMasterId": "P02500000FsoFD396wncPxd1BTJlE2aA1cSYhiDK",
    "placeName": "akron",
    "state": "IA"
  },
  {
    "city": "smithland",
    "state_code": "IA",
    "placeMasterId": "P02500000FsoFIBcIf4OghFpSOYCGqDXHaSJ0YFY",
    "placeName": "smithland",
    "state": "IA"
  },
  {
    "city": "sutherland",
    "state_code": "IA",
    "placeMasterId": "P02500000FsoFIKSmGSyTNr4dCMXgkhvMOdzShXq",
    "placeName": "sutherland",
    "state": "IA"
  },
  {
    "city": "hartley",
    "state_code": "IA",
    "placeMasterId": "P02500000FsoFFKgkb8qyxEvyKJHucQ6gdRmFnaB",
    "placeName": "hartley",
    "state": "IA"
  },
  {
    "city": "arion",
    "state_code": "IA",
    "placeMasterId": "P02500000FsoFDBzaYCCCeEGMH86dx4Xbqq5T5Bc",
    "placeName": "arion",
    "state": "IA"
  },
  {
    "city": "avoca",
    "state_code": "IA",
    "placeMasterId": "P02500000FsoFDKq49alzKpVX4wS3rYu2uD1IEnx",
    "placeName": "avoca",
    "state": "IA"
  },
  {
    "city": "elliott",
    "state_code": "IA",
    "placeMasterId": "P02500000FsoFElIqBYXqCpxH73uEyScPf28Ko1o",
    "placeName": "elliott",
    "state": "IA"
  },
  {
    "city": "mineola",
    "state_code": "IA",
    "placeMasterId": "P02500000FsoFGcJ31i338e8XYcOfopThzL84XF3",
    "placeName": "mineola",
    "state": "IA"
  },
  {
    "city": "mondamin",
    "state_code": "IA",
    "placeMasterId": "P02500000FsoFGl9Wd6cppFNiMQk5jJqXVAsYxma",
    "placeName": "mondamin",
    "state": "IA"
  },
  {
    "city": "panama",
    "state_code": "IA",
    "placeMasterId": "P02500000FsoFHBgxRIMBt37ElrmLSmyNyvL3I47",
    "placeName": "panama",
    "state": "IA"
  },
  {
    "city": "greeley",
    "state_code": "IA",
    "placeMasterId": "P02500000FsoFFBqGzkHCGdgnWUwUhvm6RWelqtj",
    "placeName": "greeley",
    "state": "IA"
  },
  {
    "city": "brooklyn",
    "state_code": "IA",
    "placeMasterId": "P02500000FsoFDcX1MNvYi1zsgZ8tgXfWZkK7wZ7",
    "placeName": "brooklyn",
    "state": "IA"
  },
  {
    "city": "clutier",
    "state_code": "IA",
    "placeMasterId": "P02500000FsoFE34SAZeulpjP60B9Q0n6H3zSJR5",
    "placeName": "clutier",
    "state": "IA"
  },
  {
    "city": "morley",
    "state_code": "IA",
    "placeMasterId": "P02500000FsoFGl9Wd6cppFNiMQk5jJsC0cOIimA",
    "placeName": "morley",
    "state": "IA"
  },
  {
    "city": "olin",
    "state_code": "IA",
    "placeMasterId": "P02500000FsoFH2qTptmPCRs3y3QvYIZaQVZgMiX",
    "placeName": "olin",
    "state": "IA"
  },
  {
    "city": "quasqueton",
    "state_code": "IA",
    "placeMasterId": "P02500000FsoFHTNue5VlGFbaNUTBHliJZgStHQS",
    "placeName": "quasqueton",
    "state": "IA"
  },
  {
    "city": "tama",
    "state_code": "IA",
    "placeMasterId": "P02500000FsoFIKSmGSyTNr4dCMXgkhw4AAPePow",
    "placeName": "tama",
    "state": "IA"
  },
  {
    "city": "ottumwa",
    "state_code": "IA",
    "placeMasterId": "P02500000FsoFHBgxRIMBt37ElrmLSmxEy35tL1P",
    "placeName": "ottumwa",
    "state": "IA"
  },
  {
    "city": "university park",
    "state_code": "IA",
    "placeMasterId": "P02500000FsoFITJFrrYG4SJo0At6fCIzxV1gK1R",
    "placeName": "university park",
    "state": "IA"
  },
  {
    "city": "lockridge",
    "state_code": "IA",
    "placeMasterId": "P02500000FsoFGBlcDWJh4qP19BMQ5MKCyR7NaDi",
    "placeName": "lockridge",
    "state": "IA"
  },
  {
    "city": "princeton",
    "state_code": "IA",
    "placeMasterId": "P02500000FsoFHKXR2gvyZeMPZg7lNHMnrFfgdGI",
    "placeName": "princeton",
    "state": "IA"
  },
  {
    "city": "ashippun",
    "state_code": "WI",
    "placeMasterId": "P02500000FsoIfe9E6zhTN77FobJmNKnLIMznrqK",
    "placeName": "ashippun",
    "state": "WI"
  },
  {
    "city": "campbellsport",
    "state_code": "WI",
    "placeMasterId": "P02500000FsoH4uQoigI3tPkfqgGZsLtmPfQV68I",
    "placeName": "campbellsport",
    "state": "WI"
  },
  {
    "city": "grafton",
    "state_code": "WI",
    "placeMasterId": "P02500000FsoHFT49M10AjrrZIlpVIbKWI6wh5tE",
    "placeName": "grafton",
    "state": "WI"
  },
  {
    "city": "oakfield",
    "state_code": "WI",
    "placeMasterId": "P02500000FsoHEbzHjdXScGOWTtkzpf97PR41bTx",
    "placeName": "oakfield",
    "state": "WI"
  },
  {
    "city": "oconomowoc",
    "state_code": "WI",
    "placeMasterId": "P02500000FsoH7BySN1Wct1fShfnGSBl2oRTSJst",
    "placeName": "oconomowoc",
    "state": "WI"
  },
  {
    "city": "sheboygan",
    "state_code": "WI",
    "placeMasterId": "P02500000FsoH7lMMmbpldQe9uvAw69JuNWFWGFD",
    "placeName": "sheboygan",
    "state": "WI"
  },
  {
    "city": "north prairie",
    "state_code": "WI",
    "placeMasterId": "P02500000FsoH737ylcwqCQQHtrRqXhSMzCYk3N9",
    "placeName": "north prairie",
    "state": "WI"
  },
  {
    "city": "palmyra",
    "state_code": "WI",
    "placeMasterId": "P02500000FsoHF2WiXpGog482tKnFZ8FRfmlrfXi",
    "placeName": "palmyra",
    "state": "WI"
  },
  {
    "city": "arena",
    "state_code": "WI",
    "placeMasterId": "P02500000FsoHEtgEwQh1zSss5WRpedtII10Y2BZ",
    "placeName": "arena",
    "state": "WI"
  },
  {
    "city": "janesville",
    "state_code": "WI",
    "placeMasterId": "P02500000FsoH6C379FU84oxF4zNL4l70x93YJgq",
    "placeName": "janesville",
    "state": "WI"
  },
  {
    "city": "middleton",
    "state_code": "WI",
    "placeMasterId": "P02500000FsoH6lR1YpnGpDvwIEl0iijRjd0X5fK",
    "placeName": "middleton",
    "state": "WI"
  },
  {
    "city": "monticello",
    "state_code": "WI",
    "placeMasterId": "P02500000FsoHFBNC9DqbMfNDh98fTcW5jHlTheS",
    "placeName": "monticello",
    "state": "WI"
  },
  {
    "city": "fall river",
    "state_code": "WI",
    "placeMasterId": "P02500000FsoH5cfCjfAzKPyXrjzfQngdVxr0Lx1",
    "placeName": "fall river",
    "state": "WI"
  },
  {
    "city": "hudson",
    "state_code": "WI",
    "placeMasterId": "P02500000FsoH63CdXquLODi4HB1vAGuXI1xCBIx",
    "placeName": "hudson",
    "state": "WI"
  },
  {
    "city": "niagara",
    "state_code": "WI",
    "placeMasterId": "P02500000FsoH737ylcwqCQQHtrRqXhNzuB3nDUK",
    "placeName": "niagara",
    "state": "WI"
  },
  {
    "city": "oconto falls",
    "state_code": "WI",
    "placeMasterId": "P02500000FsoH7BySN1Wct1fShfnGSBiFfBpPsl6",
    "placeName": "oconto falls",
    "state": "WI"
  },
  {
    "city": "francis creek",
    "state_code": "WI",
    "placeMasterId": "P02500000FsoH5cfCjfAzKPyXrjzfQnigxlThW6r",
    "placeName": "francis creek",
    "state": "WI"
  },
  {
    "city": "edgar",
    "state_code": "WI",
    "placeMasterId": "P02500000FsoH5Toj8GbCdojN3veFWJGefybXPWx",
    "placeName": "edgar",
    "state": "WI"
  },
  {
    "city": "winter",
    "state_code": "WI",
    "placeMasterId": "P02500000FsoHFkl6Yo9k74LuuOWL7a47jkvrUMA",
    "placeName": "winter",
    "state": "WI"
  },
  {
    "city": "green lake",
    "state_code": "WI",
    "placeMasterId": "P02500000FsoH5uM9wSKYhcStTMgVFmL2B5FmDxx",
    "placeName": "green lake",
    "state": "WI"
  },
  {
    "city": "cambridge",
    "state_code": "MN",
    "placeMasterId": "P02500000FsoFbjZiINTGpYMKSnWWfKZ85BblxG3",
    "placeName": "cambridge",
    "state": "MN"
  },
  {
    "city": "mora",
    "state_code": "MN",
    "placeMasterId": "P02500000FsoFeRemkuRBsy0djE5SydVjQUdtbw8",
    "placeName": "mora",
    "state": "MN"
  },
  {
    "city": "burnsville",
    "state_code": "MN",
    "placeMasterId": "P02500000FsoFbsQBtm33W9bVGbrwZonhfbhTVJR",
    "placeName": "burnsville",
    "state": "MN"
  },
  {
    "city": "carver",
    "state_code": "MN",
    "placeMasterId": "P02500000FsoFbsQBtm33W9bVGbrwZotZek5pKMX",
    "placeName": "carver",
    "state": "MN"
  },
  {
    "city": "chanhassen",
    "state_code": "MN",
    "placeMasterId": "P02500000FsoFbsQBtm33W9bVGbrwZox3AFyGJl4",
    "placeName": "chanhassen",
    "state": "MN"
  },
  {
    "city": "litchfield",
    "state_code": "MN",
    "placeMasterId": "P02500000FsoFe17LwihppAH7Jn3DFARRndCRjyX",
    "placeName": "litchfield",
    "state": "MN"
  },
  {
    "city": "rockford",
    "state_code": "MN",
    "placeMasterId": "P02500000FsoFfIjeNHtu0ZTgY69yRZijFiNy5f6",
    "placeName": "rockford",
    "state": "MN"
  },
  {
    "city": "minneapolis",
    "state_code": "MN",
    "placeMasterId": "P02500000FsoFeIoJ9VrPCMlSvPk349D9alJlgNT",
    "placeName": "minneapolis",
    "state": "MN"
  },
  {
    "city": "carlton",
    "state_code": "MN",
    "placeMasterId": "P02500000FsoFbsQBtm33W9bVGbrwZoqrEcJYmNq",
    "placeName": "carlton",
    "state": "MN"
  },
  {
    "city": "duluth",
    "state_code": "MN",
    "placeMasterId": "P02500000FsoFcRo6JMMCGYaCTrFcDmMBFYsYM4N",
    "placeName": "duluth",
    "state": "MN"
  },
  {
    "city": "hokah",
    "state_code": "MN",
    "placeMasterId": "P02500000FsoFdIsxvjouOA3FIjK7gifmdKHw6Qe",
    "placeName": "hokah",
    "state": "MN"
  },
  {
    "city": "mantorville",
    "state_code": "MN",
    "placeMasterId": "P02500000FsoFe9xpY7HcVlWI7bOd9eqht8ETCgK",
    "placeName": "mantorville",
    "state": "MN"
  },
  {
    "city": "wykoff",
    "state_code": "MN",
    "placeMasterId": "P02500000FsoFgIezb3wOomBuAmZtp0SV1cBZiiB",
    "placeName": "wykoff",
    "state": "MN"
  },
  {
    "city": "comfrey",
    "state_code": "MN",
    "placeMasterId": "P02500000FsoFcA796ZCctM5qsEYmOna7i9YSJ72",
    "placeName": "comfrey",
    "state": "MN"
  },
  {
    "city": "ellendale",
    "state_code": "MN",
    "placeMasterId": "P02500000FsoFcaeZukvyx9pNHfb28GfEQmWU0qW",
    "placeName": "ellendale",
    "state": "MN"
  },
  {
    "city": "hayward",
    "state_code": "MN",
    "placeMasterId": "P02500000FsoFdIsxvjouOA3FIjK7giaRzRHxig5",
    "placeName": "hayward",
    "state": "MN"
  },
  {
    "city": "mapleton",
    "state_code": "MN",
    "placeMasterId": "P02500000FsoFe9xpY7HcVlWI7bOd9ew6ro999OQ",
    "placeName": "mapleton",
    "state": "MN"
  },
  {
    "city": "bigelow",
    "state_code": "MN",
    "placeMasterId": "P02500000FsoFbRsl5aJhSLryrApgqLuJ4Mtu9ks",
    "placeName": "bigelow",
    "state": "MN"
  },
  {
    "city": "ceylon",
    "state_code": "MN",
    "placeMasterId": "P02500000FsoFbsQBtm33W9bVGbrwZozpaCo5JIW",
    "placeName": "ceylon",
    "state": "MN"
  },
  {
    "city": "okabena",
    "state_code": "MN",
    "placeMasterId": "P02500000FsoFejLjxhalGAUzKqmIncJqD8bIm0e",
    "placeName": "okabena",
    "state": "MN"
  },
  {
    "city": "tracy",
    "state_code": "MN",
    "placeMasterId": "P02500000FsoFfs7YmsD2kySNlLXe5XKcO10qp0P",
    "placeName": "tracy",
    "state": "MN"
  },
  {
    "city": "browns valley",
    "state_code": "MN",
    "placeMasterId": "P02500000FsoFbjZiINTGpYMKSnWWfKVy2IIea4X",
    "placeName": "browns valley",
    "state": "MN"
  },
  {
    "city": "kandiyohi",
    "state_code": "MN",
    "placeMasterId": "P02500000FsoFdaZv8WyTlMXauM0xVhECjbWUCsB",
    "placeName": "kandiyohi",
    "state": "MN"
  },
  {
    "city": "montevideo",
    "state_code": "MN",
    "placeMasterId": "P02500000FsoFeRemkuRBsy0djE5SydSvDigh8LL",
    "placeName": "montevideo",
    "state": "MN"
  },
  {
    "city": "hoffman",
    "state_code": "MN",
    "placeMasterId": "P02500000FsoFdIsxvjouOA3FIjK7gijEopuZYZg",
    "placeName": "hoffman",
    "state": "MN"
  },
  {
    "city": "walker",
    "state_code": "MN",
    "placeMasterId": "P02500000FsoFg0y2OGmpRZhYZ9t401kauFvPygt",
    "placeName": "walker",
    "state": "MN"
  },
  {
    "city": "rothsay",
    "state_code": "MN",
    "placeMasterId": "P02500000FsoFfIjeNHtu0ZTgY69yRZlrMtaXX40",
    "placeName": "rothsay",
    "state": "MN"
  },
  {
    "city": "marcell",
    "state_code": "MN",
    "placeMasterId": "P02500000FsoHuqWcGyNu04q6IG0hWf3SR4gozpH",
    "placeName": "marcell",
    "state": "MN"
  },
  {
    "city": "northome",
    "state_code": "MN",
    "placeMasterId": "P02500000FsoFejLjxhalGAUzKqmIncELDTLBpll",
    "placeName": "northome",
    "state": "MN"
  },
  {
    "city": "mentor",
    "state_code": "MN",
    "placeMasterId": "P02500000FsoFeIoJ9VrPCMlSvPk349AKDy1juH2",
    "placeName": "mentor",
    "state": "MN"
  },
  {
    "city": "irene",
    "state_code": "SD",
    "placeMasterId": "P02500000FsoGeVqU8LVmmHTRDSMGJj8caOAPImX",
    "placeName": "irene",
    "state": "SD"
  },
  {
    "city": "henry",
    "state_code": "SD",
    "placeMasterId": "P02500000FsoGeN00Www05gEGPe0qPEfdLDuFSNX",
    "placeName": "henry",
    "state": "SD"
  },
  {
    "city": "gann valley",
    "state_code": "SD",
    "placeMasterId": "P02500000FsoGeE9WvYMDP4z5bpfQUkMjXeFvHey",
    "placeName": "gann valley",
    "state": "SD"
  },
  {
    "city": "hitchcock",
    "state_code": "SD",
    "placeMasterId": "P02500000FsoGeN00Www05gEGPe0qPEk6BPUOZtN",
    "placeName": "hitchcock",
    "state": "SD"
  },
  {
    "city": "plankinton",
    "state_code": "SD",
    "placeMasterId": "P02500000FsoGf5EOXvovWgS8Qhjvxgl2mUXs6Q5",
    "placeName": "plankinton",
    "state": "SD"
  },
  {
    "city": "bath",
    "state_code": "SD",
    "placeMasterId": "P02500000FsoGdelcVy34eg0OOaHkqn0iVZKuk6i",
    "placeName": "bath",
    "state": "SD"
  },
  {
    "city": "java",
    "state_code": "SD",
    "placeMasterId": "P02500000FsoGeVqU8LVmmHTRDSMGJj11vGMOGL8",
    "placeName": "java",
    "state": "SD"
  },
  {
    "city": "roscoe",
    "state_code": "SD",
    "placeMasterId": "P02500000FsoGfE4s9KOiDHhJEW5LsAtKvkXhruA",
    "placeName": "roscoe",
    "state": "SD"
  },
  {
    "city": "kadoka",
    "state_code": "SD",
    "placeMasterId": "P02500000FsoGeVqU8LVmmHTRDSMGJj3VTmXBoun",
    "placeName": "kadoka",
    "state": "SD"
  },
  {
    "city": "kennebec",
    "state_code": "SD",
    "placeMasterId": "P02500000FsoGeVqU8LVmmHTRDSMGJjAJ5hHKhzf",
    "placeName": "kennebec",
    "state": "SD"
  },
  {
    "city": "abercrombie",
    "state_code": "ND",
    "placeMasterId": "P02500000FsoGA7YmeuZWQKLK5UmFFO6EXgs0zzo",
    "placeName": "abercrombie",
    "state": "ND"
  },
  {
    "city": "lisbon",
    "state_code": "ND",
    "placeMasterId": "P02500000FsoGBY1YgsLNIKn47cEQMHkNOmZvO6F",
    "placeName": "lisbon",
    "state": "ND"
  },
  {
    "city": "cavalier",
    "state_code": "ND",
    "placeMasterId": "P02500000FsoGAY6DT6IsU84qUvoUyr7o1FQPnMx",
    "placeName": "cavalier",
    "state": "ND"
  },
  {
    "city": "petersburg",
    "state_code": "ND",
    "placeMasterId": "P02500000FsoGByYzV44jM8WaX3Gg5ks2wGsO7Pe",
    "placeName": "petersburg",
    "state": "ND"
  },
  {
    "city": "marion",
    "state_code": "ND",
    "placeMasterId": "P02500000FsoGBgs2IGv9yw2EvQZqGm5f86EMM44",
    "placeName": "marion",
    "state": "ND"
  },
  {
    "city": "sanborn",
    "state_code": "ND",
    "placeMasterId": "P02500000FsoGC7PT6SeW2jllKrc60FC4smrZE3o",
    "placeName": "sanborn",
    "state": "ND"
  },
  {
    "city": "linton",
    "state_code": "ND",
    "placeMasterId": "P02500000FsoGBY1YgsLNIKn47cEQMHelKNYWZUf",
    "placeName": "linton",
    "state": "ND"
  },
  {
    "city": "turtle lake",
    "state_code": "ND",
    "placeMasterId": "P02500000FsoGCGFwhrEIjL0w8fxVujhQYKHvPCH",
    "placeName": "turtle lake",
    "state": "ND"
  },
  {
    "city": "douglas",
    "state_code": "ND",
    "placeMasterId": "P02500000FsoGAgwh4UsfAjK1Ik9utLfT1k91gKH",
    "placeName": "douglas",
    "state": "ND"
  },
  {
    "city": "boyd",
    "state_code": "MT",
    "placeMasterId": "P02500000FsoForRdmqZW2osMNVIyUOfgfCLadtq",
    "placeName": "boyd",
    "state": "MT"
  },
  {
    "city": "huntley",
    "state_code": "MT",
    "placeMasterId": "P02500000FsoFpZg1npSRTp6EOZ242qWW8xG3kRi",
    "placeName": "huntley",
    "state": "MT"
  },
  {
    "city": "scobey",
    "state_code": "MT",
    "placeMasterId": "P02500000FsoFqHuPooLMupK6Pcl9bITMWfHkWr8",
    "placeName": "scobey",
    "state": "MT"
  },
  {
    "city": "lewistown",
    "state_code": "MT",
    "placeMasterId": "P02500000FsoFpiWVPE2EAQLPCNNTxL0WV19om3W",
    "placeName": "lewistown",
    "state": "MT"
  },
  {
    "city": "winston",
    "state_code": "MT",
    "placeMasterId": "P02500000FsoFqiRqd04iyd3cp3nPKlaxrltF15B",
    "placeName": "winston",
    "state": "MT"
  },
  {
    "city": "garrison",
    "state_code": "MT",
    "placeMasterId": "P02500000FsoFpQpYCQsenDr3akge8MCpcoznZHR",
    "placeName": "garrison",
    "state": "MT"
  },
  {
    "city": "thompson falls",
    "state_code": "MT",
    "placeMasterId": "P02500000FsoFqZbN1bUwI1oS1FRzQH3QpPEmYKe",
    "placeName": "thompson falls",
    "state": "MT"
  },
  {
    "city": "martin city",
    "state_code": "MT",
    "placeMasterId": "P02500000FsoFprMz0cc0r1aa0BitrpItQ17Yyp5",
    "placeName": "martin city",
    "state": "MT"
  },
  {
    "city": "rexford",
    "state_code": "MT",
    "placeMasterId": "P02500000FsoFq93wDPlaEE4vboPjgo58B3NRseO",
    "placeName": "rexford",
    "state": "MT"
  },
  {
    "city": "palatine",
    "state_code": "IL",
    "placeMasterId": "P02500000FsoF6d3cnxe52b0LJmDQ2XRE0fnYhz5",
    "placeName": "palatine",
    "state": "IL"
  },
  {
    "city": "skokie",
    "state_code": "IL",
    "placeMasterId": "P02500000FsoF7lpRd8GMXOxjkGylKSQBu71Er3k",
    "placeName": "skokie",
    "state": "IL"
  },
  {
    "city": "geneva",
    "state_code": "IL",
    "placeMasterId": "P02500000FsoF3m84k26NIa6rFXJ3ok1xnPuXDhk",
    "placeName": "geneva",
    "state": "IL"
  },
  {
    "city": "hampshire",
    "state_code": "IL",
    "placeMasterId": "P02500000FsoF43p1wpFwfmbCr9ztdipekWXnlxg",
    "placeName": "hampshire",
    "state": "IL"
  },
  {
    "city": "lockport",
    "state_code": "IL",
    "placeMasterId": "P02500000FsoF5CaqlzsEAaYbHelEvdoRpHhPZYj",
    "placeName": "lockport",
    "state": "IL"
  },
  {
    "city": "morris",
    "state_code": "IL",
    "placeMasterId": "P02500000FsoF5upEmyl9bamTIiUKU5aEbv2VIMj",
    "placeName": "morris",
    "state": "IL"
  },
  {
    "city": "oak brook",
    "state_code": "IL",
    "placeMasterId": "P02500000FsoF6LMfbAUVfOVzi9WaDYjISxDx14z",
    "placeName": "oak brook",
    "state": "IL"
  },
  {
    "city": "montgomery",
    "state_code": "IL",
    "placeMasterId": "P02500000FsoF5upEmyl9bamTIiUKU5bIasR2rdr",
    "placeName": "montgomery",
    "state": "IL"
  },
  {
    "city": "serena",
    "state_code": "IL",
    "placeMasterId": "P02500000FsoHOAhH9CD4eVnCJItzsU5pR5f87GM",
    "placeName": "serena",
    "state": "IL"
  },
  {
    "city": "danforth",
    "state_code": "IL",
    "placeMasterId": "P02500000FsoF2v3D7edfAydoQfEYLnq4W1o5l4p",
    "placeName": "danforth",
    "state": "IL"
  },
  {
    "city": "ridott",
    "state_code": "IL",
    "placeMasterId": "P02500000FsoF73b3c9NR6OjrjDFfm0aGCs72Vev",
    "placeName": "ridott",
    "state": "IL"
  },
  {
    "city": "rockford",
    "state_code": "IL",
    "placeMasterId": "P02500000FsoF7CRXDXxDmzz2X1b5gUyHBcM1DKd",
    "placeName": "rockford",
    "state": "IL"
  },
  {
    "city": "geneseo",
    "state_code": "IL",
    "placeMasterId": "P02500000FsoF3m84k26NIa6rFXJ3ok200fkzyqq",
    "placeName": "geneseo",
    "state": "IL"
  },
  {
    "city": "new boston",
    "state_code": "IL",
    "placeMasterId": "P02500000FsoF6CWBzluiynGouLBAJ4Kexu38ct2",
    "placeName": "new boston",
    "state": "IL"
  },
  {
    "city": "preemption",
    "state_code": "IL",
    "placeMasterId": "P02500000FsoHNbJMjbtvu6oV63WKEWMnLZPHPFi",
    "placeName": "preemption",
    "state": "IL"
  },
  {
    "city": "dover",
    "state_code": "IL",
    "placeMasterId": "P02500000FsoF33tgj3DRrZszETZyGICYWtnF2Nq",
    "placeName": "dover",
    "state": "IL"
  },
  {
    "city": "lee center",
    "state_code": "IL",
    "placeMasterId": "P02500000FsoHLAvFTs5aDteXRFeDkCDWrYt805b",
    "placeName": "lee center",
    "state": "IL"
  },
  {
    "city": "peru",
    "state_code": "IL",
    "placeMasterId": "P02500000FsoF6lu6PMDrjCFW7aYpx1pwAdQohDS",
    "placeName": "peru",
    "state": "IL"
  },
  {
    "city": "utica",
    "state_code": "IL",
    "placeMasterId": "P02500000FsoHPAccMyFZSiVPvzJvFuaoaS96LXl",
    "placeName": "utica",
    "state": "IL"
  },
  {
    "city": "henderson",
    "state_code": "IL",
    "placeMasterId": "P02500000FsoF4CfVYDpjMNqNeyLJYD9F6x02hoY",
    "placeName": "henderson",
    "state": "IL"
  },
  {
    "city": "tremont",
    "state_code": "IL",
    "placeMasterId": "P02500000FsoF8CMsRJzibChG9i113vYIB37BHNA",
    "placeName": "tremont",
    "state": "IL"
  },
  {
    "city": "peoria",
    "state_code": "IL",
    "placeMasterId": "P02500000FsoF6lu6PMDrjCFW7aYpx1p1lcvPgcL",
    "placeName": "peoria",
    "state": "IL"
  },
  {
    "city": "minonk",
    "state_code": "IL",
    "placeMasterId": "P02500000FsoF5upEmyl9bamTIiUKU5azuL8yiYe",
    "placeName": "minonk",
    "state": "IL"
  },
  {
    "city": "bement",
    "state_code": "IL",
    "placeMasterId": "P02500000FsoF1mHOIU1NgAgQ0ATD3spHfQh2V0S",
    "placeName": "bement",
    "state": "IL"
  },
  {
    "city": "bondville",
    "state_code": "IL",
    "placeMasterId": "P02500000FsoF1v7rtsbAMlvanyocyNBbog6OBpk",
    "placeName": "bondville",
    "state": "IL"
  },
  {
    "city": "champaign",
    "state_code": "IL",
    "placeMasterId": "P02500000FsoF2LfIi4KWQZf7DPqshqIRwcizJVd",
    "placeName": "champaign",
    "state": "IL"
  },
  {
    "city": "mansfield",
    "state_code": "IL",
    "placeMasterId": "P02500000FsoF5UHnyn1nXn2wtHS4kcWmNdKCEeT",
    "placeName": "mansfield",
    "state": "IL"
  },
  {
    "city": "vermilion",
    "state_code": "IL",
    "placeMasterId": "P02500000FsoF8U3pe79HyPBblKhqsuGmX8TH7C4",
    "placeName": "vermilion",
    "state": "IL"
  },
  {
    "city": "alhambra",
    "state_code": "IL",
    "placeMasterId": "P02500000FsoF1CtTstiEvlhimv5XPvNZVdpo1zs",
    "placeName": "alhambra",
    "state": "IL"
  },
  {
    "city": "donnellson",
    "state_code": "IL",
    "placeMasterId": "P02500000FsoF33tgj3DRrZszETZyGIC8fduwhCA",
    "placeName": "donnellson",
    "state": "IL"
  },
  {
    "city": "new baden",
    "state_code": "IL",
    "placeMasterId": "P02500000FsoF6CWBzluiynGouLBAJ4KTJyV3QtE",
    "placeName": "new baden",
    "state": "IL"
  },
  {
    "city": "sparta",
    "state_code": "IL",
    "placeMasterId": "P02500000FsoF7ufvEWq9E0CuY5KBEwnhdqJuVnV",
    "placeName": "sparta",
    "state": "IL"
  },
  {
    "city": "summerfield",
    "state_code": "IL",
    "placeMasterId": "P02500000FsoF83WOpvPvubS5Ltfb9RDgh3OA9Hu",
    "placeName": "summerfield",
    "state": "IL"
  },
  {
    "city": "clayton",
    "state_code": "IL",
    "placeMasterId": "P02500000FsoF2UVmJSuJ7AuI1ECIcKj2vUNPoBu",
    "placeName": "clayton",
    "state": "IL"
  },
  {
    "city": "mendon",
    "state_code": "IL",
    "placeMasterId": "P02500000FsoF5d8HaBbaEOI7h5nUf6tNC8PPqx1",
    "placeName": "mendon",
    "state": "IL"
  },
  {
    "city": "nauvoo",
    "state_code": "IL",
    "placeMasterId": "P02500000FsoF63fiONKwIC1e6WpkOa1Rwceverk",
    "placeName": "nauvoo",
    "state": "IL"
  },
  {
    "city": "pleasant hill",
    "state_code": "IL",
    "placeMasterId": "P02500000FsoF6lu6PMDrjCFW7aYpx1qtbVPhqaP",
    "placeName": "pleasant hill",
    "state": "IL"
  },
  {
    "city": "martinsville",
    "state_code": "IL",
    "placeMasterId": "P02500000FsoF5d8HaBbaEOI7h5nUf6tN3EElYjE",
    "placeName": "martinsville",
    "state": "IL"
  },
  {
    "city": "neoga",
    "state_code": "IL",
    "placeMasterId": "P02500000FsoF63fiONKwIC1e6WpkOa21Rr78ZRx",
    "placeName": "neoga",
    "state": "IL"
  },
  {
    "city": "sumner",
    "state_code": "IL",
    "placeMasterId": "P02500000FsoF83WOpvPvubS5Ltfb9RD0HF5WM04",
    "placeName": "sumner",
    "state": "IL"
  },
  {
    "city": "west union",
    "state_code": "IL",
    "placeMasterId": "P02500000FsoF8lkmquIrLbfxMxOght1xxhhan4g",
    "placeName": "west union",
    "state": "IL"
  },
  {
    "city": "rushville",
    "state_code": "IL",
    "placeMasterId": "P02500000FsoF7U8UQL6nACTO8eHvVTfWycipUeo",
    "placeName": "rushville",
    "state": "IL"
  },
  {
    "city": "sherman",
    "state_code": "IL",
    "placeMasterId": "P02500000FsoF7cyy1jgZqniYwSdLPy4jniJzi7U",
    "placeName": "sherman",
    "state": "IL"
  },
  {
    "city": "carmi",
    "state_code": "IL",
    "placeMasterId": "P02500000FsoF2Cop6fkjjyPwPbVSnLx2vp5Ti5o",
    "placeName": "carmi",
    "state": "IL"
  },
  {
    "city": "walnut hill",
    "state_code": "IL",
    "placeMasterId": "P02500000FsoF8U3pe79HyPBblKhqsuHsjvJxe8R",
    "placeName": "walnut hill",
    "state": "IL"
  },
  {
    "city": "brookport",
    "state_code": "IL",
    "placeMasterId": "P02500000FsoF1v7rtsbAMlvanyocyNEAsYeJrrT",
    "placeName": "brookport",
    "state": "IL"
  },
  {
    "city": "colp",
    "state_code": "IL",
    "placeMasterId": "P02500000FsoF2dMFurU5nm9Sp2XiWp4p1gz6pnx",
    "placeName": "colp",
    "state": "IL"
  },
  {
    "city": "elkville",
    "state_code": "IL",
    "placeMasterId": "P02500000FsoF3CkAKRnEYB8A2HvOAmbCwY8gnFl",
    "placeName": "elkville",
    "state": "IL"
  },
  {
    "city": "herrin",
    "state_code": "IL",
    "placeMasterId": "P02500000FsoF4LVz9cPW2z5YSmgjShWcCdX6IPV",
    "placeName": "herrin",
    "state": "IL"
  },
  {
    "city": "arnold",
    "state_code": "MO",
    "placeMasterId": "P02500000FsoFirtaSCKXBab2dOnQDoyDUA3AjQD",
    "placeName": "arnold",
    "state": "MO"
  },
  {
    "city": "maryland heights",
    "state_code": "MO",
    "placeMasterId": "P02500000FsoFm9MZKJbazPE374k2B5fAB1rpC7B",
    "placeName": "maryland heights",
    "state": "MO"
  },
  {
    "city": "bridgeton",
    "state_code": "MO",
    "placeMasterId": "P02500000FsoFjIR1GO3tFOKZ2ppfxIAArV6gaeS",
    "placeName": "bridgeton",
    "state": "MO"
  },
  {
    "city": "farber",
    "state_code": "MO",
    "placeMasterId": "P02500000FsoFkIMMUA6O3b2mfWFbKirtGHUB85M",
    "placeName": "farber",
    "state": "MO"
  },
  {
    "city": "truxton",
    "state_code": "MO",
    "placeMasterId": "P02500000FsoFo9DFlrgaboeUMRZsvwjGGkW5YbP",
    "placeName": "truxton",
    "state": "MO"
  },
  {
    "city": "kahoka",
    "state_code": "MO",
    "placeMasterId": "P02500000FsoFlR8BJKifYP0B610wcdjKwzGvjFG",
    "placeName": "kahoka",
    "state": "MO"
  },
  {
    "city": "park hills",
    "state_code": "MO",
    "placeMasterId": "P02500000FsoFmraxLIUWQPRv88T7jXZWuYNZmwT",
    "placeName": "park hills",
    "state": "MO"
  },
  {
    "city": "pilot knob",
    "state_code": "MO",
    "placeMasterId": "P02500000FsoFn0RQwh4J70h5vwoXe1lOhMZ0EXa",
    "placeName": "pilot knob",
    "state": "MO"
  },
  {
    "city": "holcomb",
    "state_code": "MO",
    "placeMasterId": "P02500000FsoFl9RE6XZ6BCVpUOK6nf3WBhHZs1w",
    "placeName": "holcomb",
    "state": "MO"
  },
  {
    "city": "williamsville",
    "state_code": "MO",
    "placeMasterId": "P02500000FsoFoZkga3PwfcO0lsc8fPrWHTt3t3E",
    "placeName": "williamsville",
    "state": "MO"
  },
  {
    "city": "greenwood",
    "state_code": "MO",
    "placeMasterId": "P02500000FsoFkrkGtkPWo01TsldGygPCMuTa8ix",
    "placeName": "greenwood",
    "state": "MO"
  },
  {
    "city": "hardin",
    "state_code": "MO",
    "placeMasterId": "P02500000FsoFl0akV8zJUbGegZygtAZTaco9K6x",
    "placeName": "hardin",
    "state": "MO"
  },
  {
    "city": "lawson",
    "state_code": "MO",
    "placeMasterId": "P02500000FsoFlip8W7sEvbUWhdhmRcTo9L1AMta",
    "placeName": "lawson",
    "state": "MO"
  },
  {
    "city": "liberty",
    "state_code": "MO",
    "placeMasterId": "P02500000FsoFm0W5iv1oInysJGOcGbBlNgTYJoq",
    "placeName": "liberty",
    "state": "MO"
  },
  {
    "city": "sibley",
    "state_code": "MO",
    "placeMasterId": "P02500000FsoFnifoxfxEY0uxx0XdCTeDDT7fXou",
    "placeName": "sibley",
    "state": "MO"
  },
  {
    "city": "amazonia",
    "state_code": "MO",
    "placeMasterId": "P02500000FsoFij36qnkkUzLrpaS0JKhjxKSZw02",
    "placeName": "amazonia",
    "state": "MO"
  },
  {
    "city": "forest city",
    "state_code": "MO",
    "placeMasterId": "P02500000FsoFka3JgxFxQnX8H8wR9hU4ci9LNoe",
    "placeName": "forest city",
    "state": "MO"
  },
  {
    "city": "gentry",
    "state_code": "MO",
    "placeMasterId": "P02500000FsoFka3JgxFxQnX8H8wR9hdAZnvgxLv",
    "placeName": "gentry",
    "state": "MO"
  },
  {
    "city": "king city",
    "state_code": "MO",
    "placeMasterId": "P02500000FsoFlR8BJKifYP0B610wcdnktPBtjXP",
    "placeName": "king city",
    "state": "MO"
  },
  {
    "city": "brookfield",
    "state_code": "MO",
    "placeMasterId": "P02500000FsoFj9aXezU6Yn5OF1UG2ntuW9uW2KO",
    "placeName": "brookfield",
    "state": "MO"
  },
  {
    "city": "spickard",
    "state_code": "MO",
    "placeMasterId": "P02500000FsoFnifoxfxEY0uxx0XdCTohrljOGTg",
    "placeName": "spickard",
    "state": "MO"
  },
  {
    "city": "neck city",
    "state_code": "MO",
    "placeMasterId": "P02500000FsoFmZu08VKx3CxZWVmHuYfLdLdlGXr",
    "placeName": "neck city",
    "state": "MO"
  },
  {
    "city": "california",
    "state_code": "MO",
    "placeMasterId": "P02500000FsoFjRHUrmdfvzZjqeB5rmdlBbEKBVD",
    "placeName": "california",
    "state": "MO"
  },
  {
    "city": "mokane",
    "state_code": "MO",
    "placeMasterId": "P02500000FsoFmID2viBNg0TDut5S5a3QEl5aGMr",
    "placeName": "mokane",
    "state": "MO"
  },
  {
    "city": "arrow rock",
    "state_code": "MO",
    "placeMasterId": "P02500000FsoFirtaSCKXBab2dOnQDp3kedRbCWB",
    "placeName": "arrow rock",
    "state": "MO"
  },
  {
    "city": "emma",
    "state_code": "MO",
    "placeMasterId": "P02500000FsoFkIMMUA6O3b2mfWFbKiny3cIMqp4",
    "placeName": "emma",
    "state": "MO"
  },
  {
    "city": "arcola",
    "state_code": "MO",
    "placeMasterId": "P02500000FsoFirtaSCKXBab2dOnQDozFQthuzqc",
    "placeName": "arcola",
    "state": "MO"
  },
  {
    "city": "kirbyville",
    "state_code": "MO",
    "placeMasterId": "P02500000FsoFlZyeujISF0FLtpMMX83HCIupUmr",
    "placeName": "kirbyville",
    "state": "MO"
  },
  {
    "city": "easton",
    "state_code": "KS",
    "placeMasterId": "P02500000FsoFJtm1tpK6wSlY2ILHm64mkYVYQSX",
    "placeName": "easton",
    "state": "KS"
  },
  {
    "city": "williamsburg",
    "state_code": "KS",
    "placeMasterId": "P02500000FsoFMkhZxkrogTf26XFdztTsI0P3DgA",
    "placeName": "williamsburg",
    "state": "KS"
  },
  {
    "city": "kansas city",
    "state_code": "KS",
    "placeMasterId": "P02500000FsoFKthN7bMbkfTleylD9WcwenSSDwE",
    "placeName": "kansas city",
    "state": "KS"
  },
  {
    "city": "auburn",
    "state_code": "KS",
    "placeMasterId": "P02500000FsoFJBXdsqRBVSXg1EcCDeCIaas10pM",
    "placeName": "auburn",
    "state": "KS"
  },
  {
    "city": "leonardville",
    "state_code": "KS",
    "placeMasterId": "P02500000FsoFL2XqizwORGiwSn6d40zxPs0eigH",
    "placeName": "leonardville",
    "state": "KS"
  },
  {
    "city": "marysville",
    "state_code": "KS",
    "placeMasterId": "P02500000FsoFLKEnvn5xoTDI4PnSsziEe9KEGWW",
    "placeName": "marysville",
    "state": "KS"
  },
  {
    "city": "topeka",
    "state_code": "KS",
    "placeMasterId": "P02500000FsoFMbr6MMI1zsPrIiuE5P2hY2Q28N9",
    "placeName": "topeka",
    "state": "KS"
  },
  {
    "city": "neosho falls",
    "state_code": "KS",
    "placeMasterId": "P02500000FsoFLbvl8aFXBfhdg2UIhyW8apCPUoc",
    "placeName": "neosho falls",
    "state": "KS"
  },
  {
    "city": "riverton",
    "state_code": "KS",
    "placeMasterId": "P02500000FsoFMBJfYAYfw4gKtHryLvxw3eT8fEP",
    "placeName": "riverton",
    "state": "KS"
  },
  {
    "city": "florence",
    "state_code": "KS",
    "placeMasterId": "P02500000FsoFK2cVVDttd40iq6ghgaSyXj3q5io",
    "placeName": "florence",
    "state": "KS"
  },
  {
    "city": "argonia",
    "state_code": "KS",
    "placeMasterId": "P02500000FsoFJ2hAHRrOorIVDQGmJ9vlKpShTIp",
    "placeName": "argonia",
    "state": "KS"
  },
  {
    "city": "cedar vale",
    "state_code": "KS",
    "placeMasterId": "P02500000FsoFJc54h2AXZGHCQfeRx7NM248KAuU",
    "placeName": "cedar vale",
    "state": "KS"
  },
  {
    "city": "isabel",
    "state_code": "KS",
    "placeMasterId": "P02500000FsoFKthN7bMbkfTleylD9Wagdsb4uCH",
    "placeName": "isabel",
    "state": "KS"
  },
  {
    "city": "lehigh",
    "state_code": "KS",
    "placeMasterId": "P02500000FsoFL2XqizwORGiwSn6d40yMidhsbxq",
    "placeName": "lehigh",
    "state": "KS"
  },
  {
    "city": "protection",
    "state_code": "KS",
    "placeMasterId": "P02500000FsoFM2TBwlytFTRA5TWYRRZOWf9T4eD",
    "placeName": "protection",
    "state": "KS"
  },
  {
    "city": "wilmore",
    "state_code": "KS",
    "placeMasterId": "P02500000FsoFMtY3Z9RbN4uCuLb3uNoZfVWFJKG",
    "placeName": "wilmore",
    "state": "KS"
  },
  {
    "city": "wichita",
    "state_code": "KS",
    "placeMasterId": "P02500000FsoFMtY3Z9RbN4uCuLb3uNnBOyNlFLT",
    "placeName": "wichita",
    "state": "KS"
  },
  {
    "city": "chautauqua",
    "state_code": "KS",
    "placeMasterId": "P02500000FsoFJc54h2AXZGHCQfeRx7JB593oE4n",
    "placeName": "chautauqua",
    "state": "KS"
  },
  {
    "city": "elk falls",
    "state_code": "KS",
    "placeMasterId": "P02500000FsoFK2cVVDttd40iq6ghgaN0hEZ8Z5Q",
    "placeName": "elk falls",
    "state": "KS"
  },
  {
    "city": "parsons",
    "state_code": "KS",
    "placeMasterId": "P02500000FsoFM2TBwlytFTRA5TWYRRYLu0P1sZp",
    "placeName": "parsons",
    "state": "KS"
  },
  {
    "city": "solomon",
    "state_code": "KS",
    "placeMasterId": "P02500000FsoFMKA99Z8ScfvVh6DOGQKdSSo2Mky",
    "placeName": "solomon",
    "state": "KS"
  },
  {
    "city": "waldo",
    "state_code": "KS",
    "placeMasterId": "P02500000FsoFMkhZxkrogTf26XFdztRQWxgIxqq",
    "placeName": "waldo",
    "state": "KS"
  },
  {
    "city": "gem",
    "state_code": "KS",
    "placeMasterId": "P02500000FsoFKKJSi13T0GV4RjNXVZBvCRHxH4X",
    "placeName": "gem",
    "state": "KS"
  },
  {
    "city": "healy",
    "state_code": "KS",
    "placeMasterId": "P02500000FsoFKT9wJPdFgrkFFXixQ3Wma9Rgj3b",
    "placeName": "healy",
    "state": "KS"
  },
  {
    "city": "tribune",
    "state_code": "KS",
    "placeMasterId": "P02500000FsoFMbr6MMI1zsPrIiuE5P2OrGO88Uy",
    "placeName": "tribune",
    "state": "KS"
  },
  {
    "city": "decatur",
    "state_code": "NE",
    "placeMasterId": "P02500000FsoFriNBqm7DmplqRkDKiC43Bg14Qkq",
    "placeName": "decatur",
    "state": "NE"
  },
  {
    "city": "papillion",
    "state_code": "NE",
    "placeMasterId": "P02500000FsoFt8pxsjt4eqDaTrfVp5mSAjcRLLb",
    "placeName": "papillion",
    "state": "NE"
  },
  {
    "city": "henderson",
    "state_code": "NE",
    "placeMasterId": "P02500000FsoFsHl6GMQMXEkXezb0M9Tt3bMjnQe",
    "placeName": "henderson",
    "state": "NE"
  },
  {
    "city": "waverly",
    "state_code": "NE",
    "placeMasterId": "P02500000FsoFtr4Ltim05qRSUvObNXqQZ1jboSL",
    "placeName": "waverly",
    "state": "NE"
  },
  {
    "city": "western",
    "state_code": "NE",
    "placeMasterId": "P02500000FsoFtzupV7LmmRgdIjk1I1y8bLj5Z0l",
    "placeName": "western",
    "state": "NE"
  },
  {
    "city": "lincoln",
    "state_code": "NE",
    "placeMasterId": "P02500000FsoFsZS3T9ZvuREtGcHqB8DyQVvTvuI",
    "placeName": "lincoln",
    "state": "NE"
  },
  {
    "city": "silver creek",
    "state_code": "NE",
    "placeMasterId": "P02500000FsoFtZNOgvcQidx6tIhlYYyjr652w4I",
    "placeName": "silver creek",
    "state": "NE"
  },
  {
    "city": "newman grove",
    "state_code": "NE",
    "placeMasterId": "P02500000FsoFszzUHLJHyEyPg3K5ubMeK4f8ciW",
    "placeName": "newman grove",
    "state": "NE"
  },
  {
    "city": "winside",
    "state_code": "NE",
    "placeMasterId": "P02500000FsoFu8lJ6VvZT2vo6Y5RCWN1OUJOWnR",
    "placeName": "winside",
    "state": "NE"
  },
  {
    "city": "wisner",
    "state_code": "NE",
    "placeMasterId": "P02500000FsoFu8lJ6VvZT2vo6Y5RCWM76Yo7ThO",
    "placeName": "wisner",
    "state": "NE"
  },
  {
    "city": "grand island",
    "state_code": "NE",
    "placeMasterId": "P02500000FsoFs0493ZGnA2GC3MuAXAqH0DSfEdI",
    "placeName": "grand island",
    "state": "NE"
  },
  {
    "city": "eddyville",
    "state_code": "NE",
    "placeMasterId": "P02500000FsoFriNBqm7DmplqRkDKiCAXuH6uLzQ",
    "placeName": "eddyville",
    "state": "NE"
  },
  {
    "city": "taylor",
    "state_code": "NE",
    "placeMasterId": "P02500000FsoFtiDsIKCDPFCHh73BT3OWFGtxo1h",
    "placeName": "taylor",
    "state": "NE"
  },
  {
    "city": "campbell",
    "state_code": "NE",
    "placeMasterId": "P02500000FsoFrHpl2aNrj22K2JB4yj4qZfOddGl",
    "placeName": "campbell",
    "state": "NE"
  },
  {
    "city": "riverton",
    "state_code": "NE",
    "placeMasterId": "P02500000FsoFtHgRU8SrLRSlHg0vjaHPXAVL2N5",
    "placeName": "riverton",
    "state": "NE"
  },
  {
    "city": "curtis",
    "state_code": "NE",
    "placeMasterId": "P02500000FsoFrZWiFNXR6EWfdvrunhk1HRk112a",
    "placeName": "curtis",
    "state": "NE"
  },
  {
    "city": "garyville",
    "state_code": "LA",
    "placeMasterId": "P02500000FsoFRAwNf2l9z6FR0hxbF4w9V5uoK0Z",
    "placeName": "garyville",
    "state": "LA"
  },
  {
    "city": "port sulphur",
    "state_code": "LA",
    "placeMasterId": "P02500000FsoFSJiCUDNRTuCpRCiwWzyy7JyvE5c",
    "placeName": "port sulphur",
    "state": "LA"
  },
  {
    "city": "new orleans",
    "state_code": "LA",
    "placeMasterId": "P02500000FsoFS21FHQDs6hiTpa26i1JVz94sOtB",
    "placeName": "new orleans",
    "state": "LA"
  },
  {
    "city": "new orleans",
    "state_code": "LA",
    "placeMasterId": "P02500000FsoFS21FHQDs6hiTpa26i1JVz94sOtB",
    "placeName": "new orleans",
    "state": "LA"
  },
  {
    "city": "pearl river",
    "state_code": "LA",
    "placeMasterId": "P02500000FsoFSArisonenIxedONWcVkpGsVaW1J",
    "placeName": "pearl river",
    "state": "LA"
  },
  {
    "city": "roseland",
    "state_code": "LA",
    "placeMasterId": "P02500000FsoFSSYg5bxEAVS0F14MRUQORTCunE9",
    "placeName": "roseland",
    "state": "LA"
  },
  {
    "city": "sun",
    "state_code": "LA",
    "placeMasterId": "P02500000FsoFSkFdIP6nXhwLqdlCGTFz5T51gut",
    "placeName": "sun",
    "state": "LA"
  },
  {
    "city": "lafayette",
    "state_code": "LA",
    "placeMasterId": "P02500000FsoFRbToTEUW2tyxQ8zqyYEuk4f11St",
    "placeName": "lafayette",
    "state": "LA"
  },
  {
    "city": "branch",
    "state_code": "LA",
    "placeMasterId": "P02500000FsoFQShze3sEY61YzeEVgd8jtKHimeO",
    "placeName": "branch",
    "state": "LA"
  },
  {
    "city": "zachary",
    "state_code": "LA",
    "placeMasterId": "P02500000FsoFT1waVCGMuuQhSGS25Rs9Pk9kPWj",
    "placeName": "zachary",
    "state": "LA"
  },
  {
    "city": "baton rouge",
    "state_code": "LA",
    "placeMasterId": "P02500000FsoFQJrW2fIRrUmOBpt5m8hbG1ZgRcE",
    "placeName": "baton rouge",
    "state": "LA"
  },
  {
    "city": "shongaloo",
    "state_code": "LA",
    "placeMasterId": "P02500000FsoFSbP9h0X0r6hB2pPmLyfk4TEf3Mi",
    "placeName": "shongaloo",
    "state": "LA"
  },
  {
    "city": "stonewall",
    "state_code": "LA",
    "placeMasterId": "P02500000FsoFSkFdIP6nXhwLqdlCGT8pH7FUYwR",
    "placeName": "stonewall",
    "state": "LA"
  },
  {
    "city": "alexandria",
    "state_code": "LA",
    "placeMasterId": "P02500000FsoFQB12RGifAtXDO1XfreVqCmGfOlB",
    "placeName": "alexandria",
    "state": "LA"
  },
  {
    "city": "dry prong",
    "state_code": "LA",
    "placeMasterId": "P02500000FsoFQtFQSFbabtl5P5GlQ6BcBlwSWWw",
    "placeName": "dry prong",
    "state": "LA"
  },
  {
    "city": "many",
    "state_code": "LA",
    "placeMasterId": "P02500000FsoFRkKI4d4IjVE8DxLGt2UOUJokEmA",
    "placeName": "many",
    "state": "LA"
  },
  {
    "city": "tullos",
    "state_code": "LA",
    "placeMasterId": "P02500000FsoFSkFdIP6nXhwLqdlCGT67CZr5wH9",
    "placeName": "tullos",
    "state": "LA"
  },
  {
    "city": "dermott",
    "state_code": "AR",
    "placeMasterId": "P02500000FsoEbEqa6kfJsRA0Z8DTaloI1j49Txr",
    "placeName": "dermott",
    "state": "AR"
  },
  {
    "city": "murfreesboro",
    "state_code": "AR",
    "placeMasterId": "P02500000FsoEcWSsXJrO3qMZnRKEnB8tSZ0CneO",
    "placeName": "murfreesboro",
    "state": "AR"
  },
  {
    "city": "casa",
    "state_code": "AR",
    "placeMasterId": "P02500000FsoEaoJ9IYvxodQU9hBDrIgXtuydgSI",
    "placeName": "casa",
    "state": "AR"
  },
  {
    "city": "searcy",
    "state_code": "AR",
    "placeMasterId": "P02500000FsoEcx0JLVak7e66CsMUWeFKRsFPgM4",
    "placeName": "searcy",
    "state": "AR"
  },
  {
    "city": "colt",
    "state_code": "AR",
    "placeMasterId": "P02500000FsoEb606VM5XBpuplJs3gHQnPXIusN8",
    "placeName": "colt",
    "state": "AR"
  },
  {
    "city": "lexa",
    "state_code": "AR",
    "placeMasterId": "P02500000FsoEcElvKWhogdsEBodOyCKz6oiIoMZ",
    "placeName": "lexa",
    "state": "AR"
  },
  {
    "city": "palestine",
    "state_code": "AR",
    "placeMasterId": "P02500000FsoEcfJM8iRAkRbkbFfehfVp5597nLT",
    "placeName": "palestine",
    "state": "AR"
  },
  {
    "city": "cash",
    "state_code": "AR",
    "placeMasterId": "P02500000FsoEax9ctxVkVEfexVWdlmzT0CrUTkS",
    "placeName": "cash",
    "state": "AR"
  },
  {
    "city": "greenway",
    "state_code": "AR",
    "placeMasterId": "P02500000FsoEbfO0uwOfwEtWyZFjKEs4rILswS8",
    "placeName": "greenway",
    "state": "AR"
  },
  {
    "city": "powhatan",
    "state_code": "AR",
    "placeMasterId": "P02500000FsoEco9pk70xR2qvP414c9qhMgpKjcN",
    "placeName": "powhatan",
    "state": "AR"
  },
  {
    "city": "walnut ridge",
    "state_code": "AR",
    "placeMasterId": "P02500000FsoEdNXk9hK6BRpccJOkG7JcZnn81a1",
    "placeName": "walnut ridge",
    "state": "AR"
  },
  {
    "city": "mount pleasant",
    "state_code": "AR",
    "placeMasterId": "P02500000FsoEcWSsXJrO3qMZnRKEnB5yiNFyRV1",
    "placeName": "mount pleasant",
    "state": "AR"
  },
  {
    "city": "pineville",
    "state_code": "AR",
    "placeMasterId": "P02500000FsoEco9pk70xR2qvP414c9rPwSd61xM",
    "placeName": "pineville",
    "state": "AR"
  }
]