[
  {
    "city": "atlanta",
    "state_code": "MI",
    "placeMasterId": "P02500000FsoFXAUQzh08qKWkkoT9VeY6yl3gTof",
    "placeName": "atlanta",
    "state": "MI"
  },
  {
    "city": "grayling",
    "state_code": "MI",
    "placeMasterId": "P02500000FsoFYaxD1elziKyUmvvKcYHSL1cZzv7",
    "placeName": "grayling",
    "state": "MI"
  },
  {
    "city": "presque isle",
    "state_code": "MI",
    "placeMasterId": "P02500000FsoHmQaRgaKZSdOotLd2llC1NUdj681",
    "placeName": "presque isle",
    "state": "MI"
  },
  {
    "city": "germfask",
    "state_code": "MI",
    "placeMasterId": "P02500000FsoHjiVNE3MePDkVcv46SS1ChljIiT7",
    "placeName": "germfask",
    "state": "MI"
  },
  {
    "city": "rockland",
    "state_code": "MI",
    "placeMasterId": "P02500000FsoHmr7sUm3vWR8LImfIVE9HXSDjl6R",
    "placeName": "rockland",
    "state": "MI"
  },
  {
    "city": "ackworth",
    "state_code": "IA",
    "placeMasterId": "P02500000FsoFD396wncPxd1BTJlE2aBSJeEx5Zk",
    "placeName": "ackworth",
    "state": "IA"
  },
  {
    "city": "clio",
    "state_code": "IA",
    "placeMasterId": "P02500000FsoFE34SAZeulpjP60B9Q0lZBBpsOIB",
    "placeName": "clio",
    "state": "IA"
  },
  {
    "city": "radcliffe",
    "state_code": "IA",
    "placeMasterId": "P02500000FsoFHTNue5VlGFbaNUTBHliHFaMnu0o",
    "placeName": "radcliffe",
    "state": "IA"
  },
  {
    "city": "story city",
    "state_code": "IA",
    "placeMasterId": "P02500000FsoFIKSmGSyTNr4dCMXgkhtqpRHG79f",
    "placeName": "story city",
    "state": "IA"
  },
  {
    "city": "stuart",
    "state_code": "IA",
    "placeMasterId": "P02500000FsoFIKSmGSyTNr4dCMXgkhwXaU65Q6p",
    "placeName": "stuart",
    "state": "IA"
  },
  {
    "city": "winterset",
    "state_code": "IA",
    "placeMasterId": "P02500000FsoFItqgg3Hc8G3KPbvMOfSzFkhROmz",
    "placeName": "winterset",
    "state": "IA"
  },
  {
    "city": "clive",
    "state_code": "IA",
    "placeMasterId": "P02500000FsoFE34SAZeulpjP60B9Q0mmkjSH2y2",
    "placeName": "clive",
    "state": "IA"
  },
  {
    "city": "coulter",
    "state_code": "IA",
    "placeMasterId": "P02500000FsoFEBuvlyEhSQyZtoWZKV9ktQ9wN1f",
    "placeName": "coulter",
    "state": "IA"
  },
  {
    "city": "northwood",
    "state_code": "IA",
    "placeMasterId": "P02500000FsoFGu00EVCcVqctAF5VdoFe6PkC5Xt",
    "placeName": "northwood",
    "state": "IA"
  },
  {
    "city": "eagle grove",
    "state_code": "IA",
    "placeMasterId": "P02500000FsoFEcSMa9y3WEi6JFYp3yFV4xZIrmu",
    "placeName": "eagle grove",
    "state": "IA"
  },
  {
    "city": "gowrie",
    "state_code": "IA",
    "placeMasterId": "P02500000FsoFFBqGzkHCGdgnWUwUhvjpYj3Zh0T",
    "placeName": "gowrie",
    "state": "IA"
  },
  {
    "city": "colwell",
    "state_code": "IA",
    "placeMasterId": "P02500000FsoFE34SAZeulpjP60B9Q0nWxism43I",
    "placeName": "colwell",
    "state": "IA"
  },
  {
    "city": "garwin",
    "state_code": "IA",
    "placeMasterId": "P02500000FsoFF2znOLhPa2Rcigb4nRQXE7IcScd",
    "placeName": "garwin",
    "state": "IA"
  },
  {
    "city": "creston",
    "state_code": "IA",
    "placeMasterId": "P02500000FsoFEBuvlyEhSQyZtoWZKVDlEfDfO9F",
    "placeName": "creston",
    "state": "IA"
  },
  {
    "city": "sioux city",
    "state_code": "IA",
    "placeMasterId": "P02500000FsoFI2lp3fou0eaHajqqvjCarU2Srkt",
    "placeName": "sioux city",
    "state": "IA"
  },
  {
    "city": "alvord",
    "state_code": "IA",
    "placeMasterId": "P02500000FsoFDBzaYCCCeEGMH86dx4YMN2SIkx5",
    "placeName": "alvord",
    "state": "IA"
  },
  {
    "city": "emerson",
    "state_code": "IA",
    "placeMasterId": "P02500000FsoFElIqBYXqCpxH73uEySdfpytbZwQ",
    "placeName": "emerson",
    "state": "IA"
  },
  {
    "city": "missouri valley",
    "state_code": "IA",
    "placeMasterId": "P02500000FsoFGcJ31i338e8XYcOfopV5CJ9tt1p",
    "placeName": "missouri valley",
    "state": "IA"
  },
  {
    "city": "soldier",
    "state_code": "IA",
    "placeMasterId": "P02500000FsoFI2lp3fou0eaHajqqvjD4kbyLmdJ",
    "placeName": "soldier",
    "state": "IA"
  },
  {
    "city": "riverton",
    "state_code": "IA",
    "placeMasterId": "P02500000FsoFHl4rqsfKdS5vz7A16kQu6MBXrWJ",
    "placeName": "riverton",
    "state": "IA"
  },
  {
    "city": "center point",
    "state_code": "IA",
    "placeMasterId": "P02500000FsoFDuDyZB585EUEIBpjVWO1vMRkZCS",
    "placeName": "center point",
    "state": "IA"
  },
  {
    "city": "coralville",
    "state_code": "IA",
    "placeMasterId": "P02500000FsoFEBuvlyEhSQyZtoWZKV8IDm4EfWm",
    "placeName": "coralville",
    "state": "IA"
  },
  {
    "city": "parnell",
    "state_code": "IA",
    "placeMasterId": "P02500000FsoFHBgxRIMBt37ElrmLSmxzU7iphh2",
    "placeName": "parnell",
    "state": "IA"
  },
  {
    "city": "south english",
    "state_code": "IA",
    "placeMasterId": "P02500000FsoFIBcIf4OghFpSOYCGqDWYoHYIwAe",
    "placeName": "south english",
    "state": "IA"
  },
  {
    "city": "tiffin",
    "state_code": "IA",
    "placeMasterId": "P02500000FsoFITJFrrYG4SJo0At6fCHZgz4EhFr",
    "placeName": "tiffin",
    "state": "IA"
  },
  {
    "city": "eddyville",
    "state_code": "IA",
    "placeMasterId": "P02500000FsoFETbsylOGpdSvVRDP9TvlVzop3L0",
    "placeName": "eddyville",
    "state": "IA"
  },
  {
    "city": "promise city",
    "state_code": "IA",
    "placeMasterId": "P02500000FsoFHTNue5VlGFbaNUTBHli7FXZ2fyv",
    "placeName": "promise city",
    "state": "IA"
  },
  {
    "city": "keokuk",
    "state_code": "IA",
    "placeMasterId": "P02500000FsoFFcNhnw0YKRQJvvykROsuuIFazjO",
    "placeName": "keokuk",
    "state": "IA"
  },
  {
    "city": "atalissa",
    "state_code": "IA",
    "placeMasterId": "P02500000FsoFDBzaYCCCeEGMH86dx4YmYnfAzxl",
    "placeName": "atalissa",
    "state": "IA"
  },
  {
    "city": "conesville",
    "state_code": "IA",
    "placeMasterId": "P02500000FsoFEBuvlyEhSQyZtoWZKV7bKqts5Nn",
    "placeName": "conesville",
    "state": "IA"
  },
  {
    "city": "new berlin",
    "state_code": "WI",
    "placeMasterId": "P02500000FsoH737ylcwqCQQHtrRqXhN9VsJNJFi",
    "placeName": "new berlin",
    "state": "WI"
  },
  {
    "city": "oak creek",
    "state_code": "WI",
    "placeMasterId": "P02500000FsoH737ylcwqCQQHtrRqXhRlAZP3Fah",
    "placeName": "oak creek",
    "state": "WI"
  },
  {
    "city": "milwaukee",
    "state_code": "WI",
    "placeMasterId": "P02500000FsoH6lR1YpnGpDvwIEl0iig1pZrPtxd",
    "placeName": "milwaukee",
    "state": "WI"
  },
  {
    "city": "blanchardville",
    "state_code": "WI",
    "placeMasterId": "P02500000FsoH4laL7HiHCoVV2rv9xrMXlBmblxG",
    "placeName": "blanchardville",
    "state": "WI"
  },
  {
    "city": "mcfarland",
    "state_code": "WI",
    "placeMasterId": "P02500000FsoH6caXxRDU8cglUQPaoECaAjNTfgw",
    "placeName": "mcfarland",
    "state": "WI"
  },
  {
    "city": "bloomington",
    "state_code": "WI",
    "placeMasterId": "P02500000FsoHEkplL27FIrdhHi6Pk9TjiQ7ROHM",
    "placeName": "bloomington",
    "state": "WI"
  },
  {
    "city": "glen haven",
    "state_code": "WI",
    "placeMasterId": "P02500000FsoIhMIxLkctcK3LSLSnJDEHMHxWNVD",
    "placeName": "glen haven",
    "state": "WI"
  },
  {
    "city": "krakow",
    "state_code": "WI",
    "placeMasterId": "P02500000FsoH6Ktake3ulQCPsnikzFVYBBdivOQ",
    "placeName": "krakow",
    "state": "WI"
  },
  {
    "city": "lakewood",
    "state_code": "WI",
    "placeMasterId": "P02500000FsoIi4XLMjVp3KHDTPBsrf5Zp1MPaed",
    "placeName": "lakewood",
    "state": "WI"
  },
  {
    "city": "pembine",
    "state_code": "WI",
    "placeMasterId": "P02500000FsoIjM9dnIhtEjTmhiIe44NETiIxvjA",
    "placeName": "pembine",
    "state": "WI"
  },
  {
    "city": "wausaukee",
    "state_code": "WI",
    "placeMasterId": "P02500000FsoHFBNC9DqbMfNDh98fTcdjhmBa8Ss",
    "placeName": "wausaukee",
    "state": "WI"
  },
  {
    "city": "curtiss",
    "state_code": "WI",
    "placeMasterId": "P02500000FsoH5C7lvTRdGcF1SIxPhKgunXhMJGm",
    "placeName": "curtiss",
    "state": "WI"
  },
  {
    "city": "elcho",
    "state_code": "WI",
    "placeMasterId": "P02500000FsoIgvlWXYtXYWJp2uQXZk5Bg1vELeN",
    "placeName": "elcho",
    "state": "WI"
  },
  {
    "city": "hewitt",
    "state_code": "WI",
    "placeMasterId": "P02500000FsoHFBNC9DqbMfNDh98fTcaqSNMMAq3",
    "placeName": "hewitt",
    "state": "WI"
  },
  {
    "city": "rudolph",
    "state_code": "WI",
    "placeMasterId": "P02500000FsoHGK90yOSsrTKc7du0lXSRJwp0EKO",
    "placeName": "rudolph",
    "state": "WI"
  },
  {
    "city": "crandon",
    "state_code": "WI",
    "placeMasterId": "P02500000FsoH5C7lvTRdGcF1SIxPhKXzEBlJC0T",
    "placeName": "crandon",
    "state": "WI"
  },
  {
    "city": "fall creek",
    "state_code": "WI",
    "placeMasterId": "P02500000FsoH5cfCjfAzKPyXrjzfQnfOQVUB7tn",
    "placeName": "fall creek",
    "state": "WI"
  },
  {
    "city": "knapp",
    "state_code": "WI",
    "placeMasterId": "P02500000FsoHF2WiXpGog482tKnFZ89PMjcsV3C",
    "placeName": "knapp",
    "state": "WI"
  },
  {
    "city": "sand creek",
    "state_code": "WI",
    "placeMasterId": "P02500000FsoIjvXYCt11z8STuxgJi1s6MtRCpyb",
    "placeName": "sand creek",
    "state": "WI"
  },
  {
    "city": "strum",
    "state_code": "WI",
    "placeMasterId": "P02500000FsoH833JzOzL0d8VWXrlv7zsG9PsPh0",
    "placeName": "strum",
    "state": "WI"
  },
  {
    "city": "barronett",
    "state_code": "WI",
    "placeMasterId": "P02500000FsoIfvqBJmr2kJbbQE0cCJT9kRQmz5w",
    "placeName": "barronett",
    "state": "WI"
  },
  {
    "city": "maple",
    "state_code": "WI",
    "placeMasterId": "P02500000FsoIiV4mAvFB780jsqE8b89DLEGCcAV",
    "placeName": "maple",
    "state": "WI"
  },
  {
    "city": "bayport",
    "state_code": "MN",
    "placeMasterId": "P02500000FsoFbRsl5aJhSLryrApgqLfFyfYHsoc",
    "placeName": "bayport",
    "state": "MN"
  },
  {
    "city": "hampton",
    "state_code": "MN",
    "placeMasterId": "P02500000FsoFdA2UKLF7hYo4UuyhmEGh3aU9iPU",
    "placeName": "hampton",
    "state": "MN"
  },
  {
    "city": "lakeland",
    "state_code": "MN",
    "placeMasterId": "P02500000FsoFdsGsLK838Z1wVyhnKg0CsiWk6j0",
    "placeName": "lakeland",
    "state": "MN"
  },
  {
    "city": "north branch",
    "state_code": "MN",
    "placeMasterId": "P02500000FsoFeaVGMJ0yZZFoX2Qst7wdMhl9dsd",
    "placeName": "north branch",
    "state": "MN"
  },
  {
    "city": "northfield",
    "state_code": "MN",
    "placeMasterId": "P02500000FsoFeaVGMJ0yZZFoX2Qst7uZvCXb61p",
    "placeName": "northfield",
    "state": "MN"
  },
  {
    "city": "warsaw",
    "state_code": "MN",
    "placeMasterId": "P02500000FsoFg0y2OGmpRZhYZ9t401j2dibgCWT",
    "placeName": "warsaw",
    "state": "MN"
  },
  {
    "city": "elk river",
    "state_code": "MN",
    "placeMasterId": "P02500000FsoFcRo6JMMCGYaCTrFcDmXQKunOS0x",
    "placeName": "elk river",
    "state": "MN"
  },
  {
    "city": "new germany",
    "state_code": "MN",
    "placeMasterId": "P02500000FsoFeaVGMJ0yZZFoX2Qst81mjfcEkm0",
    "placeName": "new germany",
    "state": "MN"
  },
  {
    "city": "wayzata",
    "state_code": "MN",
    "placeMasterId": "P02500000FsoFg9oVzfMc8AwjMyETuW1XNaLn3kW",
    "placeName": "wayzata",
    "state": "MN"
  },
  {
    "city": "minneapolis",
    "state_code": "MN",
    "placeMasterId": "P02500000FsoFeIoJ9VrPCMlSvPk349D9alJlgNT",
    "placeName": "minneapolis",
    "state": "MN"
  },
  {
    "city": "minneapolis",
    "state_code": "MN",
    "placeMasterId": "P02500000FsoFeIoJ9VrPCMlSvPk349D9alJlgNT",
    "placeName": "minneapolis",
    "state": "MN"
  },
  {
    "city": "albert lea",
    "state_code": "MN",
    "placeMasterId": "P02500000FsoFbABnsnA859NdFY8r1N411uNCyCm",
    "placeName": "albert lea",
    "state": "MN"
  },
  {
    "city": "minnesota lake",
    "state_code": "MN",
    "placeMasterId": "P02500000FsoFeRemkuRBsy0djE5SydUVx2ORFbH",
    "placeName": "minnesota lake",
    "state": "MN"
  },
  {
    "city": "walnut grove",
    "state_code": "MN",
    "placeMasterId": "P02500000FsoFg0y2OGmpRZhYZ9t401mQJQCRYVT",
    "placeName": "walnut grove",
    "state": "MN"
  },
  {
    "city": "beardsley",
    "state_code": "MN",
    "placeMasterId": "P02500000FsoFbRsl5aJhSLryrApgqLfCmYs1eaD",
    "placeName": "beardsley",
    "state": "MN"
  },
  {
    "city": "boyd",
    "state_code": "MN",
    "placeMasterId": "P02500000FsoFbjZiINTGpYMKSnWWfKPdV4xJr9M",
    "placeName": "boyd",
    "state": "MN"
  },
  {
    "city": "clara city",
    "state_code": "MN",
    "placeMasterId": "P02500000FsoFbsQBtm33W9bVGbrwZotnWH4iiHo",
    "placeName": "clara city",
    "state": "MN"
  },
  {
    "city": "dawson",
    "state_code": "MN",
    "placeMasterId": "P02500000FsoFcA796ZCctM5qsEYmOnlUdJK6m5t",
    "placeName": "dawson",
    "state": "MN"
  },
  {
    "city": "murdock",
    "state_code": "MN",
    "placeMasterId": "P02500000FsoFeRemkuRBsy0djE5SydaAx0KX2fE",
    "placeName": "murdock",
    "state": "MN"
  },
  {
    "city": "paynesville",
    "state_code": "MN",
    "placeMasterId": "P02500000FsoFesCDZ6AXwlkA8f7ii6fZIKHqnlo",
    "placeName": "paynesville",
    "state": "MN"
  },
  {
    "city": "villard",
    "state_code": "MN",
    "placeMasterId": "P02500000FsoFg0y2OGmpRZhYZ9t401aTlaY7zXq",
    "placeName": "villard",
    "state": "MN"
  },
  {
    "city": "fertile",
    "state_code": "MN",
    "placeMasterId": "P02500000FsoFcjV3W9Vldl4Y5TwS2lDJ3bRLsrD",
    "placeName": "fertile",
    "state": "MN"
  },
  {
    "city": "flom",
    "state_code": "MN",
    "placeMasterId": "P02500000FsoHrhu70FgcsrSGcOPVTsu1i85eWDX",
    "placeName": "flom",
    "state": "MN"
  },
  {
    "city": "bena",
    "state_code": "MN",
    "placeMasterId": "P02500000FsoFbRsl5aJhSLryrApgqLpNvodPSUp",
    "placeName": "bena",
    "state": "MN"
  },
  {
    "city": "international falls",
    "state_code": "MN",
    "placeMasterId": "P02500000FsoFdRjRX8Oh4lIQ6XfXbCyYRggFFDE",
    "placeName": "international falls",
    "state": "MN"
  },
  {
    "city": "spring lake",
    "state_code": "MN",
    "placeMasterId": "P02500000FsoHxqIdwIVOQgylAJGTewoOjdsgNej",
    "placeName": "spring lake",
    "state": "MN"
  },
  {
    "city": "kennedy",
    "state_code": "MN",
    "placeMasterId": "P02500000FsoFdaZv8WyTlMXauM0xVhPd0xzzsUT",
    "placeName": "kennedy",
    "state": "MN"
  },
  {
    "city": "oklee",
    "state_code": "MN",
    "placeMasterId": "P02500000FsoFejLjxhalGAUzKqmIncEVWk9k8Nt",
    "placeName": "oklee",
    "state": "MN"
  },
  {
    "city": "menno",
    "state_code": "SD",
    "placeMasterId": "P02500000FsoGeegxjk5ZSsic1GhgEDcDsMsitCo",
    "placeName": "menno",
    "state": "SD"
  },
  {
    "city": "ramona",
    "state_code": "SD",
    "placeMasterId": "P02500000FsoGf5EOXvovWgS8QhjvxglaYXBfG5n",
    "placeName": "ramona",
    "state": "SD"
  },
  {
    "city": "sioux falls",
    "state_code": "SD",
    "placeMasterId": "P02500000FsoGfE4s9KOiDHhJEW5LsAy2czuKme9",
    "placeName": "sioux falls",
    "state": "SD"
  },
  {
    "city": "arlington",
    "state_code": "SD",
    "placeMasterId": "P02500000FsoGdVv8uZTHy4lDalwKwIh9LmD8GWI",
    "placeName": "arlington",
    "state": "SD"
  },
  {
    "city": "clark",
    "state_code": "SD",
    "placeMasterId": "P02500000FsoGdwSZilCe1sUk0CyaflYyCOkPH8R",
    "placeName": "clark",
    "state": "SD"
  },
  {
    "city": "corsica",
    "state_code": "SD",
    "placeMasterId": "P02500000FsoGdwSZilCe1sUk0CyaflWfPCht4gK",
    "placeName": "corsica",
    "state": "SD"
  },
  {
    "city": "martin",
    "state_code": "SD",
    "placeMasterId": "P02500000FsoGeegxjk5ZSsic1GhgEDcVyApyhuE",
    "placeName": "martin",
    "state": "SD"
  },
  {
    "city": "parmelee",
    "state_code": "SD",
    "placeMasterId": "P02500000FsoGewNuwXF8q5CxctOW3CCjKByYCWb",
    "placeName": "parmelee",
    "state": "SD"
  },
  {
    "city": "buffalo gap",
    "state_code": "SD",
    "placeMasterId": "P02500000FsoGdnc67McrLHFZCOdAlHIcjBWyl1Z",
    "placeName": "buffalo gap",
    "state": "SD"
  },
  {
    "city": "edgemont",
    "state_code": "SD",
    "placeMasterId": "P02500000FsoGe5J3K9mQiTjuo1K0aGA8PKawBBV",
    "placeName": "edgemont",
    "state": "SD"
  },
  {
    "city": "spearfish",
    "state_code": "SD",
    "placeMasterId": "P02500000FsoGfE4s9KOiDHhJEW5LsB4UxAfoJGz",
    "placeName": "spearfish",
    "state": "SD"
  },
  {
    "city": "galesburg",
    "state_code": "ND",
    "placeMasterId": "P02500000FsoGAydeHI2EXvoMuMqkiK9p8C3DAcd",
    "placeName": "galesburg",
    "state": "ND"
  },
  {
    "city": "hope",
    "state_code": "ND",
    "placeMasterId": "P02500000FsoGBPB55TlabjXtJnt0RnJ9zWRZNa8",
    "placeName": "hope",
    "state": "ND"
  },
  {
    "city": "grand forks",
    "state_code": "ND",
    "placeMasterId": "P02500000FsoGAydeHI2EXvoMuMqkiKLpqx16Hen",
    "placeName": "grand forks",
    "state": "ND"
  },
  {
    "city": "wales",
    "state_code": "ND",
    "placeMasterId": "P02500000FsoGCP6QJFo5PwG6wUIvpE3o3GBdSvE",
    "placeName": "wales",
    "state": "ND"
  },
  {
    "city": "brocket",
    "state_code": "ND",
    "placeMasterId": "P02500000FsoGAPFjrhj5nWpfh7T54Miq669w5FF",
    "placeName": "brocket",
    "state": "ND"
  },
  {
    "city": "edmore",
    "state_code": "ND",
    "placeMasterId": "P02500000FsoGAgwh4UsfAjK1Ik9utLd9aOYOg56",
    "placeName": "edmore",
    "state": "ND"
  },
  {
    "city": "hampden",
    "state_code": "ND",
    "placeMasterId": "P02500000FsoGB7U7sgc1EX3XiBCAcoZI8L1xNho",
    "placeName": "hampden",
    "state": "ND"
  },
  {
    "city": "sheyenne",
    "state_code": "ND",
    "placeMasterId": "P02500000FsoGCGFwhrEIjL0w8fxVujXJ20jXlUz",
    "placeName": "sheyenne",
    "state": "ND"
  },
  {
    "city": "wolford",
    "state_code": "ND",
    "placeMasterId": "P02500000FsoGCXwtueNs6XVHkIeLjiQ594UVAKH",
    "placeName": "wolford",
    "state": "ND"
  },
  {
    "city": "jessie",
    "state_code": "ND",
    "placeMasterId": "P02500000FsoGBPB55TlabjXtJnt0RnFdl8nLver",
    "placeName": "jessie",
    "state": "ND"
  },
  {
    "city": "medina",
    "state_code": "ND",
    "placeMasterId": "P02500000FsoGBgs2IGv9yw2EvQZqGm1nFX9ao3Z",
    "placeName": "medina",
    "state": "ND"
  },
  {
    "city": "bismarck",
    "state_code": "ND",
    "placeMasterId": "P02500000FsoGAPFjrhj5nWpfh7T54MfqDrJrMoa",
    "placeName": "bismarck",
    "state": "ND"
  },
  {
    "city": "beulah",
    "state_code": "ND",
    "placeMasterId": "P02500000FsoGAGPGGJ9J6vaUtJ7f9sU6QJSJYij",
    "placeName": "beulah",
    "state": "ND"
  },
  {
    "city": "elgin",
    "state_code": "ND",
    "placeMasterId": "P02500000FsoGAgwh4UsfAjK1Ik9utLZtvaN5MSW",
    "placeName": "elgin",
    "state": "ND"
  },
  {
    "city": "rhame",
    "state_code": "ND",
    "placeMasterId": "P02500000FsoGByYzV44jM8WaX3Gg5kyaYbKL5CM",
    "placeName": "rhame",
    "state": "ND"
  },
  {
    "city": "blandford",
    "state_code": "MA",
    "placeMasterId": "P02500000FsoHdRGMgby6AmyqHBriMtpgZhrYIfj",
    "placeName": "blandford",
    "state": "MA"
  },
  {
    "city": "groton",
    "state_code": "MA",
    "placeMasterId": "P02500000FsoHB2pLej6pRFHAOb7Y3Pkuwu6WeNz",
    "placeName": "groton",
    "state": "MA"
  },
  {
    "city": "dudley",
    "state_code": "MA",
    "placeMasterId": "P02500000FsoHdixJtP7fXzTBsoYYBsN86xQSIvE",
    "placeName": "dudley",
    "state": "MA"
  },
  {
    "city": "west brookfield",
    "state_code": "MA",
    "placeMasterId": "P02500000FsoHBTMmSuqBV30go29nmsv1NS8BTIl",
    "placeName": "west brookfield",
    "state": "MA"
  },
  {
    "city": "haverhill",
    "state_code": "MA",
    "placeMasterId": "P02500000FsoFWSG2yi7DPKIsjkk3xCrD0YNidxu",
    "placeName": "haverhill",
    "state": "MA"
  },
  {
    "city": "hingham",
    "state_code": "MA",
    "placeMasterId": "P02500000FsoHBKWIrWGOoRlW0DoNsOYlrXzkXux",
    "placeName": "hingham",
    "state": "MA"
  },
  {
    "city": "wareham",
    "state_code": "MA",
    "placeMasterId": "P02500000FsoHeRBhuO0ayzh3tsHdkKJVw6uFk7Y",
    "placeName": "wareham",
    "state": "MA"
  },
  {
    "city": "fairhaven",
    "state_code": "MA",
    "placeMasterId": "P02500000FsoHdixJtP7fXzTBsoYYBsVCSAgmOU5",
    "placeName": "fairhaven",
    "state": "MA"
  },
  {
    "city": "fall river",
    "state_code": "MA",
    "placeMasterId": "P02500000FsoFWSG2yi7DPKIsjkk3xCn8F22M4Rt",
    "placeName": "fall river",
    "state": "MA"
  },
  {
    "city": "swansea",
    "state_code": "MA",
    "placeMasterId": "P02500000FsoHeRBhuO0ayzh3tsHdkKHmG29Oxme",
    "placeName": "swansea",
    "state": "MA"
  },
  {
    "city": "hopkinton",
    "state_code": "RI",
    "placeMasterId": "P02500000FsoIZ5DGMl9LlTrErFQYSndgnfyIgL7",
    "placeName": "hopkinton",
    "state": "RI"
  },
  {
    "city": "wyoming",
    "state_code": "RI",
    "placeMasterId": "P02500000FsoGb5X1epewHrbFvy4ERyGvGnnOsGa",
    "placeName": "wyoming",
    "state": "RI"
  },
  {
    "city": "providence",
    "state_code": "RI",
    "placeMasterId": "P02500000FsoGb5X1epewHrbFvy4ERyD7lvGA4Im",
    "placeName": "providence",
    "state": "RI"
  },
  {
    "city": "cranston",
    "state_code": "RI",
    "placeMasterId": "P02500000FsoGawgY3R59bGM589ioXTxS6mxJlKr",
    "placeName": "cranston",
    "state": "RI"
  },
  {
    "city": "derry",
    "state_code": "NH",
    "placeMasterId": "P02500000FsoHBcDG4JPyBeFrbqVDhNM1s4Uf8WD",
    "placeName": "derry",
    "state": "NH"
  },
  {
    "city": "dunbarton",
    "state_code": "NH",
    "placeMasterId": "P02500000FsoIBXYTqLumOMTUIGQb7yQdo0qPPuJ",
    "placeName": "dunbarton",
    "state": "NH"
  },
  {
    "city": "hudson",
    "state_code": "NH",
    "placeMasterId": "P02500000FsoHBcDG4JPyBeFrbqVDhNDWzD9LuI5",
    "placeName": "hudson",
    "state": "NH"
  },
  {
    "city": "raymond",
    "state_code": "NH",
    "placeMasterId": "P02500000FsoHBcDG4JPyBeFrbqVDhNPPza9asKx",
    "placeName": "raymond",
    "state": "NH"
  },
  {
    "city": "barnstead",
    "state_code": "NH",
    "placeMasterId": "P02500000FsoIBFrWdYlD19z8gdjlIzfTNkE065z",
    "placeName": "barnstead",
    "state": "NH"
  },
  {
    "city": "antrim",
    "state_code": "NH",
    "placeMasterId": "P02500000FsoHBcDG4JPyBeFrbqVDhNBWYyhGvvF",
    "placeName": "antrim",
    "state": "NH"
  },
  {
    "city": "stratham",
    "state_code": "NH",
    "placeMasterId": "P02500000FsoIC6wOFwDv8lSBVVoGlvvQfOwsj0f",
    "placeName": "stratham",
    "state": "NH"
  },
  {
    "city": "ogunquit",
    "state_code": "ME",
    "placeMasterId": "P02500000FsoHg0UxXkMEXbNyjo5EliQW9OBC6aS",
    "placeName": "ogunquit",
    "state": "ME"
  },
  {
    "city": "shapleigh",
    "state_code": "ME",
    "placeMasterId": "P02500000FsoHgIBukXVnunsKLQm4ahB3uCzUl5w",
    "placeName": "shapleigh",
    "state": "ME"
  },
  {
    "city": "hanover",
    "state_code": "ME",
    "placeMasterId": "P02500000FsoHfR738A35nCPHWYhZ7ksa2rJ4Tb4",
    "placeName": "hanover",
    "state": "ME"
  },
  {
    "city": "eddington",
    "state_code": "ME",
    "placeMasterId": "P02500000FsoHfIGZWlTJ6bA6ikM9DGTX9tNsqUe",
    "placeName": "eddington",
    "state": "ME"
  },
  {
    "city": "blue hill",
    "state_code": "ME",
    "placeMasterId": "P02500000FsoHerj8iZjx2nQaJJJtTnLVSXmpVmj",
    "placeName": "blue hill",
    "state": "ME"
  },
  {
    "city": "east machias",
    "state_code": "ME",
    "placeMasterId": "P02500000FsoHfIGZWlTJ6bA6ikM9DGQrnS08DA9",
    "placeName": "east machias",
    "state": "ME"
  },
  {
    "city": "grand lake stream",
    "state_code": "ME",
    "placeMasterId": "P02500000FsoHAl8ORvxG42momyQiER0PHfoaw18",
    "placeName": "grand lake stream",
    "state": "ME"
  },
  {
    "city": "sorrento",
    "state_code": "ME",
    "placeMasterId": "P02500000FsoHgIBukXVnunsKLQm4ahB9mA7Dizv",
    "placeName": "sorrento",
    "state": "ME"
  },
  {
    "city": "madawaska",
    "state_code": "ME",
    "placeMasterId": "P02500000FsoHAKaxdkDu0F3INXOSUxszHKcygJI",
    "placeName": "madawaska",
    "state": "ME"
  },
  {
    "city": "oxbow",
    "state_code": "ME",
    "placeMasterId": "P02500000FsoHAKaxdkDu0F3INXOSUxqDq1tk3by",
    "placeName": "oxbow",
    "state": "ME"
  },
  {
    "city": "warren",
    "state_code": "ME",
    "placeMasterId": "P02500000FsoHgijLYjF9ybbqkroKKA8IsfqPmZD",
    "placeName": "warren",
    "state": "ME"
  },
  {
    "city": "madison",
    "state_code": "ME",
    "placeMasterId": "P02500000FsoHAl8ORvxG42momyQiEQxeeZJsEtq",
    "placeName": "madison",
    "state": "ME"
  },
  {
    "city": "white river junction",
    "state_code": "VT",
    "placeMasterId": "P02500000FsoGuUdxgk9jjYsxCP34Maofg3yyadM",
    "placeName": "white river junction",
    "state": "VT"
  },
  {
    "city": "north hartland",
    "state_code": "VT",
    "placeMasterId": "P02500000FsoGuLnU5LZx2xdmOaheS6Sg76lYuSm",
    "placeName": "north hartland",
    "state": "VT"
  },
  {
    "city": "bennington",
    "state_code": "VT",
    "placeMasterId": "P02500000FsoHDtktieeXBGAeSq1uHDLc5Vs1sEE",
    "placeName": "bennington",
    "state": "VT"
  },
  {
    "city": "barre",
    "state_code": "VT",
    "placeMasterId": "P02500000FsoGuCx0Tx0AMMObamMEXc6Eyx9Ke4Q",
    "placeName": "barre",
    "state": "VT"
  },
  {
    "city": "plainfield",
    "state_code": "VT",
    "placeMasterId": "P02500000FsoIevuq60oXw6tNnXagoswiQrHNLUm",
    "placeName": "plainfield",
    "state": "VT"
  },
  {
    "city": "brandon",
    "state_code": "VT",
    "placeMasterId": "P02500000FsoHE2bNK3EJrrPpGeNKBhWiq0vM3ZT",
    "placeName": "brandon",
    "state": "VT"
  },
  {
    "city": "berlin",
    "state_code": "CT",
    "placeMasterId": "P02500000FsoHGBIXMzt6As5RJpYar3EVMDXI5tE",
    "placeName": "berlin",
    "state": "CT"
  },
  {
    "city": "hartford",
    "state_code": "CT",
    "placeMasterId": "P02500000FsoEp4wtcCeUWhtuUtj0yHnuNbUVDLP",
    "placeName": "hartford",
    "state": "CT"
  },
  {
    "city": "cromwell",
    "state_code": "CT",
    "placeMasterId": "P02500000FsoHGSzUZn2fY4ZmvSFQg1oNj0vRJHU",
    "placeName": "cromwell",
    "state": "CT"
  },
  {
    "city": "deep river",
    "state_code": "CT",
    "placeMasterId": "P02500000FsoHGSzUZn2fY4ZmvSFQg1rDCmo6fCV",
    "placeName": "deep river",
    "state": "CT"
  },
  {
    "city": "salem",
    "state_code": "CT",
    "placeMasterId": "P02500000FsoHGkgRmaCEvH48X4wGV0gCByoWKwA",
    "placeName": "salem",
    "state": "CT"
  },
  {
    "city": "bridgeport",
    "state_code": "CT",
    "placeMasterId": "P02500000FsoEp4wtcCeUWhtuUtj0yHmMyLTfY5r",
    "placeName": "bridgeport",
    "state": "CT"
  },
  {
    "city": "torrington",
    "state_code": "CT",
    "placeMasterId": "P02500000FsoEpVUKQONqaVdQuKlGhkuUAKNGTmU",
    "placeName": "torrington",
    "state": "CT"
  },
  {
    "city": "watertown",
    "state_code": "CT",
    "placeMasterId": "P02500000FsoHGtWvNym1bsJJKtHgPV5RhVhoCMc",
    "placeName": "watertown",
    "state": "CT"
  },
  {
    "city": "norwalk",
    "state_code": "CT",
    "placeMasterId": "P02500000FsoEpMdqozo3tuOG6WPqnGVjKk8zkLb",
    "placeName": "norwalk",
    "state": "CT"
  },
  {
    "city": "riverside",
    "state_code": "CT",
    "placeMasterId": "P02500000FsoEpMdqozo3tuOG6WPqnGWtX7itLsd",
    "placeName": "riverside",
    "state": "CT"
  },
  {
    "city": "stamford",
    "state_code": "CT",
    "placeMasterId": "P02500000FsoEpMdqozo3tuOG6WPqnGa7UQ8WG36",
    "placeName": "stamford",
    "state": "CT"
  },
  {
    "city": "west orange",
    "state_code": "NJ",
    "placeMasterId": "P02500000FsoIDgFdtIZYhN96LRbrnJxzdoDcFqI",
    "placeName": "west orange",
    "state": "NJ"
  },
  {
    "city": "sewaren",
    "state_code": "NJ",
    "placeMasterId": "P02500000FsoFxZ4la1mPxSnzO2NT4HTG2YjPozQ",
    "placeName": "sewaren",
    "state": "NJ"
  },
  {
    "city": "glen rock",
    "state_code": "NJ",
    "placeMasterId": "P02500000FsoFvzlVwfQmOr74Y6Zs2tIshXeXJfw",
    "placeName": "glen rock",
    "state": "NJ"
  },
  {
    "city": "wayne",
    "state_code": "NJ",
    "placeMasterId": "P02500000FsoIDXPAHtzm0ltvXdGRspilTPbRbNw",
    "placeName": "wayne",
    "state": "NJ"
  },
  {
    "city": "leonia",
    "state_code": "NJ",
    "placeMasterId": "P02500000FsoFwZ9QMFjv9G5llLxXgqd0nlWiOiU",
    "placeName": "leonia",
    "state": "NJ"
  },
  {
    "city": "closter",
    "state_code": "NJ",
    "placeMasterId": "P02500000FsoFvi4YjsHD1eciwTt2DuQHD8Z5QGq",
    "placeName": "closter",
    "state": "NJ"
  },
  {
    "city": "haworth",
    "state_code": "NJ",
    "placeMasterId": "P02500000FsoFw8bzY40Z5SMFLuvHxNgwctxLSy0",
    "placeName": "haworth",
    "state": "NJ"
  },
  {
    "city": "allenhurst",
    "state_code": "NJ",
    "placeMasterId": "P02500000FsoFv8geKHy4HFe1jEVMZx1jljSB4Xu",
    "placeName": "allenhurst",
    "state": "NJ"
  },
  {
    "city": "englishtown",
    "state_code": "NJ",
    "placeMasterId": "P02500000FsoFvzlVwfQmOr74Y6Zs2tBBe1k6xpx",
    "placeName": "englishtown",
    "state": "NJ"
  },
  {
    "city": "budd lake",
    "state_code": "NJ",
    "placeMasterId": "P02500000FsoFvZE58ThQL3NY8fXcJQ3fPFZodNm",
    "placeName": "budd lake",
    "state": "NJ"
  },
  {
    "city": "hackettstown",
    "state_code": "NJ",
    "placeMasterId": "P02500000FsoFw8bzY40Z5SMFLuvHxNYRrdkG7EE",
    "placeName": "hackettstown",
    "state": "NJ"
  },
  {
    "city": "mount arlington",
    "state_code": "NJ",
    "placeMasterId": "P02500000FsoFwqqNZ2tUWSa7MyeNVpPscdTjjFJ",
    "placeName": "mount arlington",
    "state": "NJ"
  },
  {
    "city": "belle mead",
    "state_code": "NJ",
    "placeMasterId": "P02500000FsoFvHX7vgXqxqtCX2qmURONfJk0tMe",
    "placeName": "belle mead",
    "state": "NJ"
  },
  {
    "city": "hightstown",
    "state_code": "NJ",
    "placeMasterId": "P02500000FsoFwHST9SaLm3bQ9jGhrs0gxXhJRTs",
    "placeName": "hightstown",
    "state": "NJ"
  },
  {
    "city": "stewartsville",
    "state_code": "NJ",
    "placeMasterId": "P02500000FsoFxqlimovzKfIKzf4ItFyWorGPsoY",
    "placeName": "stewartsville",
    "state": "NJ"
  },
  {
    "city": "new york",
    "state_code": "NY",
    "placeMasterId": "P02500000FsoG3hTIW4bBVIKTvxERFLPbpMNP8u9",
    "placeName": "new york",
    "state": "NY"
  },
  {
    "city": "crompond",
    "state_code": "NY",
    "placeMasterId": "P02500000FsoG1hcc4WWBssu2gaOaUTzstcCcs56",
    "placeName": "crompond",
    "state": "NY"
  },
  {
    "city": "elmsford",
    "state_code": "NY",
    "placeMasterId": "P02500000FsoG28A2siFXwgdZ61QqDx8h3hdpbeL",
    "placeName": "elmsford",
    "state": "NY"
  },
  {
    "city": "eastchester",
    "state_code": "NY",
    "placeMasterId": "P02500000FsoHDc3wVrUxo3gIrDL4SEVMj3zgiIF",
    "placeName": "eastchester",
    "state": "NY"
  },
  {
    "city": "fort montgomery",
    "state_code": "NY",
    "placeMasterId": "P02500000FsoG2H0WU6pKdHsjtpmG8RXaqax6abQ",
    "placeName": "fort montgomery",
    "state": "NY"
  },
  {
    "city": "baldwin",
    "state_code": "NY",
    "placeMasterId": "P02500000FsoG0qXkS93TlHQzriK51XtNeHnkGXw",
    "placeName": "baldwin",
    "state": "NY"
  },
  {
    "city": "hewlett",
    "state_code": "NY",
    "placeMasterId": "P02500000FsoG2hXxIIYgh5cGJGoVrulGbnMAB9Y",
    "placeName": "hewlett",
    "state": "NY"
  },
  {
    "city": "babylon",
    "state_code": "NY",
    "placeMasterId": "P02500000FsoHDTDSuSvB7SR83OzeXk5rnDVGmwB",
    "placeName": "babylon",
    "state": "NY"
  },
  {
    "city": "bayville",
    "state_code": "NY",
    "placeMasterId": "P02500000FsoG0zOE3XdGRsgAfWfUw2CTdkpmZgS",
    "placeName": "bayville",
    "state": "NY"
  },
  {
    "city": "bellmore",
    "state_code": "NY",
    "placeMasterId": "P02500000FsoG18EhewD38TvLTL0uqWWQl8Zpd7W",
    "placeName": "bellmore",
    "state": "NY"
  },
  {
    "city": "islip",
    "state_code": "NY",
    "placeMasterId": "P02500000FsoHDKMzJ4LOQrBxFaeEdFnDJv4fmWq",
    "placeName": "islip",
    "state": "NY"
  },
  {
    "city": "schenectady",
    "state_code": "NY",
    "placeMasterId": "P02500000FsoG4hOdjqdgJV2hYdeMcm1RzdPFAPT",
    "placeName": "schenectady",
    "state": "NY"
  },
  {
    "city": "schenectady",
    "state_code": "NY",
    "placeMasterId": "P02500000FsoG4hOdjqdgJV2hYdeMcm1RzdPFAPT",
    "placeName": "schenectady",
    "state": "NY"
  },
  {
    "city": "tannersville",
    "state_code": "NY",
    "placeMasterId": "P02500000FsoG5GmY9Qwp3u1Olt22GjLPAbdPsiD",
    "placeName": "tannersville",
    "state": "NY"
  },
  {
    "city": "tillson",
    "state_code": "NY",
    "placeMasterId": "P02500000FsoG5GmY9Qwp3u1Olt22GjIwwsoeMkR",
    "placeName": "tillson",
    "state": "NY"
  },
  {
    "city": "ancram",
    "state_code": "NY",
    "placeMasterId": "P02500000FsoIDgFdtIZYhN96LRbrnK2reSBmbmF",
    "placeName": "ancram",
    "state": "NY"
  },
  {
    "city": "gardiner",
    "state_code": "NY",
    "placeMasterId": "P02500000FsoHDc3wVrUxo3gIrDL4SEPd7kKZGif",
    "placeName": "gardiner",
    "state": "NY"
  },
  {
    "city": "syracuse",
    "state_code": "NY",
    "placeMasterId": "P02500000FsoG57w4Y2N2NImDy4gcMF3udu0wEbR",
    "placeName": "syracuse",
    "state": "NY"
  },
  {
    "city": "oriskany",
    "state_code": "NY",
    "placeMasterId": "P02500000FsoG480jKGKXZ640LOGgyoXbeooxMzf",
    "placeName": "oriskany",
    "state": "NY"
  },
  {
    "city": "deferiet",
    "state_code": "NY",
    "placeMasterId": "P02500000FsoG1hcc4WWBssu2gaOaUU8wgXD5cMl",
    "placeName": "deferiet",
    "state": "NY"
  },
  {
    "city": "rodman",
    "state_code": "NY",
    "placeMasterId": "P02500000FsoIGOKiLpXTkmnPbsAo6d8y2kw5mOU",
    "placeName": "rodman",
    "state": "NY"
  },
  {
    "city": "richford",
    "state_code": "NY",
    "placeMasterId": "P02500000FsoIGXBBxE7GRO2aPgWE17NDdHN6jAl",
    "placeName": "richford",
    "state": "NY"
  },
  {
    "city": "delevan",
    "state_code": "NY",
    "placeMasterId": "P02500000FsoG1qT5fv5yZU9DUOk0OyRJiyIpbD3",
    "placeName": "delevan",
    "state": "NY"
  },
  {
    "city": "newfane",
    "state_code": "NY",
    "placeMasterId": "P02500000FsoHCkz4tU2FgSDG2LGYzIJ1pOfq1CM",
    "placeName": "newfane",
    "state": "NY"
  },
  {
    "city": "ransomville",
    "state_code": "NY",
    "placeMasterId": "P02500000FsoG4PhgX3U6wIYLx0xWnnAkdiwpnXb",
    "placeName": "ransomville",
    "state": "NY"
  },
  {
    "city": "keuka park",
    "state_code": "NY",
    "placeMasterId": "P02500000FsoG385O6UI2ktLmihqlbNjFrkv1NXz",
    "placeName": "keuka park",
    "state": "NY"
  },
  {
    "city": "pavilion",
    "state_code": "NY",
    "placeMasterId": "P02500000FsoIGFUEkQxh4BYEo3pOC8iLUxPAWR3",
    "placeName": "pavilion",
    "state": "NY"
  },
  {
    "city": "rochester",
    "state_code": "NY",
    "placeMasterId": "P02500000FsoG4YYA8S3tctnWkpIwiHXc7FWLpT6",
    "placeName": "rochester",
    "state": "NY"
  },
  {
    "city": "rochester",
    "state_code": "NY",
    "placeMasterId": "P02500000FsoG4YYA8S3tctnWkpIwiHXc7FWLpT6",
    "placeName": "rochester",
    "state": "NY"
  },
  {
    "city": "brocton",
    "state_code": "NY",
    "placeMasterId": "P02500000FsoG1H5BGKmpp5AWH9MKl0vVTbgAzMS",
    "placeName": "brocton",
    "state": "NY"
  },
  {
    "city": "gerry",
    "state_code": "NY",
    "placeMasterId": "P02500000FsoIEp1SiTBqCB6UlwND5F3JbkERVvQ",
    "placeName": "gerry",
    "state": "NY"
  },
  {
    "city": "houghton",
    "state_code": "NY",
    "placeMasterId": "P02500000FsoG2qOQth8TNgrR759vmP0rW6cWljL",
    "placeName": "houghton",
    "state": "NY"
  },
  {
    "city": "ithaca",
    "state_code": "NY",
    "placeMasterId": "P02500000FsoG2qOQth8TNgrR759vmPABaFg60HT",
    "placeName": "ithaca",
    "state": "NY"
  },
  {
    "city": "bakerstown",
    "state_code": "PA",
    "placeMasterId": "P02500000FsoGQoaeEI6Oobyi5VC8qhZfiri8m9E",
    "placeName": "bakerstown",
    "state": "PA"
  },
  {
    "city": "joffre",
    "state_code": "PA",
    "placeMasterId": "P02500000FsoGUx8UimqAk24lO3DGGuEBCNmiE7s",
    "placeName": "joffre",
    "state": "PA"
  },
  {
    "city": "langeloth",
    "state_code": "PA",
    "placeMasterId": "P02500000FsoGVEpRvZzk7EZ6zfu65swd8H5IWGG",
    "placeName": "langeloth",
    "state": "PA"
  },
  {
    "city": "coraopolis",
    "state_code": "PA",
    "placeMasterId": "P02500000FsoGSF3QGFsFgcQS7ceJxbJ6ubnFeza",
    "placeName": "coraopolis",
    "state": "PA"
  },
  {
    "city": "pittsburgh",
    "state_code": "PA",
    "placeMasterId": "P02500000FsoGXfDZBJo5nRj4eTmCaDENhHWAB15",
    "placeName": "pittsburgh",
    "state": "PA"
  },
  {
    "city": "washington",
    "state_code": "PA",
    "placeMasterId": "P02500000FsoGa5bgR3cRTet2JHeJ4Xh0oa9OuUy",
    "placeName": "washington",
    "state": "PA"
  },
  {
    "city": "cokeburg",
    "state_code": "PA",
    "placeMasterId": "P02500000FsoGS6CwerIT01BHJoIu36hiYafIUzU",
    "placeName": "cokeburg",
    "state": "PA"
  },
  {
    "city": "eighty four",
    "state_code": "PA",
    "placeMasterId": "P02500000FsoGT68HsdKxoDtUwUipQXJTTomioPx",
    "placeName": "eighty four",
    "state": "PA"
  },
  {
    "city": "southview",
    "state_code": "PA",
    "placeMasterId": "P02500000FsoGZ5gLDHZwfSAogbENh75Usk5Hh5g",
    "placeName": "southview",
    "state": "PA"
  },
  {
    "city": "avonmore",
    "state_code": "PA",
    "placeMasterId": "P02500000FsoGQoaeEI6Oobyi5VC8qhOeuHfRgiA",
    "placeName": "avonmore",
    "state": "PA"
  },
  {
    "city": "latrobe",
    "state_code": "PA",
    "placeMasterId": "P02500000FsoGVEpRvZzk7EZ6zfu65swFrLGeCz1",
    "placeName": "latrobe",
    "state": "PA"
  },
  {
    "city": "adamsville",
    "state_code": "PA",
    "placeMasterId": "P02500000FsoGQWth1UwpRPUMTsVJ1ihapZhrbPE",
    "placeName": "adamsville",
    "state": "PA"
  },
  {
    "city": "jamestown",
    "state_code": "PA",
    "placeMasterId": "P02500000FsoGUfRXVzgbMpaPmQWQRvbFymGrvOV",
    "placeName": "jamestown",
    "state": "PA"
  },
  {
    "city": "plumville",
    "state_code": "PA",
    "placeMasterId": "P02500000FsoGXfDZBJo5nRj4eTmCaDLi0UBZRjc",
    "placeName": "plumville",
    "state": "PA"
  },
  {
    "city": "templeton",
    "state_code": "PA",
    "placeMasterId": "P02500000FsoGZWDm1TJIjFuL62GdQaGPY5cGzHF",
    "placeName": "templeton",
    "state": "PA"
  },
  {
    "city": "warren",
    "state_code": "PA",
    "placeMasterId": "P02500000FsoGa5bgR3cRTet2JHeJ4XaGTQbcnRi",
    "placeName": "warren",
    "state": "PA"
  },
  {
    "city": "altoona",
    "state_code": "PA",
    "placeMasterId": "P02500000FsoGQWth1UwpRPUMTsVJ1innXFcn9xE",
    "placeName": "altoona",
    "state": "PA"
  },
  {
    "city": "petersburg",
    "state_code": "PA",
    "placeMasterId": "P02500000FsoGXWN5ZvEJ6qTtqfQmfivDee3NtQr",
    "placeName": "petersburg",
    "state": "PA"
  },
  {
    "city": "rew",
    "state_code": "PA",
    "placeMasterId": "P02500000FsoGY5kzzVXRrFSb3uoSJgUTzBqSCA2",
    "placeName": "rew",
    "state": "PA"
  },
  {
    "city": "campbelltown",
    "state_code": "PA",
    "placeMasterId": "P02500000FsoGRWp2FGzKFcCa6YvEP9U871fQvHA",
    "placeName": "campbelltown",
    "state": "PA"
  },
  {
    "city": "dalmatia",
    "state_code": "PA",
    "placeMasterId": "P02500000FsoGSWkNT31p3ounjFL9mZqsrSPqOsm",
    "placeName": "dalmatia",
    "state": "PA"
  },
  {
    "city": "millerstown",
    "state_code": "PA",
    "placeMasterId": "P02500000FsoGWEkn9M2EvRHKcMK1TJTkCOyUsVX",
    "placeName": "millerstown",
    "state": "PA"
  },
  {
    "city": "myerstown",
    "state_code": "PA",
    "placeMasterId": "P02500000FsoGWfIDxXlazF0r1nMHCmfLi97YFvj",
    "placeName": "myerstown",
    "state": "PA"
  },
  {
    "city": "harrisburg",
    "state_code": "PA",
    "placeMasterId": "P02500000FsoGU63d6PNScQbiZB8kny65f71GTm1",
    "placeName": "harrisburg",
    "state": "PA"
  },
  {
    "city": "state line",
    "state_code": "PA",
    "placeMasterId": "P02500000FsoGZEWoog9jM3PzUPZnbbTQRQ4ZOXo",
    "placeName": "state line",
    "state": "PA"
  },
  {
    "city": "ronks",
    "state_code": "PA",
    "placeMasterId": "P02500000FsoGYEbTau7EXqhlrj9sEAmVNqcsBwh",
    "placeName": "ronks",
    "state": "PA"
  },
  {
    "city": "lancaster",
    "state_code": "PA",
    "placeMasterId": "P02500000FsoGVEpRvZzk7EZ6zfu65svXgsNO7ZF",
    "placeName": "lancaster",
    "state": "PA"
  },
  {
    "city": "bath",
    "state_code": "PA",
    "placeMasterId": "P02500000FsoGQxR7pggBVDDstJXYlBp6O73c5te",
    "placeName": "bath",
    "state": "PA"
  },
  {
    "city": "east greenville",
    "state_code": "PA",
    "placeMasterId": "P02500000FsoGSoRKfqBOR1P9Ks1zbYnBbWsgVt5",
    "placeName": "east greenville",
    "state": "PA"
  },
  {
    "city": "allentown",
    "state_code": "PA",
    "placeMasterId": "P02500000FsoGQWth1UwpRPUMTsVJ1inYRsHJgCK",
    "placeName": "allentown",
    "state": "PA"
  },
  {
    "city": "kelayres",
    "state_code": "PA",
    "placeMasterId": "P02500000FsoGUx8UimqAk24lO3DGGuKgExJ2cQ6",
    "placeName": "kelayres",
    "state": "PA"
  },
  {
    "city": "milford square",
    "state_code": "PA",
    "placeMasterId": "P02500000FsoGW5uJXxSSEq29oXybYpKm5SMM0Vg",
    "placeName": "milford square",
    "state": "PA"
  },
  {
    "city": "montgomeryville",
    "state_code": "PA",
    "placeMasterId": "P02500000FsoGWNbGkkc1c2WVQAfRNo052WeyAHc",
    "placeName": "montgomeryville",
    "state": "PA"
  },
  {
    "city": "glenolden",
    "state_code": "PA",
    "placeMasterId": "P02500000FsoGToMftcDtFE7MxYRuyzJWLxl3p2b",
    "placeName": "glenolden",
    "state": "PA"
  },
  {
    "city": "media",
    "state_code": "PA",
    "placeMasterId": "P02500000FsoGVx3pwYsfYEmz0jdBeKxWNUMAMCT",
    "placeName": "media",
    "state": "PA"
  },
  {
    "city": "philadelphia",
    "state_code": "PA",
    "placeMasterId": "P02500000FsoGXWN5ZvEJ6qTtqfQmfiyVODy6MPW",
    "placeName": "philadelphia",
    "state": "PA"
  },
  {
    "city": "devon",
    "state_code": "PA",
    "placeMasterId": "P02500000FsoGSWkNT31p3ounjFL9ma3vmHXdoOO",
    "placeName": "devon",
    "state": "PA"
  },
  {
    "city": "kennett square",
    "state_code": "PA",
    "placeMasterId": "P02500000FsoGUx8UimqAk24lO3DGGuBGIYDixy1",
    "placeName": "kennett square",
    "state": "PA"
  },
  {
    "city": "shartlesville",
    "state_code": "PA",
    "placeMasterId": "P02500000FsoGYnzO0UQNIFgT4yXXs8AKIjfMMvq",
    "placeName": "shartlesville",
    "state": "PA"
  },
  {
    "city": "reading",
    "state_code": "PA",
    "placeMasterId": "P02500000FsoGY5kzzVXRrFSb3uoSJgIQftycIhP",
    "placeName": "reading",
    "state": "PA"
  },
  {
    "city": "dagsboro",
    "state_code": "DE",
    "placeMasterId": "P02500000FsoEpeKo1mxdH6sbi96gcFG4xviPGzS",
    "placeName": "dagsboro",
    "state": "DE"
  },
  {
    "city": "houston",
    "state_code": "DE",
    "placeMasterId": "P02500000FsoEpeKo1mxdH6sbi96gcFJ4pu0S0MZ",
    "placeName": "houston",
    "state": "DE"
  },
  {
    "city": "round hill",
    "state_code": "VA",
    "placeMasterId": "P02500000FsoGxLZVkfhRTZmRGdxQaOBOiOzswgA",
    "placeName": "round hill",
    "state": "VA"
  },
  {
    "city": "leesburg",
    "state_code": "VA",
    "placeMasterId": "P02500000FsoGwLeAWtewfN4DdxXVCxWwoEnveB3",
    "placeName": "leesburg",
    "state": "VA"
  },
  {
    "city": "broomes island",
    "state_code": "MD",
    "placeMasterId": "P02500000FsoFTbKUumZVfJPOfVphjPGWQFFTWoT",
    "placeName": "broomes island",
    "state": "MD"
  },
  {
    "city": "lusby",
    "state_code": "MD",
    "placeMasterId": "P02500000FsoFV1nGwkLMXJr8hdHsqJ1vKprPhdT",
    "placeName": "lusby",
    "state": "MD"
  },
  {
    "city": "germantown",
    "state_code": "MD",
    "placeMasterId": "P02500000FsoFUbFq8Yc0TW7cICFd6prSiR5vzAA",
    "placeName": "germantown",
    "state": "MD"
  },
  {
    "city": "silver spring",
    "state_code": "MD",
    "placeMasterId": "P02500000FsoFVk1exjEHyK50ih0yOl85Zhht6fO",
    "placeName": "silver spring",
    "state": "MD"
  },
  {
    "city": "bel air",
    "state_code": "MD",
    "placeMasterId": "P02500000FsoFTSU1JNziyiADrhUHoux9SMb32Hh",
    "placeName": "bel air",
    "state": "MD"
  },
  {
    "city": "cordova",
    "state_code": "MD",
    "placeMasterId": "P02500000FsoFU1rviyIrj78v4wrxSsN0yqQWBkB",
    "placeName": "cordova",
    "state": "MD"
  },
  {
    "city": "mount airy",
    "state_code": "MD",
    "placeMasterId": "P02500000FsoFVAdkY8v9Dv6JVRdIknMxgcu6vvS",
    "placeName": "mount airy",
    "state": "MD"
  },
  {
    "city": "taneytown",
    "state_code": "MD",
    "placeMasterId": "P02500000FsoFVss8Z7o4evKBWVMOJFQ1NfORtDY",
    "placeName": "taneytown",
    "state": "MD"
  },
  {
    "city": "berlin",
    "state_code": "MD",
    "placeMasterId": "P02500000FsoFTSU1JNziyiADrhUHouuRiqN1kCA",
    "placeName": "berlin",
    "state": "MD"
  },
  {
    "city": "willards",
    "state_code": "MD",
    "placeMasterId": "P02500000FsoFWJPZNJXQij3hvwOe2iLEbQxSL0S",
    "placeName": "willards",
    "state": "MD"
  },
  {
    "city": "north east",
    "state_code": "MD",
    "placeMasterId": "P02500000FsoFVAdkY8v9Dv6JVRdIknZRbiXXejJ",
    "placeName": "north east",
    "state": "MD"
  },
  {
    "city": "arlington",
    "state_code": "VA",
    "placeMasterId": "P02500000FsoGudURI8jWQA880DOUH59WbK2sySL",
    "placeName": "arlington",
    "state": "VA"
  },
  {
    "city": "fredericksburg",
    "state_code": "VA",
    "placeMasterId": "P02500000FsoGvmGG7JLnuy5WQi9pZ00uWETqz97",
    "placeName": "fredericksburg",
    "state": "VA"
  },
  {
    "city": "shenandoah",
    "state_code": "VA",
    "placeMasterId": "P02500000FsoGxUPzM4HEAB1c4SIqUsXBE0ay4GV",
    "placeName": "shenandoah",
    "state": "VA"
  },
  {
    "city": "stanley",
    "state_code": "VA",
    "placeMasterId": "P02500000FsoGxdGSxSr0qmGmsGeGPMzDfpduP6M",
    "placeName": "stanley",
    "state": "VA"
  },
  {
    "city": "charlottesville",
    "state_code": "VA",
    "placeMasterId": "P02500000FsoGv41s6KSsTxrePeQk0YL6leSie9b",
    "placeName": "charlottesville",
    "state": "VA"
  },
  {
    "city": "ambrose",
    "state_code": "ND",
    "placeMasterId": "P02500000FsoGA7YmeuZWQKLK5UmFFO255GqZGxb",
    "placeName": "ambrose",
    "state": "ND"
  },
  {
    "city": "arnegard",
    "state_code": "ND",
    "placeMasterId": "P02500000FsoGAGPGGJ9J6vaUtJ7f9sIxk8mhDhY",
    "placeName": "arnegard",
    "state": "ND"
  },
  {
    "city": "melstone",
    "state_code": "MT",
    "placeMasterId": "P02500000FsoFq0DSc1BnXcpko04JmJXneCDYEs1",
    "placeName": "melstone",
    "state": "MT"
  },
  {
    "city": "culbertson",
    "state_code": "MT",
    "placeMasterId": "P02500000FsoFp0I7OF9IjQ7XBJeOOt5AOR0tEKB",
    "placeName": "culbertson",
    "state": "MT"
  },
  {
    "city": "babb",
    "state_code": "MT",
    "placeMasterId": "P02500000FsoFoibABRzjMDdBZgxYZuETEmi9SVn",
    "placeName": "babb",
    "state": "MT"
  },
  {
    "city": "jefferson city",
    "state_code": "MT",
    "placeMasterId": "P02500000FsoFpiWVPE2EAQLPCNNTxKoqM9IpAKQ",
    "placeName": "jefferson city",
    "state": "MT"
  },
  {
    "city": "missoula",
    "state_code": "MT",
    "placeMasterId": "P02500000FsoFq0DSc1BnXcpko04JmJXRBQWeVrS",
    "placeName": "missoula",
    "state": "MT"
  },
  {
    "city": "superior",
    "state_code": "MT",
    "placeMasterId": "P02500000FsoFqQktQCv9bQZHDR6ZVmqdz3pvs4Z",
    "placeName": "superior",
    "state": "MT"
  },
  {
    "city": "big arm",
    "state_code": "MT",
    "placeMasterId": "P02500000FsoForRdmqZW2osMNVIyUOc8dLcicPG",
    "placeName": "big arm",
    "state": "MT"
  },
  {
    "city": "west glacier",
    "state_code": "MT",
    "placeMasterId": "P02500000FsoFqiRqd04iyd3cp3nPKlPMtvbgk8O",
    "placeName": "west glacier",
    "state": "MT"
  },
  {
    "city": "palatine",
    "state_code": "IL",
    "placeMasterId": "P02500000FsoF6d3cnxe52b0LJmDQ2XRE0fnYhz5",
    "placeName": "palatine",
    "state": "IL"
  },
  {
    "city": "lincolnshire",
    "state_code": "IL",
    "placeMasterId": "P02500000FsoF5CaqlzsEAaYbHelEvdlXefwt6EE",
    "placeName": "lincolnshire",
    "state": "IL"
  },
  {
    "city": "woodstock",
    "state_code": "IL",
    "placeMasterId": "P02500000FsoF8ubGSIse2Cv8Alk6cNPjDNbLfAz",
    "placeName": "woodstock",
    "state": "IL"
  },
  {
    "city": "burlington",
    "state_code": "IL",
    "placeMasterId": "P02500000FsoF23yLVHAx3NAlbnA2srarnbekTJt",
    "placeName": "burlington",
    "state": "IL"
  },
  {
    "city": "elmhurst",
    "state_code": "IL",
    "placeMasterId": "P02500000FsoF3CkAKRnEYB8A2HvOAmYHfDyaO7k",
    "placeName": "elmhurst",
    "state": "IL"
  },
  {
    "city": "schaumburg",
    "state_code": "IL",
    "placeMasterId": "P02500000FsoF7U8UQL6nACTO8eHvVTjBMesvr5n",
    "placeName": "schaumburg",
    "state": "IL"
  },
  {
    "city": "gardner",
    "state_code": "IL",
    "placeMasterId": "P02500000FsoF3m84k26NIa6rFXJ3ok15LkjbEc6",
    "placeName": "gardner",
    "state": "IL"
  },
  {
    "city": "lemont",
    "state_code": "IL",
    "placeMasterId": "P02500000FsoF53kNAbIRTzJQTqPp19NhMb2lHuu",
    "placeName": "lemont",
    "state": "IL"
  },
  {
    "city": "palos heights",
    "state_code": "IL",
    "placeMasterId": "P02500000FsoF6d3cnxe52b0LJmDQ2XSlPBuTjZz",
    "placeName": "palos heights",
    "state": "IL"
  },
  {
    "city": "plano",
    "state_code": "IL",
    "placeMasterId": "P02500000FsoF6uka0knePnUgvOuFrWGJWKXeef1",
    "placeName": "plano",
    "state": "IL"
  },
  {
    "city": "sheldon",
    "state_code": "IL",
    "placeMasterId": "P02500000FsoF7lpRd8GMXOxjkGylKSQQnMI4qc8",
    "placeName": "sheldon",
    "state": "IL"
  },
  {
    "city": "orangeville",
    "state_code": "IL",
    "placeMasterId": "P02500000FsoF6d3cnxe52b0LJmDQ2XShrUulLyl",
    "placeName": "orangeville",
    "state": "IL"
  },
  {
    "city": "aledo",
    "state_code": "IL",
    "placeMasterId": "P02500000FsoF1CtTstiEvlhimv5XPvNFvZCb3eg",
    "placeName": "aledo",
    "state": "IL"
  },
  {
    "city": "deer grove",
    "state_code": "IL",
    "placeMasterId": "P02500000FsoF2v3D7edfAydoQfEYLnoUQNrKE4b",
    "placeName": "deer grove",
    "state": "IL"
  },
  {
    "city": "cherry",
    "state_code": "IL",
    "placeMasterId": "P02500000FsoF2LfIi4KWQZf7DPqshqLQ70t2Hq3",
    "placeName": "cherry",
    "state": "IL"
  },
  {
    "city": "avon",
    "state_code": "IL",
    "placeMasterId": "P02500000FsoF1UaR5groIyC4OXmNEu5Q0Fv7VCG",
    "placeName": "avon",
    "state": "IL"
  },
  {
    "city": "carlock",
    "state_code": "IL",
    "placeMasterId": "P02500000FsoF2LfIi4KWQZf7DPqshqKd1drqO7t",
    "placeName": "carlock",
    "state": "IL"
  },
  {
    "city": "congerville",
    "state_code": "IL",
    "placeMasterId": "P02500000FsoF2dMFurU5nm9Sp2XiWp6UQOzUg2r",
    "placeName": "congerville",
    "state": "IL"
  },
  {
    "city": "danvers",
    "state_code": "IL",
    "placeMasterId": "P02500000FsoF2mCjWG3sUNOdcqt8RJUK7Yss5ls",
    "placeName": "danvers",
    "state": "IL"
  },
  {
    "city": "sibley",
    "state_code": "IL",
    "placeMasterId": "P02500000FsoF7cyy1jgZqniYwSdLPy5kYg79cTY",
    "placeName": "sibley",
    "state": "IL"
  },
  {
    "city": "urbana",
    "state_code": "IL",
    "placeMasterId": "P02500000FsoF8CMsRJzibChG9i113vbb3v9pn7b",
    "placeName": "urbana",
    "state": "IL"
  },
  {
    "city": "gifford",
    "state_code": "IL",
    "placeMasterId": "P02500000FsoF3m84k26NIa6rFXJ3ok2jkB9dijA",
    "placeName": "gifford",
    "state": "IL"
  },
  {
    "city": "dalton city",
    "state_code": "IL",
    "placeMasterId": "P02500000FsoF2mCjWG3sUNOdcqt8RJSNhZCmU4w",
    "placeName": "dalton city",
    "state": "IL"
  },
  {
    "city": "madison",
    "state_code": "IL",
    "placeMasterId": "P02500000FsoF5LRKNOS0rBnm5T6eq8Awo3p0M1D",
    "placeName": "madison",
    "state": "IL"
  },
  {
    "city": "okawville",
    "state_code": "IL",
    "placeMasterId": "P02500000FsoF6UD9CZ4ILzlAVxs0837OEl4RNYe",
    "placeName": "okawville",
    "state": "IL"
  },
  {
    "city": "smithboro",
    "state_code": "IL",
    "placeMasterId": "P02500000FsoF7lpRd8GMXOxjkGylKSSGGeByv4F",
    "placeName": "smithboro",
    "state": "IL"
  },
  {
    "city": "quincy",
    "state_code": "IL",
    "placeMasterId": "P02500000FsoF73b3c9NR6OjrjDFfm0Z02MDfNzt",
    "placeName": "quincy",
    "state": "IL"
  },
  {
    "city": "camden",
    "state_code": "IL",
    "placeMasterId": "P02500000FsoF23yLVHAx3NAlbnA2srb6HwY0aWt",
    "placeName": "camden",
    "state": "IL"
  },
  {
    "city": "mount erie",
    "state_code": "IL",
    "placeMasterId": "P02500000FsoF5upEmyl9bamTIiUKU5diytfx6mX",
    "placeName": "mount erie",
    "state": "IL"
  },
  {
    "city": "divernon",
    "state_code": "IL",
    "placeMasterId": "P02500000FsoF2v3D7edfAydoQfEYLnr9gvMSY0A",
    "placeName": "divernon",
    "state": "IL"
  },
  {
    "city": "latham",
    "state_code": "IL",
    "placeMasterId": "P02500000FsoF53kNAbIRTzJQTqPp19PuiGrjSBH",
    "placeName": "latham",
    "state": "IL"
  },
  {
    "city": "riverton",
    "state_code": "IL",
    "placeMasterId": "P02500000FsoF73b3c9NR6OjrjDFfm0cgJdIwP4m",
    "placeName": "riverton",
    "state": "IL"
  },
  {
    "city": "murrayville",
    "state_code": "IL",
    "placeMasterId": "P02500000FsoF63fiONKwIC1e6WpkOZyDjCKwraL",
    "placeName": "murrayville",
    "state": "IL"
  },
  {
    "city": "springfield",
    "state_code": "IL",
    "placeMasterId": "P02500000FsoF7ufvEWq9E0CuY5KBEwn2MTYuixB",
    "placeName": "springfield",
    "state": "IL"
  },
  {
    "city": "irvington",
    "state_code": "IL",
    "placeMasterId": "P02500000FsoF4UMSl0zIjaKjGb29NBuUWsFsrl1",
    "placeName": "irvington",
    "state": "IL"
  },
  {
    "city": "thompsonville",
    "state_code": "IL",
    "placeMasterId": "P02500000FsoF83WOpvPvubS5Ltfb9RFgn3KMwtR",
    "placeName": "thompsonville",
    "state": "IL"
  },
  {
    "city": "grand tower",
    "state_code": "IL",
    "placeMasterId": "P02500000FsoF3uyYLQg9zBM23LeTjEQy9ffQWrN",
    "placeName": "grand tower",
    "state": "IL"
  },
  {
    "city": "harrisburg",
    "state_code": "IL",
    "placeMasterId": "P02500000FsoF4CfVYDpjMNqNeyLJYD8RVq0hOaW",
    "placeName": "harrisburg",
    "state": "IL"
  },
  {
    "city": "washington",
    "state_code": "MO",
    "placeMasterId": "P02500000FsoFoI3jNGGNIPtfAFvIqRHf06zIxMK",
    "placeName": "washington",
    "state": "MO"
  },
  {
    "city": "louisiana",
    "state_code": "MO",
    "placeMasterId": "P02500000FsoFm0W5iv1oInysJGOcGbIy1HfJ1yc",
    "placeName": "louisiana",
    "state": "MO"
  },
  {
    "city": "brashear",
    "state_code": "MO",
    "placeMasterId": "P02500000FsoFjIR1GO3tFOKZ2ppfxI9dPL7KAzr",
    "placeName": "brashear",
    "state": "MO"
  },
  {
    "city": "edina",
    "state_code": "MO",
    "placeMasterId": "P02500000FsoFk9VsslWbMznbrhuBQEQN0caARoN",
    "placeName": "edina",
    "state": "MO"
  },
  {
    "city": "new cambria",
    "state_code": "MO",
    "placeMasterId": "P02500000FsoFmZu08VKx3CxZWVmHuYg5JHGJjqE",
    "placeName": "new cambria",
    "state": "MO"
  },
  {
    "city": "unionville",
    "state_code": "MO",
    "placeMasterId": "P02500000FsoFo9DFlrgaboeUMRZsvwl28xcA6SO",
    "placeName": "unionville",
    "state": "MO"
  },
  {
    "city": "doe run",
    "state_code": "MO",
    "placeMasterId": "P02500000FsoFk9VsslWbMznbrhuBQEMRCfZwNLM",
    "placeName": "doe run",
    "state": "MO"
  },
  {
    "city": "grain valley",
    "state_code": "MO",
    "placeMasterId": "P02500000FsoFkrkGtkPWo01TsldGygEe31iFtHv",
    "placeName": "grain valley",
    "state": "MO"
  },
  {
    "city": "independence",
    "state_code": "MO",
    "placeMasterId": "P02500000FsoFlIHhhw8srnl0ICfWi9RhRk5k6hJ",
    "placeName": "independence",
    "state": "MO"
  },
  {
    "city": "independence",
    "state_code": "MO",
    "placeMasterId": "P02500000FsoFlIHhhw8srnl0ICfWi9RhRk5k6hJ",
    "placeName": "independence",
    "state": "MO"
  },
  {
    "city": "warrensburg",
    "state_code": "MO",
    "placeMasterId": "P02500000FsoFoI3jNGGNIPtfAFvIqR9uDUzW7oF",
    "placeName": "warrensburg",
    "state": "MO"
  },
  {
    "city": "kansas city",
    "state_code": "MO",
    "placeMasterId": "P02500000FsoFlR8BJKifYP0B610wcdmJLAheztV",
    "placeName": "kansas city",
    "state": "MO"
  },
  {
    "city": "kansas city",
    "state_code": "MO",
    "placeMasterId": "P02500000FsoFlR8BJKifYP0B610wcdmJLAheztV",
    "placeName": "kansas city",
    "state": "MO"
  },
  {
    "city": "allendale",
    "state_code": "MO",
    "placeMasterId": "P02500000FsoFij36qnkkUzLrpaS0JKcei2ahwVQ",
    "placeName": "allendale",
    "state": "MO"
  },
  {
    "city": "westboro",
    "state_code": "MO",
    "placeMasterId": "P02500000FsoFoI3jNGGNIPtfAFvIqRHUyXNG9BI",
    "placeName": "westboro",
    "state": "MO"
  },
  {
    "city": "meadville",
    "state_code": "MO",
    "placeMasterId": "P02500000FsoFmID2viBNg0TDut5S5Zto7c0lOEd",
    "placeName": "meadville",
    "state": "MO"
  },
  {
    "city": "purdin",
    "state_code": "MO",
    "placeMasterId": "P02500000FsoFn9HuY5e5nbwGjl9xYW8qRMeOoXR",
    "placeName": "purdin",
    "state": "MO"
  },
  {
    "city": "montrose",
    "state_code": "MO",
    "placeMasterId": "P02500000FsoFmR3WX6lAMbiOihQs04OSjDGmVKX",
    "placeName": "montrose",
    "state": "MO"
  },
  {
    "city": "nevada",
    "state_code": "MO",
    "placeMasterId": "P02500000FsoFmR3WX6lAMbiOihQs04PLAvY5pku",
    "placeName": "nevada",
    "state": "MO"
  },
  {
    "city": "bunceton",
    "state_code": "MO",
    "placeMasterId": "P02500000FsoFjIR1GO3tFOKZ2ppfxIEFOWTDm97",
    "placeName": "bunceton",
    "state": "MO"
  },
  {
    "city": "excello",
    "state_code": "MO",
    "placeMasterId": "P02500000FsoFkRCq5YgAkCHxTKb1FD6zfwtnajt",
    "placeName": "excello",
    "state": "MO"
  },
  {
    "city": "windsor",
    "state_code": "MO",
    "placeMasterId": "P02500000FsoFoZkga3PwfcO0lsc8fPyozvCNsD6",
    "placeName": "windsor",
    "state": "MO"
  },
  {
    "city": "viburnum",
    "state_code": "MO",
    "placeMasterId": "P02500000FsoFo9DFlrgaboeUMRZsvwq3FPxdPA0",
    "placeName": "viburnum",
    "state": "MO"
  },
  {
    "city": "flemington",
    "state_code": "MO",
    "placeMasterId": "P02500000FsoFka3JgxFxQnX8H8wR9hTLBYBsrsk",
    "placeName": "flemington",
    "state": "MO"
  },
  {
    "city": "humansville",
    "state_code": "MO",
    "placeMasterId": "P02500000FsoFlIHhhw8srnl0ICfWi9Oo0sQOLTg",
    "placeName": "humansville",
    "state": "MO"
  },
  {
    "city": "marionville",
    "state_code": "MO",
    "placeMasterId": "P02500000FsoFm0W5iv1oInysJGOcGbJP90FdNDc",
    "placeName": "marionville",
    "state": "MO"
  },
  {
    "city": "norwood",
    "state_code": "MO",
    "placeMasterId": "P02500000FsoFmikTjtujjoCkKK7hp34VKEknjaG",
    "placeName": "norwood",
    "state": "MO"
  },
  {
    "city": "strafford",
    "state_code": "MO",
    "placeMasterId": "P02500000FsoFnrWIZ4X1EcA8kot36y55tfabCm1",
    "placeName": "strafford",
    "state": "MO"
  },
  {
    "city": "walnut grove",
    "state_code": "MO",
    "placeMasterId": "P02500000FsoFo9DFlrgaboeUMRZsvwvuf5eu3ah",
    "placeName": "walnut grove",
    "state": "MO"
  },
  {
    "city": "washburn",
    "state_code": "MO",
    "placeMasterId": "P02500000FsoFoI3jNGGNIPtfAFvIqRANjcslcQZ",
    "placeName": "washburn",
    "state": "MO"
  },
  {
    "city": "pomona",
    "state_code": "MO",
    "placeMasterId": "P02500000FsoFn9HuY5e5nbwGjl9xYW94dPP5yxJ",
    "placeName": "pomona",
    "state": "MO"
  },
  {
    "city": "frankfort",
    "state_code": "KS",
    "placeMasterId": "P02500000FsoFKBSz6cTgJfFtdv27b4mecogXvy6",
    "placeName": "frankfort",
    "state": "KS"
  },
  {
    "city": "holton",
    "state_code": "KS",
    "placeMasterId": "P02500000FsoFKc0PuoD2NSzQ3M4NKXtKBJ5Gtcb",
    "placeName": "holton",
    "state": "KS"
  },
  {
    "city": "chanute",
    "state_code": "KS",
    "placeMasterId": "P02500000FsoFJc54h2AXZGHCQfeRx7GTm3K0zDV",
    "placeName": "chanute",
    "state": "KS"
  },
  {
    "city": "galena",
    "state_code": "KS",
    "placeMasterId": "P02500000FsoFKKJSi13T0GV4RjNXVZ6jJUOP1H5",
    "placeName": "galena",
    "state": "KS"
  },
  {
    "city": "emporia",
    "state_code": "KS",
    "placeMasterId": "P02500000FsoFKBSz6cTgJfFtdv27b4kCTdGXN7s",
    "placeName": "emporia",
    "state": "KS"
  },
  {
    "city": "formoso",
    "state_code": "KS",
    "placeMasterId": "P02500000FsoFKBSz6cTgJfFtdv27b4o4lJNqDwT",
    "placeName": "formoso",
    "state": "KS"
  },
  {
    "city": "hardtner",
    "state_code": "KS",
    "placeMasterId": "P02500000FsoFKT9wJPdFgrkFFXixQ3VfGn05kC8",
    "placeName": "hardtner",
    "state": "KS"
  },
  {
    "city": "hesston",
    "state_code": "KS",
    "placeMasterId": "P02500000FsoFKT9wJPdFgrkFFXixQ3Z0YOnTauJ",
    "placeName": "hesston",
    "state": "KS"
  },
  {
    "city": "wichita",
    "state_code": "KS",
    "placeMasterId": "P02500000FsoFMtY3Z9RbN4uCuLb3uNnBOyNlFLT",
    "placeName": "wichita",
    "state": "KS"
  },
  {
    "city": "wichita",
    "state_code": "KS",
    "placeMasterId": "P02500000FsoFMtY3Z9RbN4uCuLb3uNnBOyNlFLT",
    "placeName": "wichita",
    "state": "KS"
  },
  {
    "city": "tyro",
    "state_code": "KS",
    "placeMasterId": "P02500000FsoFMbr6MMI1zsPrIiuE5P3nfBXrT13",
    "placeName": "tyro",
    "state": "KS"
  },
  {
    "city": "woodbine",
    "state_code": "KS",
    "placeMasterId": "P02500000FsoFN2OXAY1O3g9Ni9wTosAR6sAlxai",
    "placeName": "woodbine",
    "state": "KS"
  },
  {
    "city": "otis",
    "state_code": "KS",
    "placeMasterId": "P02500000FsoFLkmEjypJsGwoTqpicSuIcF5Nh9h",
    "placeName": "otis",
    "state": "KS"
  },
  {
    "city": "turon",
    "state_code": "KS",
    "placeMasterId": "P02500000FsoFMbr6MMI1zsPrIiuE5P6ItosPYjm",
    "placeName": "turon",
    "state": "KS"
  },
  {
    "city": "lenora",
    "state_code": "KS",
    "placeMasterId": "P02500000FsoFL2XqizwORGiwSn6d40yPgjG36Vh",
    "placeName": "lenora",
    "state": "KS"
  },
  {
    "city": "ogallah",
    "state_code": "KS",
    "placeMasterId": "P02500000FsoHajBIE50B7NKX0lIm3acu6UEBo0D",
    "placeName": "ogallah",
    "state": "KS"
  },
  {
    "city": "colby",
    "state_code": "KS",
    "placeMasterId": "P02500000FsoFJkvYIQkKFrWNETzrrbfJRFO6Lf1",
    "placeName": "colby",
    "state": "KS"
  },
  {
    "city": "gove",
    "state_code": "KS",
    "placeMasterId": "P02500000FsoHYInAyLBpRAAZLxQfZGJ4GcgTbP4",
    "placeName": "gove",
    "state": "KS"
  },
  {
    "city": "monument",
    "state_code": "KS",
    "placeMasterId": "P02500000FsoHaRUL1HqbkAqBP8bwEbrATeoncFS",
    "placeName": "monument",
    "state": "KS"
  },
  {
    "city": "oakley",
    "state_code": "KS",
    "placeMasterId": "P02500000FsoFLkmEjypJsGwoTqpicSpj6jsGyju",
    "placeName": "oakley",
    "state": "KS"
  },
  {
    "city": "bucklin",
    "state_code": "KS",
    "placeMasterId": "P02500000FsoFJTEb5daksf21crJ22cu3qYEJSdk",
    "placeName": "bucklin",
    "state": "KS"
  },
  {
    "city": "pierceville",
    "state_code": "KS",
    "placeMasterId": "P02500000FsoHb0sFQs9kUZoscNzbsZJnt4bhKVT",
    "placeName": "pierceville",
    "state": "KS"
  },
  {
    "city": "lyons",
    "state_code": "NE",
    "placeMasterId": "P02500000FsoFsiIX4Y9ib2U44QdG5cdEOZGzTdl",
    "placeName": "lyons",
    "state": "NE"
  },
  {
    "city": "la vista",
    "state_code": "NE",
    "placeMasterId": "P02500000FsoFsZS3T9ZvuREtGcHqB8HOKaJZBzp",
    "placeName": "la vista",
    "state": "NE"
  },
  {
    "city": "jansen",
    "state_code": "NE",
    "placeMasterId": "P02500000FsoFsQbZrl09DpziSnwQGdrYzYYuUaV",
    "placeName": "jansen",
    "state": "NE"
  },
  {
    "city": "mccool junction",
    "state_code": "NE",
    "placeMasterId": "P02500000FsoFsiIX4Y9ib2U44QdG5cfwGvzLSse",
    "placeName": "mccool junction",
    "state": "NE"
  },
  {
    "city": "wilber",
    "state_code": "NE",
    "placeMasterId": "P02500000FsoFtzupV7LmmRgdIjk1I24CzJrHC9n",
    "placeName": "wilber",
    "state": "NE"
  },
  {
    "city": "lincoln",
    "state_code": "NE",
    "placeMasterId": "P02500000FsoFsZS3T9ZvuREtGcHqB8DyQVvTvuI",
    "placeName": "lincoln",
    "state": "NE"
  },
  {
    "city": "lincoln",
    "state_code": "NE",
    "placeMasterId": "P02500000FsoFsZS3T9ZvuREtGcHqB8DyQVvTvuI",
    "placeName": "lincoln",
    "state": "NE"
  },
  {
    "city": "surprise",
    "state_code": "NE",
    "placeMasterId": "P02500000FsoFtiDsIKCDPFCHh73BT3CahV5fLXm",
    "placeName": "surprise",
    "state": "NE"
  },
  {
    "city": "ewing",
    "state_code": "NE",
    "placeMasterId": "P02500000FsoFrrDfSAh0TR11FYYkcgQHKZBstq9",
    "placeName": "ewing",
    "state": "NE"
  },
  {
    "city": "meadow grove",
    "state_code": "NE",
    "placeMasterId": "P02500000FsoFsr90fwjVHdjEsEyg06zthxiyvWg",
    "placeName": "meadow grove",
    "state": "NE"
  },
  {
    "city": "pilger",
    "state_code": "NE",
    "placeMasterId": "P02500000FsoFt8pxsjt4eqDaTrfVp5wKcByJnRP",
    "placeName": "pilger",
    "state": "NE"
  },
  {
    "city": "ansley",
    "state_code": "NE",
    "placeMasterId": "P02500000FsoFqrIKEOeVfEIncs8pFFoLbIwKVsn",
    "placeName": "ansley",
    "state": "NE"
  },
  {
    "city": "central city",
    "state_code": "NE",
    "placeMasterId": "P02500000FsoFrQgEdyxePdHUq7WUtDJoLFUNVgU",
    "placeName": "central city",
    "state": "NE"
  },
  {
    "city": "hendley",
    "state_code": "NE",
    "placeMasterId": "P02500000FsoFs8ucexqZqdVMrBFaRfQ28VZm05z",
    "placeName": "hendley",
    "state": "NE"
  },
  {
    "city": "juniata",
    "state_code": "NE",
    "placeMasterId": "P02500000FsoFsQbZrl09DpziSnwQGduBsn0gYBD",
    "placeName": "juniata",
    "state": "NE"
  },
  {
    "city": "imperial",
    "state_code": "NE",
    "placeMasterId": "P02500000FsoFsHl6GMQMXEkXezb0M9i8JGehKVh",
    "placeName": "imperial",
    "state": "NE"
  },
  {
    "city": "arnold",
    "state_code": "NE",
    "placeMasterId": "P02500000FsoFqrIKEOeVfEIncs8pFFycE8tYSrd",
    "placeName": "arnold",
    "state": "NE"
  },
  {
    "city": "arthur",
    "state_code": "NE",
    "placeMasterId": "P02500000FsoFqrIKEOeVfEIncs8pFG2AvPyU3ml",
    "placeName": "arthur",
    "state": "NE"
  },
  {
    "city": "oshkosh",
    "state_code": "NE",
    "placeMasterId": "P02500000FsoFt8pxsjt4eqDaTrfVp5l7TcV5IHr",
    "placeName": "oshkosh",
    "state": "NE"
  },
  {
    "city": "thedford",
    "state_code": "NE",
    "placeMasterId": "P02500000FsoFtiDsIKCDPFCHh73BT3RlPodIzWH",
    "placeName": "thedford",
    "state": "NE"
  },
  {
    "city": "mcgrew",
    "state_code": "NE",
    "placeMasterId": "P02500000FsoFsiIX4Y9ib2U44QdG5cdtkrgGvhf",
    "placeName": "mcgrew",
    "state": "NE"
  },
  {
    "city": "new orleans",
    "state_code": "LA",
    "placeMasterId": "P02500000FsoFS21FHQDs6hiTpa26i1JVz94sOtB",
    "placeName": "new orleans",
    "state": "LA"
  },
  {
    "city": "new orleans",
    "state_code": "LA",
    "placeMasterId": "P02500000FsoFS21FHQDs6hiTpa26i1JVz94sOtB",
    "placeName": "new orleans",
    "state": "LA"
  },
  {
    "city": "belle rose",
    "state_code": "LA",
    "placeMasterId": "P02500000FsoFQShze3sEY61YzeEVgd7ZYi8Oy9O",
    "placeName": "belle rose",
    "state": "LA"
  },
  {
    "city": "golden meadow",
    "state_code": "LA",
    "placeMasterId": "P02500000FsoFRAwNf2l9z6FR0hxbF502aS4XaHY",
    "placeName": "golden meadow",
    "state": "LA"
  },
  {
    "city": "gray",
    "state_code": "LA",
    "placeMasterId": "P02500000FsoFRAwNf2l9z6FR0hxbF56RdL4wrXa",
    "placeName": "gray",
    "state": "LA"
  },
  {
    "city": "mermentau",
    "state_code": "LA",
    "placeMasterId": "P02500000FsoFRtAlg1e5Q6TJ1lggnWrgowjgbFM",
    "placeName": "mermentau",
    "state": "LA"
  },
  {
    "city": "rayne",
    "state_code": "LA",
    "placeMasterId": "P02500000FsoFSJiCUDNRTuCpRCiwX035tbHRc8F",
    "placeName": "rayne",
    "state": "LA"
  },
  {
    "city": "fenton",
    "state_code": "LA",
    "placeMasterId": "P02500000FsoFR25u3eBNIV0GCtcBKaZsBP8pAFW",
    "placeName": "fenton",
    "state": "LA"
  },
  {
    "city": "hackberry",
    "state_code": "LA",
    "placeMasterId": "P02500000FsoFRJmrGRKwfhUboWJ19ZNEjtcdEW0",
    "placeName": "hackberry",
    "state": "LA"
  },
  {
    "city": "livonia",
    "state_code": "LA",
    "placeMasterId": "P02500000FsoFRbToTEUW2tyxQ8zqyYBAcUObnZ9",
    "placeName": "livonia",
    "state": "LA"
  },
  {
    "city": "wilson",
    "state_code": "LA",
    "placeMasterId": "P02500000FsoFSt66tngaEJBWeS6cAxWyxkSbnuK",
    "placeName": "wilson",
    "state": "LA"
  },
  {
    "city": "sibley",
    "state_code": "LA",
    "placeMasterId": "P02500000FsoFSbP9h0X0r6hB2pPmLylRy5PRUWt",
    "placeName": "sibley",
    "state": "LA"
  },
  {
    "city": "springhill",
    "state_code": "LA",
    "placeMasterId": "P02500000FsoFSbP9h0X0r6hB2pPmLyl6j50Z6Hn",
    "placeName": "springhill",
    "state": "LA"
  },
  {
    "city": "collinston",
    "state_code": "LA",
    "placeMasterId": "P02500000FsoFQkOwqr1nvIVubGvLVbt11oFf8fL",
    "placeName": "collinston",
    "state": "LA"
  },
  {
    "city": "stephens",
    "state_code": "AR",
    "placeMasterId": "P02500000FsoEdEhGYIkJUqaRoV3KLcxZL7SyWOq",
    "placeName": "stephens",
    "state": "AR"
  },
  {
    "city": "strong",
    "state_code": "AR",
    "placeMasterId": "P02500000FsoEd5qmwuAWoFLH0ghuR8cys7XUl5s",
    "placeName": "strong",
    "state": "AR"
  },
  {
    "city": "foreman",
    "state_code": "AR",
    "placeMasterId": "P02500000FsoEbWXXJXotFdeMAkuJPkUJbDG8QI7",
    "placeName": "foreman",
    "state": "AR"
  },
  {
    "city": "fouke",
    "state_code": "AR",
    "placeMasterId": "P02500000FsoEbNh3i9F6Z2PBMwYtVGB1lTHhaFr",
    "placeName": "fouke",
    "state": "AR"
  },
  {
    "city": "adona",
    "state_code": "AR",
    "placeMasterId": "P02500000FsoEaNliUNCbkpgxkG8y7pbUQ3BAcqt",
    "placeName": "adona",
    "state": "AR"
  },
  {
    "city": "altheimer",
    "state_code": "AR",
    "placeMasterId": "P02500000FsoEaWcC5lmORQw8Y4UO2JuwCnK3yJW",
    "placeName": "altheimer",
    "state": "AR"
  },
  {
    "city": "higden",
    "state_code": "AR",
    "placeMasterId": "P02500000FsoEboEUWKyScq8hmNb9EjJZtlYymKV",
    "placeName": "higden",
    "state": "AR"
  },
  {
    "city": "wooster",
    "state_code": "AR",
    "placeMasterId": "P02500000FsoEdWODl5tss34nQ7kAAbl2u4X3XCs",
    "placeName": "wooster",
    "state": "AR"
  },
  {
    "city": "luxora",
    "state_code": "AR",
    "placeMasterId": "P02500000FsoEc5vRj88202d3O0Hz3i3maLpRfHK",
    "placeName": "luxora",
    "state": "AR"
  },
  {
    "city": "ravenden springs",
    "state_code": "AR",
    "placeMasterId": "P02500000FsoEco9pk70xR2qvP414c9rU7de1nz4",
    "placeName": "ravenden springs",
    "state": "AR"
  },
  {
    "city": "newark",
    "state_code": "AR",
    "placeMasterId": "P02500000FsoEcWSsXJrO3qMZnRKEnB71ijE5uLf",
    "placeName": "newark",
    "state": "AR"
  },
  {
    "city": "flippin",
    "state_code": "AR",
    "placeMasterId": "P02500000FsoEbNh3i9F6Z2PBMwYtVG9hNKpPjZD",
    "placeName": "flippin",
    "state": "AR"
  },
  {
    "city": "marshall",
    "state_code": "AR",
    "placeMasterId": "P02500000FsoEcElvKWhogdsEBodOyCPkXO4tWDg",
    "placeName": "marshall",
    "state": "AR"
  },
  {
    "city": "fayetteville",
    "state_code": "AR",
    "placeMasterId": "P02500000FsoEbWXXJXotFdeMAkuJPkUaZ2ipDPO",
    "placeName": "fayetteville",
    "state": "AR"
  },
  {
    "city": "decatur",
    "state_code": "AR",
    "placeMasterId": "P02500000FsoEbEqa6kfJsRA0Z8DTalkjeatgC0O",
    "placeName": "decatur",
    "state": "AR"
  },
  {
    "city": "coal hill",
    "state_code": "AR",
    "placeMasterId": "P02500000FsoEb606VM5XBpuplJs3gHPyLis9gwn",
    "placeName": "coal hill",
    "state": "AR"
  },
  {
    "city": "fort smith",
    "state_code": "AR",
    "placeMasterId": "P02500000FsoEbNh3i9F6Z2PBMwYtVG9FSSbjGea",
    "placeName": "fort smith",
    "state": "AR"
  },
  {
    "city": "cedarville",
    "state_code": "AR",
    "placeMasterId": "P02500000FsoEb606VM5XBpuplJs3gHN97hKMSft",
    "placeName": "cedarville",
    "state": "AR"
  },
  {
    "city": "lexington",
    "state_code": "OK",
    "placeMasterId": "P02500000FsoGM6etKD3U8mtxZhnLmXCP0gzV8E7",
    "placeName": "lexington",
    "state": "OK"
  },
  {
    "city": "nicoma park",
    "state_code": "OK",
    "placeMasterId": "P02500000FsoGMXCK8OmqCadTz8pbW0JehJl5wVh",
    "placeName": "nicoma park",
    "state": "OK"
  },
  {
    "city": "springer",
    "state_code": "OK",
    "placeMasterId": "P02500000FsoGNOHBkmFYKC6Wo0u6ywVKOGJC4OG",
    "placeName": "springer",
    "state": "OK"
  },
  {
    "city": "lawton",
    "state_code": "OK",
    "placeMasterId": "P02500000FsoGM6etKD3U8mtxZhnLmX72deoXr8U",
    "placeName": "lawton",
    "state": "OK"
  },
  {
    "city": "cache",
    "state_code": "OK",
    "placeMasterId": "P02500000FsoGKOVA5S83tZxrvxeKqem8SiotRHd",
    "placeName": "cache",
    "state": "OK"
  },
  {
    "city": "custer city",
    "state_code": "OK",
    "placeMasterId": "P02500000FsoGKp2atdrPxNhOLOgaa7uoJFsXCRl",
    "placeName": "custer city",
    "state": "OK"
  },
  {
    "city": "aline",
    "state_code": "OK",
    "placeMasterId": "P02500000FsoGJp7Ffrov9AzAiiGfChHMjWGYUaO",
    "placeName": "aline",
    "state": "OK"
  },
  {
    "city": "covington",
    "state_code": "OK",
    "placeMasterId": "P02500000FsoGKgC7IFHdGmSDXaLAfdfht6M7j7U",
    "placeName": "covington",
    "state": "OK"
  },
  {
    "city": "dacoma",
    "state_code": "OK",
    "placeMasterId": "P02500000FsoGKp2atdrPxNhOLOgaa7w7FfyCXDg",
    "placeName": "dacoma",
    "state": "OK"
  },
  {
    "city": "gate",
    "state_code": "OK",
    "placeMasterId": "P02500000FsoGLOQVJEAYhmg5Ye4GE5J1MGZQYFh",
    "placeName": "gate",
    "state": "OK"
  },
  {
    "city": "texhoma",
    "state_code": "OK",
    "placeMasterId": "P02500000FsoGNfy8xZP7hOasPdawnvJqVKny1VF",
    "placeName": "texhoma",
    "state": "OK"
  },
  {
    "city": "ramona",
    "state_code": "OK",
    "placeMasterId": "P02500000FsoGMxjkwaWCGON0OZrrFTPy4YKusOc",
    "placeName": "ramona",
    "state": "OK"
  },
  {
    "city": "tulsa",
    "state_code": "OK",
    "placeMasterId": "P02500000FsoGNfy8xZP7hOasPdawnvKembwKfLR",
    "placeName": "tulsa",
    "state": "OK"
  },
  {
    "city": "colcord",
    "state_code": "OK",
    "placeMasterId": "P02500000FsoGKgC7IFHdGmSDXaLAfdd49LkGSMJ",
    "placeName": "colcord",
    "state": "OK"
  },
  {
    "city": "welch",
    "state_code": "OK",
    "placeMasterId": "P02500000FsoGNxf6AMYh4b5E1GHmcu7shmLx9k0",
    "placeName": "welch",
    "state": "OK"
  },
  {
    "city": "dewar",
    "state_code": "OK",
    "placeMasterId": "P02500000FsoGKp2atdrPxNhOLOgaa7tIhTEc7Dl",
    "placeName": "dewar",
    "state": "OK"
  },
  {
    "city": "tahlequah",
    "state_code": "OK",
    "placeMasterId": "P02500000FsoGNX7fMApL0nLhbpFWtR1AbBrZewP",
    "placeName": "tahlequah",
    "state": "OK"
  },
  {
    "city": "wainwright",
    "state_code": "OK",
    "placeMasterId": "P02500000FsoGNoocYxyuNzq3DRwMiPkfyuFbC47",
    "placeName": "wainwright",
    "state": "OK"
  },
  {
    "city": "calvin",
    "state_code": "OK",
    "placeMasterId": "P02500000FsoGKOVA5S83tZxrvxeKqerPogd2Za7",
    "placeName": "calvin",
    "state": "OK"
  },
  {
    "city": "talihina",
    "state_code": "OK",
    "placeMasterId": "P02500000FsoGNfy8xZP7hOasPdawnvCHXiau8e1",
    "placeName": "talihina",
    "state": "OK"
  },
  {
    "city": "shidler",
    "state_code": "OK",
    "placeMasterId": "P02500000FsoGNOHBkmFYKC6Wo0u6ywUx6BGvwlf",
    "placeName": "shidler",
    "state": "OK"
  },
  {
    "city": "tonkawa",
    "state_code": "OK",
    "placeMasterId": "P02500000FsoGNfy8xZP7hOasPdawnvMzchGpY6g",
    "placeName": "tonkawa",
    "state": "OK"
  },
  {
    "city": "broken bow",
    "state_code": "OK",
    "placeMasterId": "P02500000FsoGKFegU3YHCyih89IuwAP2tkQRbsC",
    "placeName": "broken bow",
    "state": "OK"
  },
  {
    "city": "macomb",
    "state_code": "OK",
    "placeMasterId": "P02500000FsoGMFVMvbdGpO98NW8lh1W1JFxfjAz",
    "placeName": "macomb",
    "state": "OK"
  },
  {
    "city": "gans",
    "state_code": "OK",
    "placeMasterId": "P02500000FsoGLFa1hpam1BQukpiqJavxu0UnOIW",
    "placeName": "gans",
    "state": "OK"
  },
  {
    "city": "plano",
    "state_code": "TX",
    "placeMasterId": "P02500000FsoGpMAlyTNSzw4gHAc1YxIwpOpGjrg",
    "placeName": "plano",
    "state": "TX"
  },
  {
    "city": "sherman",
    "state_code": "TX",
    "placeMasterId": "P02500000FsoGqdn4P2ZXBLHFVTimlMgcdLUlsAF",
    "placeName": "sherman",
    "state": "TX"
  },
  {
    "city": "cedar hill",
    "state_code": "TX",
    "placeMasterId": "P02500000FsoGjeJfqcI3VuHi8gnJ7MYy0nzS7zM",
    "placeName": "cedar hill",
    "state": "TX"
  },
  {
    "city": "mesquite",
    "state_code": "TX",
    "placeMasterId": "P02500000FsoGo4YTXuBOoWs72rVGMY3lRUYhh2A",
    "placeName": "mesquite",
    "state": "TX"
  },
  {
    "city": "dallas",
    "state_code": "TX",
    "placeMasterId": "P02500000FsoGkMY3rbAywuVa9kWOfoNE7vnQ9N4",
    "placeName": "dallas",
    "state": "TX"
  },
  {
    "city": "dallas",
    "state_code": "TX",
    "placeMasterId": "P02500000FsoGkMY3rbAywuVa9kWOfoNE7vnQ9N4",
    "placeName": "dallas",
    "state": "TX"
  },
  {
    "city": "dallas",
    "state_code": "TX",
    "placeMasterId": "P02500000FsoGkMY3rbAywuVa9kWOfoNE7vnQ9N4",
    "placeName": "dallas",
    "state": "TX"
  },
  {
    "city": "bogata",
    "state_code": "TX",
    "placeMasterId": "P02500000FsoGiw5HpdP84u3q7d4DYukDPo2nQpQ",
    "placeName": "bogata",
    "state": "TX"
  },
  {
    "city": "windom",
    "state_code": "TX",
    "placeMasterId": "P02500000FsoGs4FqR0LO3LizXbAxsGWgtgGia37",
    "placeName": "windom",
    "state": "TX"
  },
  {
    "city": "douglassville",
    "state_code": "TX",
    "placeMasterId": "P02500000FsoGkVOXSzkldVkkxYroaIu53K6AzrF",
    "placeName": "douglassville",
    "state": "TX"
  },
  {
    "city": "marietta",
    "state_code": "TX",
    "placeMasterId": "P02500000FsoGnmrWL71pRKNlREoQXZQhPeRznFw",
    "placeName": "marietta",
    "state": "TX"
  },
  {
    "city": "nash",
    "state_code": "TX",
    "placeMasterId": "P02500000FsoGoV5uM5uksKbdSIXW61B9njhpcMT",
    "placeName": "nash",
    "state": "TX"
  },
  {
    "city": "avinger",
    "state_code": "TX",
    "placeMasterId": "P02500000FsoGieOKcqFYhhZUW0NNjvnoBQ4u1TX",
    "placeName": "avinger",
    "state": "TX"
  },
  {
    "city": "gladewater",
    "state_code": "TX",
    "placeMasterId": "P02500000FsoGlVJsglnGRiSyaFHjxjKQzlJ7oIi",
    "placeName": "gladewater",
    "state": "TX"
  },
  {
    "city": "hughes springs",
    "state_code": "TX",
    "placeMasterId": "P02500000FsoGmMOkJ9FyZJw1P7MFQfXMQano1WN",
    "placeName": "hughes springs",
    "state": "TX"
  },
  {
    "city": "tyler",
    "state_code": "TX",
    "placeMasterId": "P02500000FsoGrUrw1Q2FIwkIKLnIEIqxT9CHRU3",
    "placeName": "tyler",
    "state": "TX"
  },
  {
    "city": "arlington",
    "state_code": "TX",
    "placeMasterId": "P02500000FsoGiVXr1Rfm16KJiC1xpRRvnErdMUM",
    "placeName": "arlington",
    "state": "TX"
  },
  {
    "city": "granbury",
    "state_code": "TX",
    "placeMasterId": "P02500000FsoGleAMIAN38Ji9O3d9sDf52jB44N1",
    "placeName": "granbury",
    "state": "TX"
  },
  {
    "city": "keene",
    "state_code": "TX",
    "placeMasterId": "P02500000FsoGme5hVwPXwWQN0k35FeMXh8zj79P",
    "placeName": "keene",
    "state": "TX"
  },
  {
    "city": "mineral wells",
    "state_code": "TX",
    "placeMasterId": "P02500000FsoGoDOx9IlBV87HqfqgH2UoKWI9QDw",
    "placeName": "mineral wells",
    "state": "TX"
  },
  {
    "city": "weatherford",
    "state_code": "TX",
    "placeMasterId": "P02500000FsoGrmYtEDBog9EdvyU83HkwGUnryGT",
    "placeName": "weatherford",
    "state": "TX"
  },
  {
    "city": "fort worth",
    "state_code": "TX",
    "placeMasterId": "P02500000FsoGlMTP5NDTl7DnmQwK3EqQnKzuFlE",
    "placeName": "fort worth",
    "state": "TX"
  },
  {
    "city": "fort worth",
    "state_code": "TX",
    "placeMasterId": "P02500000FsoGlMTP5NDTl7DnmQwK3EqQnKzuFlE",
    "placeName": "fort worth",
    "state": "TX"
  },
  {
    "city": "fort worth",
    "state_code": "TX",
    "placeMasterId": "P02500000FsoGlMTP5NDTl7DnmQwK3EqQnKzuFlE",
    "placeName": "fort worth",
    "state": "TX"
  },
  {
    "city": "fort worth",
    "state_code": "TX",
    "placeMasterId": "P02500000FsoGlMTP5NDTl7DnmQwK3EqQnKzuFlE",
    "placeName": "fort worth",
    "state": "TX"
  },
  {
    "city": "argyle",
    "state_code": "TX",
    "placeMasterId": "P02500000FsoGiVXr1Rfm16KJiC1xpRdMj1r4cH2",
    "placeName": "argyle",
    "state": "TX"
  },
  {
    "city": "frost",
    "state_code": "TX",
    "placeMasterId": "P02500000FsoGlMTP5NDTl7DnmQwK3EsEzqAxQh5",
    "placeName": "frost",
    "state": "TX"
  },
  {
    "city": "penelope",
    "state_code": "TX",
    "placeMasterId": "P02500000FsoGpDKIN4ngJKpVTMGbeSsbqh7geCM",
    "placeName": "penelope",
    "state": "TX"
  },
  {
    "city": "houston",
    "state_code": "TX",
    "placeMasterId": "P02500000FsoGmDYGhkgBsigqbJ0pWBK8GcFdEcU",
    "placeName": "houston",
    "state": "TX"
  },
  {
    "city": "houston",
    "state_code": "TX",
    "placeMasterId": "P02500000FsoGmDYGhkgBsigqbJ0pWBK8GcFdEcU",
    "placeName": "houston",
    "state": "TX"
  },
  {
    "city": "huntsville",
    "state_code": "TX",
    "placeMasterId": "P02500000FsoGmMOkJ9FyZJw1P7MFQfVk0ypPKqW",
    "placeName": "huntsville",
    "state": "TX"
  },
  {
    "city": "eagle lake",
    "state_code": "TX",
    "placeMasterId": "P02500000FsoGkeF14OKYK6zvlNDEUn5xEX7BCFc",
    "placeName": "eagle lake",
    "state": "TX"
  },
  {
    "city": "hull",
    "state_code": "TX",
    "placeMasterId": "P02500000FsoGmMOkJ9FyZJw1P7MFQfT7yBEjHEw",
    "placeName": "hull",
    "state": "TX"
  },
  {
    "city": "vidor",
    "state_code": "TX",
    "placeMasterId": "P02500000FsoGrdiPcoc1zXzT8A8i8nESMlTTY9w",
    "placeName": "vidor",
    "state": "TX"
  },
  {
    "city": "anderson",
    "state_code": "TX",
    "placeMasterId": "P02500000FsoGiVXr1Rfm16KJiC1xpRSaGLCMRl4",
    "placeName": "anderson",
    "state": "TX"
  },
  {
    "city": "victoria",
    "state_code": "TX",
    "placeMasterId": "P02500000FsoGrdiPcoc1zXzT8A8i8nPOiX3939k",
    "placeName": "victoria",
    "state": "TX"
  },
  {
    "city": "la ward",
    "state_code": "TX",
    "placeMasterId": "P02500000FsoGnMK5WvITNWeF1nmAo68YPfNO1j6",
    "placeName": "la ward",
    "state": "TX"
  },
  {
    "city": "san antonio",
    "state_code": "TX",
    "placeMasterId": "P02500000FsoGqM67CFPxo8mttr1wwNqfYQdpCPu",
    "placeName": "san antonio",
    "state": "TX"
  },
  {
    "city": "san antonio",
    "state_code": "TX",
    "placeMasterId": "P02500000FsoGqM67CFPxo8mttr1wwNqfYQdpCPu",
    "placeName": "san antonio",
    "state": "TX"
  },
  {
    "city": "agua dulce",
    "state_code": "TX",
    "placeMasterId": "P02500000FsoGiMhNQ35zKV58uNgXux3AahClbnx",
    "placeName": "agua dulce",
    "state": "TX"
  },
  {
    "city": "refugio",
    "state_code": "TX",
    "placeMasterId": "P02500000FsoGpmiCmf6p3joCgbeHIQUo609wHgZ",
    "placeName": "refugio",
    "state": "TX"
  },
  {
    "city": "corpus christi",
    "state_code": "TX",
    "placeMasterId": "P02500000FsoGkDhaGCbCGJGPLwAylJumHp42lmi",
    "placeName": "corpus christi",
    "state": "TX"
  },
  {
    "city": "la joya",
    "state_code": "TX",
    "placeMasterId": "P02500000FsoGmvmeijZ7JiuicMjv4d3t18FRO6o",
    "placeName": "la joya",
    "state": "TX"
  },
  {
    "city": "lasara",
    "state_code": "TX",
    "placeMasterId": "P02500000FsoGnDTbvWiggvP4DzQktbjX3MKRV91",
    "placeName": "lasara",
    "state": "TX"
  },
  {
    "city": "los indios",
    "state_code": "TX",
    "placeMasterId": "P02500000FsoGne12jiS2kj8adQT0d4tdiwCfzZl",
    "placeName": "los indios",
    "state": "TX"
  },
  {
    "city": "manor",
    "state_code": "TX",
    "placeMasterId": "P02500000FsoGnmrWL71pRKNlREoQXZQRwv2t7px",
    "placeName": "manor",
    "state": "TX"
  },
  {
    "city": "industry",
    "state_code": "TX",
    "placeMasterId": "P02500000FsoGmVFDuXplFvBCCvhfL9unx2yy4HA",
    "placeName": "industry",
    "state": "TX"
  },
  {
    "city": "canyon",
    "state_code": "TX",
    "placeMasterId": "P02500000FsoGjVTCFDiGpJ2XKsRtCsBh4SqZp9J",
    "placeName": "canyon",
    "state": "TX"
  },
  {
    "city": "hart",
    "state_code": "TX",
    "placeMasterId": "P02500000FsoGlvrJUxWcVWCUzgJzhCKcvPV66Jq",
    "placeName": "hart",
    "state": "TX"
  },
  {
    "city": "wilson",
    "state_code": "TX",
    "placeMasterId": "P02500000FsoGs4FqR0LO3LizXbAxsGUlQ2OICmQ",
    "placeName": "wilson",
    "state": "TX"
  },
  {
    "city": "lawn",
    "state_code": "TX",
    "placeMasterId": "P02500000FsoGnDTbvWiggvP4DzQktbs59FfYA2W",
    "placeName": "lawn",
    "state": "TX"
  },
  {
    "city": "novice",
    "state_code": "TX",
    "placeMasterId": "P02500000FsoGodwNxUUXYvqoG6sw0VbUicol9UI",
    "placeName": "novice",
    "state": "TX"
  },
  {
    "city": "balmorhea",
    "state_code": "TX",
    "placeMasterId": "P02500000FsoGieOKcqFYhhZUW0NNjw1OxhLX0x4",
    "placeName": "balmorhea",
    "state": "TX"
  },
  {
    "city": "kermit",
    "state_code": "TX",
    "placeMasterId": "P02500000FsoGmmwB7KzKd7fXoYOVA8Z7RMfzoEG",
    "placeName": "kermit",
    "state": "TX"
  },
  {
    "city": "denver",
    "state_code": "CO",
    "placeMasterId": "P02500000FsoEmwFjZFziDhEIRiXkIwGQWtD2cc9",
    "placeName": "denver",
    "state": "CO"
  },
  {
    "city": "denver",
    "state_code": "CO",
    "placeMasterId": "P02500000FsoEmwFjZFziDhEIRiXkIwGQWtD2cc9",
    "placeName": "denver",
    "state": "CO"
  },
  {
    "city": "denver",
    "state_code": "CO",
    "placeMasterId": "P02500000FsoEmwFjZFziDhEIRiXkIwGQWtD2cc9",
    "placeName": "denver",
    "state": "CO"
  },
  {
    "city": "denver",
    "state_code": "CO",
    "placeMasterId": "P02500000FsoEmwFjZFziDhEIRiXkIwGQWtD2cc9",
    "placeName": "denver",
    "state": "CO"
  },
  {
    "city": "estes park",
    "state_code": "CO",
    "placeMasterId": "P02500000FsoEnDwgm39Hatie3LEa7uzOFU7wKgh",
    "placeName": "estes park",
    "state": "CO"
  },
  {
    "city": "fort collins",
    "state_code": "CO",
    "placeMasterId": "P02500000FsoEnDwgm39Hatie3LEa7uykf00K7tg",
    "placeName": "fort collins",
    "state": "CO"
  },
  {
    "city": "loveland",
    "state_code": "CO",
    "placeMasterId": "P02500000FsoEnwB4n22D1twW4OxfgMpuUR19VkX",
    "placeName": "loveland",
    "state": "CO"
  },
  {
    "city": "colorado springs",
    "state_code": "CO",
    "placeMasterId": "P02500000FsoEmwFjZFziDhEIRiXkIwGl9Aki2Up",
    "placeName": "colorado springs",
    "state": "CO"
  },
  {
    "city": "colorado springs",
    "state_code": "CO",
    "placeMasterId": "P02500000FsoEmwFjZFziDhEIRiXkIwGl9Aki2Up",
    "placeName": "colorado springs",
    "state": "CO"
  },
  {
    "city": "vilas",
    "state_code": "CO",
    "placeMasterId": "P02500000FsoEonFwPPUv9VPYtH2B9J4jWnmSPxb",
    "placeName": "vilas",
    "state": "CO"
  },
  {
    "city": "pagosa springs",
    "state_code": "CO",
    "placeMasterId": "P02500000FsoEoDs1zpBmP6Qrg1eVVLYRNFva0Aq",
    "placeName": "pagosa springs",
    "state": "CO"
  },
  {
    "city": "gunnison",
    "state_code": "CO",
    "placeMasterId": "P02500000FsoEnVddyqIqy6CzexvPwtiPd8jhvX2",
    "placeName": "gunnison",
    "state": "CO"
  },
  {
    "city": "grand junction",
    "state_code": "CO",
    "placeMasterId": "P02500000FsoEnMnANRj4HUxor9a02PMjaevUqpr",
    "placeName": "grand junction",
    "state": "CO"
  },
  {
    "city": "clifton",
    "state_code": "CO",
    "placeMasterId": "P02500000FsoEmnPFxrPvX5z7duCKORrv53GXRLK",
    "placeName": "clifton",
    "state": "CO"
  },
  {
    "city": "snowmass village",
    "state_code": "CO",
    "placeMasterId": "P02500000FsoEoePSo0v8SuAO5SglEof19n557uO",
    "placeName": "snowmass village",
    "state": "CO"
  },
  {
    "city": "woody creek",
    "state_code": "CO",
    "placeMasterId": "P02500000FsoEp4wtcCeUWhtuUtj0yHlo6DZ5KVE",
    "placeName": "woody creek",
    "state": "CO"
  },
  {
    "city": "lander",
    "state_code": "WY",
    "placeMasterId": "P02500000FsoH9Bp8oZbcVR5tx2d7D395J22CbaR",
    "placeName": "lander",
    "state": "WY"
  },
  {
    "city": "casper",
    "state_code": "WY",
    "placeMasterId": "P02500000FsoH8u8BbmS38EbYLPwHO47zQd3IfxA",
    "placeName": "casper",
    "state": "WY"
  },
  {
    "city": "shoshoni",
    "state_code": "WY",
    "placeMasterId": "P02500000FsoH9cMZclKyZEpQMTfMwW5YN03ESU8",
    "placeName": "shoshoni",
    "state": "WY"
  },
  {
    "city": "ranchester",
    "state_code": "WY",
    "placeMasterId": "P02500000FsoH9cMZclKyZEpQMTfMwVzRM3K1lFS",
    "placeName": "ranchester",
    "state": "WY"
  },
  {
    "city": "smoot",
    "state_code": "WY",
    "placeMasterId": "P02500000FsoH9lD3E9ulFq4bAI0mr0Njhe6XIJL",
    "placeName": "smoot",
    "state": "WY"
  },
  {
    "city": "aberdeen",
    "state_code": "ID",
    "placeMasterId": "P02500000FsoEzmQhqvwO3lFykndMJ1e6YvlcrU0",
    "placeName": "aberdeen",
    "state": "ID"
  },
  {
    "city": "arco",
    "state_code": "ID",
    "placeMasterId": "P02500000FsoEzvHBSKWAkMV9YbymDVzysqZa0sL",
    "placeName": "arco",
    "state": "ID"
  },
  {
    "city": "challis",
    "state_code": "ID",
    "placeMasterId": "P02500000FsoF047f3j5xQxkKMQKC80MUuHhDm6i",
    "placeName": "challis",
    "state": "ID"
  },
  {
    "city": "shelley",
    "state_code": "ID",
    "placeMasterId": "P02500000FsoF1430HV8SFASXz6k7VQxgBW2RaVI",
    "placeName": "shelley",
    "state": "ID"
  },
  {
    "city": "bellevue",
    "state_code": "ID",
    "placeMasterId": "P02500000FsoEzvHBSKWAkMV9YbymDW1kiDfzAVY",
    "placeName": "bellevue",
    "state": "ID"
  },
  {
    "city": "kimberly",
    "state_code": "ID",
    "placeMasterId": "P02500000FsoF0Uf5rupJUlTqlrMRrTU9SoBPNnJ",
    "placeName": "kimberly",
    "state": "ID"
  },
  {
    "city": "ririe",
    "state_code": "ID",
    "placeMasterId": "P02500000FsoF0vCWg6YfYZDNBIOhawckIKAYaST",
    "placeName": "ririe",
    "state": "ID"
  },
  {
    "city": "sugar city",
    "state_code": "ID",
    "placeMasterId": "P02500000FsoF0vCWg6YfYZDNBIOhawcLLSh0Kpm",
    "placeName": "sugar city",
    "state": "ID"
  },
  {
    "city": "orofino",
    "state_code": "ID",
    "placeMasterId": "P02500000FsoF0dVZTJP6BMj1ZfhrlxvgTj7aoE4",
    "placeName": "orofino",
    "state": "ID"
  },
  {
    "city": "cambridge",
    "state_code": "ID",
    "placeMasterId": "P02500000FsoF047f3j5xQxkKMQKC80OoOFXNytk",
    "placeName": "cambridge",
    "state": "ID"
  },
  {
    "city": "boise",
    "state_code": "ID",
    "placeMasterId": "P02500000FsoEzvHBSKWAkMV9YbymDW1T6oUkWas",
    "placeName": "boise",
    "state": "ID"
  },
  {
    "city": "rathdrum",
    "state_code": "ID",
    "placeMasterId": "P02500000FsoF0vCWg6YfYZDNBIOhawamYLbvQfU",
    "placeName": "rathdrum",
    "state": "ID"
  },
  {
    "city": "bountiful",
    "state_code": "UT",
    "placeMasterId": "P02500000FsoGsLwndnUxQYDL9DrnhFDY2Wdxept",
    "placeName": "bountiful",
    "state": "UT"
  },
  {
    "city": "lindon",
    "state_code": "UT",
    "placeMasterId": "P02500000FsoGtD1fGAxfY9gNy5wJABK84vH3qNL",
    "placeName": "lindon",
    "state": "UT"
  },
  {
    "city": "randlett",
    "state_code": "UT",
    "placeMasterId": "P02500000FsoGtdZ64Mh1bxPuNWyYteQ7j0vKWdF",
    "placeName": "randlett",
    "state": "UT"
  },
  {
    "city": "lewiston",
    "state_code": "UT",
    "placeMasterId": "P02500000FsoGtD1fGAxfY9gNy5wJABI2RsWHQl5",
    "placeName": "lewiston",
    "state": "UT"
  },
  {
    "city": "willard",
    "state_code": "UT",
    "placeMasterId": "P02500000FsoGu46WsYQNfl9Qmy0od7itLyK8Sqv",
    "placeName": "willard",
    "state": "UT"
  },
  {
    "city": "price",
    "state_code": "UT",
    "placeMasterId": "P02500000FsoGtdZ64Mh1bxPuNWyYteZQN91X5uR",
    "placeName": "price",
    "state": "UT"
  },
  {
    "city": "huntington",
    "state_code": "UT",
    "placeMasterId": "P02500000FsoGt4BBemNsrYRDAHatFgzAbkPQhNp",
    "placeName": "huntington",
    "state": "UT"
  },
  {
    "city": "provo",
    "state_code": "UT",
    "placeMasterId": "P02500000FsoGtdZ64Mh1bxPuNWyYteQE3GF95H8",
    "placeName": "provo",
    "state": "UT"
  },
  {
    "city": "ephraim",
    "state_code": "UT",
    "placeMasterId": "P02500000FsoGsmUERzEJULwrYeu3QiDaMvPwHis",
    "placeName": "ephraim",
    "state": "UT"
  },
  {
    "city": "boulder",
    "state_code": "UT",
    "placeMasterId": "P02500000FsoGsLwndnUxQYDL9DrnhFAYBuxmKpY",
    "placeName": "boulder",
    "state": "UT"
  },
  {
    "city": "summit",
    "state_code": "UT",
    "placeMasterId": "P02500000FsoGtmPZflGoIYf5BLJyo8yRtJjJGE8",
    "placeName": "summit",
    "state": "UT"
  },
  {
    "city": "sacaton",
    "state_code": "AZ",
    "placeMasterId": "P02500000FsoEZfXKTOJgJpT5jCPsZNhd8FaKxRX",
    "placeName": "sacaton",
    "state": "AZ"
  },
  {
    "city": "winkelman",
    "state_code": "AZ",
    "placeMasterId": "P02500000FsoEaNliUNCbkpgxkG8y7pZ5rvuF8i0",
    "placeName": "winkelman",
    "state": "AZ"
  },
  {
    "city": "chandler",
    "state_code": "AZ",
    "placeMasterId": "P02500000FsoEYNv22p7c8QGWUtJ7MyMb0MOaj2F",
    "placeName": "chandler",
    "state": "AZ"
  },
  {
    "city": "scottsdale",
    "state_code": "AZ",
    "placeMasterId": "P02500000FsoEZoNo4mtT0QiGX0lITs2v218sukG",
    "placeName": "scottsdale",
    "state": "AZ"
  },
  {
    "city": "gilbert",
    "state_code": "AZ",
    "placeMasterId": "P02500000FsoEYoSSr0qyCE02uKLN6RRSCzrOsv4",
    "placeName": "gilbert",
    "state": "AZ"
  },
  {
    "city": "gilbert",
    "state_code": "AZ",
    "placeMasterId": "P02500000FsoEYoSSr0qyCE02uKLN6RRSCzrOsv4",
    "placeName": "gilbert",
    "state": "AZ"
  },
  {
    "city": "aguila",
    "state_code": "AZ",
    "placeMasterId": "P02500000FsoEXxNbEdOG4cX05SGrdVCUppluNZ5",
    "placeName": "aguila",
    "state": "AZ"
  },
  {
    "city": "poston",
    "state_code": "AZ",
    "placeMasterId": "P02500000FsoEZWgqrzjtdEDuvO4SetIfGnpwcVR",
    "placeName": "poston",
    "state": "AZ"
  },
  {
    "city": "sun city west",
    "state_code": "AZ",
    "placeMasterId": "P02500000FsoEZxEHgBTFh1xRKp6iOMS0uuOp44q",
    "placeName": "sun city west",
    "state": "AZ"
  },
  {
    "city": "miami",
    "state_code": "AZ",
    "placeMasterId": "P02500000FsoEZEztfCaKG1jZJlNcpucmVGyxVdS",
    "placeName": "miami",
    "state": "AZ"
  },
  {
    "city": "tucson",
    "state_code": "AZ",
    "placeMasterId": "P02500000FsoEa64lHa32NdCc8dS8IqpdZHyNtyf",
    "placeName": "tucson",
    "state": "AZ"
  },
  {
    "city": "munds park",
    "state_code": "AZ",
    "placeMasterId": "P02500000FsoEZNqNGbA6wcyk7Zj2kOuF3VQz0gY",
    "placeName": "munds park",
    "state": "AZ"
  },
  {
    "city": "holbrook",
    "state_code": "AZ",
    "placeMasterId": "P02500000FsoEYxIwSPQkspFDi8gn0vnDOrEKI1C",
    "placeName": "holbrook",
    "state": "AZ"
  },
  {
    "city": "shonto",
    "state_code": "AZ",
    "placeMasterId": "P02500000FsoEZoNo4mtT0QiGX0lITs2xP6UOZvP",
    "placeName": "shonto",
    "state": "AZ"
  },
  {
    "city": "albuquerque",
    "state_code": "NM",
    "placeMasterId": "P02500000FsoFyHJ9b0fLOT1rP66Ycj5SoodoNbU",
    "placeName": "albuquerque",
    "state": "NM"
  },
  {
    "city": "albuquerque",
    "state_code": "NM",
    "placeMasterId": "P02500000FsoFyHJ9b0fLOT1rP66Ycj5SoodoNbU",
    "placeName": "albuquerque",
    "state": "NM"
  },
  {
    "city": "ramah",
    "state_code": "NM",
    "placeMasterId": "P02500000FsoFzzSsplaldfxx2qFZYbjp7BAl9Tw",
    "placeName": "ramah",
    "state": "NM"
  },
  {
    "city": "blanco",
    "state_code": "NM",
    "placeMasterId": "P02500000FsoFyQ9dCPF854H2CuRyXDT9lXLvmwL",
    "placeName": "blanco",
    "state": "NM"
  },
  {
    "city": "glorieta",
    "state_code": "NM",
    "placeMasterId": "P02500000FsoFyzXXbzYGpTFjQ9peBB4ENuCWyUJ",
    "placeName": "glorieta",
    "state": "NM"
  },
  {
    "city": "velarde",
    "state_code": "NM",
    "placeMasterId": "P02500000FsoG0hhGqkTh4gBp3tyf73ZYNJLwBCp",
    "placeName": "velarde",
    "state": "NM"
  },
  {
    "city": "anton chico",
    "state_code": "NM",
    "placeMasterId": "P02500000FsoFyHJ9b0fLOT1rP66Ycj99P4NOv1m",
    "placeName": "anton chico",
    "state": "NM"
  },
  {
    "city": "san antonio",
    "state_code": "NM",
    "placeMasterId": "P02500000FsoG0H9q2YkL0sSIeSwPNaHvLxKRmap",
    "placeName": "san antonio",
    "state": "NM"
  },
  {
    "city": "grenville",
    "state_code": "NM",
    "placeMasterId": "P02500000FsoFyzXXbzYGpTFjQ9peBB3lVqxYf5o",
    "placeName": "grenville",
    "state": "NM"
  },
  {
    "city": "boulder city",
    "state_code": "NV",
    "placeMasterId": "P02500000FsoFu8lJ6VvZT2vo6Y5RCWNH28Ayr0B",
    "placeName": "boulder city",
    "state": "NV"
  },
  {
    "city": "las vegas",
    "state_code": "NV",
    "placeMasterId": "P02500000FsoFuQSGJJ58qFQ9iAmH1VC0RKB5lYR",
    "placeName": "las vegas",
    "state": "NV"
  },
  {
    "city": "las vegas",
    "state_code": "NV",
    "placeMasterId": "P02500000FsoFuQSGJJ58qFQ9iAmH1VC0RKB5lYR",
    "placeName": "las vegas",
    "state": "NV"
  },
  {
    "city": "las vegas",
    "state_code": "NV",
    "placeMasterId": "P02500000FsoFuQSGJJ58qFQ9iAmH1VC0RKB5lYR",
    "placeName": "las vegas",
    "state": "NV"
  },
  {
    "city": "las vegas",
    "state_code": "NV",
    "placeMasterId": "P02500000FsoFuQSGJJ58qFQ9iAmH1VC0RKB5lYR",
    "placeName": "las vegas",
    "state": "NV"
  },
  {
    "city": "las vegas",
    "state_code": "NV",
    "placeMasterId": "P02500000FsoFuQSGJJ58qFQ9iAmH1VC0RKB5lYR",
    "placeName": "las vegas",
    "state": "NV"
  },
  {
    "city": "fernley",
    "state_code": "NV",
    "placeMasterId": "P02500000FsoFuHbmhuVM9eAyuMQr70pPeqthmf9",
    "placeName": "fernley",
    "state": "NV"
  },
  {
    "city": "paradise valley",
    "state_code": "NV",
    "placeMasterId": "P02500000FsoFui9DW6EiDRuVJnT6qTv213AY2Wn",
    "placeName": "paradise valley",
    "state": "NV"
  },
  {
    "city": "reno",
    "state_code": "NV",
    "placeMasterId": "P02500000FsoFuZIjuhevWqfKVz7gvzemDKMzraO",
    "placeName": "reno",
    "state": "NV"
  },
  {
    "city": "los angeles",
    "state_code": "CA",
    "placeMasterId": "P02500000FsoEiEJyfAwnXs9Xvv8xEm0Sp2kcekK",
    "placeName": "los angeles",
    "state": "CA"
  },
  {
    "city": "los angeles",
    "state_code": "CA",
    "placeMasterId": "P02500000FsoEiEJyfAwnXs9Xvv8xEm0Sp2kcekK",
    "placeName": "los angeles",
    "state": "CA"
  },
  {
    "city": "long beach",
    "state_code": "CA",
    "placeMasterId": "P02500000FsoEiEJyfAwnXs9Xvv8xElwosKjKxLA",
    "placeName": "long beach",
    "state": "CA"
  },
  {
    "city": "la canada flintridge",
    "state_code": "CA",
    "placeMasterId": "P02500000FsoEhW5aeC3s6rvfurPrgK7ONVTv01t",
    "placeName": "la canada flintridge",
    "state": "CA"
  },
  {
    "city": "pasadena",
    "state_code": "CA",
    "placeMasterId": "P02500000FsoEjVwH5k8rjHM7AEFiRBLszioOrL4",
    "placeName": "pasadena",
    "state": "CA"
  },
  {
    "city": "thousand oaks",
    "state_code": "CA",
    "placeMasterId": "P02500000FsoEledR8gne2I1jDPQz6WrBVr8NLQo",
    "placeName": "thousand oaks",
    "state": "CA"
  },
  {
    "city": "ramona",
    "state_code": "CA",
    "placeMasterId": "P02500000FsoEjwThtvsDn55dZfHyAeSdu2RcuUv",
    "placeName": "ramona",
    "state": "CA"
  },
  {
    "city": "santee",
    "state_code": "CA",
    "placeMasterId": "P02500000FsoEknYZWJKvugYgOXMTdagj4sOdlAi",
    "placeName": "santee",
    "state": "CA"
  },
  {
    "city": "heber",
    "state_code": "CA",
    "placeMasterId": "P02500000FsoEgwhgEbkjMSwyhc2C2MdIgHGtICW",
    "placeName": "heber",
    "state": "CA"
  },
  {
    "city": "fontana",
    "state_code": "CA",
    "placeMasterId": "P02500000FsoEgNJlp1Rac3yHUMeWOP8ho6QDBrF",
    "placeName": "fontana",
    "state": "CA"
  },
  {
    "city": "victorville",
    "state_code": "CA",
    "placeMasterId": "P02500000FsoElwKOLTxDPUW4p27ovVawCcmnjVm",
    "placeName": "victorville",
    "state": "CA"
  },
  {
    "city": "san bernardino",
    "state_code": "CA",
    "placeMasterId": "P02500000FsoEkVrcJWBMXU4KmufdobxDvk7Zv0i",
    "placeName": "san bernardino",
    "state": "CA"
  },
  {
    "city": "anza",
    "state_code": "CA",
    "placeMasterId": "P02500000FsoEdo5Axt3SFFZ91kQzzaQMQWt5GOi",
    "placeName": "anza",
    "state": "CA"
  },
  {
    "city": "san jacinto",
    "state_code": "CA",
    "placeMasterId": "P02500000FsoEkei5uul9E5JVaj13j6H2RAbyzMK",
    "placeName": "san jacinto",
    "state": "CA"
  },
  {
    "city": "laguna niguel",
    "state_code": "CA",
    "placeMasterId": "P02500000FsoEhew4FadenTAqiflHaoStGjCPycy",
    "placeName": "laguna niguel",
    "state": "CA"
  },
  {
    "city": "santa ana",
    "state_code": "CA",
    "placeMasterId": "P02500000FsoEknYZWJKvugYgOXMTdafl2UpxjW2",
    "placeName": "santa ana",
    "state": "CA"
  },
  {
    "city": "anaheim",
    "state_code": "CA",
    "placeMasterId": "P02500000FsoEdo5Axt3SFFZ91kQzzaRbZXxINei",
    "placeName": "anaheim",
    "state": "CA"
  },
  {
    "city": "garden grove",
    "state_code": "CA",
    "placeMasterId": "P02500000FsoEgWAFQQ1NIfDSIAzwItXKd1qktLQ",
    "placeName": "garden grove",
    "state": "CA"
  },
  {
    "city": "orange",
    "state_code": "CA",
    "placeMasterId": "P02500000FsoEjN5nULZ52g6wMPuIWgyRxHqSV9r",
    "placeName": "orange",
    "state": "CA"
  },
  {
    "city": "santa paula",
    "state_code": "CA",
    "placeMasterId": "P02500000FsoEknYZWJKvugYgOXMTdacL11DyCTI",
    "placeName": "santa paula",
    "state": "CA"
  },
  {
    "city": "santa barbara",
    "state_code": "CA",
    "placeMasterId": "P02500000FsoEkei5uul9E5JVaj13j6J6FwOz9kT",
    "placeName": "santa barbara",
    "state": "CA"
  },
  {
    "city": "lemon cove",
    "state_code": "CA",
    "placeMasterId": "P02500000FsoEi5TV3mN0rGuN86nXKHa0uTa9eUO",
    "placeName": "lemon cove",
    "state": "CA"
  },
  {
    "city": "mckittrick",
    "state_code": "CA",
    "placeMasterId": "P02500000FsoEiNASGZWaETOijjUN9GNTn9RIStd",
    "placeName": "mckittrick",
    "state": "CA"
  },
  {
    "city": "buellton",
    "state_code": "CA",
    "placeMasterId": "P02500000FsoEeWJYyrwNgFn12oA5Y2Komeecm8n",
    "placeName": "buellton",
    "state": "CA"
  },
  {
    "city": "cambria",
    "state_code": "CA",
    "placeMasterId": "P02500000FsoEefA2aGWAMr2BqcVVSWimWg8WgGo",
    "placeName": "cambria",
    "state": "CA"
  },
  {
    "city": "san ardo",
    "state_code": "CA",
    "placeMasterId": "P02500000FsoEkVrcJWBMXU4KmufdobvuvTROBla",
    "placeName": "san ardo",
    "state": "CA"
  },
  {
    "city": "mammoth lakes",
    "state_code": "CA",
    "placeMasterId": "P02500000FsoEiW0vry6Mv4dtXXpn3ki1BGP3hIY",
    "placeName": "mammoth lakes",
    "state": "CA"
  },
  {
    "city": "palmdale",
    "state_code": "CA",
    "placeMasterId": "P02500000FsoEjVwH5k8rjHM7AEFiRBJVh3ya3e1",
    "placeName": "palmdale",
    "state": "CA"
  },
  {
    "city": "friant",
    "state_code": "CA",
    "placeMasterId": "P02500000FsoEgWAFQQ1NIfDSIAzwItXVRr5FjtN",
    "placeName": "friant",
    "state": "CA"
  },
  {
    "city": "madera",
    "state_code": "CA",
    "placeMasterId": "P02500000FsoEiNASGZWaETOijjUN9GL9bMi9Weo",
    "placeName": "madera",
    "state": "CA"
  },
  {
    "city": "sultana",
    "state_code": "CA",
    "placeMasterId": "P02500000FsoElMwTvte4f5XNbmk9HY7ocksU0me",
    "placeName": "sultana",
    "state": "CA"
  },
  {
    "city": "fresno",
    "state_code": "CA",
    "placeMasterId": "P02500000FsoEgf0j1ob9zGSd5zLMDNqyCZUrC3I",
    "placeName": "fresno",
    "state": "CA"
  },
  {
    "city": "marina",
    "state_code": "CA",
    "placeMasterId": "P02500000FsoEiNASGZWaETOijjUN9GMTqsfJd57",
    "placeName": "marina",
    "state": "CA"
  },
  {
    "city": "daly city",
    "state_code": "CA",
    "placeMasterId": "P02500000FsoEff5No2YfB3kPTIvQpxFRV9NH26o",
    "placeName": "daly city",
    "state": "CA"
  },
  {
    "city": "san francisco",
    "state_code": "CA",
    "placeMasterId": "P02500000FsoEkVrcJWBMXU4KmufdobtfKVREvsP",
    "placeName": "san francisco",
    "state": "CA"
  },
  {
    "city": "fremont",
    "state_code": "CA",
    "placeMasterId": "P02500000FsoEgWAFQQ1NIfDSIAzwItWg8B5R7Dt",
    "placeName": "fremont",
    "state": "CA"
  },
  {
    "city": "oakland",
    "state_code": "CA",
    "placeMasterId": "P02500000FsoEjN5nULZ52g6wMPuIWgwHJpxtC9b",
    "placeName": "oakland",
    "state": "CA"
  },
  {
    "city": "san jose",
    "state_code": "CA",
    "placeMasterId": "P02500000FsoEkei5uul9E5JVaj13j6FZZ7utLyF",
    "placeName": "san jose",
    "state": "CA"
  },
  {
    "city": "san jose",
    "state_code": "CA",
    "placeMasterId": "P02500000FsoEkei5uul9E5JVaj13j6FZZ7utLyF",
    "placeName": "san jose",
    "state": "CA"
  },
  {
    "city": "hornitos",
    "state_code": "CA",
    "placeMasterId": "P02500000FsoEhEOdROuIjfRKJEj1rLMxo0sx8r7",
    "placeName": "hornitos",
    "state": "CA"
  },
  {
    "city": "jamestown",
    "state_code": "CA",
    "placeMasterId": "P02500000FsoEhNF72nU5QGgV734Rlpj2YGYI5zn",
    "placeName": "jamestown",
    "state": "CA"
  },
  {
    "city": "livingston",
    "state_code": "CA",
    "placeMasterId": "P02500000FsoEiEJyfAwnXs9Xvv8xElwcJWFrU9a",
    "placeName": "livingston",
    "state": "CA"
  },
  {
    "city": "manteca",
    "state_code": "CA",
    "placeMasterId": "P02500000FsoEiNASGZWaETOijjUN9GLj1zZzQez",
    "placeName": "manteca",
    "state": "CA"
  },
  {
    "city": "midpines",
    "state_code": "CA",
    "placeMasterId": "P02500000FsoEinht4lFwIH8F9AWcsjQptsJRck4",
    "placeName": "midpines",
    "state": "CA"
  },
  {
    "city": "upper lake",
    "state_code": "CA",
    "placeMasterId": "P02500000FsoElnTuk5NQitGu1DmP11GFRL5qi9k",
    "placeName": "upper lake",
    "state": "CA"
  },
  {
    "city": "myers flat",
    "state_code": "CA",
    "placeMasterId": "P02500000FsoEiwYMg9piysNPwys2nDrR0RG9b0d",
    "placeName": "myers flat",
    "state": "CA"
  },
  {
    "city": "davis",
    "state_code": "CA",
    "placeMasterId": "P02500000FsoEff5No2YfB3kPTIvQpxFfXbd37Je",
    "placeName": "davis",
    "state": "CA"
  },
  {
    "city": "elmira",
    "state_code": "CA",
    "placeMasterId": "P02500000FsoEg5cocEI1ErTvsjxgZQRETZBktxh",
    "placeName": "elmira",
    "state": "CA"
  },
  {
    "city": "pioneer",
    "state_code": "CA",
    "placeMasterId": "P02500000FsoEjndEIXIR6TqSlqwYGA4ZoGlZqQ6",
    "placeName": "pioneer",
    "state": "CA"
  },
  {
    "city": "roseville",
    "state_code": "CA",
    "placeMasterId": "P02500000FsoEkN18i7bZqsp9z6KDu7Zi1eKXCew",
    "placeName": "roseville",
    "state": "CA"
  },
  {
    "city": "downieville",
    "state_code": "CA",
    "placeMasterId": "P02500000FsoEfnvrPR8RrezaH7GqkRdpRMca4Sb",
    "placeName": "downieville",
    "state": "CA"
  },
  {
    "city": "chico",
    "state_code": "CA",
    "placeMasterId": "P02500000FsoEf5hTOSFWQeliG3XlBznfpEncfjp",
    "placeName": "chico",
    "state": "CA"
  },
  {
    "city": "chester",
    "state_code": "CA",
    "placeMasterId": "P02500000FsoEf5hTOSFWQeliG3XlBzlmWhjsibb",
    "placeName": "chester",
    "state": "CA"
  },
  {
    "city": "lewiston",
    "state_code": "CA",
    "placeMasterId": "P02500000FsoEi5TV3mN0rGuN86nXKHZHcp8Fpco",
    "placeName": "lewiston",
    "state": "CA"
  },
  {
    "city": "lihue",
    "state_code": "HI",
    "placeMasterId": "P02500000FsoEzLtH2kD1zxWSLMb6ZYZmwDmobY6",
    "placeName": "lihue",
    "state": "HI"
  },
  {
    "city": "honolulu",
    "state_code": "HI",
    "placeMasterId": "P02500000FsoEzdaEFXMbNA0nwzHwOXKc1cb4u6p",
    "placeName": "honolulu",
    "state": "HI"
  },
  {
    "city": "carlton",
    "state_code": "OR",
    "placeMasterId": "P02500000FsoGOX30Zwrpp03vEVfSGrRkni0lj5X",
    "placeName": "carlton",
    "state": "OR"
  },
  {
    "city": "portland",
    "state_code": "OR",
    "placeMasterId": "P02500000FsoGPfopP7U7Jo1Jf0QnYmTaqhg2Hwh",
    "placeName": "portland",
    "state": "OR"
  },
  {
    "city": "corvallis",
    "state_code": "OR",
    "placeMasterId": "P02500000FsoGOX30Zwrpp03vEVfSGrWdNejVD3F",
    "placeName": "corvallis",
    "state": "OR"
  },
  {
    "city": "brookings",
    "state_code": "OR",
    "placeMasterId": "P02500000FsoGOOCWyYI38OokQhK2MNANsxXjK8b",
    "placeName": "brookings",
    "state": "OR"
  },
  {
    "city": "winston",
    "state_code": "OR",
    "placeMasterId": "P02500000FsoGQO3DQ6N2koFBg49t7ER7EHIGkTi",
    "placeName": "winston",
    "state": "OR"
  },
  {
    "city": "ashland",
    "state_code": "OR",
    "placeMasterId": "P02500000FsoGOFM3N9iGRnZZcsycRso3f5XFWpn",
    "placeName": "ashland",
    "state": "OR"
  },
  {
    "city": "bend",
    "state_code": "OR",
    "placeMasterId": "P02500000FsoGOFM3N9iGRnZZcsycRsuaGa3qkle",
    "placeName": "bend",
    "state": "OR"
  },
  {
    "city": "arlington",
    "state_code": "OR",
    "placeMasterId": "P02500000FsoGOFM3N9iGRnZZcsycRsis67ZvdZf",
    "placeName": "arlington",
    "state": "OR"
  },
  {
    "city": "auburn",
    "state_code": "WA",
    "placeMasterId": "P02500000FsoGyCeNN3A9bBFU5W1w3KU8L5Kf1vP",
    "placeName": "auburn",
    "state": "WA"
  },
  {
    "city": "seattle",
    "state_code": "WA",
    "placeMasterId": "P02500000FsoH13ZvQyhrLC8y9kwIH7vOQ9mB44J",
    "placeName": "seattle",
    "state": "WA"
  },
  {
    "city": "burlington",
    "state_code": "WA",
    "placeMasterId": "P02500000FsoGyULKZqJiyNjph8ilsJFbR4Mox2B",
    "placeName": "burlington",
    "state": "WA"
  },
  {
    "city": "mukilteo",
    "state_code": "WA",
    "placeMasterId": "P02500000FsoH0LLXPzovuBv68hDCifvbvOy9ONu",
    "placeName": "mukilteo",
    "state": "WA"
  },
  {
    "city": "point roberts",
    "state_code": "WA",
    "placeMasterId": "P02500000FsoH0lsyEBYHxzecY8FSS92O1HxrUQv",
    "placeName": "point roberts",
    "state": "WA"
  },
  {
    "city": "fife",
    "state_code": "WA",
    "placeMasterId": "P02500000FsoGzLQCCDmR5zCsW0nHLFKCjl0S75G",
    "placeName": "fife",
    "state": "WA"
  },
  {
    "city": "ocean shores",
    "state_code": "WA",
    "placeMasterId": "P02500000FsoH0UC11OOianAGwVYcdANU3JM5dCV",
    "placeName": "ocean shores",
    "state": "WA"
  },
  {
    "city": "camas",
    "state_code": "WA",
    "placeMasterId": "P02500000FsoGydBoBEtVeyz0Ux4BmnOubujhAAW",
    "placeName": "camas",
    "state": "WA"
  },
  {
    "city": "selah",
    "state_code": "WA",
    "placeMasterId": "P02500000FsoH1CQP2NHe1nO8xZHiBc9DrZMOAbU",
    "placeName": "selah",
    "state": "WA"
  },
  {
    "city": "uniontown",
    "state_code": "WA",
    "placeMasterId": "P02500000FsoH1U7MFARDOzsUZByY0atPDhPJEMp",
    "placeName": "uniontown",
    "state": "WA"
  },
  {
    "city": "spokane",
    "state_code": "WA",
    "placeMasterId": "P02500000FsoH1CQP2NHe1nO8xZHiBcLVG93v2e9",
    "placeName": "spokane",
    "state": "WA"
  },
  {
    "city": "akiachak",
    "state_code": "AK",
    "placeMasterId": "P02500000FsoEVxWun5JGSD6Yq5R0se0hmtb7agt",
    "placeName": "akiachak",
    "state": "AK"
  },
  {
    "city": "homer",
    "state_code": "AK",
    "placeMasterId": "P02500000FsoEWflIo4CBtDKQr9A6R5rvTlVxkD3",
    "placeName": "homer",
    "state": "AK"
  },
  {
    "city": "king cove",
    "state_code": "AK",
    "placeMasterId": "P02500000FsoEWxSG0rLlGPomSlqwG4bKdTemfmu",
    "placeName": "king cove",
    "state": "AK"
  },
  {
    "city": "togiak",
    "state_code": "AK",
    "placeMasterId": "P02500000FsoEXoX7dEoTO1HpHdvRj0rTHqkP464",
    "placeName": "togiak",
    "state": "AK"
  },
  {
    "city": "anchorage",
    "state_code": "AK",
    "placeMasterId": "P02500000FsoEVxWun5JGSD6Yq5R0se5X03Bxqi1",
    "placeName": "anchorage",
    "state": "AK"
  },
  {
    "city": "kotzebue",
    "state_code": "AK",
    "placeMasterId": "P02500000FsoEWxSG0rLlGPomSlqwG4cWhSYJFa6",
    "placeName": "kotzebue",
    "state": "AK"
  },
  {
    "city": "warren",
    "state_code": "MA",
    "placeMasterId": "P02500000FsoHBTMmSuqBV30go29nmssVMXgKV9J",
    "placeName": "warren",
    "state": "MA"
  },
  {
    "city": "worthington",
    "state_code": "MA",
    "placeMasterId": "P02500000FsoHeisf7BAAMCBPVUyTZIvtUd9oOLw",
    "placeName": "worthington",
    "state": "MA"
  },
  {
    "city": "longmeadow",
    "state_code": "MA",
    "placeMasterId": "P02500000FsoHB2pLej6pRFHAOb7Y3PnqSGGoS1t",
    "placeName": "longmeadow",
    "state": "MA"
  },
  {
    "city": "springfield",
    "state_code": "MA",
    "placeMasterId": "P02500000FsoFWsnTmtqZT82P9BmJgfxQ61bP7CW",
    "placeName": "springfield",
    "state": "MA"
  },
  {
    "city": "rowe",
    "state_code": "MA",
    "placeMasterId": "P02500000FsoHeILEIzQoIORt63wDppuaoGCfLjZ",
    "placeName": "rowe",
    "state": "MA"
  },
  {
    "city": "harvard",
    "state_code": "MA",
    "placeMasterId": "P02500000FsoHdrnnUnhSEaiMgcty6Mpyi0C7xFw",
    "placeName": "harvard",
    "state": "MA"
  },
  {
    "city": "littleton",
    "state_code": "MA",
    "placeMasterId": "P02500000FsoHdrnnUnhSEaiMgcty6MrPwrVMDIL",
    "placeName": "littleton",
    "state": "MA"
  },
  {
    "city": "blackstone",
    "state_code": "MA",
    "placeMasterId": "P02500000FsoHdRGMgby6AmyqHBriMtmCnqIsCmd",
    "placeName": "blackstone",
    "state": "MA"
  },
  {
    "city": "rutland",
    "state_code": "MA",
    "placeMasterId": "P02500000FsoHBKWIrWGOoRlW0DoNsOVBKZOZOrQ",
    "placeName": "rutland",
    "state": "MA"
  },
  {
    "city": "west boylston",
    "state_code": "MA",
    "placeMasterId": "P02500000FsoHea2BVmaNfawEhgd3eoa5E7lQLHM",
    "placeName": "west boylston",
    "state": "MA"
  },
  {
    "city": "worcester",
    "state_code": "MA",
    "placeMasterId": "P02500000FsoFX1dxOIQM9jHZx07jbAFLDi9kkRa",
    "placeName": "worcester",
    "state": "MA"
  },
  {
    "city": "hopedale",
    "state_code": "MA",
    "placeMasterId": "P02500000FsoHBKWIrWGOoRlW0DoNsOV97Ulmw2A",
    "placeName": "hopedale",
    "state": "MA"
  },
  {
    "city": "southborough",
    "state_code": "MA",
    "placeMasterId": "P02500000FsoHeILEIzQoIORt63wDppuIN85ZLJn",
    "placeName": "southborough",
    "state": "MA"
  },
  {
    "city": "lowell",
    "state_code": "MA",
    "placeMasterId": "P02500000FsoFWb6Wa6h05vY3XZ5Trh8C13Bjmyh",
    "placeName": "lowell",
    "state": "MA"
  },
  {
    "city": "lynnfield",
    "state_code": "MA",
    "placeMasterId": "P02500000FsoHAtys3KX2ke1zamm88vR2zTG0AMa",
    "placeName": "lynnfield",
    "state": "MA"
  },
  {
    "city": "cambridge",
    "state_code": "MA",
    "placeMasterId": "P02500000FsoFWSG2yi7DPKIsjkk3xCgVxYKpwDE",
    "placeName": "cambridge",
    "state": "MA"
  },
  {
    "city": "west chatham",
    "state_code": "MA",
    "placeMasterId": "P02500000FsoFWsnTmtqZT82P9BmJgfuv39x4fFx",
    "placeName": "west chatham",
    "state": "MA"
  },
  {
    "city": "attleboro",
    "state_code": "MA",
    "placeMasterId": "P02500000FsoFWJPZNJXQij3hvwOe2iTK9hy1XlW",
    "placeName": "attleboro",
    "state": "MA"
  },
  {
    "city": "dighton",
    "state_code": "MA",
    "placeMasterId": "P02500000FsoHda6qI0XsrOE150D8HO8fZ9ovkSq",
    "placeName": "dighton",
    "state": "MA"
  },
  {
    "city": "westport",
    "state_code": "MA",
    "placeMasterId": "P02500000FsoHea2BVmaNfawEhgd3eobhGfJwxZw",
    "placeName": "westport",
    "state": "MA"
  },
  {
    "city": "greene",
    "state_code": "RI",
    "placeMasterId": "P02500000FsoGb5X1epewHrbFvy4ERy9fmma88bs",
    "placeName": "greene",
    "state": "RI"
  },
  {
    "city": "tiverton",
    "state_code": "RI",
    "placeMasterId": "P02500000FsoHDtktieeXBGAeSq1uHDEmvTEIpPT",
    "placeName": "tiverton",
    "state": "RI"
  },
  {
    "city": "epping",
    "state_code": "NH",
    "placeMasterId": "P02500000FsoHBcDG4JPyBeFrbqVDhNJVrhWHONs",
    "placeName": "epping",
    "state": "NH"
  },
  {
    "city": "concord",
    "state_code": "NH",
    "placeMasterId": "P02500000FsoFuzqAitOHaeOqvQ9wfSeTAsU2Dfb",
    "placeName": "concord",
    "state": "NH"
  },
  {
    "city": "bennington",
    "state_code": "NH",
    "placeMasterId": "P02500000FsoIBFrWdYlD19z8gdjlIzj7ZRQBdsN",
    "placeName": "bennington",
    "state": "NH"
  },
  {
    "city": "jefferson",
    "state_code": "NH",
    "placeMasterId": "P02500000FsoIBpFR394LlYxptt7Qwx6fnfMWbZC",
    "placeName": "jefferson",
    "state": "NH"
  },
  {
    "city": "haverhill",
    "state_code": "NH",
    "placeMasterId": "P02500000FsoIBgOxRkUZ4xif64m12SpKI5TLRjf",
    "placeName": "haverhill",
    "state": "NH"
  },
  {
    "city": "sandown",
    "state_code": "NH",
    "placeMasterId": "P02500000FsoIC6wOFwDv8lSBVVoGlvzz3v8F274",
    "placeName": "sandown",
    "state": "NH"
  },
  {
    "city": "brunswick",
    "state_code": "ME",
    "placeMasterId": "P02500000FsoHAKaxdkDu0F3INXOSUxyvT23OC6O",
    "placeName": "brunswick",
    "state": "ME"
  },
  {
    "city": "naples",
    "state_code": "ME",
    "placeMasterId": "P02500000FsoHg0UxXkMEXbNyjo5EliKtP8uyGyb",
    "placeName": "naples",
    "state": "ME"
  },
  {
    "city": "durham",
    "state_code": "ME",
    "placeMasterId": "P02500000FsoHf9Q5vMtWPzuvuw0jImELb4suwTF",
    "placeName": "durham",
    "state": "ME"
  },
  {
    "city": "livermore",
    "state_code": "ME",
    "placeMasterId": "P02500000FsoHfio0KxCfAOtd8BOOwjh1zxGr9iK",
    "placeName": "livermore",
    "state": "ME"
  },
  {
    "city": "rumford",
    "state_code": "ME",
    "placeMasterId": "P02500000FsoHATRRF8nggqITBLjsPSKS4JN52Bl",
    "placeName": "rumford",
    "state": "ME"
  },
  {
    "city": "brownville",
    "state_code": "ME",
    "placeMasterId": "P02500000FsoHerj8iZjx2nQaJJJtTnMruHjCw3F",
    "placeName": "brownville",
    "state": "ME"
  },
  {
    "city": "burlington",
    "state_code": "ME",
    "placeMasterId": "P02500000FsoHerj8iZjx2nQaJJJtTnSxP87y36t",
    "placeName": "burlington",
    "state": "ME"
  },
  {
    "city": "mount desert",
    "state_code": "ME",
    "placeMasterId": "P02500000FsoHg0UxXkMEXbNyjo5EliJ7b76DXeK",
    "placeName": "mount desert",
    "state": "ME"
  },
  {
    "city": "mapleton",
    "state_code": "ME",
    "placeMasterId": "P02500000FsoHfio0KxCfAOtd8BOOwjepGDhjMMa",
    "placeName": "mapleton",
    "state": "ME"
  },
  {
    "city": "stacyville",
    "state_code": "ME",
    "placeMasterId": "P02500000FsoHgR2OLw5abP7V9F7UVBUKvC4GWBE",
    "placeName": "stacyville",
    "state": "ME"
  },
  {
    "city": "westfield",
    "state_code": "ME",
    "placeMasterId": "P02500000FsoHgijLYjF9ybbqkroKKAEbZwhBxr7",
    "placeName": "westfield",
    "state": "ME"
  },
  {
    "city": "strong",
    "state_code": "ME",
    "placeMasterId": "P02500000FsoHgZsrxKfNI0Mfx3SuPfnhYEK92O5",
    "placeName": "strong",
    "state": "ME"
  },
  {
    "city": "ferrisburgh",
    "state_code": "VT",
    "placeMasterId": "P02500000FsoHDtktieeXBGAeSq1uHDNWfUBvCP5",
    "placeName": "ferrisburgh",
    "state": "VT"
  },
  {
    "city": "isle la motte",
    "state_code": "VT",
    "placeMasterId": "P02500000FsoIen4MUcElFVeCzjFGuOX2oFOBF4R",
    "placeName": "isle la motte",
    "state": "VT"
  },
  {
    "city": "bridport",
    "state_code": "VT",
    "placeMasterId": "P02500000FsoIeMWvgQVPBhugaID1AvOqMZtxKHO",
    "placeName": "bridport",
    "state": "VT"
  },
  {
    "city": "castleton",
    "state_code": "VT",
    "placeMasterId": "P02500000FsoIeVNPHp5BsJ9rO6YR5PkVumzuoN2",
    "placeName": "castleton",
    "state": "VT"
  },
  {
    "city": "quinebaug",
    "state_code": "CT",
    "placeMasterId": "P02500000FsoEpVUKQONqaVdQuKlGhkvphTuNk3A",
    "placeName": "quinebaug",
    "state": "CT"
  },
  {
    "city": "canterbury",
    "state_code": "CT",
    "placeMasterId": "P02500000FsoHGK90yOSsrTKc7du0lXWxSYMhZO4",
    "placeName": "canterbury",
    "state": "CT"
  },
  {
    "city": "middletown",
    "state_code": "CT",
    "placeMasterId": "P02500000FsoEpMdqozo3tuOG6WPqnGWqLa3UtnM",
    "placeName": "middletown",
    "state": "CT"
  },
  {
    "city": "wallingford",
    "state_code": "CT",
    "placeMasterId": "P02500000FsoHGtWvNym1bsJJKtHgPV5zVPJtkb7",
    "placeName": "wallingford",
    "state": "CT"
  },
  {
    "city": "new haven",
    "state_code": "CT",
    "placeMasterId": "P02500000FsoEpMdqozo3tuOG6WPqnGYhHDltz2z",
    "placeName": "new haven",
    "state": "CT"
  },
  {
    "city": "hamden",
    "state_code": "CT",
    "placeMasterId": "P02500000FsoHGbpyBBcSEfoxjGaqaWBg2V0pIIt",
    "placeName": "hamden",
    "state": "CT"
  },
  {
    "city": "bridgeport",
    "state_code": "CT",
    "placeMasterId": "P02500000FsoEp4wtcCeUWhtuUtj0yHmMyLTfY5r",
    "placeName": "bridgeport",
    "state": "CT"
  },
  {
    "city": "litchfield",
    "state_code": "CT",
    "placeMasterId": "P02500000FsoH9u3WpYUXwRJly6MClUxdzudytFW",
    "placeName": "litchfield",
    "state": "CT"
  },
  {
    "city": "plymouth",
    "state_code": "CT",
    "placeMasterId": "P02500000FsoHGkgRmaCEvH48X4wGV0bf9WpesKJ",
    "placeName": "plymouth",
    "state": "CT"
  },
  {
    "city": "old greenwich",
    "state_code": "CT",
    "placeMasterId": "P02500000FsoEpMdqozo3tuOG6WPqnGZSjfIl97C",
    "placeName": "old greenwich",
    "state": "CT"
  },
  {
    "city": "redding",
    "state_code": "CT",
    "placeMasterId": "P02500000FsoHGkgRmaCEvH48X4wGV0cGTn67Zo5",
    "placeName": "redding",
    "state": "CT"
  },
  {
    "city": "clifton",
    "state_code": "NJ",
    "placeMasterId": "P02500000FsoFvZE58ThQL3NY8fXcJQ7MCKBxIkX",
    "placeName": "clifton",
    "state": "NJ"
  },
  {
    "city": "harrison",
    "state_code": "NJ",
    "placeMasterId": "P02500000FsoFwHST9SaLm3bQ9jGhrrvuI8LcuTz",
    "placeName": "harrison",
    "state": "NJ"
  },
  {
    "city": "wanaque",
    "state_code": "NJ",
    "placeMasterId": "P02500000FsoFxzcCODVm1GXVnTPinkSSqCHXURq",
    "placeName": "wanaque",
    "state": "NJ"
  },
  {
    "city": "farmingdale",
    "state_code": "NJ",
    "placeMasterId": "P02500000FsoFvqv2LGqziFrtkIES8OrStiKaFKl",
    "placeName": "farmingdale",
    "state": "NJ"
  },
  {
    "city": "montague",
    "state_code": "NJ",
    "placeMasterId": "P02500000FsoID6rjTiGPwyAP8CEC9MawWAyuFkL",
    "placeName": "montague",
    "state": "NJ"
  },
  {
    "city": "pedricktown",
    "state_code": "NJ",
    "placeMasterId": "P02500000FsoFx8XKlq33tf4SybLDKoBE9tATvL6",
    "placeName": "pedricktown",
    "state": "NJ"
  },
  {
    "city": "williamstown",
    "state_code": "NJ",
    "placeMasterId": "P02500000FsoFy8Sfzc5YhrmgbHl8iEm8xHOyyOw",
    "placeName": "williamstown",
    "state": "NJ"
  },
  {
    "city": "pennington",
    "state_code": "NJ",
    "placeMasterId": "P02500000FsoFx8XKlq33tf4SybLDKo9zMyz74Gc",
    "placeName": "pennington",
    "state": "NJ"
  },
  {
    "city": "new york",
    "state_code": "NY",
    "placeMasterId": "P02500000FsoG3hTIW4bBVIKTvxERFLPbpMNP8u9",
    "placeName": "new york",
    "state": "NY"
  },
  {
    "city": "new york",
    "state_code": "NY",
    "placeMasterId": "P02500000FsoG3hTIW4bBVIKTvxERFLPbpMNP8u9",
    "placeName": "new york",
    "state": "NY"
  },
  {
    "city": "new york",
    "state_code": "NY",
    "placeMasterId": "P02500000FsoG3hTIW4bBVIKTvxERFLPbpMNP8u9",
    "placeName": "new york",
    "state": "NY"
  },
  {
    "city": "staten island",
    "state_code": "NY",
    "placeMasterId": "P02500000FsoHDBWVhflbkFwmRmIoilOWW8CMZ4T",
    "placeName": "staten island",
    "state": "NY"
  },
  {
    "city": "mount vernon",
    "state_code": "NY",
    "placeMasterId": "P02500000FsoG3hTIW4bBVIKTvxERFLC2iu9cqko",
    "placeName": "mount vernon",
    "state": "NY"
  },
  {
    "city": "pound ridge",
    "state_code": "NY",
    "placeMasterId": "P02500000FsoIGOKiLpXTkmnPbsAo6d3wYdVY2Rg",
    "placeName": "pound ridge",
    "state": "NY"
  },
  {
    "city": "inwood",
    "state_code": "NY",
    "placeMasterId": "P02500000FsoG2qOQth8TNgrR759vmP7mPPgGa0B",
    "placeName": "inwood",
    "state": "NY"
  },
  {
    "city": "brooklyn",
    "state_code": "NY",
    "placeMasterId": "P02500000FsoHCc8bI5SSzqy5EWv94nnzJKQNSS5",
    "placeName": "brooklyn",
    "state": "NY"
  },
  {
    "city": "brooklyn",
    "state_code": "NY",
    "placeMasterId": "P02500000FsoHCc8bI5SSzqy5EWv94nnzJKQNSS5",
    "placeName": "brooklyn",
    "state": "NY"
  },
  {
    "city": "hempstead",
    "state_code": "NY",
    "placeMasterId": "P02500000FsoHCkz4tU2FgSDG2LGYzIDthaqxLtb",
    "placeName": "hempstead",
    "state": "NY"
  },
  {
    "city": "lawrence",
    "state_code": "NY",
    "placeMasterId": "P02500000FsoHDBWVhflbkFwmRmIoilKub2IDm0C",
    "placeName": "lawrence",
    "state": "NY"
  },
  {
    "city": "lindenhurst",
    "state_code": "NY",
    "placeMasterId": "P02500000FsoG385O6UI2ktLmihqlbNulXdvfUa8",
    "placeName": "lindenhurst",
    "state": "NY"
  },
  {
    "city": "sound beach",
    "state_code": "NY",
    "placeMasterId": "P02500000FsoG4z5awdnFghX3AGLCRkYkgA2zgsI",
    "placeName": "sound beach",
    "state": "NY"
  },
  {
    "city": "athens",
    "state_code": "NY",
    "placeMasterId": "P02500000FsoHCTI7ggsgJFiuQiZjAJYtAsk2Pze",
    "placeName": "athens",
    "state": "NY"
  },
  {
    "city": "berlin",
    "state_code": "NY",
    "placeMasterId": "P02500000FsoIDp67Uh9LNyOH9FxHhoNPbXqvSNg",
    "placeName": "berlin",
    "state": "NY"
  },
  {
    "city": "caroga lake",
    "state_code": "NY",
    "placeMasterId": "P02500000FsoG1H5BGKmpp5AWH9MKl13GqEw8bEW",
    "placeName": "caroga lake",
    "state": "NY"
  },
  {
    "city": "stillwater",
    "state_code": "NY",
    "placeMasterId": "P02500000FsoHDBWVhflbkFwmRmIoilMMAHgeXaU",
    "placeName": "stillwater",
    "state": "NY"
  },
  {
    "city": "cairo",
    "state_code": "NY",
    "placeMasterId": "P02500000FsoHCTI7ggsgJFiuQiZjAJVPNKxiknH",
    "placeName": "cairo",
    "state": "NY"
  },
  {
    "city": "cragsmoor",
    "state_code": "NY",
    "placeMasterId": "P02500000FsoG1hcc4WWBssu2gaOaUUAX9IVpuzH",
    "placeName": "cragsmoor",
    "state": "NY"
  },
  {
    "city": "glasco",
    "state_code": "NY",
    "placeMasterId": "P02500000FsoG2Pr05VP7Jt7uhe7g2w43Gg2dTTn",
    "placeName": "glasco",
    "state": "NY"
  },
  {
    "city": "highland",
    "state_code": "NY",
    "placeMasterId": "P02500000FsoG2hXxIIYgh5cGJGoVruivNqfbQmH",
    "placeName": "highland",
    "state": "NY"
  },
  {
    "city": "poughkeepsie",
    "state_code": "NY",
    "placeMasterId": "P02500000FsoG4PhgX3U6wIYLx0xWnnEZmjsnSw6",
    "placeName": "poughkeepsie",
    "state": "NY"
  },
  {
    "city": "liberty",
    "state_code": "NY",
    "placeMasterId": "P02500000FsoHDTDSuSvB7SR83OzeXk9x2zRKx3W",
    "placeName": "liberty",
    "state": "NY"
  },
  {
    "city": "bombay",
    "state_code": "NY",
    "placeMasterId": "P02500000FsoIDxwb65j84ZdRx4IhcIo4at3LoAj",
    "placeName": "bombay",
    "state": "NY"
  },
  {
    "city": "paul smiths",
    "state_code": "NY",
    "placeMasterId": "P02500000FsoG4GrCveuKFhJB9Cc6tIkbhUkE2Oc",
    "placeName": "paul smiths",
    "state": "NY"
  },
  {
    "city": "georgetown",
    "state_code": "NY",
    "placeMasterId": "P02500000FsoIEp1SiTBqCB6UlwND5F1K6trkEZK",
    "placeName": "georgetown",
    "state": "NY"
  },
  {
    "city": "jordan",
    "state_code": "NY",
    "placeMasterId": "P02500000FsoG385O6UI2ktLmihqlbNkzOUUrkhK",
    "placeName": "jordan",
    "state": "NY"
  },
  {
    "city": "oswego",
    "state_code": "NY",
    "placeMasterId": "P02500000FsoG480jKGKXZ640LOGgyoYzTpGSn3A",
    "placeName": "oswego",
    "state": "NY"
  },
  {
    "city": "syracuse",
    "state_code": "NY",
    "placeMasterId": "P02500000FsoG57w4Y2N2NImDy4gcMF3udu0wEbR",
    "placeName": "syracuse",
    "state": "NY"
  },
  {
    "city": "dolgeville",
    "state_code": "NY",
    "placeMasterId": "P02500000FsoG1qT5fv5yZU9DUOk0OyTj5fiuPzt",
    "placeName": "dolgeville",
    "state": "NY"
  },
  {
    "city": "vernon",
    "state_code": "NY",
    "placeMasterId": "P02500000FsoHCkz4tU2FgSDG2LGYzIOgS9K5HqN",
    "placeName": "vernon",
    "state": "NY"
  },
  {
    "city": "de peyster",
    "state_code": "NY",
    "placeMasterId": "P02500000FsoIEXKVVg2Goyc9AJgNGGHgIi1zQOO",
    "placeName": "de peyster",
    "state": "NY"
  },
  {
    "city": "gouverneur",
    "state_code": "NY",
    "placeMasterId": "P02500000FsoHD2g26HBp3ehbdxxOoH5VXrlSLTz",
    "placeName": "gouverneur",
    "state": "NY"
  },
  {
    "city": "norfolk",
    "state_code": "NY",
    "placeMasterId": "P02500000FsoHDBWVhflbkFwmRmIoilQcdYgAJRV",
    "placeName": "norfolk",
    "state": "NY"
  },
  {
    "city": "philadelphia",
    "state_code": "NY",
    "placeMasterId": "P02500000FsoHCc8bI5SSzqy5EWv94npzfILeZFp",
    "placeName": "philadelphia",
    "state": "NY"
  },
  {
    "city": "pierrepont manor",
    "state_code": "NY",
    "placeMasterId": "P02500000FsoG4GrCveuKFhJB9Cc6tIgbDlYRElh",
    "placeName": "pierrepont manor",
    "state": "NY"
  },
  {
    "city": "kirkwood",
    "state_code": "NY",
    "placeMasterId": "P02500000FsoIFFYtWevCFyq1BNPSoiBsOHjPos4",
    "placeName": "kirkwood",
    "state": "NY"
  },
  {
    "city": "lewiston",
    "state_code": "NY",
    "placeMasterId": "P02500000FsoHCkz4tU2FgSDG2LGYzIHqao189Mi",
    "placeName": "lewiston",
    "state": "NY"
  },
  {
    "city": "south dayton",
    "state_code": "NY",
    "placeMasterId": "P02500000FsoG4z5awdnFghX3AGLCRkZs3qQ5Fjo",
    "placeName": "south dayton",
    "state": "NY"
  },
  {
    "city": "buffalo",
    "state_code": "NY",
    "placeMasterId": "P02500000FsoG1H5BGKmpp5AWH9MKl12AT3E2vOM",
    "placeName": "buffalo",
    "state": "NY"
  },
  {
    "city": "niagara falls",
    "state_code": "NY",
    "placeMasterId": "P02500000FsoG3qJm7TAyBtZejlZr9poKSoSQyCo",
    "placeName": "niagara falls",
    "state": "NY"
  },
  {
    "city": "groveland",
    "state_code": "NY",
    "placeMasterId": "P02500000FsoIExrwJrlcsmLfZkiczjSEelZz29B",
    "placeName": "groveland",
    "state": "NY"
  },
  {
    "city": "naples",
    "state_code": "NY",
    "placeMasterId": "P02500000FsoHCtpYUsc2N3SQq9bytmfOjfE3Ymg",
    "placeName": "naples",
    "state": "NY"
  },
  {
    "city": "spencerport",
    "state_code": "NY",
    "placeMasterId": "P02500000FsoG57w4Y2N2NImDy4gcMEuOP4Ysq8a",
    "placeName": "spencerport",
    "state": "NY"
  },
  {
    "city": "rochester",
    "state_code": "NY",
    "placeMasterId": "P02500000FsoG4YYA8S3tctnWkpIwiHXc7FWLpT6",
    "placeName": "rochester",
    "state": "NY"
  },
  {
    "city": "cuba",
    "state_code": "NY",
    "placeMasterId": "P02500000FsoHBl3jfhzksFV2PeqdbrfdAwQSRLH",
    "placeName": "cuba",
    "state": "NY"
  },
  {
    "city": "great valley",
    "state_code": "NY",
    "placeMasterId": "P02500000FsoIExrwJrlcsmLfZkiczjJ93wRC7MW",
    "placeName": "great valley",
    "state": "NY"
  },
  {
    "city": "almond",
    "state_code": "NY",
    "placeMasterId": "P02500000FsoHBtuDH6ZXYqkDDTC3WLux2liynP1",
    "placeName": "almond",
    "state": "NY"
  },
  {
    "city": "dundee",
    "state_code": "NY",
    "placeMasterId": "P02500000FsoG1qT5fv5yZU9DUOk0OyTib4jBPJe",
    "placeName": "dundee",
    "state": "NY"
  },
  {
    "city": "aliquippa",
    "state_code": "PA",
    "placeMasterId": "P02500000FsoGQWth1UwpRPUMTsVJ1ikf1qGnSqa",
    "placeName": "aliquippa",
    "state": "PA"
  },
  {
    "city": "west elizabeth",
    "state_code": "PA",
    "placeMasterId": "P02500000FsoGaNIddqm0qrNNuuL8tWO0FkttvWA",
    "placeName": "west elizabeth",
    "state": "PA"
  },
  {
    "city": "allison park",
    "state_code": "PA",
    "placeMasterId": "P02500000FsoGQWth1UwpRPUMTsVJ1il8FOckZBs",
    "placeName": "allison park",
    "state": "PA"
  },
  {
    "city": "mckeesport",
    "state_code": "PA",
    "placeMasterId": "P02500000FsoGVfMsjlj6B2IdP6wLpMCwxDFHgSS",
    "placeName": "mckeesport",
    "state": "PA"
  },
  {
    "city": "pittsburgh",
    "state_code": "PA",
    "placeMasterId": "P02500000FsoGXfDZBJo5nRj4eTmCaDENhHWAB15",
    "placeName": "pittsburgh",
    "state": "PA"
  },
  {
    "city": "crucible",
    "state_code": "PA",
    "placeMasterId": "P02500000FsoGSNttreS2NDfcvQzjs5WsavvbCux",
    "placeName": "crucible",
    "state": "PA"
  },
  {
    "city": "greensboro",
    "state_code": "PA",
    "placeMasterId": "P02500000FsoGU63d6PNScQbiZB8knxyOfX1Bsf3",
    "placeName": "greensboro",
    "state": "PA"
  },
  {
    "city": "houston",
    "state_code": "PA",
    "placeMasterId": "P02500000FsoGUWb3ub6ogELEycB0XR4NhUWiqP7",
    "placeName": "houston",
    "state": "PA"
  },
  {
    "city": "republic",
    "state_code": "PA",
    "placeMasterId": "P02500000FsoGY5kzzVXRrFSb3uoSJgM0927o3ii",
    "placeName": "republic",
    "state": "PA"
  },
  {
    "city": "robinson",
    "state_code": "PA",
    "placeMasterId": "P02500000FsoGYEbTau7EXqhlrj9sEAhP6jYJpEC",
    "placeName": "robinson",
    "state": "PA"
  },
  {
    "city": "jackson center",
    "state_code": "PA",
    "placeMasterId": "P02500000FsoGUoI17OGO3QpaaErqMPprLWCYS6w",
    "placeName": "jackson center",
    "state": "PA"
  },
  {
    "city": "spartansburg",
    "state_code": "PA",
    "placeMasterId": "P02500000FsoGZEWoog9jM3PzUPZnbbHndxbxLvi",
    "placeName": "spartansburg",
    "state": "PA"
  },
  {
    "city": "erie",
    "state_code": "PA",
    "placeMasterId": "P02500000FsoGT68HsdKxoDtUwUipQXb9IbBAKWB",
    "placeName": "erie",
    "state": "PA"
  },
  {
    "city": "erie",
    "state_code": "PA",
    "placeMasterId": "P02500000FsoGT68HsdKxoDtUwUipQXb9IbBAKWB",
    "placeName": "erie",
    "state": "PA"
  },
  {
    "city": "grassflat",
    "state_code": "PA",
    "placeMasterId": "P02500000FsoGTxD9V0nfvpMXlMnKtTnFL2OATw6",
    "placeName": "grassflat",
    "state": "PA"
  },
  {
    "city": "bendersville",
    "state_code": "PA",
    "placeMasterId": "P02500000FsoGQxR7pggBVDDstJXYlC1iYRVCOtp",
    "placeName": "bendersville",
    "state": "PA"
  },
  {
    "city": "bainbridge",
    "state_code": "PA",
    "placeMasterId": "P02500000FsoGQoaeEI6Oobyi5VC8qhZSTbptDBn",
    "placeName": "bainbridge",
    "state": "PA"
  },
  {
    "city": "beavertown",
    "state_code": "PA",
    "placeMasterId": "P02500000FsoGQxR7pggBVDDstJXYlBtgfWPv8Hb",
    "placeName": "beavertown",
    "state": "PA"
  },
  {
    "city": "coopersburg",
    "state_code": "PA",
    "placeMasterId": "P02500000FsoGS6CwerIT01BHJoIu36w2hZBUiEV",
    "placeName": "coopersburg",
    "state": "PA"
  },
  {
    "city": "new tripoli",
    "state_code": "PA",
    "placeMasterId": "P02500000FsoGWwzBAKvAMRVCdQ371lR5EGKDLCu",
    "placeName": "new tripoli",
    "state": "PA"
  },
  {
    "city": "lansford",
    "state_code": "PA",
    "placeMasterId": "P02500000FsoGV5yyKBPxQdJwBrYgBOjOxvcZdXM",
    "placeName": "lansford",
    "state": "PA"
  },
  {
    "city": "scranton",
    "state_code": "PA",
    "placeMasterId": "P02500000FsoGYf8uP5qabeRIHAC7xdsDcRUIZct",
    "placeName": "scranton",
    "state": "PA"
  },
  {
    "city": "wyoming",
    "state_code": "PA",
    "placeMasterId": "P02500000FsoGanq4S2VMuf6uKLNOczZqKdz1tAA",
    "placeName": "wyoming",
    "state": "PA"
  },
  {
    "city": "philadelphia",
    "state_code": "PA",
    "placeMasterId": "P02500000FsoGXWN5ZvEJ6qTtqfQmfiyVODy6MPW",
    "placeName": "philadelphia",
    "state": "PA"
  },
  {
    "city": "philadelphia",
    "state_code": "PA",
    "placeMasterId": "P02500000FsoGXWN5ZvEJ6qTtqfQmfiyVODy6MPW",
    "placeName": "philadelphia",
    "state": "PA"
  },
  {
    "city": "philadelphia",
    "state_code": "PA",
    "placeMasterId": "P02500000FsoGXWN5ZvEJ6qTtqfQmfiyVODy6MPW",
    "placeName": "philadelphia",
    "state": "PA"
  },
  {
    "city": "philadelphia",
    "state_code": "PA",
    "placeMasterId": "P02500000FsoGXWN5ZvEJ6qTtqfQmfiyVODy6MPW",
    "placeName": "philadelphia",
    "state": "PA"
  },
  {
    "city": "norristown",
    "state_code": "PA",
    "placeMasterId": "P02500000FsoGWwzBAKvAMRVCdQ371lSotpGly68",
    "placeName": "norristown",
    "state": "PA"
  },
  {
    "city": "virginville",
    "state_code": "PA",
    "placeMasterId": "P02500000FsoGa5bgR3cRTet2JHeJ4XXNCb2fKSZ",
    "placeName": "virginville",
    "state": "PA"
  },
  {
    "city": "wilmington",
    "state_code": "DE",
    "placeMasterId": "P02500000FsoEq4sEpygzKuc87a8wLiOkGKX6CVd",
    "placeName": "wilmington",
    "state": "DE"
  },
  {
    "city": "wilmington",
    "state_code": "DE",
    "placeMasterId": "P02500000FsoEq4sEpygzKuc87a8wLiOkGKX6CVd",
    "placeName": "wilmington",
    "state": "DE"
  },
  {
    "city": "manassas",
    "state_code": "VA",
    "placeMasterId": "P02500000FsoGwUUe8IEjLyJORlsv7RtCoUDQg1y",
    "placeName": "manassas",
    "state": "VA"
  },
  {
    "city": "centreville",
    "state_code": "VA",
    "placeMasterId": "P02500000FsoGv41s6KSsTxrePeQk0YJh5aPJPEg",
    "placeName": "centreville",
    "state": "VA"
  },
  {
    "city": "laurel",
    "state_code": "MD",
    "placeMasterId": "P02500000FsoFUk6JjxBnA7Mn60b31KSXjyFMd7C",
    "placeName": "laurel",
    "state": "MD"
  },
  {
    "city": "bowie",
    "state_code": "MD",
    "placeMasterId": "P02500000FsoFTbKUumZVfJPOfVphjPEWm4ouK7q",
    "placeName": "bowie",
    "state": "MD"
  },
  {
    "city": "dunkirk",
    "state_code": "MD",
    "placeMasterId": "P02500000FsoFUAiPKMsePiO5slDNNMkyOQUjnnj",
    "placeName": "dunkirk",
    "state": "MD"
  },
  {
    "city": "highland",
    "state_code": "MD",
    "placeMasterId": "P02500000FsoFUk6JjxBnA7Mn60b31KDTYddmqof",
    "placeName": "highland",
    "state": "MD"
  },
  {
    "city": "damascus",
    "state_code": "MD",
    "placeMasterId": "P02500000FsoFU1rviyIrj78v4wrxSsMHgikiYj3",
    "placeName": "damascus",
    "state": "MD"
  },
  {
    "city": "silver spring",
    "state_code": "MD",
    "placeMasterId": "P02500000FsoFVk1exjEHyK50ih0yOl85Zhht6fO",
    "placeName": "silver spring",
    "state": "MD"
  },
  {
    "city": "arnold",
    "state_code": "MD",
    "placeMasterId": "P02500000FsoFTJdXhzPwI6v33t8ruQgpiXYFs5u",
    "placeName": "arnold",
    "state": "MD"
  },
  {
    "city": "manchester",
    "state_code": "MD",
    "placeMasterId": "P02500000FsoFV1nGwkLMXJr8hdHsqIzqgU1kPma",
    "placeName": "manchester",
    "state": "MD"
  },
  {
    "city": "perryman",
    "state_code": "MD",
    "placeMasterId": "P02500000FsoFVSKhkw4ib7af74K8Zm71MR5ndDY",
    "placeName": "perryman",
    "state": "MD"
  },
  {
    "city": "randallstown",
    "state_code": "MD",
    "placeMasterId": "P02500000FsoFVbBBMKeVHippusfYUGU1HtVZ7UH",
    "placeName": "randallstown",
    "state": "MD"
  },
  {
    "city": "secretary",
    "state_code": "MD",
    "placeMasterId": "P02500000FsoFVss8Z7o4evKBWVMOJFItYUINlsy",
    "placeName": "secretary",
    "state": "MD"
  },
  {
    "city": "frederick",
    "state_code": "MD",
    "placeMasterId": "P02500000FsoFUJYsvlSR6JdGgZYnHrC7Vb7aVJm",
    "placeName": "frederick",
    "state": "MD"
  },
  {
    "city": "tyaskin",
    "state_code": "MD",
    "placeMasterId": "P02500000FsoFW1icAWNrLWZMKJhoDjmrpepmJkk",
    "placeName": "tyaskin",
    "state": "MD"
  },
  {
    "city": "occoquan",
    "state_code": "VA",
    "placeMasterId": "P02500000FsoGx3sYXsXs6NI5f1GalPN5P5pGMs1",
    "placeName": "occoquan",
    "state": "VA"
  },
  {
    "city": "alexandria",
    "state_code": "VA",
    "placeMasterId": "P02500000FsoGuUdxgk9jjYsxCP34MaiKDaDtr2h",
    "placeName": "alexandria",
    "state": "VA"
  },
  {
    "city": "heathsville",
    "state_code": "VA",
    "placeMasterId": "P02500000FsoGw3xDK6VNIAZs2KqfNykpLCRz0ir",
    "placeName": "heathsville",
    "state": "VA"
  },
  {
    "city": "winchester",
    "state_code": "VA",
    "placeMasterId": "P02500000FsoGy3ntleaMua0JHhgW8pyUtz5p1IP",
    "placeName": "winchester",
    "state": "VA"
  },
  {
    "city": "remington",
    "state_code": "VA",
    "placeMasterId": "P02500000FsoGxCj29H7emyXGSpc0ftql9pWwnEv",
    "placeName": "remington",
    "state": "VA"
  },
  {
    "city": "mechanicsville",
    "state_code": "VA",
    "placeMasterId": "P02500000FsoGwdL7jgoW2ZYZFaEL1wDkGjQTcch",
    "placeName": "mechanicsville",
    "state": "VA"
  },
  {
    "city": "suffolk",
    "state_code": "VA",
    "placeMasterId": "P02500000FsoGxm6wYrQnXNVxg4zgJrBl4EMlhhd",
    "placeName": "suffolk",
    "state": "VA"
  },
  {
    "city": "norfolk",
    "state_code": "VA",
    "placeMasterId": "P02500000FsoGx3sYXsXs6NI5f1GalPIXzep0Ccf",
    "placeName": "norfolk",
    "state": "VA"
  },
  {
    "city": "roanoke",
    "state_code": "VA",
    "placeMasterId": "P02500000FsoGxLZVkfhRTZmRGdxQaO4ZAL3W16u",
    "placeName": "roanoke",
    "state": "VA"
  },
  {
    "city": "blacksburg",
    "state_code": "VA",
    "placeMasterId": "P02500000FsoGumKutXJJ6lNIo1juBZUemiOHwUL",
    "placeName": "blacksburg",
    "state": "VA"
  },
  {
    "city": "martinsville",
    "state_code": "VA",
    "placeMasterId": "P02500000FsoGwdL7jgoW2ZYZFaEL1wApomrqxsF",
    "placeName": "martinsville",
    "state": "VA"
  },
  {
    "city": "rocky mount",
    "state_code": "VA",
    "placeMasterId": "P02500000FsoGxCj29H7emyXGSpc0fttjj5yrAHH",
    "placeName": "rocky mount",
    "state": "VA"
  },
  {
    "city": "gate city",
    "state_code": "VA",
    "placeMasterId": "P02500000FsoGvmGG7JLnuy5WQi9pZ059eWthazM",
    "placeName": "gate city",
    "state": "VA"
  },
  {
    "city": "fries",
    "state_code": "VA",
    "placeMasterId": "P02500000FsoGvmGG7JLnuy5WQi9pZ015tuMt4IL",
    "placeName": "fries",
    "state": "VA"
  },
  {
    "city": "saltville",
    "state_code": "VA",
    "placeMasterId": "P02500000FsoGxLZVkfhRTZmRGdxQaOF7ecW0Ui8",
    "placeName": "saltville",
    "state": "VA"
  },
  {
    "city": "forest",
    "state_code": "VA",
    "placeMasterId": "P02500000FsoGvmGG7JLnuy5WQi9pYzwqEt5InTT",
    "placeName": "forest",
    "state": "VA"
  },
  {
    "city": "athens",
    "state_code": "WV",
    "placeMasterId": "P02500000FsoH1uen3MAZSnc0yd0nk4CgylZQJYf",
    "placeName": "athens",
    "state": "WV"
  },
  {
    "city": "bud",
    "state_code": "WV",
    "placeMasterId": "P02500000FsoH2CLkG9K8q06MaFhdZ2tmqgB9g6U",
    "placeName": "bud",
    "state": "WV"
  },
  {
    "city": "war",
    "state_code": "WV",
    "placeMasterId": "P02500000FsoH43Lx6IpLloHd1oC4PPVaf4GoyfD",
    "placeName": "war",
    "state": "WV"
  },
  {
    "city": "danville",
    "state_code": "WV",
    "placeMasterId": "P02500000FsoH2U2hSwTiDCaiBsOTO1Zt3N42F5N",
    "placeName": "danville",
    "state": "WV"
  },
  {
    "city": "chapmanville",
    "state_code": "WV",
    "placeMasterId": "P02500000FsoH2LCDrXtvWbLXO433TX8accJnlNU",
    "placeName": "chapmanville",
    "state": "WV"
  },
  {
    "city": "fort gay",
    "state_code": "WV",
    "placeMasterId": "P02500000FsoH2ljefjdHaP53nV5JD09YrV8BYw1",
    "placeName": "fort gay",
    "state": "WV"
  },
  {
    "city": "logan",
    "state_code": "WV",
    "placeMasterId": "P02500000FsoH33QbsWmqxbZPP7m91z9GcA0YCxw",
    "placeName": "logan",
    "state": "WV"
  },
  {
    "city": "hilltop",
    "state_code": "WV",
    "placeMasterId": "P02500000FsoH2ua8H8D4H0KEbJQj7UcutM7yglO",
    "placeName": "hilltop",
    "state": "WV"
  },
  {
    "city": "huttonsville",
    "state_code": "WV",
    "placeMasterId": "P02500000FsoH2ua8H8D4H0KEbJQj7UiGFrPGexb",
    "placeName": "huttonsville",
    "state": "WV"
  },
  {
    "city": "thomas",
    "state_code": "WV",
    "placeMasterId": "P02500000FsoH3uVTUuFZ5D2SDzqeUvMR4BZDRsW",
    "placeName": "thomas",
    "state": "WV"
  },
  {
    "city": "whitmer",
    "state_code": "WV",
    "placeMasterId": "P02500000FsoH4CCQhhP8SPWnpcXUJtuB97lVPQ6",
    "placeName": "whitmer",
    "state": "WV"
  },
  {
    "city": "ellenboro",
    "state_code": "WV",
    "placeMasterId": "P02500000FsoH2ctB4L3UtnpszgjtIVqyS89twlt",
    "placeName": "ellenboro",
    "state": "WV"
  },
  {
    "city": "grant town",
    "state_code": "WV",
    "placeMasterId": "P02500000FsoH2ljefjdHaP53nV5JD0LlPTclMRI",
    "placeName": "grant town",
    "state": "WV"
  },
  {
    "city": "keyser",
    "state_code": "WV",
    "placeMasterId": "P02500000FsoH33QbsWmqxbZPP7m91z2m3YPkJ8X",
    "placeName": "keyser",
    "state": "WV"
  },
  {
    "city": "jamestown",
    "state_code": "NC",
    "placeMasterId": "P02500000FsoG7q190ZKxQiQXEVFYfXyJ9FS2w1Y",
    "placeName": "jamestown",
    "state": "NC"
  },
  {
    "city": "clayton",
    "state_code": "NC",
    "placeMasterId": "P02500000FsoG6YOqa08tFJDy0C8nT8lAxyqvLPc",
    "placeName": "clayton",
    "state": "NC"
  },
  {
    "city": "raleigh",
    "state_code": "NC",
    "placeMasterId": "P02500000FsoG8ymxpjxEvWNvf00txSyEKZeGT37",
    "placeName": "raleigh",
    "state": "NC"
  },
  {
    "city": "belhaven",
    "state_code": "NC",
    "placeMasterId": "P02500000FsoG67rPloPXBVURal6XjfcLrTwIGuO",
    "placeName": "belhaven",
    "state": "NC"
  },
  {
    "city": "hollister",
    "state_code": "NC",
    "placeMasterId": "P02500000FsoG7hAfPAlAk7BMQgu8l3gPirelhaX",
    "placeName": "hollister",
    "state": "NC"
  },
  {
    "city": "whitakers",
    "state_code": "NC",
    "placeMasterId": "P02500000FsoG9yiJ3Vzjjj69HgQpKtnEZJgyCpU",
    "placeName": "whitakers",
    "state": "NC"
  },
  {
    "city": "camden",
    "state_code": "NC",
    "placeMasterId": "P02500000FsoG6PYMybZ6YhynCNnNYeTvAtnXucx",
    "placeName": "camden",
    "state": "NC"
  },
  {
    "city": "concord",
    "state_code": "NC",
    "placeMasterId": "P02500000FsoG6hFKBOifvuT8o0UDNd15ePeBk4v",
    "placeName": "concord",
    "state": "NC"
  },
  {
    "city": "huntersville",
    "state_code": "NC",
    "placeMasterId": "P02500000FsoG7hAfPAlAk7BMQgu8l3m8nTMy7Ac",
    "placeName": "huntersville",
    "state": "NC"
  },
  {
    "city": "stanley",
    "state_code": "NC",
    "placeMasterId": "P02500000FsoG9YAsFKGNfvMcsFOZbQTXR1eVIqd",
    "placeName": "stanley",
    "state": "NC"
  },
  {
    "city": "hamlet",
    "state_code": "NC",
    "placeMasterId": "P02500000FsoG7PTiCNbbMuh0p4DIw540KCKyAWk",
    "placeName": "hamlet",
    "state": "NC"
  },
  {
    "city": "pinebluff",
    "state_code": "NC",
    "placeMasterId": "P02500000FsoG8pwUELNSEv8krBfU2yZQsXwP8Ct",
    "placeName": "pinebluff",
    "state": "NC"
  },
  {
    "city": "southport",
    "state_code": "NC",
    "placeMasterId": "P02500000FsoG9PKOdvgazK7S4R39gwAt9dyPs8q",
    "placeName": "southport",
    "state": "NC"
  },
  {
    "city": "new bern",
    "state_code": "NC",
    "placeMasterId": "P02500000FsoG8YFX1YDsriePFYyeDzzsucCg03q",
    "placeName": "new bern",
    "state": "NC"
  },
  {
    "city": "granite falls",
    "state_code": "NC",
    "placeMasterId": "P02500000FsoG7PTiCNbbMuh0p4DIw55spwco09V",
    "placeName": "granite falls",
    "state": "NC"
  },
  {
    "city": "morganton",
    "state_code": "NC",
    "placeMasterId": "P02500000FsoG8PP3Q9e6B7PERkdEJVd1jXub3ZO",
    "placeName": "morganton",
    "state": "NC"
  },
  {
    "city": "west jefferson",
    "state_code": "NC",
    "placeMasterId": "P02500000FsoG9yiJ3Vzjjj69HgQpKte73WXxt4h",
    "placeName": "west jefferson",
    "state": "NC"
  },
  {
    "city": "great falls",
    "state_code": "SC",
    "placeMasterId": "P02500000FsoGbwbtHD7ePT4Ikq8juuKolrOk4wp",
    "placeName": "great falls",
    "state": "SC"
  },
  {
    "city": "greeleyville",
    "state_code": "SC",
    "placeMasterId": "P02500000FsoGbwbtHD7ePT4Ikq8juuKegzXyMY5",
    "placeName": "greeleyville",
    "state": "SC"
  },
  {
    "city": "sumter",
    "state_code": "SC",
    "placeMasterId": "P02500000FsoGdEEBhmJiasGrz9FV7JmstLqfkE8",
    "placeName": "sumter",
    "state": "SC"
  },
  {
    "city": "swansea",
    "state_code": "SC",
    "placeMasterId": "P02500000FsoGdEEBhmJiasGrz9FV7JjsbTN3t3W",
    "placeName": "swansea",
    "state": "SC"
  },
  {
    "city": "arcadia",
    "state_code": "SC",
    "placeMasterId": "P02500000FsoGb5X1epewHrbFvy4ERyISrmVqVHy",
    "placeName": "arcadia",
    "state": "SC"
  },
  {
    "city": "laurens",
    "state_code": "SC",
    "placeMasterId": "P02500000FsoGcEIqU0HDmfYeMSpZjt9qVrfNHwR",
    "placeName": "laurens",
    "state": "SC"
  },
  {
    "city": "florence",
    "state_code": "SC",
    "placeMasterId": "P02500000FsoGbnlPfoXrirp7x1nK0PySuHMNkHx",
    "placeName": "florence",
    "state": "SC"
  },
  {
    "city": "coward",
    "state_code": "SC",
    "placeMasterId": "P02500000FsoGbW4ST1OILfKmLP6UBRTZ70arhea",
    "placeName": "coward",
    "state": "SC"
  },
  {
    "city": "anderson",
    "state_code": "SC",
    "placeMasterId": "P02500000FsoGb5X1epewHrbFvy4ERyK3lzp4DKY",
    "placeName": "anderson",
    "state": "SC"
  },
  {
    "city": "lowndesville",
    "state_code": "SC",
    "placeMasterId": "P02500000FsoGcEIqU0HDmfYeMSpZjtK1N70JNEJ",
    "placeName": "lowndesville",
    "state": "SC"
  },
  {
    "city": "west union",
    "state_code": "SC",
    "placeMasterId": "P02500000FsoGdN4fJAtVHTW2mxav1oDqHKuqER8",
    "placeName": "west union",
    "state": "SC"
  },
  {
    "city": "ridgeland",
    "state_code": "SC",
    "placeMasterId": "P02500000FsoGcwXEUzA9DfmWNWYfIKyrYRuYXS9",
    "placeName": "ridgeland",
    "state": "SC"
  },
  {
    "city": "snellville",
    "state_code": "GA",
    "placeMasterId": "P02500000FsoEyLxvoyAXBkoEigBBC7yofzMbd2r",
    "placeName": "snellville",
    "state": "GA"
  },
  {
    "city": "bowdon",
    "state_code": "GA",
    "placeMasterId": "P02500000FsoEvdsrMRCc8L9vSFcEsovpD0a5bNu",
    "placeName": "bowdon",
    "state": "GA"
  },
  {
    "city": "emerson",
    "state_code": "GA",
    "placeMasterId": "P02500000FsoEwUxiyofKFwcyH7gkLl9Y1B8THlR",
    "placeName": "emerson",
    "state": "GA"
  },
  {
    "city": "hampton",
    "state_code": "GA",
    "placeMasterId": "P02500000FsoEwvV9n0OgJkMUgYj05ECoSjfhhmY",
    "placeName": "hampton",
    "state": "GA"
  },
  {
    "city": "conley",
    "state_code": "GA",
    "placeMasterId": "P02500000FsoEw4QIAcvyC8tRrgeUcHzHtk7tUVq",
    "placeName": "conley",
    "state": "GA"
  },
  {
    "city": "atlanta",
    "state_code": "GA",
    "placeMasterId": "P02500000FsoEvV2Nl2cpRjukeRGoyKXsQZ9lvPs",
    "placeName": "atlanta",
    "state": "GA"
  },
  {
    "city": "atlanta",
    "state_code": "GA",
    "placeMasterId": "P02500000FsoEvV2Nl2cpRjukeRGoyKXsQZ9lvPs",
    "placeName": "atlanta",
    "state": "GA"
  },
  {
    "city": "vidalia",
    "state_code": "GA",
    "placeMasterId": "P02500000FsoEydet1lK6YxIaKIs116k0ppQae16",
    "placeName": "vidalia",
    "state": "GA"
  },
  {
    "city": "flowery branch",
    "state_code": "GA",
    "placeMasterId": "P02500000FsoEwUxiyofKFwcyH7gkLl7naiTKNKE",
    "placeName": "flowery branch",
    "state": "GA"
  },
  {
    "city": "gibson",
    "state_code": "GA",
    "placeMasterId": "P02500000FsoEwmegBbotd97JskNaAjqdcGz89zt",
    "placeName": "gibson",
    "state": "GA"
  },
  {
    "city": "ballantine",
    "state_code": "MT",
    "placeMasterId": "P02500000FsoFoibABRzjMDdBZgxYZuLRzyWyzDD",
    "placeName": "ballantine",
    "state": "MT"
  },
  {
    "city": "birney",
    "state_code": "MT",
    "placeMasterId": "P02500000FsoForRdmqZW2osMNVIyUOj8EnWiBDT",
    "placeName": "birney",
    "state": "MT"
  },
  {
    "city": "saco",
    "state_code": "MT",
    "placeMasterId": "P02500000FsoFqHuPooLMupK6Pcl9bIJ9KI9BJeU",
    "placeName": "saco",
    "state": "MT"
  },
  {
    "city": "box elder",
    "state_code": "MT",
    "placeMasterId": "P02500000FsoFoibABRzjMDdBZgxYZuNStLVPYnB",
    "placeName": "box elder",
    "state": "MT"
  },
  {
    "city": "missoula",
    "state_code": "MT",
    "placeMasterId": "P02500000FsoFq0DSc1BnXcpko04JmJXRBQWeVrS",
    "placeName": "missoula",
    "state": "MT"
  },
  {
    "city": "conner",
    "state_code": "MT",
    "placeMasterId": "P02500000FsoFp0I7OF9IjQ7XBJeOOt825gzSa4U",
    "placeName": "conner",
    "state": "MT"
  },
  {
    "city": "sula",
    "state_code": "MT",
    "placeMasterId": "P02500000FsoFqQktQCv9bQZHDR6ZVmpNFupsGNc",
    "placeName": "sula",
    "state": "MT"
  },
  {
    "city": "bigfork",
    "state_code": "MT",
    "placeMasterId": "P02500000FsoForRdmqZW2osMNVIyUOdCGbN0WWS",
    "placeName": "bigfork",
    "state": "MT"
  },
  {
    "city": "rollins",
    "state_code": "MT",
    "placeMasterId": "P02500000FsoFq93wDPlaEE4vboPjgo4rSDnBmUv",
    "placeName": "rollins",
    "state": "MT"
  },
  {
    "city": "elburn",
    "state_code": "IL",
    "placeMasterId": "P02500000FsoF3CkAKRnEYB8A2HvOAmZUX8V21ag",
    "placeName": "elburn",
    "state": "IL"
  },
  {
    "city": "berkeley",
    "state_code": "IL",
    "placeMasterId": "P02500000FsoF1mHOIU1NgAgQ0ATD3soIz7jyGjT",
    "placeName": "berkeley",
    "state": "IL"
  },
  {
    "city": "evanston",
    "state_code": "IL",
    "placeMasterId": "P02500000FsoF3LadvqN1EmNKq6Go5GvPjlHnYcB",
    "placeName": "evanston",
    "state": "IL"
  },
  {
    "city": "oak park",
    "state_code": "IL",
    "placeMasterId": "P02500000FsoF6LMfbAUVfOVzi9WaDYkUbA3T87Q",
    "placeName": "oak park",
    "state": "IL"
  },
  {
    "city": "river forest",
    "state_code": "IL",
    "placeMasterId": "P02500000FsoF7CRXDXxDmzz2X1b5gUxE09wctYL",
    "placeName": "river forest",
    "state": "IL"
  },
  {
    "city": "odell",
    "state_code": "IL",
    "placeMasterId": "P02500000FsoF6LMfbAUVfOVzi9WaDYl7cw5HBdm",
    "placeName": "odell",
    "state": "IL"
  },
  {
    "city": "olympia fields",
    "state_code": "IL",
    "placeMasterId": "P02500000FsoF6UD9CZ4ILzlAVxs0835ZfJ196jJ",
    "placeName": "olympia fields",
    "state": "IL"
  },
  {
    "city": "la grange",
    "state_code": "IL",
    "placeMasterId": "P02500000FsoF4m3Pxo8s6mp4sDizCAh6F45zX77",
    "placeName": "la grange",
    "state": "IL"
  },
  {
    "city": "naperville",
    "state_code": "IL",
    "placeMasterId": "P02500000FsoF5upEmyl9bamTIiUKU5d7vrWjH7i",
    "placeName": "naperville",
    "state": "IL"
  },
  {
    "city": "plainfield",
    "state_code": "IL",
    "placeMasterId": "P02500000FsoF6uka0knePnUgvOuFrWCuaS4lOh5",
    "placeName": "plainfield",
    "state": "IL"
  },
  {
    "city": "chicago",
    "state_code": "IL",
    "placeMasterId": "P02500000FsoF2LfIi4KWQZf7DPqshqNB04VNil1",
    "placeName": "chicago",
    "state": "IL"
  },
  {
    "city": "gilman",
    "state_code": "IL",
    "placeMasterId": "P02500000FsoF3m84k26NIa6rFXJ3ok3elZrtppf",
    "placeName": "gilman",
    "state": "IL"
  },
  {
    "city": "polo",
    "state_code": "IL",
    "placeMasterId": "P02500000FsoF6uka0knePnUgvOuFrWDghLg3BB1",
    "placeName": "polo",
    "state": "IL"
  },
  {
    "city": "thomson",
    "state_code": "IL",
    "placeMasterId": "P02500000FsoF8CMsRJzibChG9i113vZeAZ45aGF",
    "placeName": "thomson",
    "state": "IL"
  },
  {
    "city": "la moille",
    "state_code": "IL",
    "placeMasterId": "P02500000FsoF4uttZCienO4Fg24P6f3jBeOWLGT",
    "placeName": "la moille",
    "state": "IL"
  },
  {
    "city": "ottawa",
    "state_code": "IL",
    "placeMasterId": "P02500000FsoF6d3cnxe52b0LJmDQ2XUUBIWGwxY",
    "placeName": "ottawa",
    "state": "IL"
  },
  {
    "city": "seatonville",
    "state_code": "IL",
    "placeMasterId": "P02500000FsoF7cyy1jgZqniYwSdLPy3orNKT6WM",
    "placeName": "seatonville",
    "state": "IL"
  },
  {
    "city": "roseville",
    "state_code": "IL",
    "placeMasterId": "P02500000FsoF7LI0owX0TbEDKpwVazKDQw5jFJi",
    "placeName": "roseville",
    "state": "IL"
  },
  {
    "city": "brimfield",
    "state_code": "IL",
    "placeMasterId": "P02500000FsoF1v7rtsbAMlvanyocyNEFTEKG8D1",
    "placeName": "brimfield",
    "state": "IL"
  },
  {
    "city": "ogden",
    "state_code": "IL",
    "placeMasterId": "P02500000FsoF6UD9CZ4ILzlAVxs0834aexz7VnQ",
    "placeName": "ogden",
    "state": "IL"
  },
  {
    "city": "sidell",
    "state_code": "IL",
    "placeMasterId": "P02500000FsoF7lpRd8GMXOxjkGylKSSEqJQBo8F",
    "placeName": "sidell",
    "state": "IL"
  },
  {
    "city": "lovington",
    "state_code": "IL",
    "placeMasterId": "P02500000FsoF5LRKNOS0rBnm5T6eq87mQachWb2",
    "placeName": "lovington",
    "state": "IL"
  },
  {
    "city": "mattoon",
    "state_code": "IL",
    "placeMasterId": "P02500000FsoF5UHnyn1nXn2wtHS4kcZZo0YcjSF",
    "placeName": "mattoon",
    "state": "IL"
  },
  {
    "city": "carrollton",
    "state_code": "IL",
    "placeMasterId": "P02500000FsoF2LfIi4KWQZf7DPqshqJt5vhQ4Rw",
    "placeName": "carrollton",
    "state": "IL"
  },
  {
    "city": "granite city",
    "state_code": "IL",
    "placeMasterId": "P02500000FsoF3uyYLQg9zBM23LeTjESlXRfOA2L",
    "placeName": "granite city",
    "state": "IL"
  },
  {
    "city": "litchfield",
    "state_code": "IL",
    "placeMasterId": "P02500000FsoF53kNAbIRTzJQTqPp19Pnm7iuR9b",
    "placeName": "litchfield",
    "state": "IL"
  },
  {
    "city": "fairview heights",
    "state_code": "IL",
    "placeMasterId": "P02500000FsoF3UR7XEwnvNcVducDzlIC1cph0CM",
    "placeName": "fairview heights",
    "state": "IL"
  },
  {
    "city": "pocahontas",
    "state_code": "IL",
    "placeMasterId": "P02500000FsoF6uka0knePnUgvOuFrWDWp8P340o",
    "placeName": "pocahontas",
    "state": "IL"
  },
  {
    "city": "warsaw",
    "state_code": "IL",
    "placeMasterId": "P02500000FsoF8cuJFVj4f0QmZ93GnOf1TDL7N2j",
    "placeName": "warsaw",
    "state": "IL"
  },
  {
    "city": "hidalgo",
    "state_code": "IL",
    "placeMasterId": "P02500000FsoF4CfVYDpjMNqNeyLJYDBYEdl9Tm3",
    "placeName": "hidalgo",
    "state": "IL"
  },
  {
    "city": "teutopolis",
    "state_code": "IL",
    "placeMasterId": "P02500000FsoF8CMsRJzibChG9i113vWWGtO2myc",
    "placeName": "teutopolis",
    "state": "IL"
  },
  {
    "city": "wheeler",
    "state_code": "IL",
    "placeMasterId": "P02500000FsoF8lkmquIrLbfxMxOght3UwFuyEhA",
    "placeName": "wheeler",
    "state": "IL"
  },
  {
    "city": "oconee",
    "state_code": "IL",
    "placeMasterId": "P02500000FsoF6LMfbAUVfOVzi9WaDYkUDuQkglQ",
    "placeName": "oconee",
    "state": "IL"
  },
  {
    "city": "greenview",
    "state_code": "IL",
    "placeMasterId": "P02500000FsoF43p1wpFwfmbCr9ztdikraljUAjy",
    "placeName": "greenview",
    "state": "IL"
  },
  {
    "city": "winchester",
    "state_code": "IL",
    "placeMasterId": "P02500000FsoF8lkmquIrLbfxMxOght5Cq6RgqfX",
    "placeName": "winchester",
    "state": "IL"
  },
  {
    "city": "fairfield",
    "state_code": "IL",
    "placeMasterId": "P02500000FsoF3UR7XEwnvNcVducDzlHGVxEALMq",
    "placeName": "fairfield",
    "state": "IL"
  },
  {
    "city": "belknap",
    "state_code": "IL",
    "placeMasterId": "P02500000FsoF1dQuh5RazZRFCM7n9ORS1Ny2ENl",
    "placeName": "belknap",
    "state": "IL"
  },
  {
    "city": "cypress",
    "state_code": "IL",
    "placeMasterId": "P02500000FsoF2v3D7edfAydoQfEYLnnmxMvA7dm",
    "placeName": "cypress",
    "state": "IL"
  },
  {
    "city": "johnston city",
    "state_code": "IL",
    "placeMasterId": "P02500000FsoF4dCwMPZ5QBZu4PNZHgGG1fIvaXU",
    "placeName": "johnston city",
    "state": "IL"
  },
  {
    "city": "wildwood",
    "state_code": "MO",
    "placeMasterId": "P02500000FsoFoQuCyeq9z18py4GikvdLln3laGO",
    "placeName": "wildwood",
    "state": "MO"
  },
  {
    "city": "warrenton",
    "state_code": "MO",
    "placeMasterId": "P02500000FsoFoI3jNGGNIPtfAFvIqRBqI9Fxkun",
    "placeName": "warrenton",
    "state": "MO"
  },
  {
    "city": "hannibal",
    "state_code": "MO",
    "placeMasterId": "P02500000FsoFl0akV8zJUbGegZygtAgCVkII7UR",
    "placeName": "hannibal",
    "state": "MO"
  },
  {
    "city": "clarence",
    "state_code": "MO",
    "placeMasterId": "P02500000FsoFja7yTBDScaoueSWVmH1uzfim059",
    "placeName": "clarence",
    "state": "MO"
  },
  {
    "city": "worthington",
    "state_code": "MO",
    "placeMasterId": "P02500000FsoFoZkga3PwfcO0lsc8fPuUi3awCYR",
    "placeName": "worthington",
    "state": "MO"
  },
  {
    "city": "benton",
    "state_code": "MO",
    "placeMasterId": "P02500000FsoFj0k43auJsBqDRD8q8JLdBScbxY5",
    "placeName": "benton",
    "state": "MO"
  },
  {
    "city": "chaffee",
    "state_code": "MO",
    "placeMasterId": "P02500000FsoFja7yTBDScaoueSWVmGtvzeSH1vv",
    "placeName": "chaffee",
    "state": "MO"
  },
  {
    "city": "kelso",
    "state_code": "MO",
    "placeMasterId": "P02500000FsoFlZyeujISF0FLtpMMX81rvrZK0Kw",
    "placeName": "kelso",
    "state": "MO"
  },
  {
    "city": "old appleton",
    "state_code": "MO",
    "placeMasterId": "P02500000FsoFmikTjtujjoCkKK7hp398XklF1zM",
    "placeName": "old appleton",
    "state": "MO"
  },
  {
    "city": "arbyrd",
    "state_code": "MO",
    "placeMasterId": "P02500000FsoFij36qnkkUzLrpaS0JKmS8up5BV8",
    "placeName": "arbyrd",
    "state": "MO"
  },
  {
    "city": "bernie",
    "state_code": "MO",
    "placeMasterId": "P02500000FsoFj0k43auJsBqDRD8q8JSAsB6oPFK",
    "placeName": "bernie",
    "state": "MO"
  },
  {
    "city": "hornersville",
    "state_code": "MO",
    "placeMasterId": "P02500000FsoFl9RE6XZ6BCVpUOK6nf42dQ5tUJY",
    "placeName": "hornersville",
    "state": "MO"
  },
  {
    "city": "marston",
    "state_code": "MO",
    "placeMasterId": "P02500000FsoFm0W5iv1oInysJGOcGbLsCtghTmk",
    "placeName": "marston",
    "state": "MO"
  },
  {
    "city": "wellington",
    "state_code": "MO",
    "placeMasterId": "P02500000FsoFoI3jNGGNIPtfAFvIqRFfm1IUG1D",
    "placeName": "wellington",
    "state": "MO"
  },
  {
    "city": "kansas city",
    "state_code": "MO",
    "placeMasterId": "P02500000FsoFlR8BJKifYP0B610wcdmJLAheztV",
    "placeName": "kansas city",
    "state": "MO"
  },
  {
    "city": "fillmore",
    "state_code": "MO",
    "placeMasterId": "P02500000FsoFka3JgxFxQnX8H8wR9hRSkRfI1Jv",
    "placeName": "fillmore",
    "state": "MO"
  },
  {
    "city": "maitland",
    "state_code": "MO",
    "placeMasterId": "P02500000FsoFm0W5iv1oInysJGOcGbHqHBkjGqV",
    "placeName": "maitland",
    "state": "MO"
  },
  {
    "city": "skidmore",
    "state_code": "MO",
    "placeMasterId": "P02500000FsoFnifoxfxEY0uxx0XdCTkyiJY2sWo",
    "placeName": "skidmore",
    "state": "MO"
  },
  {
    "city": "bogard",
    "state_code": "MO",
    "placeMasterId": "P02500000FsoFj9aXezU6Yn5OF1UG2nptV3vVvSo",
    "placeName": "bogard",
    "state": "MO"
  },
  {
    "city": "winston",
    "state_code": "MO",
    "placeMasterId": "P02500000FsoFoQuCyeq9z18py4GikvbCe98RGQl",
    "placeName": "winston",
    "state": "MO"
  },
  {
    "city": "east lynne",
    "state_code": "MO",
    "placeMasterId": "P02500000FsoFk9VsslWbMznbrhuBQETdSdHzUgk",
    "placeName": "east lynne",
    "state": "MO"
  },
  {
    "city": "seneca",
    "state_code": "MO",
    "placeMasterId": "P02500000FsoFnifoxfxEY0uxx0XdCThNh1aIQuv",
    "placeName": "seneca",
    "state": "MO"
  },
  {
    "city": "stella",
    "state_code": "MO",
    "placeMasterId": "P02500000FsoFnrWIZ4X1EcA8kot36y4aRLsn2dn",
    "placeName": "stella",
    "state": "MO"
  },
  {
    "city": "barnett",
    "state_code": "MO",
    "placeMasterId": "P02500000FsoFj0k43auJsBqDRD8q8JP0z9a6MtX",
    "placeName": "barnett",
    "state": "MO"
  },
  {
    "city": "westphalia",
    "state_code": "MO",
    "placeMasterId": "P02500000FsoFoQuCyeq9z18py4GikvWTTTSZK1p",
    "placeName": "westphalia",
    "state": "MO"
  },
  {
    "city": "clark",
    "state_code": "MO",
    "placeMasterId": "P02500000FsoFjiyS4ZnFJC45SGrvglET0FUAgNO",
    "placeName": "clark",
    "state": "MO"
  },
  {
    "city": "new franklin",
    "state_code": "MO",
    "placeMasterId": "P02500000FsoFmZu08VKx3CxZWVmHuYfuP9sTEVv",
    "placeName": "new franklin",
    "state": "MO"
  },
  {
    "city": "calhoun",
    "state_code": "MO",
    "placeMasterId": "P02500000FsoFjRHUrmdfvzZjqeB5rmZ5xhKpLHI",
    "placeName": "calhoun",
    "state": "MO"
  },
  {
    "city": "alton",
    "state_code": "MO",
    "placeMasterId": "P02500000FsoFij36qnkkUzLrpaS0JKfhzmMXKda",
    "placeName": "alton",
    "state": "MO"
  },
  {
    "city": "weaubleau",
    "state_code": "MO",
    "placeMasterId": "P02500000FsoFoQuCyeq9z18py4GikvXBX33yDiF",
    "placeName": "weaubleau",
    "state": "MO"
  },
  {
    "city": "colony",
    "state_code": "KS",
    "placeMasterId": "P02500000FsoFJkvYIQkKFrWNETzrrbfy3OOLamI",
    "placeName": "colony",
    "state": "KS"
  },
  {
    "city": "elwood",
    "state_code": "KS",
    "placeMasterId": "P02500000FsoFKBSz6cTgJfFtdv27b4k8yAxPD5D",
    "placeName": "elwood",
    "state": "KS"
  },
  {
    "city": "kansas city",
    "state_code": "KS",
    "placeMasterId": "P02500000FsoFKthN7bMbkfTleylD9WcwenSSDwE",
    "placeName": "kansas city",
    "state": "KS"
  },
  {
    "city": "overland park",
    "state_code": "KS",
    "placeMasterId": "P02500000FsoFLtciLNP6YsBzHfB8WxB9BAanqbl",
    "placeName": "overland park",
    "state": "KS"
  },
  {
    "city": "grantville",
    "state_code": "KS",
    "placeMasterId": "P02500000FsoFKT9wJPdFgrkFFXixQ3VJb2XV7xD",
    "placeName": "grantville",
    "state": "KS"
  },
  {
    "city": "manhattan",
    "state_code": "KS",
    "placeMasterId": "P02500000FsoFLBOKKOWB7ry7GbS2yVMjERHn4eF",
    "placeName": "manhattan",
    "state": "KS"
  },
  {
    "city": "topeka",
    "state_code": "KS",
    "placeMasterId": "P02500000FsoFMbr6MMI1zsPrIiuE5P2hY2Q28N9",
    "placeName": "topeka",
    "state": "KS"
  },
  {
    "city": "altoona",
    "state_code": "KS",
    "placeMasterId": "P02500000FsoFJ2hAHRrOorIVDQGmJ9t7Bisxz9s",
    "placeName": "altoona",
    "state": "KS"
  },
  {
    "city": "hepler",
    "state_code": "KS",
    "placeMasterId": "P02500000FsoFKT9wJPdFgrkFFXixQ3XwKUJ5kMM",
    "placeName": "hepler",
    "state": "KS"
  },
  {
    "city": "burr oak",
    "state_code": "KS",
    "placeMasterId": "P02500000FsoFJTEb5daksf21crJ22d0sEScpzUe",
    "placeName": "burr oak",
    "state": "KS"
  },
  {
    "city": "hillsboro",
    "state_code": "KS",
    "placeMasterId": "P02500000FsoFKc0PuoD2NSzQ3M4NKXuZOUfMpgG",
    "placeName": "hillsboro",
    "state": "KS"
  },
  {
    "city": "waldron",
    "state_code": "KS",
    "placeMasterId": "P02500000FsoFMbr6MMI1zsPrIiuE5P53e0PZIMV",
    "placeName": "waldron",
    "state": "KS"
  },
  {
    "city": "wichita",
    "state_code": "KS",
    "placeMasterId": "P02500000FsoFMtY3Z9RbN4uCuLb3uNnBOyNlFLT",
    "placeName": "wichita",
    "state": "KS"
  },
  {
    "city": "wichita",
    "state_code": "KS",
    "placeMasterId": "P02500000FsoFMtY3Z9RbN4uCuLb3uNnBOyNlFLT",
    "placeName": "wichita",
    "state": "KS"
  },
  {
    "city": "abbyville",
    "state_code": "KS",
    "placeMasterId": "P02500000FsoFJ2hAHRrOorIVDQGmJ9kWPlX9rw1",
    "placeName": "abbyville",
    "state": "KS"
  },
  {
    "city": "chase",
    "state_code": "KS",
    "placeMasterId": "P02500000FsoFJkvYIQkKFrWNETzrrbcaWTSysSS",
    "placeName": "chase",
    "state": "KS"
  },
  {
    "city": "inman",
    "state_code": "KS",
    "placeMasterId": "P02500000FsoFKthN7bMbkfTleylD9Wal3Z6SjYr",
    "placeName": "inman",
    "state": "KS"
  },
  {
    "city": "plevna",
    "state_code": "KS",
    "placeMasterId": "P02500000FsoFM2TBwlytFTRA5TWYRRbB7LKQ26G",
    "placeName": "plevna",
    "state": "KS"
  },
  {
    "city": "plainville",
    "state_code": "KS",
    "placeMasterId": "P02500000FsoFLtciLNP6YsBzHfB8WxFNWEdaPZk",
    "placeName": "plainville",
    "state": "KS"
  },
  {
    "city": "leoti",
    "state_code": "KS",
    "placeMasterId": "P02500000FsoFL2XqizwORGiwSn6d410PA3HCZif",
    "placeName": "leoti",
    "state": "KS"
  },
  {
    "city": "manter",
    "state_code": "KS",
    "placeMasterId": "P02500000FsoFLKEnvn5xoTDI4PnSszhBgBq6mL5",
    "placeName": "manter",
    "state": "KS"
  },
  {
    "city": "montezuma",
    "state_code": "KS",
    "placeMasterId": "P02500000FsoFLT5HXBfkV4SSsE8snU50LciFQzZ",
    "placeName": "montezuma",
    "state": "KS"
  },
  {
    "city": "satanta",
    "state_code": "KS",
    "placeMasterId": "P02500000FsoFMKA99Z8ScfvVh6DOGQJ0uUiXYOK",
    "placeName": "satanta",
    "state": "KS"
  },
  {
    "city": "mead",
    "state_code": "NE",
    "placeMasterId": "P02500000FsoFsr90fwjVHdjEsEyg0705lvMU6Pg",
    "placeName": "mead",
    "state": "NE"
  },
  {
    "city": "south bend",
    "state_code": "NE",
    "placeMasterId": "P02500000FsoFtZNOgvcQidx6tIhlYYsUYa1IVmc",
    "placeName": "south bend",
    "state": "NE"
  },
  {
    "city": "omaha",
    "state_code": "NE",
    "placeMasterId": "P02500000FsoFszzUHLJHyEyPg3K5ubV6FuzuT2T",
    "placeName": "omaha",
    "state": "NE"
  },
  {
    "city": "burchard",
    "state_code": "NE",
    "placeMasterId": "P02500000FsoFrHpl2aNrj22K2JB4yj6lDelAhlY",
    "placeName": "burchard",
    "state": "NE"
  },
  {
    "city": "daykin",
    "state_code": "NE",
    "placeMasterId": "P02500000FsoFriNBqm7DmplqRkDKiC3g7vQiIUQ",
    "placeName": "daykin",
    "state": "NE"
  },
  {
    "city": "firth",
    "state_code": "NE",
    "placeMasterId": "P02500000FsoFrrDfSAh0TR11FYYkcgUSQhs7MMp",
    "placeName": "firth",
    "state": "NE"
  },
  {
    "city": "johnson",
    "state_code": "NE",
    "placeMasterId": "P02500000FsoFsQbZrl09DpziSnwQGe2JDfQyNQE",
    "placeName": "johnson",
    "state": "NE"
  },
  {
    "city": "tecumseh",
    "state_code": "NE",
    "placeMasterId": "P02500000FsoFtiDsIKCDPFCHh73BT3MbpgJOunn",
    "placeName": "tecumseh",
    "state": "NE"
  },
  {
    "city": "lincoln",
    "state_code": "NE",
    "placeMasterId": "P02500000FsoFsZS3T9ZvuREtGcHqB8DyQVvTvuI",
    "placeName": "lincoln",
    "state": "NE"
  },
  {
    "city": "lincoln",
    "state_code": "NE",
    "placeMasterId": "P02500000FsoFsZS3T9ZvuREtGcHqB8DyQVvTvuI",
    "placeName": "lincoln",
    "state": "NE"
  },
  {
    "city": "clarks",
    "state_code": "NE",
    "placeMasterId": "P02500000FsoFrQgEdyxePdHUq7WUtDQLkzSKROJ",
    "placeName": "clarks",
    "state": "NE"
  },
  {
    "city": "elgin",
    "state_code": "NE",
    "placeMasterId": "P02500000FsoFrrDfSAh0TR11FYYkcgNJlvvH3tQ",
    "placeName": "elgin",
    "state": "NE"
  },
  {
    "city": "spalding",
    "state_code": "NE",
    "placeMasterId": "P02500000FsoFtZNOgvcQidx6tIhlYYwuxbro6SP",
    "placeName": "spalding",
    "state": "NE"
  },
  {
    "city": "fordyce",
    "state_code": "NE",
    "placeMasterId": "P02500000FsoFrrDfSAh0TR11FYYkcgVOiqT2823",
    "placeName": "fordyce",
    "state": "NE"
  },
  {
    "city": "orchard",
    "state_code": "NE",
    "placeMasterId": "P02500000FsoFt8pxsjt4eqDaTrfVp5jkYobuXVs",
    "placeName": "orchard",
    "state": "NE"
  },
  {
    "city": "spencer",
    "state_code": "NE",
    "placeMasterId": "P02500000FsoFtZNOgvcQidx6tIhlYYrxOlPALyn",
    "placeName": "spencer",
    "state": "NE"
  },
  {
    "city": "wayne",
    "state_code": "NE",
    "placeMasterId": "P02500000FsoFtzupV7LmmRgdIjk1I25Uz0zFqHj",
    "placeName": "wayne",
    "state": "NE"
  },
  {
    "city": "phillips",
    "state_code": "NE",
    "placeMasterId": "P02500000FsoFtHgRU8SrLRSlHg0vja6VYn8yEVL",
    "placeName": "phillips",
    "state": "NE"
  },
  {
    "city": "scotia",
    "state_code": "NE",
    "placeMasterId": "P02500000FsoFtQWv5X2e22hw5UMLe4d6sOpibnw",
    "placeName": "scotia",
    "state": "NE"
  },
  {
    "city": "guide rock",
    "state_code": "NE",
    "placeMasterId": "P02500000FsoFs0493ZGnA2GC3MuAXAvuWdZ5P4j",
    "placeName": "guide rock",
    "state": "NE"
  },
  {
    "city": "inavale",
    "state_code": "NE",
    "placeMasterId": "P02500000FsoFsHl6GMQMXEkXezb0M9aIGPs2dQ1",
    "placeName": "inavale",
    "state": "NE"
  },
  {
    "city": "ragan",
    "state_code": "NE",
    "placeMasterId": "P02500000FsoFtHgRU8SrLRSlHg0vjaDRhzYkDCD",
    "placeName": "ragan",
    "state": "NE"
  },
  {
    "city": "benkelman",
    "state_code": "NE",
    "placeMasterId": "P02500000FsoFr8zHRBo52Qn9EUpf4EZOXE12uEM",
    "placeName": "benkelman",
    "state": "NE"
  },
  {
    "city": "wellfleet",
    "state_code": "NE",
    "placeMasterId": "P02500000FsoFtzupV7LmmRgdIjk1I20MdB7RFGh",
    "placeName": "wellfleet",
    "state": "NE"
  },
  {
    "city": "johnstown",
    "state_code": "NE",
    "placeMasterId": "P02500000FsoFsQbZrl09DpziSnwQGe4ebPcNRf5",
    "placeName": "johnstown",
    "state": "NE"
  },
  {
    "city": "nenzel",
    "state_code": "NE",
    "placeMasterId": "P02500000FsoFsr90fwjVHdjEsEyg076PDPmjKKd",
    "placeName": "nenzel",
    "state": "NE"
  },
  {
    "city": "gretna",
    "state_code": "LA",
    "placeMasterId": "P02500000FsoFRAwNf2l9z6FR0hxbF5Ay9v0lXBT",
    "placeName": "gretna",
    "state": "LA"
  },
  {
    "city": "kenner",
    "state_code": "LA",
    "placeMasterId": "P02500000FsoFRSdKrpujMIjmcKeR43n0J1KmBWu",
    "placeName": "kenner",
    "state": "LA"
  },
  {
    "city": "reserve",
    "state_code": "LA",
    "placeMasterId": "P02500000FsoFSSYg5bxEAVS0F14MRUMWirnvwyR",
    "placeName": "reserve",
    "state": "LA"
  },
  {
    "city": "violet",
    "state_code": "LA",
    "placeMasterId": "P02500000FsoFSt66tngaEJBWeS6cAxYsBPlEoh9",
    "placeName": "violet",
    "state": "LA"
  },
  {
    "city": "new orleans",
    "state_code": "LA",
    "placeMasterId": "P02500000FsoFS21FHQDs6hiTpa26i1JVz94sOtB",
    "placeName": "new orleans",
    "state": "LA"
  },
  {
    "city": "dulac",
    "state_code": "LA",
    "placeMasterId": "P02500000FsoFQtFQSFbabtl5P5GlQ6HEFh3hArC",
    "placeName": "dulac",
    "state": "LA"
  },
  {
    "city": "houma",
    "state_code": "LA",
    "placeMasterId": "P02500000FsoFRJmrGRKwfhUboWJ19ZSX6AdN76w",
    "placeName": "houma",
    "state": "LA"
  },
  {
    "city": "covington",
    "state_code": "LA",
    "placeMasterId": "P02500000FsoFQkOwqr1nvIVubGvLVc0BWo8Xztt",
    "placeName": "covington",
    "state": "LA"
  },
  {
    "city": "addis",
    "state_code": "LA",
    "placeMasterId": "P02500000FsoFQ2AYps8sUII2aDCFxADCsTZkV1o",
    "placeName": "addis",
    "state": "LA"
  },
  {
    "city": "hester",
    "state_code": "LA",
    "placeMasterId": "P02500000FsoFRSdKrpujMIjmcKeR43mU2LyKoqQ",
    "placeName": "hester",
    "state": "LA"
  },
  {
    "city": "plaquemine",
    "state_code": "LA",
    "placeMasterId": "P02500000FsoFSJiCUDNRTuCpRCiwWztrs3YXivt",
    "placeName": "plaquemine",
    "state": "LA"
  },
  {
    "city": "rosedale",
    "state_code": "LA",
    "placeMasterId": "P02500000FsoFSSYg5bxEAVS0F14MRUQgpzhNq3o",
    "placeName": "rosedale",
    "state": "LA"
  },
  {
    "city": "baton rouge",
    "state_code": "LA",
    "placeMasterId": "P02500000FsoFQJrW2fIRrUmOBpt5m8hbG1ZgRcE",
    "placeName": "baton rouge",
    "state": "LA"
  },
  {
    "city": "baton rouge",
    "state_code": "LA",
    "placeMasterId": "P02500000FsoFQJrW2fIRrUmOBpt5m8hbG1ZgRcE",
    "placeName": "baton rouge",
    "state": "LA"
  },
  {
    "city": "shreveport",
    "state_code": "LA",
    "placeMasterId": "P02500000FsoFSbP9h0X0r6hB2pPmLynLJaoEkpz",
    "placeName": "shreveport",
    "state": "LA"
  },
  {
    "city": "chatham",
    "state_code": "LA",
    "placeMasterId": "P02500000FsoFQbYTFSS1EhGjnSZvb7WnWaSSe5O",
    "placeName": "chatham",
    "state": "LA"
  },
  {
    "city": "lillie",
    "state_code": "LA",
    "placeMasterId": "P02500000FsoFRkKI4d4IjVE8DxLGt2X84Y2zIe8",
    "placeName": "lillie",
    "state": "LA"
  },
  {
    "city": "ferriday",
    "state_code": "LA",
    "placeMasterId": "P02500000FsoFR25u3eBNIV0GCtcBKamMytkMgfN",
    "placeName": "ferriday",
    "state": "LA"
  },
  {
    "city": "gilbert",
    "state_code": "LA",
    "placeMasterId": "P02500000FsoFRAwNf2l9z6FR0hxbF55AzG4OtB0",
    "placeName": "gilbert",
    "state": "LA"
  },
  {
    "city": "pine bluff",
    "state_code": "AR",
    "placeMasterId": "P02500000FsoEco9pk70xR2qvP414c9qKeItgtuc",
    "placeName": "pine bluff",
    "state": "AR"
  },
  {
    "city": "watson",
    "state_code": "AR",
    "placeMasterId": "P02500000FsoEdWODl5tss34nQ7kAAbh8wNwyabX",
    "placeName": "watson",
    "state": "AR"
  },
  {
    "city": "carthage",
    "state_code": "AR",
    "placeMasterId": "P02500000FsoEaoJ9IYvxodQU9hBDrIfkF6EchSe",
    "placeName": "carthage",
    "state": "AR"
  },
  {
    "city": "stamps",
    "state_code": "AR",
    "placeMasterId": "P02500000FsoEd5qmwuAWoFLH0ghuR8cstdaVkNB",
    "placeName": "stamps",
    "state": "AR"
  },
  {
    "city": "arkadelphia",
    "state_code": "AR",
    "placeMasterId": "P02500000FsoEafSfhAMB82BJLspnwoGk7NDPMiB",
    "placeName": "arkadelphia",
    "state": "AR"
  },
  {
    "city": "humnoke",
    "state_code": "AR",
    "placeMasterId": "P02500000FsoEboEUWKyScq8hmNb9EjIj8WNBBoz",
    "placeName": "humnoke",
    "state": "AR"
  },
  {
    "city": "malvern",
    "state_code": "AR",
    "placeMasterId": "P02500000FsoEcElvKWhogdsEBodOyCOyYG3X1Nr",
    "placeName": "malvern",
    "state": "AR"
  },
  {
    "city": "menifee",
    "state_code": "AR",
    "placeMasterId": "P02500000FsoEcNcOvvHbNF7Ozcyosgk6crcmuqO",
    "placeName": "menifee",
    "state": "AR"
  },
  {
    "city": "turrell",
    "state_code": "AR",
    "placeMasterId": "P02500000FsoEdNXk9hK6BRpccJOkG7JgYvqzp2W",
    "placeName": "turrell",
    "state": "AR"
  },
  {
    "city": "pocahontas",
    "state_code": "AR",
    "placeMasterId": "P02500000FsoEco9pk70xR2qvP414c9qrJqr4skJ",
    "placeName": "pocahontas",
    "state": "AR"
  },
  {
    "city": "reyno",
    "state_code": "AR",
    "placeMasterId": "P02500000FsoEco9pk70xR2qvP414c9uisq7h0Ef",
    "placeName": "reyno",
    "state": "AR"
  },
  {
    "city": "harrison",
    "state_code": "AR",
    "placeMasterId": "P02500000FsoEboEUWKyScq8hmNb9EjDvwbVhgYh",
    "placeName": "harrison",
    "state": "AR"
  },
  {
    "city": "everton",
    "state_code": "AR",
    "placeMasterId": "P02500000FsoEbNh3i9F6Z2PBMwYtVG9c6Pyc9Ss",
    "placeName": "everton",
    "state": "AR"
  },
  {
    "city": "gilbert",
    "state_code": "AR",
    "placeMasterId": "P02500000FsoEbWXXJXotFdeMAkuJPkXKiZ4oSRs",
    "placeName": "gilbert",
    "state": "AR"
  },
  {
    "city": "langston",
    "state_code": "OK",
    "placeMasterId": "P02500000FsoGLxoPioThSBemltRvs2nmQszsFUc",
    "placeName": "langston",
    "state": "OK"
  },
  {
    "city": "mountain view",
    "state_code": "OK",
    "placeMasterId": "P02500000FsoGMOLqX0D3VzOJBKUBbW17PBc0PSz",
    "placeName": "mountain view",
    "state": "OK"
  },
  {
    "city": "pocasset",
    "state_code": "OK",
    "placeMasterId": "P02500000FsoGMxjkwaWCGON0OZrrFTNHQE4ujDv",
    "placeName": "pocasset",
    "state": "OK"
  },
  {
    "city": "wayne",
    "state_code": "OK",
    "placeMasterId": "P02500000FsoGNxf6AMYh4b5E1GHmcuC2QttzIDt",
    "placeName": "wayne",
    "state": "OK"
  },
  {
    "city": "oklahoma city",
    "state_code": "OK",
    "placeMasterId": "P02500000FsoGMg2njnMctBsemxB1QUgVkw3g3BI",
    "placeName": "oklahoma city",
    "state": "OK"
  },
  {
    "city": "oklahoma city",
    "state_code": "OK",
    "placeMasterId": "P02500000FsoGMg2njnMctBsemxB1QUgVkw3g3BI",
    "placeName": "oklahoma city",
    "state": "OK"
  },
  {
    "city": "chattanooga",
    "state_code": "OK",
    "placeMasterId": "P02500000FsoGKXLdgqhqaBD2jlzkl9AuPehRj7b",
    "placeName": "chattanooga",
    "state": "OK"
  },
  {
    "city": "canton",
    "state_code": "OK",
    "placeMasterId": "P02500000FsoGKOVA5S83tZxrvxeKqes0DYleHi2",
    "placeName": "canton",
    "state": "OK"
  },
  {
    "city": "helena",
    "state_code": "OK",
    "placeMasterId": "P02500000FsoGLg7SW1K84zARAGl63400zZEi5uP",
    "placeName": "helena",
    "state": "OK"
  },
  {
    "city": "medford",
    "state_code": "OK",
    "placeMasterId": "P02500000FsoGMOLqX0D3VzOJBKUBbVuGFUQL0AB",
    "placeName": "medford",
    "state": "OK"
  },
  {
    "city": "watonga",
    "state_code": "OK",
    "placeMasterId": "P02500000FsoGNxf6AMYh4b5E1GHmcu2wVj3LMcC",
    "placeName": "watonga",
    "state": "OK"
  },
  {
    "city": "keyes",
    "state_code": "OK",
    "placeMasterId": "P02500000FsoGLoxw7PtulaPby56VxYUjL3QOd4Z",
    "placeName": "keyes",
    "state": "OK"
  },
  {
    "city": "tulsa",
    "state_code": "OK",
    "placeMasterId": "P02500000FsoGNfy8xZP7hOasPdawnvKembwKfLR",
    "placeName": "tulsa",
    "state": "OK"
  },
  {
    "city": "tulsa",
    "state_code": "OK",
    "placeMasterId": "P02500000FsoGNfy8xZP7hOasPdawnvKembwKfLR",
    "placeName": "tulsa",
    "state": "OK"
  },
  {
    "city": "tulsa",
    "state_code": "OK",
    "placeMasterId": "P02500000FsoGNfy8xZP7hOasPdawnvKembwKfLR",
    "placeName": "tulsa",
    "state": "OK"
  },
  {
    "city": "langley",
    "state_code": "OK",
    "placeMasterId": "P02500000FsoGLxoPioThSBemltRvs2pZ2emcRFa",
    "placeName": "langley",
    "state": "OK"
  },
  {
    "city": "quapaw",
    "state_code": "OK",
    "placeMasterId": "P02500000FsoGMxjkwaWCGON0OZrrFTSLOvYH6pD",
    "placeName": "quapaw",
    "state": "OK"
  },
  {
    "city": "checotah",
    "state_code": "OK",
    "placeMasterId": "P02500000FsoGKXLdgqhqaBD2jlzkl9COeagPh7x",
    "placeName": "checotah",
    "state": "OK"
  },
  {
    "city": "coweta",
    "state_code": "OK",
    "placeMasterId": "P02500000FsoGKp2atdrPxNhOLOgaa7lc2r2i2v1",
    "placeName": "coweta",
    "state": "OK"
  },
  {
    "city": "henryetta",
    "state_code": "OK",
    "placeMasterId": "P02500000FsoGLXGyuckLONvGMSPg8ZopWGW7vTT",
    "placeName": "henryetta",
    "state": "OK"
  },
  {
    "city": "taft",
    "state_code": "OK",
    "placeMasterId": "P02500000FsoGNX7fMApL0nLhbpFWtR0B7C06ySW",
    "placeName": "taft",
    "state": "OK"
  },
  {
    "city": "ada",
    "state_code": "OK",
    "placeMasterId": "P02500000FsoGJp7Ffrov9AzAiiGfChH09cMfSW9",
    "placeName": "ada",
    "state": "OK"
  },
  {
    "city": "heavener",
    "state_code": "OK",
    "placeMasterId": "P02500000FsoGLXGyuckLONvGMSPg8ZqorfaQLiv",
    "placeName": "heavener",
    "state": "OK"
  },
  {
    "city": "howe",
    "state_code": "OK",
    "placeMasterId": "P02500000FsoGLg7SW1K84zARAGl634AnRUWphw0",
    "placeName": "howe",
    "state": "OK"
  },
  {
    "city": "bells",
    "state_code": "TX",
    "placeMasterId": "P02500000FsoGinEoEEpLOIofJoineQK5vRKcphb",
    "placeName": "bells",
    "state": "TX"
  },
  {
    "city": "campbell",
    "state_code": "TX",
    "placeMasterId": "P02500000FsoGjVTCFDiGpJ2XKsRtCs5RgFtUHRV",
    "placeName": "campbell",
    "state": "TX"
  },
  {
    "city": "dodd city",
    "state_code": "TX",
    "placeMasterId": "P02500000FsoGkVOXSzkldVkkxYroaIlGSKGUB4s",
    "placeName": "dodd city",
    "state": "TX"
  },
  {
    "city": "redwater",
    "state_code": "TX",
    "placeMasterId": "P02500000FsoGpdrjBGX2N8Z1snIrNwJ3D3EjORW",
    "placeName": "redwater",
    "state": "TX"
  },
  {
    "city": "henderson",
    "state_code": "TX",
    "placeMasterId": "P02500000FsoGm4hn6M6PC7RfnUfPbgodOaVWgbB",
    "placeName": "henderson",
    "state": "TX"
  },
  {
    "city": "kilgore",
    "state_code": "TX",
    "placeMasterId": "P02500000FsoGmmwB7KzKd7fXoYOVA8amXCIkXnp",
    "placeName": "kilgore",
    "state": "TX"
  },
  {
    "city": "latexo",
    "state_code": "TX",
    "placeMasterId": "P02500000FsoGnDTbvWiggvP4DzQktbrpBVpWsyW",
    "placeName": "latexo",
    "state": "TX"
  },
  {
    "city": "lovelady",
    "state_code": "TX",
    "placeMasterId": "P02500000FsoGne12jiS2kj8adQT0d4wMCIwpYFv",
    "placeName": "lovelady",
    "state": "TX"
  },
  {
    "city": "corrigan",
    "state_code": "TX",
    "placeMasterId": "P02500000FsoGkDhaGCbCGJGPLwAylJsVHjkRXjY",
    "placeName": "corrigan",
    "state": "TX"
  },
  {
    "city": "cleburne",
    "state_code": "TX",
    "placeMasterId": "P02500000FsoGjw0d3PRct6m3kJU8wLC5REqKBzW",
    "placeName": "cleburne",
    "state": "TX"
  },
  {
    "city": "henrietta",
    "state_code": "TX",
    "placeMasterId": "P02500000FsoGlvrJUxWcVWCUzgJzhCWEbT8m13d",
    "placeName": "henrietta",
    "state": "TX"
  },
  {
    "city": "hamilton",
    "state_code": "TX",
    "placeMasterId": "P02500000FsoGln0ptYwpouxKBryZmi47qplcidH",
    "placeName": "hamilton",
    "state": "TX"
  },
  {
    "city": "nolanville",
    "state_code": "TX",
    "placeMasterId": "P02500000FsoGoV5uM5uksKbdSIXW61Ipw5VImtn",
    "placeName": "nolanville",
    "state": "TX"
  },
  {
    "city": "rockdale",
    "state_code": "TX",
    "placeMasterId": "P02500000FsoGpvYgO3gbkL3NUPzhCuqckdQ0qoC",
    "placeName": "rockdale",
    "state": "TX"
  },
  {
    "city": "thrall",
    "state_code": "TX",
    "placeMasterId": "P02500000FsoGrDAyocsfvkFwij6SPKJpv92Gk0r",
    "placeName": "thrall",
    "state": "TX"
  },
  {
    "city": "san saba",
    "state_code": "TX",
    "placeMasterId": "P02500000FsoGqM67CFPxo8mttr1wwNxz5U4SDYr",
    "placeName": "san saba",
    "state": "TX"
  },
  {
    "city": "ozona",
    "state_code": "TX",
    "placeMasterId": "P02500000FsoGovdLAHe6w8L9rjZlpUEJqzJeSas",
    "placeName": "ozona",
    "state": "TX"
  },
  {
    "city": "houston",
    "state_code": "TX",
    "placeMasterId": "P02500000FsoGmDYGhkgBsigqbJ0pWBK8GcFdEcU",
    "placeName": "houston",
    "state": "TX"
  },
  {
    "city": "houston",
    "state_code": "TX",
    "placeMasterId": "P02500000FsoGmDYGhkgBsigqbJ0pWBK8GcFdEcU",
    "placeName": "houston",
    "state": "TX"
  },
  {
    "city": "houston",
    "state_code": "TX",
    "placeMasterId": "P02500000FsoGmDYGhkgBsigqbJ0pWBK8GcFdEcU",
    "placeName": "houston",
    "state": "TX"
  },
  {
    "city": "houston",
    "state_code": "TX",
    "placeMasterId": "P02500000FsoGmDYGhkgBsigqbJ0pWBK8GcFdEcU",
    "placeName": "houston",
    "state": "TX"
  },
  {
    "city": "houston",
    "state_code": "TX",
    "placeMasterId": "P02500000FsoGmDYGhkgBsigqbJ0pWBK8GcFdEcU",
    "placeName": "houston",
    "state": "TX"
  },
  {
    "city": "houston",
    "state_code": "TX",
    "placeMasterId": "P02500000FsoGmDYGhkgBsigqbJ0pWBK8GcFdEcU",
    "placeName": "houston",
    "state": "TX"
  },
  {
    "city": "fulshear",
    "state_code": "TX",
    "placeMasterId": "P02500000FsoGlMTP5NDTl7DnmQwK3F2OGcoK8E5",
    "placeName": "fulshear",
    "state": "TX"
  },
  {
    "city": "hungerford",
    "state_code": "TX",
    "placeMasterId": "P02500000FsoGmMOkJ9FyZJw1P7MFQffMjjURH17",
    "placeName": "hungerford",
    "state": "TX"
  },
  {
    "city": "west columbia",
    "state_code": "TX",
    "placeMasterId": "P02500000FsoGrvPMpblbMkTojmpXxlzlIldTAo3",
    "placeName": "west columbia",
    "state": "TX"
  },
  {
    "city": "pasadena",
    "state_code": "TX",
    "placeMasterId": "P02500000FsoGp4TolgDtcjaKfXvBjyUjswu6ier",
    "placeName": "pasadena",
    "state": "TX"
  },
  {
    "city": "point comfort",
    "state_code": "TX",
    "placeMasterId": "P02500000FsoGpMAlyTNSzw4gHAc1YxJdyPXtvS9",
    "placeName": "point comfort",
    "state": "TX"
  },
  {
    "city": "leming",
    "state_code": "TX",
    "placeMasterId": "P02500000FsoGnMK5WvITNWeF1nmAo6AunqpBD7c",
    "placeName": "leming",
    "state": "TX"
  },
  {
    "city": "nixon",
    "state_code": "TX",
    "placeMasterId": "P02500000FsoGodwNxUUXYvqoG6sw0VXDBKcqlOZ",
    "placeName": "nixon",
    "state": "TX"
  },
  {
    "city": "san antonio",
    "state_code": "TX",
    "placeMasterId": "P02500000FsoGqM67CFPxo8mttr1wwNqfYQdpCPu",
    "placeName": "san antonio",
    "state": "TX"
  },
  {
    "city": "san antonio",
    "state_code": "TX",
    "placeMasterId": "P02500000FsoGqM67CFPxo8mttr1wwNqfYQdpCPu",
    "placeName": "san antonio",
    "state": "TX"
  },
  {
    "city": "tynan",
    "state_code": "TX",
    "placeMasterId": "P02500000FsoGrUrw1Q2FIwkIKLnIEIrWYfLLiZC",
    "placeName": "tynan",
    "state": "TX"
  },
  {
    "city": "corpus christi",
    "state_code": "TX",
    "placeMasterId": "P02500000FsoGkDhaGCbCGJGPLwAylJumHp42lmi",
    "placeName": "corpus christi",
    "state": "TX"
  },
  {
    "city": "brownsville",
    "state_code": "TX",
    "placeMasterId": "P02500000FsoGjDmF2QYhS6YBjFl3NtYVw5QcyWp",
    "placeName": "brownsville",
    "state": "TX"
  },
  {
    "city": "liberty hill",
    "state_code": "TX",
    "placeMasterId": "P02500000FsoGnMK5WvITNWeF1nmAo6AESPjzxrG",
    "placeName": "liberty hill",
    "state": "TX"
  },
  {
    "city": "austin",
    "state_code": "TX",
    "placeMasterId": "P02500000FsoGieOKcqFYhhZUW0NNjvrbzzBh3wR",
    "placeName": "austin",
    "state": "TX"
  },
  {
    "city": "adrian",
    "state_code": "TX",
    "placeMasterId": "P02500000FsoGiDqtoeWCdtpy6ZL80SqX3ocXpg0",
    "placeName": "adrian",
    "state": "TX"
  },
  {
    "city": "stratford",
    "state_code": "TX",
    "placeMasterId": "P02500000FsoGqvU1bpj6YXlb76PcaLWAMUDUqmI",
    "placeName": "stratford",
    "state": "TX"
  },
  {
    "city": "amarillo",
    "state_code": "TX",
    "placeMasterId": "P02500000FsoGiMhNQ35zKV58uNgXuxIaAeFmU4D",
    "placeName": "amarillo",
    "state": "TX"
  },
  {
    "city": "guthrie",
    "state_code": "TX",
    "placeMasterId": "P02500000FsoGln0ptYwpouxKBryZmi2IdpMgoim",
    "placeName": "guthrie",
    "state": "TX"
  },
  {
    "city": "roaring springs",
    "state_code": "TX",
    "placeMasterId": "P02500000FsoGpmiCmf6p3joCgbeHIQdG9JELX5g",
    "placeName": "roaring springs",
    "state": "TX"
  },
  {
    "city": "denver city",
    "state_code": "TX",
    "placeMasterId": "P02500000FsoGkVOXSzkldVkkxYroaIl8CmZcXpq",
    "placeName": "denver city",
    "state": "TX"
  },
  {
    "city": "lorenzo",
    "state_code": "TX",
    "placeMasterId": "P02500000FsoGnVAZ8JsG47tPpc7aiabODGSKc8E",
    "placeName": "lorenzo",
    "state": "TX"
  },
  {
    "city": "wellman",
    "state_code": "TX",
    "placeMasterId": "P02500000FsoGrvPMpblbMkTojmpXxlyVS0XdCTp",
    "placeName": "wellman",
    "state": "TX"
  },
  {
    "city": "trent",
    "state_code": "TX",
    "placeMasterId": "P02500000FsoGrM1SQ1SScLV7WXRsJoZ2QOVRNiO",
    "placeName": "trent",
    "state": "TX"
  },
  {
    "city": "andrews",
    "state_code": "TX",
    "placeMasterId": "P02500000FsoGiVXr1Rfm16KJiC1xpRVL2YyWipL",
    "placeName": "andrews",
    "state": "TX"
  },
  {
    "city": "big spring",
    "state_code": "TX",
    "placeMasterId": "P02500000FsoGiw5HpdP84u3q7d4DYuXMY5KLNjd",
    "placeName": "big spring",
    "state": "TX"
  },
  {
    "city": "odessa",
    "state_code": "TX",
    "placeMasterId": "P02500000FsoGommrYt4KFX5z3vELuzmdASlNucj",
    "placeName": "odessa",
    "state": "TX"
  },
  {
    "city": "dell city",
    "state_code": "TX",
    "placeMasterId": "P02500000FsoGkMY3rbAywuVa9kWOfoOVKnfN92D",
    "placeName": "dell city",
    "state": "TX"
  },
  {
    "city": "lafayette",
    "state_code": "CO",
    "placeMasterId": "P02500000FsoEnnKbBdSQLIhLGacFlsRhc4pMqUe",
    "placeName": "lafayette",
    "state": "CO"
  },
  {
    "city": "westminster",
    "state_code": "CO",
    "placeMasterId": "P02500000FsoEow6Q0o4hq6ejh5Nb3nSsC1RZmhZ",
    "placeName": "westminster",
    "state": "CO"
  },
  {
    "city": "aurora",
    "state_code": "CO",
    "placeMasterId": "P02500000FsoEmViIl4GM9tUm2HVUZT8wZbsyrI4",
    "placeName": "aurora",
    "state": "CO"
  },
  {
    "city": "littleton",
    "state_code": "CO",
    "placeMasterId": "P02500000FsoEnwB4n22D1twW4OxfgMnLpWDqofA",
    "placeName": "littleton",
    "state": "CO"
  },
  {
    "city": "denver",
    "state_code": "CO",
    "placeMasterId": "P02500000FsoEmwFjZFziDhEIRiXkIwGQWtD2cc9",
    "placeName": "denver",
    "state": "CO"
  },
  {
    "city": "denver",
    "state_code": "CO",
    "placeMasterId": "P02500000FsoEmwFjZFziDhEIRiXkIwGQWtD2cc9",
    "placeName": "denver",
    "state": "CO"
  },
  {
    "city": "golden",
    "state_code": "CO",
    "placeMasterId": "P02500000FsoEnVddyqIqy6CzexvPwtfjuUD30Yo",
    "placeName": "golden",
    "state": "CO"
  },
  {
    "city": "eaton",
    "state_code": "CO",
    "placeMasterId": "P02500000FsoEnDwgm39Hatie3LEa7uxMPizcAQR",
    "placeName": "eaton",
    "state": "CO"
  },
  {
    "city": "sterling",
    "state_code": "CO",
    "placeMasterId": "P02500000FsoEoePSo0v8SuAO5SglEoiZeGC5goz",
    "placeName": "sterling",
    "state": "CO"
  },
  {
    "city": "wray",
    "state_code": "CO",
    "placeMasterId": "P02500000FsoEow6Q0o4hq6ejh5Nb3nSTXEbJLtq",
    "placeName": "wray",
    "state": "CO"
  },
  {
    "city": "boone",
    "state_code": "CO",
    "placeMasterId": "P02500000FsoEmeYmMSq8qUjwq5quTxV3HN8Hdc8",
    "placeName": "boone",
    "state": "CO"
  },
  {
    "city": "crowley",
    "state_code": "CO",
    "placeMasterId": "P02500000FsoEn56DAeZUuITTFWtADQYxCovJCRZ",
    "placeName": "crowley",
    "state": "CO"
  },
  {
    "city": "pritchett",
    "state_code": "CO",
    "placeMasterId": "P02500000FsoEoMiVbDlZ5hg2TpzvPpvlF5CXR1c",
    "placeName": "pritchett",
    "state": "CO"
  },
  {
    "city": "monte vista",
    "state_code": "CO",
    "placeMasterId": "P02500000FsoEo51YOQbziVBgsDJ5arC7RqFf9CK",
    "placeName": "monte vista",
    "state": "CO"
  },
  {
    "city": "mancos",
    "state_code": "CO",
    "placeMasterId": "P02500000FsoEo51YOQbziVBgsDJ5arAqAORaFIS",
    "placeName": "mancos",
    "state": "CO"
  },
  {
    "city": "greybull",
    "state_code": "WY",
    "placeMasterId": "P02500000FsoH92yfDB1popqj9EHhIYejWXD1aHG",
    "placeName": "greybull",
    "state": "WY"
  },
  {
    "city": "glenrock",
    "state_code": "WY",
    "placeMasterId": "P02500000FsoH92yfDB1popqj9EHhIYbwqsHCsRu",
    "placeName": "glenrock",
    "state": "WY"
  },
  {
    "city": "grover",
    "state_code": "WY",
    "placeMasterId": "P02500000FsoH92yfDB1popqj9EHhIYeSHGcRCas",
    "placeName": "grover",
    "state": "WY"
  },
  {
    "city": "thayne",
    "state_code": "WY",
    "placeMasterId": "P02500000FsoH9lD3E9ulFq4bAI0mr0NxikhVkjD",
    "placeName": "thayne",
    "state": "WY"
  },
  {
    "city": "mackay",
    "state_code": "ID",
    "placeMasterId": "P02500000FsoF0Uf5rupJUlTqlrMRrTX0yp4kUjg",
    "placeName": "mackay",
    "state": "ID"
  },
  {
    "city": "buhl",
    "state_code": "ID",
    "placeMasterId": "P02500000FsoF047f3j5xQxkKMQKC80NdjvEcZMw",
    "placeName": "buhl",
    "state": "ID"
  },
  {
    "city": "jerome",
    "state_code": "ID",
    "placeMasterId": "P02500000FsoF0Uf5rupJUlTqlrMRrTV1ofamLqJ",
    "placeName": "jerome",
    "state": "ID"
  },
  {
    "city": "paul",
    "state_code": "ID",
    "placeMasterId": "P02500000FsoF0mM34hysrxyCNU3HgSDrsHKKrhx",
    "placeName": "paul",
    "state": "ID"
  },
  {
    "city": "juliaetta",
    "state_code": "ID",
    "placeMasterId": "P02500000FsoF0Uf5rupJUlTqlrMRrTTFcTeCL62",
    "placeName": "juliaetta",
    "state": "ID"
  },
  {
    "city": "council",
    "state_code": "ID",
    "placeMasterId": "P02500000FsoF047f3j5xQxkKMQKC80OnNRT8xiK",
    "placeName": "council",
    "state": "ID"
  },
  {
    "city": "greenleaf",
    "state_code": "ID",
    "placeMasterId": "P02500000FsoF0Cy8f7fk7YzVAEfc2UlNd8CNdVd",
    "placeName": "greenleaf",
    "state": "ID"
  },
  {
    "city": "boise",
    "state_code": "ID",
    "placeMasterId": "P02500000FsoEzvHBSKWAkMV9YbymDW1T6oUkWas",
    "placeName": "boise",
    "state": "ID"
  },
  {
    "city": "farmington",
    "state_code": "UT",
    "placeMasterId": "P02500000FsoGsmUERzEJULwrYeu3QiJ9hLOTyOX",
    "placeName": "farmington",
    "state": "UT"
  },
  {
    "city": "whiterocks",
    "state_code": "UT",
    "placeMasterId": "P02500000FsoGuCx0Tx0AMMObamMEXc12ZD8NBYi",
    "placeName": "whiterocks",
    "state": "UT"
  },
  {
    "city": "sandy",
    "state_code": "UT",
    "placeMasterId": "P02500000FsoGtmPZflGoIYf5BLJyo8xBgipiRbZ",
    "placeName": "sandy",
    "state": "UT"
  },
  {
    "city": "howell",
    "state_code": "UT",
    "placeMasterId": "P02500000FsoGsvKi3No6AxC2MTFTLCn3y3pNxq3",
    "placeName": "howell",
    "state": "UT"
  },
  {
    "city": "clawson",
    "state_code": "UT",
    "placeMasterId": "P02500000FsoGsddkqaeWnkhgkqYdWDmmHwCLHvT",
    "placeName": "clawson",
    "state": "UT"
  },
  {
    "city": "fountain green",
    "state_code": "UT",
    "placeMasterId": "P02500000FsoGsmUERzEJULwrYeu3QiJBcKxaXab",
    "placeName": "fountain green",
    "state": "UT"
  }
]