[
  {
    "city": "janesville",
    "state_code": "WI",
    "placeMasterId": "P02500000FsoH6C379FU84oxF4zNL4l70x93YJgq",
    "placeName": "janesville",
    "state": "WI"
  },
  {
    "city": "lone rock",
    "state_code": "WI",
    "placeMasterId": "P02500000FsoH6caXxRDU8cglUQPaoEBUKrkTwYF",
    "placeName": "lone rock",
    "state": "WI"
  },
  {
    "city": "muscoda",
    "state_code": "WI",
    "placeMasterId": "P02500000FsoHEkplL27FIrdhHi6Pk9VMxa7BW28",
    "placeName": "muscoda",
    "state": "WI"
  },
  {
    "city": "madison",
    "state_code": "WI",
    "placeMasterId": "P02500000FsoH6caXxRDU8cglUQPaoEDC1yqNdF5",
    "placeName": "madison",
    "state": "WI"
  },
  {
    "city": "madison",
    "state_code": "WI",
    "placeMasterId": "P02500000FsoH6caXxRDU8cglUQPaoEDC1yqNdF5",
    "placeName": "madison",
    "state": "WI"
  },
  {
    "city": "ellsworth",
    "state_code": "WI",
    "placeMasterId": "P02500000FsoHFT49M10AjrrZIlpVIbEY5hi3WYW",
    "placeName": "ellsworth",
    "state": "WI"
  },
  {
    "city": "suamico",
    "state_code": "WI",
    "placeMasterId": "P02500000FsoH833JzOzL0d8VWXrlv7zB2Z2Dz5n",
    "placeName": "suamico",
    "state": "WI"
  },
  {
    "city": "athens",
    "state_code": "WI",
    "placeMasterId": "P02500000FsoH4TtNuUYhpc19RFEK8skaUCilWyB",
    "placeName": "athens",
    "state": "WI"
  },
  {
    "city": "hurley",
    "state_code": "WI",
    "placeMasterId": "P02500000FsoH63CdXquLODi4HB1vAGuxo6RHaSC",
    "placeName": "hurley",
    "state": "WI"
  },
  {
    "city": "black river falls",
    "state_code": "WI",
    "placeMasterId": "P02500000FsoH4cjrVt8UWDGKF3Zk3N1ti8VbG0i",
    "placeName": "black river falls",
    "state": "WI"
  },
  {
    "city": "blair",
    "state_code": "WI",
    "placeMasterId": "P02500000FsoH4cjrVt8UWDGKF3Zk3NCezANC4sk",
    "placeName": "blair",
    "state": "WI"
  },
  {
    "city": "millston",
    "state_code": "WI",
    "placeMasterId": "P02500000FsoIimljNiOkUKV5USuyQ6snTY8Z9ZM",
    "placeName": "millston",
    "state": "WI"
  },
  {
    "city": "wilton",
    "state_code": "WI",
    "placeMasterId": "P02500000FsoHFKDfkcQO3GcOUxU5O70eMOCxt8m",
    "placeName": "wilton",
    "state": "WI"
  },
  {
    "city": "spooner",
    "state_code": "WI",
    "placeMasterId": "P02500000FsoH7uCqO0PYK1tKijWM0dcMefZX7vj",
    "placeName": "spooner",
    "state": "WI"
  },
  {
    "city": "cameron",
    "state_code": "WI",
    "placeMasterId": "P02500000FsoHGBIXMzt6As5RJpYar3An13IKnx6",
    "placeName": "cameron",
    "state": "WI"
  },
  {
    "city": "milltown",
    "state_code": "WI",
    "placeMasterId": "P02500000FsoHFT49M10AjrrZIlpVIbOGX5GPMRc",
    "placeName": "milltown",
    "state": "WI"
  },
  {
    "city": "cottage grove",
    "state_code": "MN",
    "placeMasterId": "P02500000FsoFcA796ZCctM5qsEYmOnezyjC1qlU",
    "placeName": "cottage grove",
    "state": "MN"
  },
  {
    "city": "goodhue",
    "state_code": "MN",
    "placeMasterId": "P02500000FsoFd1C0iwfL0xYth6dHrjphqObA9XX",
    "placeName": "goodhue",
    "state": "MN"
  },
  {
    "city": "hinckley",
    "state_code": "MN",
    "placeMasterId": "P02500000FsoFdIsxvjouOA3FIjK7gichZX2kYnR",
    "placeName": "hinckley",
    "state": "MN"
  },
  {
    "city": "shafer",
    "state_code": "MN",
    "placeMasterId": "P02500000FsoFfaQba53TNly29iqoGYQXJwZpd1z",
    "placeName": "shafer",
    "state": "MN"
  },
  {
    "city": "inver grove heights",
    "state_code": "MN",
    "placeMasterId": "P02500000FsoFdRjRX8Oh4lIQ6XfXbD2SL2FAoDx",
    "placeName": "inver grove heights",
    "state": "MN"
  },
  {
    "city": "new auburn",
    "state_code": "MN",
    "placeMasterId": "P02500000FsoFeRemkuRBsy0djE5SyddsUWDqLQG",
    "placeName": "new auburn",
    "state": "MN"
  },
  {
    "city": "waconia",
    "state_code": "MN",
    "placeMasterId": "P02500000FsoFg0y2OGmpRZhYZ9t401ilxvi1IiP",
    "placeName": "waconia",
    "state": "MN"
  },
  {
    "city": "minneapolis",
    "state_code": "MN",
    "placeMasterId": "P02500000FsoFeIoJ9VrPCMlSvPk349D9alJlgNT",
    "placeName": "minneapolis",
    "state": "MN"
  },
  {
    "city": "minneapolis",
    "state_code": "MN",
    "placeMasterId": "P02500000FsoFeIoJ9VrPCMlSvPk349D9alJlgNT",
    "placeName": "minneapolis",
    "state": "MN"
  },
  {
    "city": "beaver bay",
    "state_code": "MN",
    "placeMasterId": "P02500000FsoFbRsl5aJhSLryrApgqLhmmDTQo5m",
    "placeName": "beaver bay",
    "state": "MN"
  },
  {
    "city": "schroeder",
    "state_code": "MN",
    "placeMasterId": "P02500000FsoHxGujWiCFgI03x3so0zPacV6iWFq",
    "placeName": "schroeder",
    "state": "MN"
  },
  {
    "city": "duluth",
    "state_code": "MN",
    "placeMasterId": "P02500000FsoFcRo6JMMCGYaCTrFcDmMBFYsYM4N",
    "placeName": "duluth",
    "state": "MN"
  },
  {
    "city": "duluth",
    "state_code": "MN",
    "placeMasterId": "P02500000FsoFcRo6JMMCGYaCTrFcDmMBFYsYM4N",
    "placeName": "duluth",
    "state": "MN"
  },
  {
    "city": "brownsdale",
    "state_code": "MN",
    "placeMasterId": "P02500000FsoFbajEgytU8x79ezB6kqF4YJovUMk",
    "placeName": "brownsdale",
    "state": "MN"
  },
  {
    "city": "kenyon",
    "state_code": "MN",
    "placeMasterId": "P02500000FsoFdaZv8WyTlMXauM0xVhJqNhHeVAM",
    "placeName": "kenyon",
    "state": "MN"
  },
  {
    "city": "belle plaine",
    "state_code": "MN",
    "placeMasterId": "P02500000FsoFbRsl5aJhSLryrApgqLnY5l3bfAC",
    "placeName": "belle plaine",
    "state": "MN"
  },
  {
    "city": "madelia",
    "state_code": "MN",
    "placeMasterId": "P02500000FsoFe9xpY7HcVlWI7bOd9ejzZuCABqz",
    "placeName": "madelia",
    "state": "MN"
  },
  {
    "city": "montgomery",
    "state_code": "MN",
    "placeMasterId": "P02500000FsoFeRemkuRBsy0djE5SydZs86lX1CG",
    "placeName": "montgomery",
    "state": "MN"
  },
  {
    "city": "waterville",
    "state_code": "MN",
    "placeMasterId": "P02500000FsoFg0y2OGmpRZhYZ9t401oRNjKiIe9",
    "placeName": "waterville",
    "state": "MN"
  },
  {
    "city": "jackson",
    "state_code": "MN",
    "placeMasterId": "P02500000FsoFdRjRX8Oh4lIQ6XfXbCzWBoPrbBn",
    "placeName": "jackson",
    "state": "MN"
  },
  {
    "city": "woodstock",
    "state_code": "MN",
    "placeMasterId": "P02500000FsoFgRVTCSWBVNR4yavJjUhCSPrHDsa",
    "placeName": "woodstock",
    "state": "MN"
  },
  {
    "city": "milan",
    "state_code": "MN",
    "placeMasterId": "P02500000FsoFe9xpY7HcVlWI7bOd9euqdi2Xud9",
    "placeName": "milan",
    "state": "MN"
  },
  {
    "city": "wabasso",
    "state_code": "MN",
    "placeMasterId": "P02500000FsoFg0y2OGmpRZhYZ9t401dacDp8b3R",
    "placeName": "wabasso",
    "state": "MN"
  },
  {
    "city": "wanda",
    "state_code": "MN",
    "placeMasterId": "P02500000FsoFg0y2OGmpRZhYZ9t401ksmYQpWY4",
    "placeName": "wanda",
    "state": "MN"
  },
  {
    "city": "elrosa",
    "state_code": "MN",
    "placeMasterId": "P02500000FsoFcaeZukvyx9pNHfb28Gk9h9Th0nR",
    "placeName": "elrosa",
    "state": "MN"
  },
  {
    "city": "glenwood",
    "state_code": "MN",
    "placeMasterId": "P02500000FsoFd1C0iwfL0xYth6dHrjoq4a9bupj",
    "placeName": "glenwood",
    "state": "MN"
  },
  {
    "city": "hillman",
    "state_code": "MN",
    "placeMasterId": "P02500000FsoFdIsxvjouOA3FIjK7gidcyeRoj2e",
    "placeName": "hillman",
    "state": "MN"
  },
  {
    "city": "sauk centre",
    "state_code": "MN",
    "placeMasterId": "P02500000FsoFfaQba53TNly29iqoGYQoSZnGklt",
    "placeName": "sauk centre",
    "state": "MN"
  },
  {
    "city": "verndale",
    "state_code": "MN",
    "placeMasterId": "P02500000FsoFfs7YmsD2kySNlLXe5XMff7Rjdls",
    "placeName": "verndale",
    "state": "MN"
  },
  {
    "city": "dent",
    "state_code": "MN",
    "placeMasterId": "P02500000FsoFcIxchxmPZxL1g2uCJHxpblQAIsA",
    "placeName": "dent",
    "state": "MN"
  },
  {
    "city": "deer river",
    "state_code": "MN",
    "placeMasterId": "P02500000FsoFcIxchxmPZxL1g2uCJI3eAXrfdQ8",
    "placeName": "deer river",
    "state": "MN"
  },
  {
    "city": "kelliher",
    "state_code": "MN",
    "placeMasterId": "P02500000FsoFdaZv8WyTlMXauM0xVhGlT9AZIB3",
    "placeName": "kelliher",
    "state": "MN"
  },
  {
    "city": "trail",
    "state_code": "MN",
    "placeMasterId": "P02500000FsoFfs7YmsD2kySNlLXe5XIY43GmI8A",
    "placeName": "trail",
    "state": "MN"
  },
  {
    "city": "middle river",
    "state_code": "MN",
    "placeMasterId": "P02500000FsoFeIoJ9VrPCMlSvPk3499q35RS0gM",
    "placeName": "middle river",
    "state": "MN"
  },
  {
    "city": "alcester",
    "state_code": "SD",
    "placeMasterId": "P02500000FsoGdN4fJAtVHTW2mxav1oFeqdmG6Q5",
    "placeName": "alcester",
    "state": "SD"
  },
  {
    "city": "fullerton",
    "state_code": "CA",
    "placeMasterId": "P02500000FsoEgf0j1ob9zGSd5zLMDNrY2a3wavS",
    "placeName": "fullerton",
    "state": "CA"
  },
  {
    "city": "salinas",
    "state_code": "CA",
    "placeMasterId": "P02500000FsoEkVrcJWBMXU4KmufdobvIsLSCpDQ",
    "placeName": "salinas",
    "state": "CA"
  },
  {
    "city": "san carlos",
    "state_code": "CA",
    "placeMasterId": "P02500000FsoEkVrcJWBMXU4KmufdobtnvSzROHZ",
    "placeName": "san carlos",
    "state": "CA"
  },
  {
    "city": "fairfield",
    "state_code": "CA",
    "placeMasterId": "P02500000FsoEgETIDcrnvSj6gYJ6Tukj4XMb19E",
    "placeName": "fairfield",
    "state": "CA"
  },
  {
    "city": "moraga",
    "state_code": "CA",
    "placeMasterId": "P02500000FsoEiwYMg9piysNPwys2nDnMj8hEFU5",
    "placeName": "moraga",
    "state": "CA"
  },
  {
    "city": "oakland",
    "state_code": "CA",
    "placeMasterId": "P02500000FsoEjN5nULZ52g6wMPuIWgwHJpxtC9b",
    "placeName": "oakland",
    "state": "CA"
  },
  {
    "city": "petaluma",
    "state_code": "CA",
    "placeMasterId": "P02500000FsoEjndEIXIR6TqSlqwYGA22uTG7FAo",
    "placeName": "petaluma",
    "state": "CA"
  },
  {
    "city": "los gatos",
    "state_code": "CA",
    "placeMasterId": "P02500000FsoEiEJyfAwnXs9Xvv8xEm0ISke9ssX",
    "placeName": "los gatos",
    "state": "CA"
  },
  {
    "city": "los gatos",
    "state_code": "CA",
    "placeMasterId": "P02500000FsoEiEJyfAwnXs9Xvv8xEm0ISke9ssX",
    "placeName": "los gatos",
    "state": "CA"
  },
  {
    "city": "moss landing",
    "state_code": "CA",
    "placeMasterId": "P02500000FsoEiwYMg9piysNPwys2nDoQADIEimL",
    "placeName": "moss landing",
    "state": "CA"
  },
  {
    "city": "mount hermon",
    "state_code": "CA",
    "placeMasterId": "P02500000FsoEj5OqHYPVfTcaknDShiAqLxp8gmD",
    "placeName": "mount hermon",
    "state": "CA"
  },
  {
    "city": "watsonville",
    "state_code": "CA",
    "placeMasterId": "P02500000FsoEm5ArwsX065lFcqTEpzzCVUTztvb",
    "placeName": "watsonville",
    "state": "CA"
  },
  {
    "city": "copperopolis",
    "state_code": "CA",
    "placeMasterId": "P02500000FsoEfNOQbFP5nrG3rgEb0yXZQEBzUvd",
    "placeName": "copperopolis",
    "state": "CA"
  },
  {
    "city": "murphys",
    "state_code": "CA",
    "placeMasterId": "P02500000FsoEiwYMg9piysNPwys2nDr9uSXNFy3",
    "placeName": "murphys",
    "state": "CA"
  },
  {
    "city": "nice",
    "state_code": "CA",
    "placeMasterId": "P02500000FsoEj5OqHYPVfTcaknDShiD4OufyXKH",
    "placeName": "nice",
    "state": "CA"
  },
  {
    "city": "point arena",
    "state_code": "CA",
    "placeMasterId": "P02500000FsoEjwThtvsDn55dZfHyAeO7UoRg7Fs",
    "placeName": "point arena",
    "state": "CA"
  },
  {
    "city": "mad river",
    "state_code": "CA",
    "placeMasterId": "P02500000FsoEiW0vry6Mv4dtXXpn3kgeRUEdGvu",
    "placeName": "mad river",
    "state": "CA"
  },
  {
    "city": "foresthill",
    "state_code": "CA",
    "placeMasterId": "P02500000FsoEgNJlp1Rac3yHUMeWOPBDewAJ7x2",
    "placeName": "foresthill",
    "state": "CA"
  },
  {
    "city": "rio linda",
    "state_code": "CA",
    "placeMasterId": "P02500000FsoEkEAf6j1nAHZzBHynzdAQiyAun2W",
    "placeName": "rio linda",
    "state": "CA"
  },
  {
    "city": "roseville",
    "state_code": "CA",
    "placeMasterId": "P02500000FsoEkN18i7bZqsp9z6KDu7Zi1eKXCew",
    "placeName": "roseville",
    "state": "CA"
  },
  {
    "city": "sacramento",
    "state_code": "CA",
    "placeMasterId": "P02500000FsoEkVrcJWBMXU4KmufdobsP4JCiDgI",
    "placeName": "sacramento",
    "state": "CA"
  },
  {
    "city": "quincy",
    "state_code": "CA",
    "placeMasterId": "P02500000FsoEjwThtvsDn55dZfHyAeQqtzC66si",
    "placeName": "quincy",
    "state": "CA"
  },
  {
    "city": "redding",
    "state_code": "CA",
    "placeMasterId": "P02500000FsoEkEAf6j1nAHZzBHynzd8rsupDAqv",
    "placeName": "redding",
    "state": "CA"
  },
  {
    "city": "cassel",
    "state_code": "CA",
    "placeMasterId": "P02500000FsoEeo0WBf5x3SHMeQqvN16FGwKwEGT",
    "placeName": "cassel",
    "state": "CA"
  },
  {
    "city": "beckwourth",
    "state_code": "CA",
    "placeMasterId": "P02500000FsoEe5m8AgD1cS3UdN7poZA4LT2COK8",
    "placeName": "beckwourth",
    "state": "CA"
  },
  {
    "city": "wahiawa",
    "state_code": "HI",
    "placeMasterId": "P02500000FsoEzdaEFXMbNA0nwzHwOXKS2sH289D",
    "placeName": "wahiawa",
    "state": "HI"
  },
  {
    "city": "tualatin",
    "state_code": "OR",
    "placeMasterId": "P02500000FsoGQ6MGDJDTNbkq4RT3IFoBuD6HEz8",
    "placeName": "tualatin",
    "state": "OR"
  },
  {
    "city": "wasco",
    "state_code": "OR",
    "placeMasterId": "P02500000FsoGQFCjohnG4D00sFoTCk7MF4ZIMfs",
    "placeName": "wasco",
    "state": "OR"
  },
  {
    "city": "nehalem",
    "state_code": "OR",
    "placeMasterId": "P02500000FsoGPWyLniuKdCm8rC5NeI3IwjlOjtS",
    "placeName": "nehalem",
    "state": "OR"
  },
  {
    "city": "langlois",
    "state_code": "OR",
    "placeMasterId": "P02500000FsoGPFHOavklG0HnFZOXpJSbfth7O5h",
    "placeName": "langlois",
    "state": "OR"
  },
  {
    "city": "baring",
    "state_code": "WA",
    "placeMasterId": "P02500000FsoGyLUqyRjwHmUetKNLxojCBV2o9sT",
    "placeName": "baring",
    "state": "WA"
  },
  {
    "city": "clinton",
    "state_code": "WA",
    "placeMasterId": "P02500000FsoGym2HmdTILaEBIlPbhHtFP1x00rH",
    "placeName": "clinton",
    "state": "WA"
  },
  {
    "city": "friday harbor",
    "state_code": "WA",
    "placeMasterId": "P02500000FsoGzLQCCDmR5zCsW0nHLFGHX93ROf3",
    "placeName": "friday harbor",
    "state": "WA"
  },
  {
    "city": "stanwood",
    "state_code": "WA",
    "placeMasterId": "P02500000FsoH1LGsdlrQiOdJlNd866S3tusFqQQ",
    "placeName": "stanwood",
    "state": "WA"
  },
  {
    "city": "bremerton",
    "state_code": "WA",
    "placeMasterId": "P02500000FsoGyULKZqJiyNjph8ilsJ86UsuhgwD",
    "placeName": "bremerton",
    "state": "WA"
  },
  {
    "city": "milton",
    "state_code": "WA",
    "placeMasterId": "P02500000FsoH0CV3obF9DafvKsrmoBd3wYoYTDo",
    "placeName": "milton",
    "state": "WA"
  },
  {
    "city": "los angeles",
    "state_code": "CA",
    "placeMasterId": "P02500000FsoEiEJyfAwnXs9Xvv8xEm0Sp2kcekK",
    "placeName": "los angeles",
    "state": "CA"
  },
  {
    "city": "los angeles",
    "state_code": "CA",
    "placeMasterId": "P02500000FsoEiEJyfAwnXs9Xvv8xEm0Sp2kcekK",
    "placeName": "los angeles",
    "state": "CA"
  },
  {
    "city": "los angeles",
    "state_code": "CA",
    "placeMasterId": "P02500000FsoEiEJyfAwnXs9Xvv8xEm0Sp2kcekK",
    "placeName": "los angeles",
    "state": "CA"
  },
  {
    "city": "hermosa beach",
    "state_code": "CA",
    "placeMasterId": "P02500000FsoEgwhgEbkjMSwyhc2C2MfM8JCuY4J",
    "placeName": "hermosa beach",
    "state": "CA"
  },
  {
    "city": "whittier",
    "state_code": "CA",
    "placeMasterId": "P02500000FsoEm5ArwsX065lFcqTEq03Op0nFoD0",
    "placeName": "whittier",
    "state": "CA"
  },
  {
    "city": "lakewood",
    "state_code": "CA",
    "placeMasterId": "P02500000FsoEhnmXqzDRU4Q1WU6hVIqtgOdJfcf",
    "placeName": "lakewood",
    "state": "CA"
  },
  {
    "city": "carson",
    "state_code": "CA",
    "placeMasterId": "P02500000FsoEeo0WBf5x3SHMeQqvN12hRH4gxFu",
    "placeName": "carson",
    "state": "CA"
  },
  {
    "city": "long beach",
    "state_code": "CA",
    "placeMasterId": "P02500000FsoEiEJyfAwnXs9Xvv8xElwosKjKxLA",
    "placeName": "long beach",
    "state": "CA"
  },
  {
    "city": "glendale",
    "state_code": "CA",
    "placeMasterId": "P02500000FsoEgf0j1ob9zGSd5zLMDNrwH2YihSi",
    "placeName": "glendale",
    "state": "CA"
  },
  {
    "city": "south el monte",
    "state_code": "CA",
    "placeMasterId": "P02500000FsoEl5FWj6UVHt320A3JSZPtcVeQsHV",
    "placeName": "south el monte",
    "state": "CA"
  },
  {
    "city": "west covina",
    "state_code": "CA",
    "placeMasterId": "P02500000FsoEm5ArwsX065lFcqTEq00Z7l5wZ2O",
    "placeName": "west covina",
    "state": "CA"
  },
  {
    "city": "chula vista",
    "state_code": "CA",
    "placeMasterId": "P02500000FsoEfEXwzqpJ7G0t3rtB6U98fMniHey",
    "placeName": "chula vista",
    "state": "CA"
  },
  {
    "city": "carlsbad",
    "state_code": "CA",
    "placeMasterId": "P02500000FsoEefA2aGWAMr2BqcVVSWiivaOM0iP",
    "placeName": "carlsbad",
    "state": "CA"
  },
  {
    "city": "san diego",
    "state_code": "CA",
    "placeMasterId": "P02500000FsoEkVrcJWBMXU4KmufdobvSE82FU0j",
    "placeName": "san diego",
    "state": "CA"
  },
  {
    "city": "blythe",
    "state_code": "CA",
    "placeMasterId": "P02500000FsoEeNT5NTMazeXqEzofdXwG7OfGrkL",
    "placeName": "blythe",
    "state": "CA"
  },
  {
    "city": "big bear lake",
    "state_code": "CA",
    "placeMasterId": "P02500000FsoEe5m8AgD1cS3UdN7poZEWAdSYluK",
    "placeName": "big bear lake",
    "state": "CA"
  },
  {
    "city": "crestline",
    "state_code": "CA",
    "placeMasterId": "P02500000FsoEfWEuCdysUSVEfUa0vStfZDXxYAF",
    "placeName": "crestline",
    "state": "CA"
  },
  {
    "city": "victorville",
    "state_code": "CA",
    "placeMasterId": "P02500000FsoElwKOLTxDPUW4p27ovVawCcmnjVm",
    "placeName": "victorville",
    "state": "CA"
  },
  {
    "city": "menifee",
    "state_code": "CA",
    "placeMasterId": "P02500000FsoEiW0vry6Mv4dtXXpn3klicEYNfFq",
    "placeName": "menifee",
    "state": "CA"
  },
  {
    "city": "huntington beach",
    "state_code": "CA",
    "placeMasterId": "P02500000FsoEhEOdROuIjfRKJEj1rLL32zMdZPI",
    "placeName": "huntington beach",
    "state": "CA"
  },
  {
    "city": "santa ana",
    "state_code": "CA",
    "placeMasterId": "P02500000FsoEknYZWJKvugYgOXMTdafl2UpxjW2",
    "placeName": "santa ana",
    "state": "CA"
  },
  {
    "city": "fountain valley",
    "state_code": "CA",
    "placeMasterId": "P02500000FsoEgNJlp1Rac3yHUMeWOPAy9aXr9D1",
    "placeName": "fountain valley",
    "state": "CA"
  },
  {
    "city": "fullerton",
    "state_code": "CA",
    "placeMasterId": "P02500000FsoEgf0j1ob9zGSd5zLMDNrY2a3wavS",
    "placeName": "fullerton",
    "state": "CA"
  },
  {
    "city": "corona",
    "state_code": "CA",
    "placeMasterId": "P02500000FsoEfEXwzqpJ7G0t3rtB6UBBq9RdoYT",
    "placeName": "corona",
    "state": "CA"
  },
  {
    "city": "oxnard",
    "state_code": "CA",
    "placeMasterId": "P02500000FsoEjVwH5k8rjHM7AEFiRBGzv15nrjk",
    "placeName": "oxnard",
    "state": "CA"
  },
  {
    "city": "piru",
    "state_code": "CA",
    "placeMasterId": "P02500000FsoEjndEIXIR6TqSlqwYGA3lCf1vA9o",
    "placeName": "piru",
    "state": "CA"
  },
  {
    "city": "wofford heights",
    "state_code": "CA",
    "placeMasterId": "P02500000FsoEmMrp9fgZTIFbETA4eyiuEJvxVSe",
    "placeName": "wofford heights",
    "state": "CA"
  },
  {
    "city": "guadalupe",
    "state_code": "CA",
    "placeMasterId": "P02500000FsoEgwhgEbkjMSwyhc2C2MbHBadaCWS",
    "placeName": "guadalupe",
    "state": "CA"
  },
  {
    "city": "santa ynez",
    "state_code": "CA",
    "placeMasterId": "P02500000FsoEknYZWJKvugYgOXMTdagkYPhGrFm",
    "placeName": "santa ynez",
    "state": "CA"
  },
  {
    "city": "solvang",
    "state_code": "CA",
    "placeMasterId": "P02500000FsoEl5FWj6UVHt320A3JSZQukGqk6zX",
    "placeName": "solvang",
    "state": "CA"
  },
  {
    "city": "lee vining",
    "state_code": "CA",
    "placeMasterId": "P02500000FsoEhwd1SNnEAffCKIS7PnCnwggNLbl",
    "placeName": "lee vining",
    "state": "CA"
  },
  {
    "city": "kingsburg",
    "state_code": "CA",
    "placeMasterId": "P02500000FsoEhW5aeC3s6rvfurPrgK9CKWigJZq",
    "placeName": "kingsburg",
    "state": "CA"
  },
  {
    "city": "fresno",
    "state_code": "CA",
    "placeMasterId": "P02500000FsoEgf0j1ob9zGSd5zLMDNqyCZUrC3I",
    "placeName": "fresno",
    "state": "CA"
  },
  {
    "city": "portland",
    "state_code": "OR",
    "placeMasterId": "P02500000FsoGPfopP7U7Jo1Jf0QnYmTaqhg2Hwh",
    "placeName": "portland",
    "state": "OR"
  },
  {
    "city": "salem",
    "state_code": "OR",
    "placeMasterId": "P02500000FsoGPxVmbudgh0VfGd7dNl8njuxSNWh",
    "placeName": "salem",
    "state": "OR"
  },
  {
    "city": "lyons",
    "state_code": "OR",
    "placeMasterId": "P02500000FsoGPFHOavklG0HnFZOXpJR9PVL5tqQ",
    "placeName": "lyons",
    "state": "OR"
  },
  {
    "city": "sheridan",
    "state_code": "OR",
    "placeMasterId": "P02500000FsoGPxVmbudgh0VfGd7dNlAH2iJFOMk",
    "placeName": "sheridan",
    "state": "OR"
  },
  {
    "city": "prineville",
    "state_code": "OR",
    "placeMasterId": "P02500000FsoGPofJ0W3u0PGUSomDTGohYBiqBXh",
    "placeName": "prineville",
    "state": "OR"
  },
  {
    "city": "seneca",
    "state_code": "OR",
    "placeMasterId": "P02500000FsoGPxVmbudgh0VfGd7dNlHy7ndoMdU",
    "placeName": "seneca",
    "state": "OR"
  },
  {
    "city": "bellevue",
    "state_code": "WA",
    "placeMasterId": "P02500000FsoGyLUqyRjwHmUetKNLxoicb0BtnQC",
    "placeName": "bellevue",
    "state": "WA"
  },
  {
    "city": "seattle",
    "state_code": "WA",
    "placeMasterId": "P02500000FsoH13ZvQyhrLC8y9kwIH7vOQ9mB44J",
    "placeName": "seattle",
    "state": "WA"
  },
  {
    "city": "wilkeson",
    "state_code": "WA",
    "placeMasterId": "P02500000FsoH1uen3MAZSnc0yd0nk3wlIMcfmAT",
    "placeName": "wilkeson",
    "state": "WA"
  },
  {
    "city": "rosburg",
    "state_code": "WA",
    "placeMasterId": "P02500000FsoH13ZvQyhrLC8y9kwIH7lQ4NET05R",
    "placeName": "rosburg",
    "state": "WA"
  },
  {
    "city": "wishram",
    "state_code": "WA",
    "placeMasterId": "P02500000FsoH1loJRxammCMqAofNpZlKrzLCnM6",
    "placeName": "wishram",
    "state": "WA"
  },
  {
    "city": "yakima",
    "state_code": "WA",
    "placeMasterId": "P02500000FsoH1loJRxammCMqAofNpZiywt4eY6R",
    "placeName": "yakima",
    "state": "WA"
  },
  {
    "city": "outlook",
    "state_code": "WA",
    "placeMasterId": "P02500000FsoH0d2UcmyVHOPRkJu2XejqleD6tQr",
    "placeName": "outlook",
    "state": "WA"
  },
  {
    "city": "latah",
    "state_code": "WA",
    "placeMasterId": "P02500000FsoGzuo6bo5ZqOBZjGAwzCsNVeMLni2",
    "placeName": "latah",
    "state": "WA"
  },
  {
    "city": "ritzville",
    "state_code": "WA",
    "placeMasterId": "P02500000FsoH0ujRpa84eatnLwasMdVirNBtYgv",
    "placeName": "ritzville",
    "state": "WA"
  },
  {
    "city": "asotin",
    "state_code": "WA",
    "placeMasterId": "P02500000FsoGyCeNN3A9bBFU5W1w3KUscM0uVkb",
    "placeName": "asotin",
    "state": "WA"
  },
  {
    "city": "anchorage",
    "state_code": "AK",
    "placeMasterId": "P02500000FsoEVxWun5JGSD6Yq5R0se5X03Bxqi1",
    "placeName": "anchorage",
    "state": "AK"
  },
  {
    "city": "clam gulch",
    "state_code": "AK",
    "placeMasterId": "P02500000FsoEWFDrzsSppPauRi7qhcmtdJ5kcVG",
    "placeName": "clam gulch",
    "state": "AK"
  },
  {
    "city": "naknek",
    "state_code": "AK",
    "placeMasterId": "P02500000FsoEX6IjcFvXx13xGaCMAZ3zQKitQ6L",
    "placeName": "naknek",
    "state": "AK"
  },
  {
    "city": "nome",
    "state_code": "AK",
    "placeMasterId": "P02500000FsoEXF9DDeVKdcJ84OXm53M6Wm0OK5C",
    "placeName": "nome",
    "state": "AK"
  },
  {
    "city": "noorvik",
    "state_code": "AK",
    "placeMasterId": "P02500000FsoEXF9DDeVKdcJ84OXm53Ny6B6lMQB",
    "placeName": "noorvik",
    "state": "AK"
  },
  {
    "city": "tacoma",
    "state_code": "WA",
    "placeMasterId": "P02500000FsoH1LGsdlrQiOdJlNd866Yu1WjXF5B",
    "placeName": "tacoma",
    "state": "WA"
  },
  {
    "city": "aberdeen",
    "state_code": "WA",
    "placeMasterId": "P02500000FsoGy3ntleaMua0JHhgW8q6jeSpIMCU",
    "placeName": "aberdeen",
    "state": "WA"
  },
  {
    "city": "battle ground",
    "state_code": "WA",
    "placeMasterId": "P02500000FsoGyLUqyRjwHmUetKNLxomEwlaL6sZ",
    "placeName": "battle ground",
    "state": "WA"
  },
  {
    "city": "conconully",
    "state_code": "WA",
    "placeMasterId": "P02500000FsoGym2HmdTILaEBIlPbhHtB6pOjYvC",
    "placeName": "conconully",
    "state": "WA"
  },
  {
    "city": "malott",
    "state_code": "WA",
    "placeMasterId": "P02500000FsoH03eaDCfMWzQkX4WMthLh6wMM8Af",
    "placeName": "malott",
    "state": "WA"
  },
  {
    "city": "cowiche",
    "state_code": "WA",
    "placeMasterId": "P02500000FsoGyuslO2352BTM6Zl1bmEpeE773ou",
    "placeName": "cowiche",
    "state": "WA"
  },
  {
    "city": "sprague",
    "state_code": "WA",
    "placeMasterId": "P02500000FsoH1CQP2NHe1nO8xZHiBcHA9mKuwWK",
    "placeName": "sprague",
    "state": "WA"
  },
  {
    "city": "spokane",
    "state_code": "WA",
    "placeMasterId": "P02500000FsoH1CQP2NHe1nO8xZHiBcLVG93v2e9",
    "placeName": "spokane",
    "state": "WA"
  },
  {
    "city": "walla walla",
    "state_code": "WA",
    "placeMasterId": "P02500000FsoH1loJRxammCMqAofNpZXt1fJVHQj",
    "placeName": "walla walla",
    "state": "WA"
  },
  {
    "city": "clarkston",
    "state_code": "WA",
    "placeMasterId": "P02500000FsoGym2HmdTILaEBIlPbhHpjPlh7odP",
    "placeName": "clarkston",
    "state": "WA"
  },
  {
    "city": "chignik lagoon",
    "state_code": "AK",
    "placeMasterId": "P02500000FsoEWFDrzsSppPauRi7qhcm7rKhz4QW",
    "placeName": "chignik lagoon",
    "state": "AK"
  },
  {
    "city": "kodiak",
    "state_code": "AK",
    "placeMasterId": "P02500000FsoEWxSG0rLlGPomSlqwG4atISJCBHt",
    "placeName": "kodiak",
    "state": "AK"
  },
  {
    "city": "perryville",
    "state_code": "AK",
    "placeMasterId": "P02500000FsoEXNzgp357KDYIsCtBzXi0pPnfgsk",
    "placeName": "perryville",
    "state": "AK"
  },
  {
    "city": "delta junction",
    "state_code": "AK",
    "placeMasterId": "P02500000FsoEWO4LbH2cW0q5FWTGc78iqppBmmg",
    "placeName": "delta junction",
    "state": "AK"
  },
  {
    "city": "hydaburg",
    "state_code": "AK",
    "placeMasterId": "P02500000FsoEWflIo4CBtDKQr9A6R5sOY25q8St",
    "placeName": "hydaburg",
    "state": "AK"
  },
  {
    "city": "springfield",
    "state_code": "MA",
    "placeMasterId": "P02500000FsoFWsnTmtqZT82P9BmJgfxQ61bP7CW",
    "placeName": "springfield",
    "state": "MA"
  },
  {
    "city": "brookfield",
    "state_code": "MA",
    "placeMasterId": "P02500000FsoHdRGMgby6AmyqHBriMthDjhEK0Qr",
    "placeName": "brookfield",
    "state": "MA"
  },
  {
    "city": "nahant",
    "state_code": "MA",
    "placeMasterId": "P02500000FsoHAtys3KX2ke1zamm88vQiJ0TJcjx",
    "placeName": "nahant",
    "state": "MA"
  },
  {
    "city": "beverly",
    "state_code": "MA",
    "placeMasterId": "P02500000FsoFWJPZNJXQij3hvwOe2iS6PjnBO9f",
    "placeName": "beverly",
    "state": "MA"
  },
  {
    "city": "marblehead",
    "state_code": "MA",
    "placeMasterId": "P02500000FsoHB2pLej6pRFHAOb7Y3PhUjPxhhZR",
    "placeName": "marblehead",
    "state": "MA"
  },
  {
    "city": "marshfield",
    "state_code": "MA",
    "placeMasterId": "P02500000FsoHBKWIrWGOoRlW0DoNsOTKEh2Uza4",
    "placeName": "marshfield",
    "state": "MA"
  },
  {
    "city": "stoughton",
    "state_code": "MA",
    "placeMasterId": "P02500000FsoHeRBhuO0ayzh3tsHdkKF8ggYA3UR",
    "placeName": "stoughton",
    "state": "MA"
  },
  {
    "city": "cambridge",
    "state_code": "MA",
    "placeMasterId": "P02500000FsoFWSG2yi7DPKIsjkk3xCgVxYKpwDE",
    "placeName": "cambridge",
    "state": "MA"
  },
  {
    "city": "somerville",
    "state_code": "MA",
    "placeMasterId": "P02500000FsoFWsnTmtqZT82P9BmJgfq2Pk9jnoT",
    "placeName": "somerville",
    "state": "MA"
  },
  {
    "city": "malden",
    "state_code": "MA",
    "placeMasterId": "P02500000FsoFWb6Wa6h05vY3XZ5Trh4stIy1xEx",
    "placeName": "malden",
    "state": "MA"
  },
  {
    "city": "revere",
    "state_code": "MA",
    "placeMasterId": "P02500000FsoFWjx0BVGmmWnELNQtmBWFitXUKWK",
    "placeName": "revere",
    "state": "MA"
  },
  {
    "city": "hanson",
    "state_code": "MA",
    "placeMasterId": "P02500000FsoHBKWIrWGOoRlW0DoNsOW56KlinQT",
    "placeName": "hanson",
    "state": "MA"
  },
  {
    "city": "arlington",
    "state_code": "MA",
    "placeMasterId": "P02500000FsoHB2pLej6pRFHAOb7Y3PmrWfjWAxB",
    "placeName": "arlington",
    "state": "MA"
  },
  {
    "city": "nantucket",
    "state_code": "MA",
    "placeMasterId": "P02500000FsoHBBfpG7gc7qWLCPSxxu6FQa7uXyo",
    "placeName": "nantucket",
    "state": "MA"
  },
  {
    "city": "truro",
    "state_code": "MA",
    "placeMasterId": "P02500000FsoHeILEIzQoIORt63wDpq3eYv6PjxE",
    "placeName": "truro",
    "state": "MA"
  },
  {
    "city": "middletown",
    "state_code": "RI",
    "placeMasterId": "P02500000FsoIZ5DGMl9LlTrErFQYSni0NpvQ1j7",
    "placeName": "middletown",
    "state": "RI"
  },
  {
    "city": "providence",
    "state_code": "RI",
    "placeMasterId": "P02500000FsoGb5X1epewHrbFvy4ERyD7lvGA4Im",
    "placeName": "providence",
    "state": "RI"
  },
  {
    "city": "merrimack",
    "state_code": "NH",
    "placeMasterId": "P02500000FsoIBpFR394LlYxptt7Qwx6nFRsdnzP",
    "placeName": "merrimack",
    "state": "NH"
  },
  {
    "city": "canterbury",
    "state_code": "NH",
    "placeMasterId": "P02500000FsoIBOi0ExKzhlEJUS5BDU4prZqdGak",
    "placeName": "canterbury",
    "state": "NH"
  },
  {
    "city": "dublin",
    "state_code": "NH",
    "placeMasterId": "P02500000FsoIBOi0ExKzhlEJUS5BDUDGE73XICY",
    "placeName": "dublin",
    "state": "NH"
  },
  {
    "city": "gilsum",
    "state_code": "NH",
    "placeMasterId": "P02500000FsoIBgOxRkUZ4xif64m12Sp5mgyyubo",
    "placeName": "gilsum",
    "state": "NH"
  },
  {
    "city": "jaffrey",
    "state_code": "NH",
    "placeMasterId": "P02500000FsoHBcDG4JPyBeFrbqVDhNIHo4JnU2C",
    "placeName": "jaffrey",
    "state": "NH"
  },
  {
    "city": "errol",
    "state_code": "NH",
    "placeMasterId": "P02500000FsoIBXYTqLumOMTUIGQb7yWFqhME1TZ",
    "placeName": "errol",
    "state": "NH"
  },
  {
    "city": "sugar hill",
    "state_code": "NH",
    "placeMasterId": "P02500000FsoIC6wOFwDv8lSBVVoGlw52E0fxpz6",
    "placeName": "sugar hill",
    "state": "NH"
  },
  {
    "city": "portsmouth",
    "state_code": "NH",
    "placeMasterId": "P02500000FsoFv8geKHy4HFe1jEVMZwyC6BeZjnZ",
    "placeName": "portsmouth",
    "state": "NH"
  },
  {
    "city": "newmarket",
    "state_code": "NH",
    "placeMasterId": "P02500000FsoHBl3jfhzksFV2PeqdbrdbEJ1GvkE",
    "placeName": "newmarket",
    "state": "NH"
  },
  {
    "city": "berwick",
    "state_code": "ME",
    "placeMasterId": "P02500000FsoHAl8ORvxG42momyQiEQzGOwNYiC1",
    "placeName": "berwick",
    "state": "ME"
  },
  {
    "city": "charleston",
    "state_code": "ME",
    "placeMasterId": "P02500000FsoHf0ZcJyJjjOfl77fJOHjx3iwCNFA",
    "placeName": "charleston",
    "state": "ME"
  },
  {
    "city": "levant",
    "state_code": "ME",
    "placeMasterId": "P02500000FsoHfio0KxCfAOtd8BOOwjcTRB8ql29",
    "placeName": "levant",
    "state": "ME"
  },
  {
    "city": "robbinston",
    "state_code": "ME",
    "placeMasterId": "P02500000FsoHg9LR98w1ECd9XcQegClITsluH0R",
    "placeName": "robbinston",
    "state": "ME"
  },
  {
    "city": "fairfield",
    "state_code": "ME",
    "placeMasterId": "P02500000FsoHAcHuqXNTNRXdzA5IJwdZOaAXlnq",
    "placeName": "fairfield",
    "state": "ME"
  },
  {
    "city": "saxtons river",
    "state_code": "VT",
    "placeMasterId": "P02500000FsoGuUdxgk9jjYsxCP34MaiPbxnp4aj",
    "placeName": "saxtons river",
    "state": "VT"
  },
  {
    "city": "wardsboro",
    "state_code": "VT",
    "placeMasterId": "P02500000FsoIfMSGuCXtzucuCycwYM39Oa6OxMJ",
    "placeName": "wardsboro",
    "state": "VT"
  },
  {
    "city": "richmond",
    "state_code": "VT",
    "placeMasterId": "P02500000FsoIf4lJhPOKci8YbLw6jNGj7RULwTe",
    "placeName": "richmond",
    "state": "VT"
  },
  {
    "city": "pawlet",
    "state_code": "VT",
    "placeMasterId": "P02500000FsoIf4lJhPOKci8YbLw6jNFiaQwL1j3",
    "placeName": "pawlet",
    "state": "VT"
  },
  {
    "city": "wallingford",
    "state_code": "VT",
    "placeMasterId": "P02500000FsoHE2bNK3EJrrPpGeNKBhZrxuwc5Ad",
    "placeName": "wallingford",
    "state": "VT"
  },
  {
    "city": "west rutland",
    "state_code": "VT",
    "placeMasterId": "P02500000FsoHE2bNK3EJrrPpGeNKBhfGRg5YzLJ",
    "placeName": "west rutland",
    "state": "VT"
  },
  {
    "city": "canton",
    "state_code": "CT",
    "placeMasterId": "P02500000FsoHGK90yOSsrTKc7du0lXTufBfltTa",
    "placeName": "canton",
    "state": "CT"
  },
  {
    "city": "west hartford",
    "state_code": "CT",
    "placeMasterId": "P02500000FsoEpeKo1mxdH6sbi96gcFFUCHGLcEM",
    "placeName": "west hartford",
    "state": "CT"
  },
  {
    "city": "hartford",
    "state_code": "CT",
    "placeMasterId": "P02500000FsoEp4wtcCeUWhtuUtj0yHnuNbUVDLP",
    "placeName": "hartford",
    "state": "CT"
  },
  {
    "city": "baltic",
    "state_code": "CT",
    "placeMasterId": "P02500000FsoEp4wtcCeUWhtuUtj0yHlEhUtSwht",
    "placeName": "baltic",
    "state": "CT"
  },
  {
    "city": "north haven",
    "state_code": "CT",
    "placeMasterId": "P02500000FsoEpDnNDbEHDJ95Ii4QsmCD8vd5stO",
    "placeName": "north haven",
    "state": "CT"
  },
  {
    "city": "middlebury",
    "state_code": "CT",
    "placeMasterId": "P02500000FsoHGSzUZn2fY4ZmvSFQg21nFTyFyRG",
    "placeName": "middlebury",
    "state": "CT"
  },
  {
    "city": "ridgefield",
    "state_code": "CT",
    "placeMasterId": "P02500000FsoH9u3WpYUXwRJly6MClUsLCxkhUt0",
    "placeName": "ridgefield",
    "state": "CT"
  },
  {
    "city": "west new york",
    "state_code": "NJ",
    "placeMasterId": "P02500000FsoFy8Sfzc5YhrmgbHl8iEhtNCtYKwu",
    "placeName": "west new york",
    "state": "NJ"
  },
  {
    "city": "riverdale",
    "state_code": "NJ",
    "placeMasterId": "P02500000FsoFxQEHydCdGrYoaE239n2rbEfi9A4",
    "placeName": "riverdale",
    "state": "NJ"
  },
  {
    "city": "hillsdale",
    "state_code": "NJ",
    "placeMasterId": "P02500000FsoFwHST9SaLm3bQ9jGhrrwqPgmG3x5",
    "placeName": "hillsdale",
    "state": "NJ"
  },
  {
    "city": "monmouth beach",
    "state_code": "NJ",
    "placeMasterId": "P02500000FsoFwqqNZ2tUWSa7MyeNVpOY72x1BB7",
    "placeName": "monmouth beach",
    "state": "NJ"
  },
  {
    "city": "maple shade",
    "state_code": "NJ",
    "placeMasterId": "P02500000FsoID6rjTiGPwyAP8CEC9MV6W52oBEU",
    "placeName": "maple shade",
    "state": "NJ"
  },
  {
    "city": "palmyra",
    "state_code": "NJ",
    "placeMasterId": "P02500000FsoFx8XKlq33tf4SybLDKoGzGEBfBwy",
    "placeName": "palmyra",
    "state": "NJ"
  },
  {
    "city": "westville",
    "state_code": "NJ",
    "placeMasterId": "P02500000FsoFxzcCODVm1GXVnTPinkTwR5AqpmU",
    "placeName": "westville",
    "state": "NJ"
  },
  {
    "city": "brigantine",
    "state_code": "NJ",
    "placeMasterId": "P02500000FsoFvZE58ThQL3NY8fXcJQ1g2G6PP5l",
    "placeName": "brigantine",
    "state": "NJ"
  },
  {
    "city": "bridgeton",
    "state_code": "NJ",
    "placeMasterId": "P02500000FsoFvQNbX57deS8NKrCCOvh1Xs8Jhv9",
    "placeName": "bridgeton",
    "state": "NJ"
  },
  {
    "city": "mantoloking",
    "state_code": "NJ",
    "placeMasterId": "P02500000FsoFwhztxeJhprKwZAIxbL1fPm4mRNH",
    "placeName": "mantoloking",
    "state": "NJ"
  },
  {
    "city": "perth amboy",
    "state_code": "NJ",
    "placeMasterId": "P02500000FsoFx8XKlq33tf4SybLDKoG1SrFw8G4",
    "placeName": "perth amboy",
    "state": "NJ"
  },
  {
    "city": "somerville",
    "state_code": "NJ",
    "placeMasterId": "P02500000FsoFxhvFBQMCe43ABqisylkOW5GWSBM",
    "placeName": "somerville",
    "state": "NJ"
  },
  {
    "city": "new york",
    "state_code": "NY",
    "placeMasterId": "P02500000FsoG3hTIW4bBVIKTvxERFLPbpMNP8u9",
    "placeName": "new york",
    "state": "NY"
  },
  {
    "city": "new york",
    "state_code": "NY",
    "placeMasterId": "P02500000FsoG3hTIW4bBVIKTvxERFLPbpMNP8u9",
    "placeName": "new york",
    "state": "NY"
  },
  {
    "city": "verplanck",
    "state_code": "NY",
    "placeMasterId": "P02500000FsoG5Pd1kpWbkVGZZhNSBDrNWVfN66L",
    "placeName": "verplanck",
    "state": "NY"
  },
  {
    "city": "nyack",
    "state_code": "NY",
    "placeMasterId": "P02500000FsoG3zAFirkksUopXZvH4K3jZsjDqXw",
    "placeName": "nyack",
    "state": "NY"
  },
  {
    "city": "brooklyn",
    "state_code": "NY",
    "placeMasterId": "P02500000FsoHCc8bI5SSzqy5EWv94nnzJKQNSS5",
    "placeName": "brooklyn",
    "state": "NY"
  },
  {
    "city": "brooklyn",
    "state_code": "NY",
    "placeMasterId": "P02500000FsoHCc8bI5SSzqy5EWv94nnzJKQNSS5",
    "placeName": "brooklyn",
    "state": "NY"
  },
  {
    "city": "nesconset",
    "state_code": "NY",
    "placeMasterId": "P02500000FsoG3hTIW4bBVIKTvxERFLL8JYC1yBu",
    "placeName": "nesconset",
    "state": "NY"
  },
  {
    "city": "coeymans",
    "state_code": "NY",
    "placeMasterId": "P02500000FsoHBl3jfhzksFV2PeqdbrdAijisNaa",
    "placeName": "coeymans",
    "state": "NY"
  },
  {
    "city": "galway",
    "state_code": "NY",
    "placeMasterId": "P02500000FsoHDBWVhflbkFwmRmIoilPdVi3CLTH",
    "placeName": "galway",
    "state": "NY"
  },
  {
    "city": "new baltimore",
    "state_code": "NY",
    "placeMasterId": "P02500000FsoIFownwFEL0NoiOcn8SfiXH7leDE4",
    "placeName": "new baltimore",
    "state": "NY"
  },
  {
    "city": "port ewen",
    "state_code": "NY",
    "placeMasterId": "P02500000FsoG4PhgX3U6wIYLx0xWnnCvQAtENOv",
    "placeName": "port ewen",
    "state": "NY"
  },
  {
    "city": "poughkeepsie",
    "state_code": "NY",
    "placeMasterId": "P02500000FsoG4PhgX3U6wIYLx0xWnnEZmjsnSw6",
    "placeName": "poughkeepsie",
    "state": "NY"
  },
  {
    "city": "callicoon",
    "state_code": "NY",
    "placeMasterId": "P02500000FsoHDTDSuSvB7SR83OzeXk7LBZE4D5Y",
    "placeName": "callicoon",
    "state": "NY"
  },
  {
    "city": "fort edward",
    "state_code": "NY",
    "placeMasterId": "P02500000FsoHDc3wVrUxo3gIrDL4SERXW5wmdv5",
    "placeName": "fort edward",
    "state": "NY"
  },
  {
    "city": "lyon mountain",
    "state_code": "NY",
    "placeMasterId": "P02500000FsoG3PmLJHRc85q8KKXbQMXyw8nmoU6",
    "placeName": "lyon mountain",
    "state": "NY"
  },
  {
    "city": "homer",
    "state_code": "NY",
    "placeMasterId": "P02500000FsoHCBbATtj6w3EYp5stLKobpMwl19z",
    "placeName": "homer",
    "state": "NY"
  },
  {
    "city": "tully",
    "state_code": "NY",
    "placeMasterId": "P02500000FsoHCtpYUsc2N3SQq9bytmZYIYxzIZn",
    "placeName": "tully",
    "state": "NY"
  },
  {
    "city": "syracuse",
    "state_code": "NY",
    "placeMasterId": "P02500000FsoG57w4Y2N2NImDy4gcMF3udu0wEbR",
    "placeName": "syracuse",
    "state": "NY"
  },
  {
    "city": "brookfield",
    "state_code": "NY",
    "placeMasterId": "P02500000FsoIE6n4hUIulAsckse7Wn2Ksm5ut8J",
    "placeName": "brookfield",
    "state": "NY"
  },
  {
    "city": "new hartford",
    "state_code": "NY",
    "placeMasterId": "P02500000FsoHCtpYUsc2N3SQq9bytmdh6HewDxl",
    "placeName": "new hartford",
    "state": "NY"
  },
  {
    "city": "dexter",
    "state_code": "NY",
    "placeMasterId": "P02500000FsoG1qT5fv5yZU9DUOk0OyTOVWnqskP",
    "placeName": "dexter",
    "state": "NY"
  },
  {
    "city": "parishville",
    "state_code": "NY",
    "placeMasterId": "P02500000FsoIG6dl92NuNaJ40FTyHeJUxQroDse",
    "placeName": "parishville",
    "state": "NY"
  },
  {
    "city": "russell",
    "state_code": "NY",
    "placeMasterId": "P02500000FsoIGXBBxE7GRO2aPgWE17T5VhqHmPV",
    "placeName": "russell",
    "state": "NY"
  },
  {
    "city": "harford",
    "state_code": "NY",
    "placeMasterId": "P02500000FsoIF6iPvGLPZNaqNZ42uDmWHz5qPDp",
    "placeName": "harford",
    "state": "NY"
  },
  {
    "city": "otego",
    "state_code": "NY",
    "placeMasterId": "P02500000FsoHD2g26HBp3ehbdxxOoH2kRcN3ZDx",
    "placeName": "otego",
    "state": "NY"
  },
  {
    "city": "vestal",
    "state_code": "NY",
    "placeMasterId": "P02500000FsoIH6Z6MoQPBn1Hcvttf4x7aEKVQgc",
    "placeName": "vestal",
    "state": "NY"
  },
  {
    "city": "holland",
    "state_code": "NY",
    "placeMasterId": "P02500000FsoHCKRe5IItceTjcuEJFpBl4GEckBl",
    "placeName": "holland",
    "state": "NY"
  },
  {
    "city": "buffalo",
    "state_code": "NY",
    "placeMasterId": "P02500000FsoG1H5BGKmpp5AWH9MKl12AT3E2vOM",
    "placeName": "buffalo",
    "state": "NY"
  },
  {
    "city": "buffalo",
    "state_code": "NY",
    "placeMasterId": "P02500000FsoG1H5BGKmpp5AWH9MKl12AT3E2vOM",
    "placeName": "buffalo",
    "state": "NY"
  },
  {
    "city": "canandaigua",
    "state_code": "NY",
    "placeMasterId": "P02500000FsoG1H5BGKmpp5AWH9MKl0yP9QFM4OE",
    "placeName": "canandaigua",
    "state": "NY"
  },
  {
    "city": "rush",
    "state_code": "NY",
    "placeMasterId": "P02500000FsoIGXBBxE7GRO2aPgWE17WuvP255jg",
    "placeName": "rush",
    "state": "NY"
  },
  {
    "city": "scottsburg",
    "state_code": "NY",
    "placeMasterId": "P02500000FsoG4qF7LFDT06HsMRzmXGMBww40qU1",
    "placeName": "scottsburg",
    "state": "NY"
  },
  {
    "city": "allegany",
    "state_code": "NY",
    "placeMasterId": "P02500000FsoHBl3jfhzksFV2PeqdbrmZKVkHPuw",
    "placeName": "allegany",
    "state": "NY"
  },
  {
    "city": "little valley",
    "state_code": "NY",
    "placeMasterId": "P02500000FsoHBl3jfhzksFV2PeqdbrmRJ9pHXwR",
    "placeName": "little valley",
    "state": "NY"
  },
  {
    "city": "portland",
    "state_code": "NY",
    "placeMasterId": "P02500000FsoIGOKiLpXTkmnPbsAo6d4H7RVMuSt",
    "placeName": "portland",
    "state": "NY"
  },
  {
    "city": "arkport",
    "state_code": "NY",
    "placeMasterId": "P02500000FsoG0qXkS93TlHQzriK51Xwb6QZIZZ3",
    "placeName": "arkport",
    "state": "NY"
  },
  {
    "city": "erin",
    "state_code": "NY",
    "placeMasterId": "P02500000FsoIEgAz74c3VZrJy81nAkegM4ZxWVV",
    "placeName": "erin",
    "state": "NY"
  },
  {
    "city": "pulteney",
    "state_code": "NY",
    "placeMasterId": "P02500000FsoIGOKiLpXTkmnPbsAo6d3HkOTUOoI",
    "placeName": "pulteney",
    "state": "NY"
  },
  {
    "city": "lansing",
    "state_code": "NY",
    "placeMasterId": "P02500000FsoHDTDSuSvB7SR83OzeXk9ylr8zM6B",
    "placeName": "lansing",
    "state": "NY"
  },
  {
    "city": "hookstown",
    "state_code": "PA",
    "placeMasterId": "P02500000FsoGUWb3ub6ogELEycB0XRAneAZf9eq",
    "placeName": "hookstown",
    "state": "PA"
  },
  {
    "city": "pittsburgh",
    "state_code": "PA",
    "placeMasterId": "P02500000FsoGXfDZBJo5nRj4eTmCaDENhHWAB15",
    "placeName": "pittsburgh",
    "state": "PA"
  },
  {
    "city": "pittsburgh",
    "state_code": "PA",
    "placeMasterId": "P02500000FsoGXfDZBJo5nRj4eTmCaDENhHWAB15",
    "placeName": "pittsburgh",
    "state": "PA"
  },
  {
    "city": "pittsburgh",
    "state_code": "PA",
    "placeMasterId": "P02500000FsoGXfDZBJo5nRj4eTmCaDENhHWAB15",
    "placeName": "pittsburgh",
    "state": "PA"
  },
  {
    "city": "bentleyville",
    "state_code": "PA",
    "placeMasterId": "P02500000FsoGR6HbR5FyBoT3h7syfg9nknn729D",
    "placeName": "bentleyville",
    "state": "PA"
  },
  {
    "city": "mather",
    "state_code": "PA",
    "placeMasterId": "P02500000FsoGW5uJXxSSEq29oXybYp8YEid3HCj",
    "placeName": "mather",
    "state": "PA"
  },
  {
    "city": "east vandergrift",
    "state_code": "PA",
    "placeMasterId": "P02500000FsoGSxHoHElB7ceK8gNPW2wARj274va",
    "placeName": "east vandergrift",
    "state": "PA"
  },
  {
    "city": "murrysville",
    "state_code": "PA",
    "placeMasterId": "P02500000FsoGWfIDxXlazF0r1nMHCmbeYydtS27",
    "placeName": "murrysville",
    "state": "PA"
  },
  {
    "city": "marion center",
    "state_code": "PA",
    "placeMasterId": "P02500000FsoGVoDMLAIsrdXoCvHljqbdJslTURM",
    "placeName": "marion center",
    "state": "PA"
  },
  {
    "city": "johnstown",
    "state_code": "PA",
    "placeMasterId": "P02500000FsoGUx8UimqAk24lO3DGGu9IeQPPEZ3",
    "placeName": "johnstown",
    "state": "PA"
  },
  {
    "city": "new castle",
    "state_code": "PA",
    "placeMasterId": "P02500000FsoGWfIDxXlazF0r1nMHCmkwrpt3CC7",
    "placeName": "new castle",
    "state": "PA"
  },
  {
    "city": "wampum",
    "state_code": "PA",
    "placeMasterId": "P02500000FsoGa5bgR3cRTet2JHeJ4XeJoMtRmGy",
    "placeName": "wampum",
    "state": "PA"
  },
  {
    "city": "sligo",
    "state_code": "PA",
    "placeMasterId": "P02500000FsoGYwprbt09yqvdsmsxmcY6lDeYThH",
    "placeName": "sligo",
    "state": "PA"
  },
  {
    "city": "tylersburg",
    "state_code": "PA",
    "placeMasterId": "P02500000FsoGZnujEGSs6SOghexTFYzAmEo3ZHc",
    "placeName": "tylersburg",
    "state": "PA"
  },
  {
    "city": "cambridge springs",
    "state_code": "PA",
    "placeMasterId": "P02500000FsoGRffVqfZ6wDRkuNGeJdad7KRm7BM",
    "placeName": "cambridge springs",
    "state": "PA"
  },
  {
    "city": "fairview",
    "state_code": "PA",
    "placeMasterId": "P02500000FsoGTEylU1ukUp8fkJ4FL1owAbTfMQC",
    "placeName": "fairview",
    "state": "PA"
  },
  {
    "city": "union city",
    "state_code": "PA",
    "placeMasterId": "P02500000FsoGZwlCpf2en3drVTItA39JAR8kNE4",
    "placeName": "union city",
    "state": "PA"
  },
  {
    "city": "blandburg",
    "state_code": "PA",
    "placeMasterId": "P02500000FsoGRF852TpksPiEUwEOaAdO7RZxjO2",
    "placeName": "blandburg",
    "state": "PA"
  },
  {
    "city": "brisbin",
    "state_code": "PA",
    "placeMasterId": "P02500000FsoGRNyYdsPXZ0xPIkZoUf499XS96Ow",
    "placeName": "brisbin",
    "state": "PA"
  },
  {
    "city": "cassville",
    "state_code": "PA",
    "placeMasterId": "P02500000FsoGRffVqfZ6wDRkuNGeJdgoJ16X8a0",
    "placeName": "cassville",
    "state": "PA"
  },
  {
    "city": "pine grove mills",
    "state_code": "PA",
    "placeMasterId": "P02500000FsoGXfDZBJo5nRj4eTmCaDCy7LV5xSY",
    "placeName": "pine grove mills",
    "state": "PA"
  },
  {
    "city": "highspire",
    "state_code": "PA",
    "placeMasterId": "P02500000FsoGUNkaJCX1zd64AnpacwfufkQerP2",
    "placeName": "highspire",
    "state": "PA"
  },
  {
    "city": "lebanon",
    "state_code": "PA",
    "placeMasterId": "P02500000FsoGVNfvWyZWnpoHnUFW0NKnPhXFdE1",
    "placeName": "lebanon",
    "state": "PA"
  },
  {
    "city": "quentin",
    "state_code": "PA",
    "placeMasterId": "P02500000FsoGXwuWO6xfAeDQG6T2PC6PaiQeHGu",
    "placeName": "quentin",
    "state": "PA"
  },
  {
    "city": "orbisonia",
    "state_code": "PA",
    "placeMasterId": "P02500000FsoGXEg8N84jjdzYF2jwqkBIpdwVwBn",
    "placeName": "orbisonia",
    "state": "PA"
  },
  {
    "city": "scotland",
    "state_code": "PA",
    "placeMasterId": "P02500000FsoGYf8uP5qabeRIHAC7xdw6FURUymh",
    "placeName": "scotland",
    "state": "PA"
  },
  {
    "city": "aspers",
    "state_code": "PA",
    "placeMasterId": "P02500000FsoGQoaeEI6Oobyi5VC8qhNsAGFs8BY",
    "placeName": "aspers",
    "state": "PA"
  },
  {
    "city": "emigsville",
    "state_code": "PA",
    "placeMasterId": "P02500000FsoGT68HsdKxoDtUwUipQXVkCqtQEyb",
    "placeName": "emigsville",
    "state": "PA"
  },
  {
    "city": "landisville",
    "state_code": "PA",
    "placeMasterId": "P02500000FsoGVEpRvZzk7EZ6zfu65ssTfGHZk8h",
    "placeName": "landisville",
    "state": "PA"
  },
  {
    "city": "port trevorton",
    "state_code": "PA",
    "placeMasterId": "P02500000FsoGXo42miNsU2yFSI7cUhiY6CRPXXk",
    "placeName": "port trevorton",
    "state": "PA"
  },
  {
    "city": "mcadoo",
    "state_code": "PA",
    "placeMasterId": "P02500000FsoGVfMsjlj6B2IdP6wLpM6rZteY1MM",
    "placeName": "mcadoo",
    "state": "PA"
  },
  {
    "city": "dushore",
    "state_code": "PA",
    "placeMasterId": "P02500000FsoGSfar4RbbkQ9yX3gZh4S9nZPCAwZ",
    "placeName": "dushore",
    "state": "PA"
  },
  {
    "city": "hallstead",
    "state_code": "PA",
    "placeMasterId": "P02500000FsoGUEu6hnxFJ1qtMzUAiSHoytMoxtQ",
    "placeName": "hallstead",
    "state": "PA"
  },
  {
    "city": "richlandtown",
    "state_code": "PA",
    "placeMasterId": "P02500000FsoGY5kzzVXRrFSb3uoSJgPgtJ7UIWr",
    "placeName": "richlandtown",
    "state": "PA"
  },
  {
    "city": "ridley park",
    "state_code": "PA",
    "placeMasterId": "P02500000FsoGYEbTau7EXqhlrj9sEAihAcQTnlo",
    "placeName": "ridley park",
    "state": "PA"
  },
  {
    "city": "philadelphia",
    "state_code": "PA",
    "placeMasterId": "P02500000FsoGXWN5ZvEJ6qTtqfQmfiyVODy6MPW",
    "placeName": "philadelphia",
    "state": "PA"
  },
  {
    "city": "philadelphia",
    "state_code": "PA",
    "placeMasterId": "P02500000FsoGXWN5ZvEJ6qTtqfQmfiyVODy6MPW",
    "placeName": "philadelphia",
    "state": "PA"
  },
  {
    "city": "skippack",
    "state_code": "PA",
    "placeMasterId": "P02500000FsoGYwprbt09yqvdsmsxmcf16fezdLA",
    "placeName": "skippack",
    "state": "PA"
  },
  {
    "city": "bally",
    "state_code": "PA",
    "placeMasterId": "P02500000FsoGQoaeEI6Oobyi5VC8qhSpNEJ7hTB",
    "placeName": "bally",
    "state": "PA"
  },
  {
    "city": "reading",
    "state_code": "PA",
    "placeMasterId": "P02500000FsoGY5kzzVXRrFSb3uoSJgIQftycIhP",
    "placeName": "reading",
    "state": "PA"
  },
  {
    "city": "newark",
    "state_code": "DE",
    "placeMasterId": "P02500000FsoEpnBHdBXPxi7mVxS6WjgBdcgmBIC",
    "placeName": "newark",
    "state": "DE"
  },
  {
    "city": "wilmington",
    "state_code": "DE",
    "placeMasterId": "P02500000FsoEq4sEpygzKuc87a8wLiOkGKX6CVd",
    "placeName": "wilmington",
    "state": "DE"
  },
  {
    "city": "washington",
    "state_code": "DC",
    "placeMasterId": "P02500000FsoEq4sEpygzKuc87a8wLiQYg142PzN",
    "placeName": "washington",
    "state": "DC"
  },
  {
    "city": "ashburn",
    "state_code": "VA",
    "placeMasterId": "P02500000FsoGudURI8jWQA880DOUH5CC7RYtUHc",
    "placeName": "ashburn",
    "state": "VA"
  },
  {
    "city": "lovettsville",
    "state_code": "VA",
    "placeMasterId": "P02500000FsoGwUUe8IEjLyJORlsv7RpnVn84ouM",
    "placeName": "lovettsville",
    "state": "VA"
  },
  {
    "city": "reston",
    "state_code": "VA",
    "placeMasterId": "P02500000FsoGxCj29H7emyXGSpc0ftwYckJGSZW",
    "placeName": "reston",
    "state": "VA"
  },
  {
    "city": "suitland",
    "state_code": "MD",
    "placeMasterId": "P02500000FsoFW1icAWNrLWZMKJhoDjfjSeMiKS6",
    "placeName": "suitland",
    "state": "MD"
  },
  {
    "city": "rockville",
    "state_code": "MD",
    "placeMasterId": "P02500000FsoFVk1exjEHyK50ih0yOkq6WS8Noai",
    "placeName": "rockville",
    "state": "MD"
  },
  {
    "city": "gaithersburg",
    "state_code": "MD",
    "placeMasterId": "P02500000FsoFUSPMXA2DmusRUNuDCLSggAPIqSu",
    "placeName": "gaithersburg",
    "state": "MD"
  },
  {
    "city": "kensington",
    "state_code": "MD",
    "placeMasterId": "P02500000FsoFUk6JjxBnA7Mn60b31KQZAwjnQlg",
    "placeName": "kensington",
    "state": "MD"
  },
  {
    "city": "westminster",
    "state_code": "MD",
    "placeMasterId": "P02500000FsoFWAZ5luxe27oX883E8E08rwmPdzk",
    "placeName": "westminster",
    "state": "MD"
  },
  {
    "city": "baltimore",
    "state_code": "MD",
    "placeMasterId": "P02500000FsoFTSU1JNziyiADrhUHous91WaBH4V",
    "placeName": "baltimore",
    "state": "MD"
  },
  {
    "city": "baltimore",
    "state_code": "MD",
    "placeMasterId": "P02500000FsoFTSU1JNziyiADrhUHous91WaBH4V",
    "placeName": "baltimore",
    "state": "MD"
  },
  {
    "city": "greensboro",
    "state_code": "MD",
    "placeMasterId": "P02500000FsoFUbFq8Yc0TW7cICFd6q3HGo4MO8T",
    "placeName": "greensboro",
    "state": "MD"
  },
  {
    "city": "salisbury",
    "state_code": "MD",
    "placeMasterId": "P02500000FsoFVk1exjEHyK50ih0yOkvsUHxl2kv",
    "placeName": "salisbury",
    "state": "MD"
  },
  {
    "city": "salisbury",
    "state_code": "MD",
    "placeMasterId": "P02500000FsoFVk1exjEHyK50ih0yOkvsUHxl2kv",
    "placeName": "salisbury",
    "state": "MD"
  },
  {
    "city": "bishopville",
    "state_code": "MD",
    "placeMasterId": "P02500000FsoFTSU1JNziyiADrhUHov3AwQ3AkDW",
    "placeName": "bishopville",
    "state": "MD"
  },
  {
    "city": "girdletree",
    "state_code": "MD",
    "placeMasterId": "P02500000FsoFUSPMXA2DmusRUNuDCLdpakVy5X2",
    "placeName": "girdletree",
    "state": "MD"
  },
  {
    "city": "parsonsburg",
    "state_code": "MD",
    "placeMasterId": "P02500000FsoFVSKhkw4ib7af74K8ZmCdxDoMIKT",
    "placeName": "parsonsburg",
    "state": "MD"
  },
  {
    "city": "alexandria",
    "state_code": "VA",
    "placeMasterId": "P02500000FsoGuUdxgk9jjYsxCP34MaiKDaDtr2h",
    "placeName": "alexandria",
    "state": "VA"
  },
  {
    "city": "warsaw",
    "state_code": "VA",
    "placeMasterId": "P02500000FsoGxuxQAG0aDyl8TtL6ELkzuvNGHjM",
    "placeName": "warsaw",
    "state": "VA"
  },
  {
    "city": "orange",
    "state_code": "VA",
    "placeMasterId": "P02500000FsoGwv24wTy5Pm2urCvAqv79m6isfXK",
    "placeName": "orange",
    "state": "VA"
  },
  {
    "city": "horntown",
    "state_code": "VA",
    "placeMasterId": "P02500000FsoGw3xDK6VNIAZs2KqfNyniWCmWa8w",
    "placeName": "horntown",
    "state": "VA"
  },
  {
    "city": "saxis",
    "state_code": "VA",
    "placeMasterId": "P02500000FsoGxUPzM4HEAB1c4SIqUsTL59qjApS",
    "placeName": "saxis",
    "state": "VA"
  },
  {
    "city": "hampton",
    "state_code": "VA",
    "placeMasterId": "P02500000FsoGvv6jihvabZKhEWVFTUVmU86xved",
    "placeName": "hampton",
    "state": "VA"
  },
  {
    "city": "hopewell",
    "state_code": "VA",
    "placeMasterId": "P02500000FsoGw3xDK6VNIAZs2KqfNyoH4LPJUIl",
    "placeName": "hopewell",
    "state": "VA"
  },
  {
    "city": "warfield",
    "state_code": "VA",
    "placeMasterId": "P02500000FsoGxuxQAG0aDyl8TtL6ELeB5lJOtSW",
    "placeName": "warfield",
    "state": "VA"
  },
  {
    "city": "appomattox",
    "state_code": "VA",
    "placeMasterId": "P02500000FsoGudURI8jWQA880DOUH58YjO1JG0l",
    "placeName": "appomattox",
    "state": "VA"
  },
  {
    "city": "danville",
    "state_code": "VA",
    "placeMasterId": "P02500000FsoGvLipJ7cRrAM01H7ZpX6Sl98AjYz",
    "placeName": "danville",
    "state": "VA"
  },
  {
    "city": "ronceverte",
    "state_code": "WV",
    "placeMasterId": "P02500000FsoH3leztVfmObnHQBVEaQqrlCpXsdP",
    "placeName": "ronceverte",
    "state": "WV"
  },
  {
    "city": "whitesville",
    "state_code": "WV",
    "placeMasterId": "P02500000FsoH4CCQhhP8SPWnpcXUJttoDmj5E6r",
    "placeName": "whitesville",
    "state": "WV"
  },
  {
    "city": "ceredo",
    "state_code": "WV",
    "placeMasterId": "P02500000FsoH2CLkG9K8q06MaFhdZ2s7wxuTnMt",
    "placeName": "ceredo",
    "state": "WV"
  },
  {
    "city": "culloden",
    "state_code": "WV",
    "placeMasterId": "P02500000FsoH2LCDrXtvWbLXO433TXIPXP0IZhx",
    "placeName": "culloden",
    "state": "WV"
  },
  {
    "city": "kistler",
    "state_code": "WV",
    "placeMasterId": "P02500000FsoH33QbsWmqxbZPP7m91z4tm3e0HxN",
    "placeName": "kistler",
    "state": "WV"
  },
  {
    "city": "coal city",
    "state_code": "WV",
    "placeMasterId": "P02500000FsoH2U2hSwTiDCaiBsOTO1QO01btckp",
    "placeName": "coal city",
    "state": "WV"
  },
  {
    "city": "newell",
    "state_code": "WV",
    "placeMasterId": "P02500000FsoH3L7Z5JwQKo3l0kSyqxpHG7IOE3L",
    "placeName": "newell",
    "state": "WV"
  },
  {
    "city": "west liberty",
    "state_code": "WV",
    "placeMasterId": "P02500000FsoH43Lx6IpLloHd1oC4PPjgip4FNBr",
    "placeName": "west liberty",
    "state": "WV"
  },
  {
    "city": "hendricks",
    "state_code": "WV",
    "placeMasterId": "P02500000FsoH2ua8H8D4H0KEbJQj7UiY8BPo3lo",
    "placeName": "hendricks",
    "state": "WV"
  },
  {
    "city": "hepzibah",
    "state_code": "WV",
    "placeMasterId": "P02500000FsoH2ua8H8D4H0KEbJQj7Uge1rhO07G",
    "placeName": "hepzibah",
    "state": "WV"
  },
  {
    "city": "pullman",
    "state_code": "WV",
    "placeMasterId": "P02500000FsoH3coWI75zi0Y6cN9ofwUfa4NtPHy",
    "placeName": "pullman",
    "state": "WV"
  },
  {
    "city": "morgantown",
    "state_code": "WV",
    "placeMasterId": "P02500000FsoH3L7Z5JwQKo3l0kSyqxnFrvqHco4",
    "placeName": "morgantown",
    "state": "WV"
  },
  {
    "city": "littleton",
    "state_code": "WV",
    "placeMasterId": "P02500000FsoH3CH5TvMdeCoaCw7YwTKE4PKlm4o",
    "placeName": "littleton",
    "state": "WV"
  },
  {
    "city": "east bend",
    "state_code": "NC",
    "placeMasterId": "P02500000FsoG6q5nmnIScViJbopdI7bCEBWXbCq",
    "placeName": "east bend",
    "state": "NC"
  },
  {
    "city": "stoneville",
    "state_code": "NC",
    "placeMasterId": "P02500000FsoG9YAsFKGNfvMcsFOZbQeRZr4xwzI",
    "placeName": "stoneville",
    "state": "NC"
  },
  {
    "city": "alamance",
    "state_code": "NC",
    "placeMasterId": "P02500000FsoG5z0wAPpkUuFGmwl7pBAWjZdgO8K",
    "placeName": "alamance",
    "state": "NC"
  },
  {
    "city": "graham",
    "state_code": "NC",
    "placeMasterId": "P02500000FsoG7PTiCNbbMuh0p4DIw4r6sOO0K38",
    "placeName": "graham",
    "state": "NC"
  },
  {
    "city": "summerfield",
    "state_code": "NC",
    "placeMasterId": "P02500000FsoG9YAsFKGNfvMcsFOZbQiXLcaC53H",
    "placeName": "summerfield",
    "state": "NC"
  },
  {
    "city": "cary",
    "state_code": "NC",
    "placeMasterId": "P02500000FsoG6PYMybZ6YhynCNnNYeRe98ichEV",
    "placeName": "cary",
    "state": "NC"
  },
  {
    "city": "jamesville",
    "state_code": "NC",
    "placeMasterId": "P02500000FsoG7q190ZKxQiQXEVFYfY38AwWhpG3",
    "placeName": "jamesville",
    "state": "NC"
  },
  {
    "city": "wilson",
    "state_code": "NC",
    "placeMasterId": "P02500000FsoG9yiJ3Vzjjj69HgQpKtjYrl6cYLo",
    "placeName": "wilson",
    "state": "NC"
  },
  {
    "city": "ahoskie",
    "state_code": "NC",
    "placeMasterId": "P02500000FsoG5z0wAPpkUuFGmwl7pB9zmwoP413",
    "placeName": "ahoskie",
    "state": "NC"
  },
  {
    "city": "cherryville",
    "state_code": "NC",
    "placeMasterId": "P02500000FsoG6YOqa08tFJDy0C8nT8k4hxrsqpv",
    "placeName": "cherryville",
    "state": "NC"
  },
  {
    "city": "high shoals",
    "state_code": "NC",
    "placeMasterId": "P02500000FsoG7hAfPAlAk7BMQgu8l3fyFcqDmqs",
    "placeName": "high shoals",
    "state": "NC"
  },
  {
    "city": "charlotte",
    "state_code": "NC",
    "placeMasterId": "P02500000FsoG6YOqa08tFJDy0C8nT8qHEOhlkFv",
    "placeName": "charlotte",
    "state": "NC"
  },
  {
    "city": "charlotte",
    "state_code": "NC",
    "placeMasterId": "P02500000FsoG6YOqa08tFJDy0C8nT8qHEOhlkFv",
    "placeName": "charlotte",
    "state": "NC"
  },
  {
    "city": "elizabethtown",
    "state_code": "NC",
    "placeMasterId": "P02500000FsoG6ywHOBsFJ6xUPdB3CbyYL85xqH8",
    "placeName": "elizabethtown",
    "state": "NC"
  },
  {
    "city": "southern pines",
    "state_code": "NC",
    "placeMasterId": "P02500000FsoG9PKOdvgazK7S4R39gwHLkOEF8TZ",
    "placeName": "southern pines",
    "state": "NC"
  },
  {
    "city": "turkey",
    "state_code": "NC",
    "placeMasterId": "P02500000FsoG9h1LqiqAMWbng3jzVv1ZyH673z3",
    "placeName": "turkey",
    "state": "NC"
  },
  {
    "city": "kelly",
    "state_code": "NC",
    "placeMasterId": "P02500000FsoG7q190ZKxQiQXEVFYfY7d7ii5gt9",
    "placeName": "kelly",
    "state": "NC"
  },
  {
    "city": "riegelwood",
    "state_code": "NC",
    "placeMasterId": "P02500000FsoG8ymxpjxEvWNvf00txT7QTu4GGRz",
    "placeName": "riegelwood",
    "state": "NC"
  },
  {
    "city": "oak island",
    "state_code": "NC",
    "placeMasterId": "P02500000FsoG8h60cwnfYJta3NK48UDjPkRDy1H",
    "placeName": "oak island",
    "state": "NC"
  },
  {
    "city": "atlantic",
    "state_code": "NC",
    "placeMasterId": "P02500000FsoG5z0wAPpkUuFGmwl7pBCMfPh2Bq6",
    "placeName": "atlantic",
    "state": "NC"
  },
  {
    "city": "pink hill",
    "state_code": "NC",
    "placeMasterId": "P02500000FsoG8pwUELNSEv8krBfU2ycq6ioRZWW",
    "placeName": "pink hill",
    "state": "NC"
  },
  {
    "city": "stonewall",
    "state_code": "NC",
    "placeMasterId": "P02500000FsoG9YAsFKGNfvMcsFOZbQTfkjHleXs",
    "placeName": "stonewall",
    "state": "NC"
  },
  {
    "city": "blowing rock",
    "state_code": "NC",
    "placeMasterId": "P02500000FsoG6GhtNCzJs6jcOZRxeA7jvik1GpE",
    "placeName": "blowing rock",
    "state": "NC"
  },
  {
    "city": "hot springs",
    "state_code": "NC",
    "placeMasterId": "P02500000FsoG7hAfPAlAk7BMQgu8l3eWN0RPEY5",
    "placeName": "hot springs",
    "state": "NC"
  },
  {
    "city": "robbinsville",
    "state_code": "NC",
    "placeMasterId": "P02500000FsoG8ymxpjxEvWNvf00txT7Bq5ck3sN",
    "placeName": "robbinsville",
    "state": "NC"
  },
  {
    "city": "waynesville",
    "state_code": "NC",
    "placeMasterId": "P02500000FsoG9prpS7Px37qyTs5PQPOU58znHsu",
    "placeName": "waynesville",
    "state": "NC"
  },
  {
    "city": "hayesville",
    "state_code": "NC",
    "placeMasterId": "P02500000FsoG7YKBnmBO3VwBcsYiqZRuHAYTGGT",
    "placeName": "hayesville",
    "state": "NC"
  },
  {
    "city": "elloree",
    "state_code": "SC",
    "placeMasterId": "P02500000FsoGbeuw4Py52GZx9DRu5vllrj3r1jB",
    "placeName": "elloree",
    "state": "SC"
  },
  {
    "city": "sumter",
    "state_code": "SC",
    "placeMasterId": "P02500000FsoGdEEBhmJiasGrz9FV7JmstLqfkE8",
    "placeName": "sumter",
    "state": "SC"
  },
  {
    "city": "startex",
    "state_code": "SC",
    "placeMasterId": "P02500000FsoGdEEBhmJiasGrz9FV7Jk7GFz6b8Y",
    "placeName": "startex",
    "state": "SC"
  },
  {
    "city": "woodruff",
    "state_code": "SC",
    "placeMasterId": "P02500000FsoGdVv8uZTHy4lDalwKwIQlugCOwkj",
    "placeName": "woodruff",
    "state": "SC"
  },
  {
    "city": "charleston",
    "state_code": "SC",
    "placeMasterId": "P02500000FsoGbNDyrcoVf45bXal4Gx4gp6ShtVb",
    "placeName": "charleston",
    "state": "SC"
  },
  {
    "city": "charleston",
    "state_code": "SC",
    "placeMasterId": "P02500000FsoGbNDyrcoVf45bXal4Gx4gp6ShtVb",
    "placeName": "charleston",
    "state": "SC"
  },
  {
    "city": "cottageville",
    "state_code": "SC",
    "placeMasterId": "P02500000FsoGbW4ST1OILfKmLP6UBRMwsvQnuFt",
    "placeName": "cottageville",
    "state": "SC"
  },
  {
    "city": "georgetown",
    "state_code": "SC",
    "placeMasterId": "P02500000FsoGbnlPfoXrirp7x1nK0Q50FVbVoST",
    "placeName": "georgetown",
    "state": "SC"
  },
  {
    "city": "pinopolis",
    "state_code": "SC",
    "placeMasterId": "P02500000FsoGceqHIC0ZqTIAltrpTMPwyMdEwh1",
    "placeName": "pinopolis",
    "state": "SC"
  },
  {
    "city": "kingstree",
    "state_code": "SC",
    "placeMasterId": "P02500000FsoGc5SMsbhR64JTYeU9pOr8ZXCYzyU",
    "placeName": "kingstree",
    "state": "SC"
  },
  {
    "city": "tatum",
    "state_code": "SC",
    "placeMasterId": "P02500000FsoGdEEBhmJiasGrz9FV7Jm8H27z1rP",
    "placeName": "tatum",
    "state": "SC"
  },
  {
    "city": "greenville",
    "state_code": "SC",
    "placeMasterId": "P02500000FsoGbwbtHD7ePT4Ikq8juuKkVY6QuEs",
    "placeName": "greenville",
    "state": "SC"
  },
  {
    "city": "six mile",
    "state_code": "SC",
    "placeMasterId": "P02500000FsoGd5Ni6NjvuH1hBKu5CpShoC0JOUW",
    "placeName": "six mile",
    "state": "SC"
  },
  {
    "city": "gloverville",
    "state_code": "SC",
    "placeMasterId": "P02500000FsoGbnlPfoXrirp7x1nK0Q8Ux3sDG8b",
    "placeName": "gloverville",
    "state": "SC"
  },
  {
    "city": "johnston",
    "state_code": "SC",
    "placeMasterId": "P02500000FsoGc5SMsbhR64JTYeU9pOr2Jbv9rLl",
    "placeName": "johnston",
    "state": "SC"
  },
  {
    "city": "furman",
    "state_code": "SC",
    "placeMasterId": "P02500000FsoGbnlPfoXrirp7x1nK0Q2mB0IDuLs",
    "placeName": "furman",
    "state": "SC"
  },
  {
    "city": "norcross",
    "state_code": "GA",
    "placeMasterId": "P02500000FsoExdjXnzHbkkaMhcS5dg6Mt90Tkgb",
    "placeName": "norcross",
    "state": "GA"
  },
  {
    "city": "rome",
    "state_code": "GA",
    "placeMasterId": "P02500000FsoEyD7SDZakV9Z3urplHda5fOLAdnq",
    "placeName": "rome",
    "state": "GA"
  },
  {
    "city": "woodbury",
    "state_code": "GA",
    "placeMasterId": "P02500000FsoEymVMd9ttFYXl87DQvb6gMq3NaVQ",
    "placeName": "woodbury",
    "state": "GA"
  },
  {
    "city": "millen",
    "state_code": "GA",
    "placeMasterId": "P02500000FsoExdjXnzHbkkaMhcS5dg3P8bZBhQW",
    "placeName": "millen",
    "state": "GA"
  },
  {
    "city": "oliver",
    "state_code": "GA",
    "placeMasterId": "P02500000FsoExma1PNrORLpXVQnVYAQyNIx7WXg",
    "placeName": "oliver",
    "state": "GA"
  },
  {
    "city": "clarkesville",
    "state_code": "GA",
    "placeMasterId": "P02500000FsoEw4QIAcvyC8tRrgeUcHxyFzZsUpi",
    "placeName": "clarkesville",
    "state": "GA"
  },
  {
    "city": "morganton",
    "state_code": "GA",
    "placeMasterId": "P02500000FsoExdjXnzHbkkaMhcS5dg3dL4U0ixZ",
    "placeName": "morganton",
    "state": "GA"
  },
  {
    "city": "athens",
    "state_code": "GA",
    "placeMasterId": "P02500000FsoEvV2Nl2cpRjukeRGoyKWN5rm3A7X",
    "placeName": "athens",
    "state": "GA"
  },
  {
    "city": "dearing",
    "state_code": "GA",
    "placeMasterId": "P02500000FsoEwM7FNQ5XZLNnTJLKRGiJr2SmlJq",
    "placeName": "dearing",
    "state": "GA"
  },
  {
    "city": "adrian",
    "state_code": "GA",
    "placeMasterId": "P02500000FsoEvMBu9e32l8fZqcvP3q8ZMIj45ZN",
    "placeName": "adrian",
    "state": "GA"
  },
  {
    "city": "bentonia",
    "state_code": "MS",
    "placeMasterId": "P02500000FsoFgaLwnr5yBygFmPGjdzGm6OXJAjW",
    "placeName": "bentonia",
    "state": "MS"
  },
  {
    "city": "taylorsville",
    "state_code": "MS",
    "placeMasterId": "P02500000FsoFiIVg2c1ORBcLQ9PkZrXFWz6oLkP",
    "placeName": "taylorsville",
    "state": "MS"
  },
  {
    "city": "tylertown",
    "state_code": "MS",
    "placeMasterId": "P02500000FsoFiIVg2c1ORBcLQ9PkZre7p2QPvk2",
    "placeName": "tylertown",
    "state": "MS"
  },
  {
    "city": "brooksville",
    "state_code": "MS",
    "placeMasterId": "P02500000FsoFgjCQPFfksZvQaDc9YTWKOaCd1Qn",
    "placeName": "brooksville",
    "state": "MS"
  },
  {
    "city": "dawson",
    "state_code": "GA",
    "placeMasterId": "P02500000FsoEwM7FNQ5XZLNnTJLKRGiIfFkdTNl",
    "placeName": "dawson",
    "state": "GA"
  },
  {
    "city": "morgan",
    "state_code": "GA",
    "placeMasterId": "P02500000FsoExdjXnzHbkkaMhcS5dg6Jj6g1mG1",
    "placeName": "morgan",
    "state": "GA"
  },
  {
    "city": "bloomfield",
    "state_code": "KY",
    "placeMasterId": "P02500000FsoFNBF0lwbAkHOYVyHtjMZoSk7KnxS",
    "placeName": "bloomfield",
    "state": "KY"
  },
  {
    "city": "louisville",
    "state_code": "KY",
    "placeMasterId": "P02500000FsoFOkYGPIwoIt5TLu5UkkhkzCsPo64",
    "placeName": "louisville",
    "state": "KY"
  },
  {
    "city": "louisville",
    "state_code": "KY",
    "placeMasterId": "P02500000FsoFOkYGPIwoIt5TLu5UkkhkzCsPo64",
    "placeName": "louisville",
    "state": "KY"
  },
  {
    "city": "versailles",
    "state_code": "KY",
    "placeMasterId": "P02500000FsoFPtK5ETZ5nh2rmOqq2fg5tLdIyug",
    "placeName": "versailles",
    "state": "KY"
  },
  {
    "city": "lexington",
    "state_code": "KY",
    "placeMasterId": "P02500000FsoFOkYGPIwoIt5TLu5UkkeaJQ4MXLq",
    "placeName": "lexington",
    "state": "KY"
  },
  {
    "city": "lexington",
    "state_code": "KY",
    "placeMasterId": "P02500000FsoFOkYGPIwoIt5TLu5UkkeaJQ4MXLq",
    "placeName": "lexington",
    "state": "KY"
  },
  {
    "city": "lynch",
    "state_code": "KY",
    "placeMasterId": "P02500000FsoFOkYGPIwoIt5TLu5Ukkixd44mc2C",
    "placeName": "lynch",
    "state": "KY"
  },
  {
    "city": "wheelwright",
    "state_code": "KY",
    "placeMasterId": "P02500000FsoFQ2AYps8sUII2aDCFx9zVHU7PgPn",
    "placeName": "wheelwright",
    "state": "KY"
  },
  {
    "city": "arlington",
    "state_code": "KY",
    "placeMasterId": "P02500000FsoFN2OXAY1O3g9Ni9wTosAuIGCEJo2",
    "placeName": "arlington",
    "state": "KY"
  },
  {
    "city": "franklin",
    "state_code": "KY",
    "placeMasterId": "P02500000FsoFO2JsOK3srsrbKqMPCItirixERgR",
    "placeName": "franklin",
    "state": "KY"
  },
  {
    "city": "bremen",
    "state_code": "KY",
    "placeMasterId": "P02500000FsoFNBF0lwbAkHOYVyHtjMY07GqQXBr",
    "placeName": "bremen",
    "state": "KY"
  },
  {
    "city": "calhoun",
    "state_code": "KY",
    "placeMasterId": "P02500000FsoFNK5UNLAxQsdjJmdJdqxeS2fpqZN",
    "placeName": "calhoun",
    "state": "KY"
  },
  {
    "city": "somerset",
    "state_code": "KY",
    "placeMasterId": "P02500000FsoFPbd81gPWQUYWAmA0Dh35CA94czD",
    "placeName": "somerset",
    "state": "KY"
  },
  {
    "city": "buckeye lake",
    "state_code": "OH",
    "placeMasterId": "P02500000FsoGDP1lX1qaE8yKZAirCeXf4K8x6PO",
    "placeName": "buckeye lake",
    "state": "OH"
  },
  {
    "city": "raymond",
    "state_code": "OH",
    "placeMasterId": "P02500000FsoGHy72piJiDMnuH9mEMKOUC9GKC8l",
    "placeName": "raymond",
    "state": "OH"
  },
  {
    "city": "thornville",
    "state_code": "OH",
    "placeMasterId": "P02500000FsoGIpBuS5mQKyGx61qjpGcOBv1JOsg",
    "placeName": "thornville",
    "state": "OH"
  },
  {
    "city": "amanda",
    "state_code": "OH",
    "placeMasterId": "P02500000FsoGCgnNW2xen8kSY6zleChEXMr2ogY",
    "placeName": "amanda",
    "state": "OH"
  },
  {
    "city": "milledgeville",
    "state_code": "OH",
    "placeMasterId": "P02500000FsoGGXeGnkXrLMMAF2K3FQsUe5837EB",
    "placeName": "milledgeville",
    "state": "OH"
  },
  {
    "city": "columbus",
    "state_code": "OH",
    "placeMasterId": "P02500000FsoGDyPfwc9iyXx1mQ6Wqc0NMzPNh3d",
    "placeName": "columbus",
    "state": "OH"
  },
  {
    "city": "bellefontaine",
    "state_code": "OH",
    "placeMasterId": "P02500000FsoGCyUKiq7EALEo9jgbTBTd6EgExnu",
    "placeName": "bellefontaine",
    "state": "OH"
  },
  {
    "city": "russells point",
    "state_code": "OH",
    "placeMasterId": "P02500000FsoGIFo02VTHaZIFsmT4BJ6GeVYEPre",
    "placeName": "russells point",
    "state": "OH"
  },
  {
    "city": "bowling green",
    "state_code": "OH",
    "placeMasterId": "P02500000FsoGDGBHvdGnXXj9lMNRIAPJFU5NYEd",
    "placeName": "bowling green",
    "state": "OH"
  },
  {
    "city": "malinta",
    "state_code": "OH",
    "placeMasterId": "P02500000FsoGGFxJaxOHy9rodPdDQS0lWMsprwC",
    "placeName": "malinta",
    "state": "OH"
  },
  {
    "city": "toledo",
    "state_code": "OH",
    "placeMasterId": "P02500000FsoGIpBuS5mQKyGx61qjpGheGoHOM1s",
    "placeName": "toledo",
    "state": "OH"
  },
  {
    "city": "barnesville",
    "state_code": "OH",
    "placeMasterId": "P02500000FsoGCyUKiq7EALEo9jgbTBSDzPSVd9r",
    "placeName": "barnesville",
    "state": "OH"
  },
  {
    "city": "cumberland",
    "state_code": "OH",
    "placeMasterId": "P02500000FsoGE7G9Y0jVf9CCaERwl6JtnwSRvic",
    "placeName": "cumberland",
    "state": "OH"
  },
  {
    "city": "fresno",
    "state_code": "OH",
    "placeMasterId": "P02500000FsoGEge3xb2ePYAtnTpcP3zYsJ8lX0e",
    "placeName": "fresno",
    "state": "OH"
  },
  {
    "city": "stone creek",
    "state_code": "OH",
    "placeMasterId": "P02500000FsoGIgLQqhCdeN1mIDVJumOWgum7boO",
    "placeName": "stone creek",
    "state": "OH"
  },
  {
    "city": "mingo junction",
    "state_code": "OH",
    "placeMasterId": "P02500000FsoGGXeGnkXrLMMAF2K3FQtEdMSjD44",
    "placeName": "mingo junction",
    "state": "OH"
  },
  {
    "city": "berea",
    "state_code": "OH",
    "placeMasterId": "P02500000FsoGD7KoKEh0qwTyxY21NfkexUxIAk9",
    "placeName": "berea",
    "state": "OH"
  },
  {
    "city": "cleveland",
    "state_code": "OH",
    "placeMasterId": "P02500000FsoGDpZCLDZwHwhqybl6w7hFiW8c2lu",
    "placeName": "cleveland",
    "state": "OH"
  },
  {
    "city": "beachwood",
    "state_code": "OH",
    "placeMasterId": "P02500000FsoGCyUKiq7EALEo9jgbTBVlbtDssml",
    "placeName": "beachwood",
    "state": "OH"
  },
  {
    "city": "stow",
    "state_code": "OH",
    "placeMasterId": "P02500000FsoGIgLQqhCdeN1mIDVJumFwgGTHa66",
    "placeName": "stow",
    "state": "OH"
  },
  {
    "city": "munroe falls",
    "state_code": "OH",
    "placeMasterId": "P02500000FsoGGpLE0XhQiYqVqf0t4PWodyz9f9P",
    "placeName": "munroe falls",
    "state": "OH"
  },
  {
    "city": "lisbon",
    "state_code": "OH",
    "placeMasterId": "P02500000FsoGFyGMOAEiaxNT1mwNbTQ0hgw6OLE",
    "placeName": "lisbon",
    "state": "OH"
  },
  {
    "city": "mcdonald",
    "state_code": "OH",
    "placeMasterId": "P02500000FsoGGFxJaxOHy9rodPdDQRthSygUAqs",
    "placeName": "mcdonald",
    "state": "OH"
  },
  {
    "city": "youngstown",
    "state_code": "OH",
    "placeMasterId": "P02500000FsoGJgGm4TF8SZjzutvFICtONAHpkmb",
    "placeName": "youngstown",
    "state": "OH"
  },
  {
    "city": "zoar",
    "state_code": "OH",
    "placeMasterId": "P02500000FsoGJgGm4TF8SZjzutvFICvAr0jeV9u",
    "placeName": "zoar",
    "state": "OH"
  },
  {
    "city": "tippecanoe",
    "state_code": "OH",
    "placeMasterId": "P02500000FsoGIy2O3UMD1ZW7tqC9jkzNXY4oCPE",
    "placeName": "tippecanoe",
    "state": "OH"
  },
  {
    "city": "mansfield",
    "state_code": "OH",
    "placeMasterId": "P02500000FsoGGFxJaxOHy9rodPdDQRzT3egLih6",
    "placeName": "mansfield",
    "state": "OH"
  },
  {
    "city": "miamiville",
    "state_code": "OH",
    "placeMasterId": "P02500000FsoGGXeGnkXrLMMAF2K3FQkEtJ9fvMT",
    "placeName": "miamiville",
    "state": "OH"
  },
  {
    "city": "cincinnati",
    "state_code": "OH",
    "placeMasterId": "P02500000FsoGDpZCLDZwHwhqybl6w7e8Lps6H4x",
    "placeName": "cincinnati",
    "state": "OH"
  },
  {
    "city": "cincinnati",
    "state_code": "OH",
    "placeMasterId": "P02500000FsoGDpZCLDZwHwhqybl6w7e8Lps6H4x",
    "placeName": "cincinnati",
    "state": "OH"
  },
  {
    "city": "new lebanon",
    "state_code": "OH",
    "placeMasterId": "P02500000FsoGGyBhbwHDPA5geTMIytuZ8zOiC8P",
    "placeName": "new lebanon",
    "state": "OH"
  },
  {
    "city": "south vienna",
    "state_code": "OH",
    "placeMasterId": "P02500000FsoGIgLQqhCdeN1mIDVJumFPGd2KNRr",
    "placeName": "south vienna",
    "state": "OH"
  },
  {
    "city": "west manchester",
    "state_code": "OH",
    "placeMasterId": "P02500000FsoGJOZorg5Z5NFeJHEPTE3vy3jYYy4",
    "placeName": "west manchester",
    "state": "OH"
  },
  {
    "city": "dayton",
    "state_code": "OH",
    "placeMasterId": "P02500000FsoGE7G9Y0jVf9CCaERwl6OdIDcWstb",
    "placeName": "dayton",
    "state": "OH"
  },
  {
    "city": "otway",
    "state_code": "OH",
    "placeMasterId": "P02500000FsoGHOj8Q80ZSxpD3uOYiN0zi6ZIoN5",
    "placeName": "otway",
    "state": "OH"
  },
  {
    "city": "athens",
    "state_code": "OH",
    "placeMasterId": "P02500000FsoGCgnNW2xen8kSY6zleClXFKMdsZE",
    "placeName": "athens",
    "state": "OH"
  },
  {
    "city": "celina",
    "state_code": "OH",
    "placeMasterId": "P02500000FsoGDgiijp09bLSgAnPh1dLmmADsqht",
    "placeName": "celina",
    "state": "OH"
  },
  {
    "city": "mendon",
    "state_code": "OH",
    "placeMasterId": "P02500000FsoGGOnnCLy4el6zRDydKwOFj0bLUJO",
    "placeName": "mendon",
    "state": "OH"
  },
  {
    "city": "oakwood",
    "state_code": "OH",
    "placeMasterId": "P02500000FsoGHOj8Q80ZSxpD3uOYiMubiLiujC9",
    "placeName": "oakwood",
    "state": "OH"
  },
  {
    "city": "brownsburg",
    "state_code": "IN",
    "placeMasterId": "P02500000FsoF9L8hGUc060eeaCmMLqXJscXz17W",
    "placeName": "brownsburg",
    "state": "IN"
  },
  {
    "city": "glenwood",
    "state_code": "IN",
    "placeMasterId": "P02500000FsoFAL42UGeUuDMsCtCHjH76v4cvsmu",
    "placeName": "glenwood",
    "state": "IN"
  },
  {
    "city": "pittsboro",
    "state_code": "IN",
    "placeMasterId": "P02500000FsoFBuNI7d08Sp3n2ozskfBuYUqCwLl",
    "placeName": "pittsboro",
    "state": "IN"
  },
  {
    "city": "russellville",
    "state_code": "IN",
    "placeMasterId": "P02500000FsoFC3Dlj1Zv9QIxqdLIf9Zz6unh2Rb",
    "placeName": "russellville",
    "state": "IN"
  },
  {
    "city": "shelbyville",
    "state_code": "IN",
    "placeMasterId": "P02500000FsoFCC4FKQ9hq1Y8eRgiZdxa5M9GMMv",
    "placeName": "shelbyville",
    "state": "IN"
  },
  {
    "city": "indianapolis",
    "state_code": "IN",
    "placeMasterId": "P02500000FsoFAckzh3o4HPrDoVt7YFuCi8MjR1V",
    "placeName": "indianapolis",
    "state": "IN"
  },
  {
    "city": "indianapolis",
    "state_code": "IN",
    "placeMasterId": "P02500000FsoFAckzh3o4HPrDoVt7YFuCi8MjR1V",
    "placeName": "indianapolis",
    "state": "IN"
  },
  {
    "city": "valparaiso",
    "state_code": "IN",
    "placeMasterId": "P02500000FsoFCcbg8bt3tpHf3siyJ746ojV4koH",
    "placeName": "valparaiso",
    "state": "IN"
  },
  {
    "city": "mentone",
    "state_code": "IN",
    "placeMasterId": "P02500000FsoFB3IQVFXQLDakDwvNHj0O1x5zOjd",
    "placeName": "mentone",
    "state": "IN"
  },
  {
    "city": "woodburn",
    "state_code": "IN",
    "placeMasterId": "P02500000FsoFCuIdLP2dH1m0fVPo85nZUBanniu",
    "placeName": "woodburn",
    "state": "IN"
  },
  {
    "city": "galveston",
    "state_code": "IN",
    "placeMasterId": "P02500000FsoFACDYss4iDc7hP4qromklk0cWIvs",
    "placeName": "galveston",
    "state": "IN"
  },
  {
    "city": "lagro",
    "state_code": "IN",
    "placeMasterId": "P02500000FsoFAlbTISNqy16OcKEXSkGH3xbUy0y",
    "placeName": "lagro",
    "state": "IN"
  },
  {
    "city": "roann",
    "state_code": "IN",
    "placeMasterId": "P02500000FsoFC3Dlj1Zv9QIxqdLIf9ZE9Oi1pna",
    "placeName": "roann",
    "state": "IN"
  },
  {
    "city": "hagerstown",
    "state_code": "IN",
    "placeMasterId": "P02500000FsoFATuW5fEHaoc30hXhdlTYWzdRWuO",
    "placeName": "hagerstown",
    "state": "IN"
  },
  {
    "city": "grandview",
    "state_code": "IN",
    "placeMasterId": "P02500000FsoFAL42UGeUuDMsCtCHjH5u2oFrueI",
    "placeName": "grandview",
    "state": "IN"
  },
  {
    "city": "oakland city",
    "state_code": "IN",
    "placeMasterId": "P02500000FsoFBcgKupqZ5cZRRCJ2vgT5aKxiwFo",
    "placeName": "oakland city",
    "state": "IN"
  },
  {
    "city": "marshall",
    "state_code": "IN",
    "placeMasterId": "P02500000FsoFB3IQVFXQLDakDwvNHiy4YwzdV34",
    "placeName": "marshall",
    "state": "IN"
  },
  {
    "city": "kingman",
    "state_code": "IN",
    "placeMasterId": "P02500000FsoFAlbTISNqy16OcKEXSkHfVC926d1",
    "placeName": "kingman",
    "state": "IN"
  },
  {
    "city": "ladoga",
    "state_code": "IN",
    "placeMasterId": "P02500000FsoFAlbTISNqy16OcKEXSkG1WffWRzE",
    "placeName": "ladoga",
    "state": "IN"
  },
  {
    "city": "medaryville",
    "state_code": "IN",
    "placeMasterId": "P02500000FsoFB3IQVFXQLDakDwvNHix3kVox68d",
    "placeName": "medaryville",
    "state": "IN"
  },
  {
    "city": "mount ayr",
    "state_code": "IN",
    "placeMasterId": "P02500000FsoFBKzNi2gziQ55pZcD6hmeBsGDC81",
    "placeName": "mount ayr",
    "state": "IN"
  },
  {
    "city": "richmond",
    "state_code": "MI",
    "placeMasterId": "P02500000FsoFaJ6wGPhPxXuaQg4LYQgtqxhbJxt",
    "placeName": "richmond",
    "state": "MI"
  },
  {
    "city": "pleasant ridge",
    "state_code": "MI",
    "placeMasterId": "P02500000FsoFa1Pz3cXqaLQEp3NVjSAybCaxD8j",
    "placeName": "pleasant ridge",
    "state": "MI"
  },
  {
    "city": "livonia",
    "state_code": "MI",
    "placeMasterId": "P02500000FsoFZJBb2dev9LCMnzeQB0AWsH8JTiJ",
    "placeName": "livonia",
    "state": "MI"
  },
  {
    "city": "detroit",
    "state_code": "MI",
    "placeMasterId": "P02500000FsoFY1ZIc4SqxvznZgXeyauoH5nCTkI",
    "placeName": "detroit",
    "state": "MI"
  },
  {
    "city": "brown city",
    "state_code": "MI",
    "placeMasterId": "P02500000FsoFXSBOCU9iDX16MR9zKdRCIDacWcN",
    "placeName": "brown city",
    "state": "MI"
  },
  {
    "city": "new lothrop",
    "state_code": "MI",
    "placeMasterId": "P02500000FsoFZjj1qpOHD8vtDQgfuTOugKDchHv",
    "placeName": "new lothrop",
    "state": "MI"
  },
  {
    "city": "coleman",
    "state_code": "MI",
    "placeMasterId": "P02500000FsoFXsip0ft4HKkclsCF46WpPZUT1xl",
    "placeName": "coleman",
    "state": "MI"
  },
  {
    "city": "unionville",
    "state_code": "MI",
    "placeMasterId": "P02500000FsoFajeN4bQm1Le6q76bHtv8ADjVITP",
    "placeName": "unionville",
    "state": "MI"
  },
  {
    "city": "dansville",
    "state_code": "MI",
    "placeMasterId": "P02500000FsoFXsip0ft4HKkclsCF46XcZTk5aui",
    "placeName": "dansville",
    "state": "MI"
  },
  {
    "city": "eagle",
    "state_code": "MI",
    "placeMasterId": "P02500000FsoFYAPmDT2deXEyNUt4t5BGDfJ3XIJ",
    "placeName": "eagle",
    "state": "MI"
  },
  {
    "city": "battle creek",
    "state_code": "MI",
    "placeMasterId": "P02500000FsoFXJKub5ZvWvlvYcoZQ8zAKmml2L8",
    "placeName": "battle creek",
    "state": "MI"
  },
  {
    "city": "portage",
    "state_code": "MI",
    "placeMasterId": "P02500000FsoFaAGSf17dGwfPcrivdwL0YyChDWU",
    "placeName": "portage",
    "state": "MI"
  },
  {
    "city": "bridgman",
    "state_code": "MI",
    "placeMasterId": "P02500000FsoFXSBOCU9iDX16MR9zKdTY2kv6q3s",
    "placeName": "bridgman",
    "state": "MI"
  },
  {
    "city": "horton",
    "state_code": "MI",
    "placeMasterId": "P02500000FsoHkHtHddfn9cjCqARm6PVtcJP5K6F",
    "placeName": "horton",
    "state": "MI"
  },
  {
    "city": "caledonia",
    "state_code": "MI",
    "placeMasterId": "P02500000FsoFXb1rnsjUu8GHAFVPF7nI3vd6TPJ",
    "placeName": "caledonia",
    "state": "MI"
  },
  {
    "city": "sparta",
    "state_code": "MI",
    "placeMasterId": "P02500000FsoFaRxProHCe99lEUPlSvH32URdhjq",
    "placeName": "sparta",
    "state": "MI"
  },
  {
    "city": "fountain",
    "state_code": "MI",
    "placeMasterId": "P02500000FsoFYS6jQGCD1jjJz7Zui3tPRDPNXhf",
    "placeName": "fountain",
    "state": "MI"
  },
  {
    "city": "elberta",
    "state_code": "MI",
    "placeMasterId": "P02500000FsoFYJGForcQL8U9BJEUnZbMYYbqPkE",
    "placeName": "elberta",
    "state": "MI"
  },
  {
    "city": "elk rapids",
    "state_code": "MI",
    "placeMasterId": "P02500000FsoFYJGForcQL8U9BJEUnZbckL0HXKP",
    "placeName": "elk rapids",
    "state": "MI"
  },
  {
    "city": "harrietta",
    "state_code": "MI",
    "placeMasterId": "P02500000FsoFYaxD1elziKyUmvvKcYQncPqgfdp",
    "placeName": "harrietta",
    "state": "MI"
  },
  {
    "city": "hersey",
    "state_code": "MI",
    "placeMasterId": "P02500000FsoFYjngd3LmOwDfakGkX2ogVxoeKw0",
    "placeName": "hersey",
    "state": "MI"
  },
  {
    "city": "lewiston",
    "state_code": "MI",
    "placeMasterId": "P02500000FsoFZJBb2dev9LCMnzeQB08fC9tfi5R",
    "placeName": "lewiston",
    "state": "MI"
  },
  {
    "city": "paradise",
    "state_code": "MI",
    "placeMasterId": "P02500000FsoHmHjy5Bkmm29e5XHcrGdU2SNsk7b",
    "placeName": "paradise",
    "state": "MI"
  },
  {
    "city": "spalding",
    "state_code": "MI",
    "placeMasterId": "P02500000FsoHnQVmuMN4Gq72W22y9BcuPPsEAb7",
    "placeName": "spalding",
    "state": "MI"
  },
  {
    "city": "ontonagon",
    "state_code": "MI",
    "placeMasterId": "P02500000FsoFZsZVSDy3tkB41F25oxo2PZmkycE",
    "placeName": "ontonagon",
    "state": "MI"
  },
  {
    "city": "wakefield",
    "state_code": "MI",
    "placeMasterId": "P02500000FsoFasUqg00YhwtHdvS1COBGp4i1Z40",
    "placeName": "wakefield",
    "state": "MI"
  },
  {
    "city": "ames",
    "state_code": "IA",
    "placeMasterId": "P02500000FsoFDBzaYCCCeEGMH86dx4YC6hJTgCq",
    "placeName": "ames",
    "state": "IA"
  },
  {
    "city": "lorimor",
    "state_code": "IA",
    "placeMasterId": "P02500000FsoFGBlcDWJh4qP19BMQ5MLGfln7lJK",
    "placeName": "lorimor",
    "state": "IA"
  },
  {
    "city": "menlo",
    "state_code": "IA",
    "placeMasterId": "P02500000FsoFGTSZQJTGS2tMko3FuL9uBPnmUBj",
    "placeName": "menlo",
    "state": "IA"
  },
  {
    "city": "popejoy",
    "state_code": "IA",
    "placeMasterId": "P02500000FsoFHKXR2gvyZeMPZg7lNHKpr1bBQDO",
    "placeName": "popejoy",
    "state": "IA"
  },
  {
    "city": "des moines",
    "state_code": "IA",
    "placeMasterId": "P02500000FsoFETbsylOGpdSvVRDP9Ttytdspgxt",
    "placeName": "des moines",
    "state": "IA"
  },
  {
    "city": "des moines",
    "state_code": "IA",
    "placeMasterId": "P02500000FsoFETbsylOGpdSvVRDP9Ttytdspgxt",
    "placeName": "des moines",
    "state": "IA"
  },
  {
    "city": "dougherty",
    "state_code": "IA",
    "placeMasterId": "P02500000FsoFETbsylOGpdSvVRDP9TuVUxGrCuN",
    "placeName": "dougherty",
    "state": "IA"
  },
  {
    "city": "barnum",
    "state_code": "IA",
    "placeMasterId": "P02500000FsoFDKq49alzKpVX4wS3rYx6gdJPiwF",
    "placeName": "barnum",
    "state": "IA"
  },
  {
    "city": "manson",
    "state_code": "IA",
    "placeMasterId": "P02500000FsoFGTSZQJTGS2tMko3FuL6GwJV87Ug",
    "placeName": "manson",
    "state": "IA"
  },
  {
    "city": "west bend",
    "state_code": "IA",
    "placeMasterId": "P02500000FsoFIl0D4ehpReo9bnZwUB4tCUH2sUW",
    "placeName": "west bend",
    "state": "IA"
  },
  {
    "city": "westgate",
    "state_code": "IA",
    "placeMasterId": "P02500000FsoFIl0D4ehpReo9bnZwUB6Q81viSSe",
    "placeName": "westgate",
    "state": "IA"
  },
  {
    "city": "waterloo",
    "state_code": "IA",
    "placeMasterId": "P02500000FsoFIc9jTG82l3YynzEWZgiXBRjamPP",
    "placeName": "waterloo",
    "state": "IA"
  },
  {
    "city": "grant",
    "state_code": "IA",
    "placeMasterId": "P02500000FsoFFBqGzkHCGdgnWUwUhvnjCCUke0T",
    "placeName": "grant",
    "state": "IA"
  },
  {
    "city": "sioux city",
    "state_code": "IA",
    "placeMasterId": "P02500000FsoFI2lp3fou0eaHajqqvjCarU2Srkt",
    "placeName": "sioux city",
    "state": "IA"
  },
  {
    "city": "george",
    "state_code": "IA",
    "placeMasterId": "P02500000FsoFF2znOLhPa2Rcigb4nRNDOF1Eqch",
    "placeName": "george",
    "state": "IA"
  },
  {
    "city": "greenville",
    "state_code": "IA",
    "placeMasterId": "P02500000FsoFFBqGzkHCGdgnWUwUhvjhIlTyeNf",
    "placeName": "greenville",
    "state": "IA"
  },
  {
    "city": "westside",
    "state_code": "IA",
    "placeMasterId": "P02500000FsoFItqgg3Hc8G3KPbvMOfPAsgW87tv",
    "placeName": "westside",
    "state": "IA"
  },
  {
    "city": "council bluffs",
    "state_code": "IA",
    "placeMasterId": "P02500000FsoFEBuvlyEhSQyZtoWZKV85IKHYAVK",
    "placeName": "council bluffs",
    "state": "IA"
  },
  {
    "city": "carson",
    "state_code": "IA",
    "placeMasterId": "P02500000FsoFDlNUxmVLOdF3UNUJb22m88LuktN",
    "placeName": "carson",
    "state": "IA"
  },
  {
    "city": "marne",
    "state_code": "IA",
    "placeMasterId": "P02500000FsoFGTSZQJTGS2tMko3FuL60anWdFzZ",
    "placeName": "marne",
    "state": "IA"
  },
  {
    "city": "luana",
    "state_code": "IA",
    "placeMasterId": "P02500000FsoFGKc5outTlReBwzhpzqh0AAxOcfe",
    "placeName": "luana",
    "state": "IA"
  },
  {
    "city": "mcgregor",
    "state_code": "IA",
    "placeMasterId": "P02500000FsoFGBlcDWJh4qP19BMQ5MNAVha04Ru",
    "placeName": "mcgregor",
    "state": "IA"
  },
  {
    "city": "waterville",
    "state_code": "IA",
    "placeMasterId": "P02500000FsoFIc9jTG82l3YynzEWZgjLZ45t3Wx",
    "placeName": "waterville",
    "state": "IA"
  },
  {
    "city": "dysart",
    "state_code": "IA",
    "placeMasterId": "P02500000FsoFETbsylOGpdSvVRDP9Tsy7en6J0z",
    "placeName": "dysart",
    "state": "IA"
  },
  {
    "city": "martelle",
    "state_code": "IA",
    "placeMasterId": "P02500000FsoFGTSZQJTGS2tMko3FuL6xNOfxzHD",
    "placeName": "martelle",
    "state": "IA"
  },
  {
    "city": "west branch",
    "state_code": "IA",
    "placeMasterId": "P02500000FsoFIl0D4ehpReo9bnZwUB6LcAWy5XC",
    "placeName": "west branch",
    "state": "IA"
  },
  {
    "city": "melrose",
    "state_code": "IA",
    "placeMasterId": "P02500000FsoFGTSZQJTGS2tMko3FuLAC5nlkmmV",
    "placeName": "melrose",
    "state": "IA"
  },
  {
    "city": "letts",
    "state_code": "IA",
    "placeMasterId": "P02500000FsoFG2v8c7juOF9qLN10AryGbiXJJLB",
    "placeName": "letts",
    "state": "IA"
  },
  {
    "city": "new liberty",
    "state_code": "IA",
    "placeMasterId": "P02500000FsoFGu00EVCcVqctAF5VdoEfPIFosjU",
    "placeName": "new liberty",
    "state": "IA"
  },
  {
    "city": "menomonee falls",
    "state_code": "WI",
    "placeMasterId": "P02500000FsoH6lR1YpnGpDvwIEl0iikoEYH1AYr",
    "placeName": "menomonee falls",
    "state": "WI"
  },
  {
    "city": "oostburg",
    "state_code": "WI",
    "placeMasterId": "P02500000FsoH7KovyQ6PZcudVU8gMg4oA6gIutJ",
    "placeName": "oostburg",
    "state": "WI"
  },
  {
    "city": "stockbridge",
    "state_code": "WI",
    "placeMasterId": "P02500000FsoHET8o8Exfvf9Lg5PZvAdxj9d4sBL",
    "placeName": "stockbridge",
    "state": "WI"
  },
  {
    "city": "waukesha",
    "state_code": "WI",
    "placeMasterId": "P02500000FsoH8KkHCC8uNpcr8AYbk6ewAxOIwXa",
    "placeName": "waukesha",
    "state": "WI"
  },
  {
    "city": "milwaukee",
    "state_code": "WI",
    "placeMasterId": "P02500000FsoH6lR1YpnGpDvwIEl0iig1pZrPtxd",
    "placeName": "milwaukee",
    "state": "WI"
  },
  {
    "city": "racine",
    "state_code": "WI",
    "placeMasterId": "P02500000FsoH7cVtBDFywpOz76pWBemPplBbDcJ",
    "placeName": "racine",
    "state": "WI"
  },
  {
    "city": "dodgeville",
    "state_code": "WI",
    "placeMasterId": "P02500000FsoH5KyFWs1PxDUCG7IpbozIuNdTitR",
    "placeName": "dodgeville",
    "state": "WI"
  },
  {
    "city": "new glarus",
    "state_code": "WI",
    "placeMasterId": "P02500000FsoHEtgEwQh1zSss5WRpednbkFUZo9F",
    "placeName": "new glarus",
    "state": "WI"
  },
  {
    "city": "plain",
    "state_code": "WI",
    "placeMasterId": "P02500000FsoH7KovyQ6PZcudVU8gMgHBJf7XF1o",
    "placeName": "plain",
    "state": "WI"
  },
  {
    "city": "richland center",
    "state_code": "WI",
    "placeMasterId": "P02500000FsoH7cVtBDFywpOz76pWBeukhAlc2ha",
    "placeName": "richland center",
    "state": "WI"
  },
  {
    "city": "boscobel",
    "state_code": "WI",
    "placeMasterId": "P02500000FsoH4laL7HiHCoVV2rv9xrSvRgY3hUd",
    "placeName": "boscobel",
    "state": "WI"
  },
  {
    "city": "mount hope",
    "state_code": "WI",
    "placeMasterId": "P02500000FsoHEkplL27FIrdhHi6Pk9XQbJYJiPw",
    "placeName": "mount hope",
    "state": "WI"
  },
  {
    "city": "friendship",
    "state_code": "WI",
    "placeMasterId": "P02500000FsoHEbzHjdXScGOWTtkzpf9266VjCog",
    "placeName": "friendship",
    "state": "WI"
  },
  {
    "city": "loganville",
    "state_code": "WI",
    "placeMasterId": "P02500000FsoH6Tk4M2dhS1Ragc4AtjxfGQzr3QU",
    "placeName": "loganville",
    "state": "WI"
  },
  {
    "city": "rio",
    "state_code": "WI",
    "placeMasterId": "P02500000FsoH7cVtBDFywpOz76pWBerAQx07bbd",
    "placeName": "rio",
    "state": "WI"
  },
  {
    "city": "green bay",
    "state_code": "WI",
    "placeMasterId": "P02500000FsoH5lVgL3km11DifYL5LIC2lNuCuF7",
    "placeName": "green bay",
    "state": "WI"
  },
  {
    "city": "mercer",
    "state_code": "WI",
    "placeMasterId": "P02500000FsoIimljNiOkUKV5USuyQ6uFZwuoSOD",
    "placeName": "mercer",
    "state": "WI"
  },
  {
    "city": "arkdale",
    "state_code": "WI",
    "placeMasterId": "P02500000FsoH4L2uJ5yv90lydQsuEONv8RXbEsw",
    "placeName": "arkdale",
    "state": "WI"
  },
  {
    "city": "ontario",
    "state_code": "WI",
    "placeMasterId": "P02500000FsoH7BySN1Wct1fShfnGSBqvRY5Gu8X",
    "placeName": "ontario",
    "state": "WI"
  },
  {
    "city": "altoona",
    "state_code": "WI",
    "placeMasterId": "P02500000FsoH4CCQhhP8SPWnpcXUJu7vHN645ks",
    "placeName": "altoona",
    "state": "WI"
  },
  {
    "city": "humbird",
    "state_code": "WI",
    "placeMasterId": "P02500000FsoH63CdXquLODi4HB1vAGoy98dTbEB",
    "placeName": "humbird",
    "state": "WI"
  },
  {
    "city": "maiden rock",
    "state_code": "WI",
    "placeMasterId": "P02500000FsoHFT49M10AjrrZIlpVIbM0sHZ96pp",
    "placeName": "maiden rock",
    "state": "WI"
  },
  {
    "city": "ridgeland",
    "state_code": "WI",
    "placeMasterId": "P02500000FsoH7cVtBDFywpOz76pWBevzgdSP8vn",
    "placeName": "ridgeland",
    "state": "WI"
  },
  {
    "city": "ashland",
    "state_code": "WI",
    "placeMasterId": "P02500000FsoH4TtNuUYhpc19RFEK8shSIgkXkNL",
    "placeName": "ashland",
    "state": "WI"
  },
  {
    "city": "marengo",
    "state_code": "WI",
    "placeMasterId": "P02500000FsoIidvFmJoxnjFugeZYVcWGMQ7edsC",
    "placeName": "marengo",
    "state": "WI"
  },
  {
    "city": "solon springs",
    "state_code": "WI",
    "placeMasterId": "P02500000FsoHEbzHjdXScGOWTtkzpfC4Pgmswyr",
    "placeName": "solon springs",
    "state": "WI"
  },
  {
    "city": "neenah",
    "state_code": "WI",
    "placeMasterId": "P02500000FsoH737ylcwqCQQHtrRqXhJsrbBTBfJ",
    "placeName": "neenah",
    "state": "WI"
  },
  {
    "city": "bethel",
    "state_code": "MN",
    "placeMasterId": "P02500000FsoFbRsl5aJhSLryrApgqLkRlnvZFLf",
    "placeName": "bethel",
    "state": "MN"
  },
  {
    "city": "lake elmo",
    "state_code": "MN",
    "placeMasterId": "P02500000FsoFdaZv8WyTlMXauM0xVhTgiruBhwr",
    "placeName": "lake elmo",
    "state": "MN"
  },
  {
    "city": "champlin",
    "state_code": "MN",
    "placeMasterId": "P02500000FsoFbsQBtm33W9bVGbrwZp07460tVox",
    "placeName": "champlin",
    "state": "MN"
  },
  {
    "city": "cologne",
    "state_code": "MN",
    "placeMasterId": "P02500000FsoFcA796ZCctM5qsEYmOnXZFx0wwZc",
    "placeName": "cologne",
    "state": "MN"
  },
  {
    "city": "hamburg",
    "state_code": "MN",
    "placeMasterId": "P02500000FsoFdA2UKLF7hYo4UuyhmEFGAuSACIo",
    "placeName": "hamburg",
    "state": "MN"
  },
  {
    "city": "eden prairie",
    "state_code": "MN",
    "placeMasterId": "P02500000FsoFcRo6JMMCGYaCTrFcDmL7NYI7JUm",
    "placeName": "eden prairie",
    "state": "MN"
  },
  {
    "city": "monticello",
    "state_code": "MN",
    "placeMasterId": "P02500000FsoFeIoJ9VrPCMlSvPk349CNgHOJJcI",
    "placeName": "monticello",
    "state": "MN"
  },
  {
    "city": "waverly",
    "state_code": "MN",
    "placeMasterId": "P02500000FsoFg9oVzfMc8AwjMyETuW2tehRUZiW",
    "placeName": "waverly",
    "state": "MN"
  },
  {
    "city": "young america",
    "state_code": "MN",
    "placeMasterId": "P02500000FsoHzPbtZer1zIfg0F44gKvwrlL3YyX",
    "placeName": "young america",
    "state": "MN"
  },
  {
    "city": "minneapolis",
    "state_code": "MN",
    "placeMasterId": "P02500000FsoFeIoJ9VrPCMlSvPk349D9alJlgNT",
    "placeName": "minneapolis",
    "state": "MN"
  },
  {
    "city": "minneapolis",
    "state_code": "MN",
    "placeMasterId": "P02500000FsoFeIoJ9VrPCMlSvPk349D9alJlgNT",
    "placeName": "minneapolis",
    "state": "MN"
  },
  {
    "city": "minneapolis",
    "state_code": "MN",
    "placeMasterId": "P02500000FsoFeIoJ9VrPCMlSvPk349D9alJlgNT",
    "placeName": "minneapolis",
    "state": "MN"
  },
  {
    "city": "biwabik",
    "state_code": "MN",
    "placeMasterId": "P02500000FsoFbRsl5aJhSLryrApgqLs12i7SJI1",
    "placeName": "biwabik",
    "state": "MN"
  },
  {
    "city": "hill city",
    "state_code": "MN",
    "placeMasterId": "P02500000FsoFdIsxvjouOA3FIjK7gigkIvG3GZ1",
    "placeName": "hill city",
    "state": "MN"
  },
  {
    "city": "soudan",
    "state_code": "MN",
    "placeMasterId": "P02500000FsoFfaQba53TNly29iqoGYX8HPmn8mA",
    "placeName": "soudan",
    "state": "MN"
  },
  {
    "city": "tower",
    "state_code": "MN",
    "placeMasterId": "P02500000FsoFfs7YmsD2kySNlLXe5XF0UjCwMsD",
    "placeName": "tower",
    "state": "MN"
  },
  {
    "city": "zumbrota",
    "state_code": "MN",
    "placeMasterId": "P02500000FsoFgRVTCSWBVNR4yavJjUh4gGorLiP",
    "placeName": "zumbrota",
    "state": "MN"
  },
  {
    "city": "mankato",
    "state_code": "MN",
    "placeMasterId": "P02500000FsoFe9xpY7HcVlWI7bOd9epNsMJNhx3",
    "placeName": "mankato",
    "state": "MN"
  },
  {
    "city": "fairmont",
    "state_code": "MN",
    "placeMasterId": "P02500000FsoFcaeZukvyx9pNHfb28GqcIjIBpsc",
    "placeName": "fairmont",
    "state": "MN"
  },
  {
    "city": "freeborn",
    "state_code": "MN",
    "placeMasterId": "P02500000FsoFcjV3W9Vldl4Y5TwS2lFF4u0FBMJ",
    "placeName": "freeborn",
    "state": "MN"
  },
  {
    "city": "pemberton",
    "state_code": "MN",
    "placeMasterId": "P02500000FsoFesCDZ6AXwlkA8f7ii6iloOQFtI4",
    "placeName": "pemberton",
    "state": "MN"
  },
  {
    "city": "springfield",
    "state_code": "MN",
    "placeMasterId": "P02500000FsoFfaQba53TNly29iqoGYYw1eQBJch",
    "placeName": "springfield",
    "state": "MN"
  },
  {
    "city": "adrian",
    "state_code": "MN",
    "placeMasterId": "P02500000FsoFbABnsnA859NdFY8r1Mz4Vg4WaRY",
    "placeName": "adrian",
    "state": "MN"
  },
  {
    "city": "brewster",
    "state_code": "MN",
    "placeMasterId": "P02500000FsoFbajEgytU8x79ezB6kqGEeLkEXdq",
    "placeName": "brewster",
    "state": "MN"
  },
  {
    "city": "bellingham",
    "state_code": "MN",
    "placeMasterId": "P02500000FsoFbJ2HUBjulkco3MUGvrVIdcH1dP0",
    "placeName": "bellingham",
    "state": "MN"
  },
  {
    "city": "morgan",
    "state_code": "MN",
    "placeMasterId": "P02500000FsoFeRemkuRBsy0djE5SydXEryM1Mpm",
    "placeName": "morgan",
    "state": "MN"
  },
  {
    "city": "nelson",
    "state_code": "MN",
    "placeMasterId": "P02500000FsoFeRemkuRBsy0djE5SydayODENBwO",
    "placeName": "nelson",
    "state": "MN"
  },
  {
    "city": "pierz",
    "state_code": "MN",
    "placeMasterId": "P02500000FsoFesCDZ6AXwlkA8f7ii6cbQdxdibr",
    "placeName": "pierz",
    "state": "MN"
  },
  {
    "city": "crosby",
    "state_code": "MN",
    "placeMasterId": "P02500000FsoFcA796ZCctM5qsEYmOndLZQ0Aicf",
    "placeName": "crosby",
    "state": "MN"
  },
  {
    "city": "detroit lakes",
    "state_code": "MN",
    "placeMasterId": "P02500000FsoFcIxchxmPZxL1g2uCJI4Hr5yafac",
    "placeName": "detroit lakes",
    "state": "MN"
  },
  {
    "city": "frazee",
    "state_code": "MN",
    "placeMasterId": "P02500000FsoFcjV3W9Vldl4Y5TwS2lFk47AV1Gj",
    "placeName": "frazee",
    "state": "MN"
  },
  {
    "city": "gary",
    "state_code": "MN",
    "placeMasterId": "P02500000FsoFcsLX7Y5YKMJitIHrxFWYWMTl0eD",
    "placeName": "gary",
    "state": "MN"
  },
  {
    "city": "moorhead",
    "state_code": "MN",
    "placeMasterId": "P02500000FsoFeRemkuRBsy0djE5SydWvxxIwV4P",
    "placeName": "moorhead",
    "state": "MN"
  },
  {
    "city": "winger",
    "state_code": "MN",
    "placeMasterId": "P02500000FsoFgRVTCSWBVNR4yavJjUhNknpRv0a",
    "placeName": "winger",
    "state": "MN"
  },
  {
    "city": "baudette",
    "state_code": "MN",
    "placeMasterId": "P02500000FsoFbJ2HUBjulkco3MUGvrWEvaG6diZ",
    "placeName": "baudette",
    "state": "MN"
  },
  {
    "city": "grygla",
    "state_code": "MN",
    "placeMasterId": "P02500000FsoFd1C0iwfL0xYth6dHrjxKX16FxW1",
    "placeName": "grygla",
    "state": "MN"
  },
  {
    "city": "worthing",
    "state_code": "SD",
    "placeMasterId": "P02500000FsoGfecIxW84H5Qpdx7bbeBUOkFUmiU",
    "placeName": "worthing",
    "state": "SD"
  },
  {
    "city": "gary",
    "state_code": "SD",
    "placeMasterId": "P02500000FsoGeE9WvYMDP4z5bpfQUkO5uME2tfP",
    "placeName": "gary",
    "state": "SD"
  },
  {
    "city": "harrison",
    "state_code": "SD",
    "placeMasterId": "P02500000FsoGeN00Www05gEGPe0qPEkXXIOKmnY",
    "placeName": "harrison",
    "state": "SD"
  },
  {
    "city": "iroquois",
    "state_code": "SD",
    "placeMasterId": "P02500000FsoGeVqU8LVmmHTRDSMGJjA2xVrJB0S",
    "placeName": "iroquois",
    "state": "SD"
  },
  {
    "city": "eureka",
    "state_code": "SD",
    "placeMasterId": "P02500000FsoGe5J3K9mQiTjuo1K0aG6rbrxFEHm",
    "placeName": "eureka",
    "state": "SD"
  },
  {
    "city": "langford",
    "state_code": "SD",
    "placeMasterId": "P02500000FsoGeVqU8LVmmHTRDSMGJjFnoeraeXS",
    "placeName": "langford",
    "state": "SD"
  },
  {
    "city": "fort smith",
    "state_code": "MT",
    "placeMasterId": "P02500000FsoFpQpYCQsenDr3akge8M4MVxciQUn",
    "placeName": "fort smith",
    "state": "MT"
  },
  {
    "city": "belt",
    "state_code": "MT",
    "placeMasterId": "P02500000FsoFoibABRzjMDdBZgxYZuOiNtAahNi",
    "placeName": "belt",
    "state": "MT"
  },
  {
    "city": "big sandy",
    "state_code": "MT",
    "placeMasterId": "P02500000FsoFoibABRzjMDdBZgxYZuLigOpiccE",
    "placeName": "big sandy",
    "state": "MT"
  },
  {
    "city": "missoula",
    "state_code": "MT",
    "placeMasterId": "P02500000FsoFq0DSc1BnXcpko04JmJXRBQWeVrS",
    "placeName": "missoula",
    "state": "MT"
  },
  {
    "city": "glenview",
    "state_code": "IL",
    "placeMasterId": "P02500000FsoF3m84k26NIa6rFXJ3ok5UqlUaLAI",
    "placeName": "glenview",
    "state": "IL"
  },
  {
    "city": "wadsworth",
    "state_code": "IL",
    "placeMasterId": "P02500000FsoF8U3pe79HyPBblKhqsuIYXe5mNw0",
    "placeName": "wadsworth",
    "state": "IL"
  },
  {
    "city": "wonder lake",
    "state_code": "IL",
    "placeMasterId": "P02500000FsoF8ubGSIse2Cv8Alk6cNPFbOGQL61",
    "placeName": "wonder lake",
    "state": "IL"
  },
  {
    "city": "zion",
    "state_code": "IL",
    "placeMasterId": "P02500000FsoF93Rk3hSQioAIya5WWrpT3ui3ibH",
    "placeName": "zion",
    "state": "IL"
  },
  {
    "city": "bensenville",
    "state_code": "IL",
    "placeMasterId": "P02500000FsoF1mHOIU1NgAgQ0ATD3sppNXFiAau",
    "placeName": "bensenville",
    "state": "IL"
  },
  {
    "city": "schaumburg",
    "state_code": "IL",
    "placeMasterId": "P02500000FsoF7U8UQL6nACTO8eHvVTjBMesvr5n",
    "placeName": "schaumburg",
    "state": "IL"
  },
  {
    "city": "evanston",
    "state_code": "IL",
    "placeMasterId": "P02500000FsoF3LadvqN1EmNKq6Go5GvPjlHnYcB",
    "placeName": "evanston",
    "state": "IL"
  },
  {
    "city": "joliet",
    "state_code": "IL",
    "placeMasterId": "P02500000FsoF4dCwMPZ5QBZu4PNZHgH3YP7jtAo",
    "placeName": "joliet",
    "state": "IL"
  },
  {
    "city": "matteson",
    "state_code": "IL",
    "placeMasterId": "P02500000FsoF5d8HaBbaEOI7h5nUf6qkI6Qqp5l",
    "placeName": "matteson",
    "state": "IL"
  },
  {
    "city": "burbank",
    "state_code": "IL",
    "placeMasterId": "P02500000FsoF23yLVHAx3NAlbnA2srb3UkXGrIt",
    "placeName": "burbank",
    "state": "IL"
  },
  {
    "city": "peotone",
    "state_code": "IL",
    "placeMasterId": "P02500000FsoF6lu6PMDrjCFW7aYpx1oplCkJKNw",
    "placeName": "peotone",
    "state": "IL"
  },
  {
    "city": "western springs",
    "state_code": "IL",
    "placeMasterId": "P02500000FsoF8lkmquIrLbfxMxOght30pxzuhfJ",
    "placeName": "western springs",
    "state": "IL"
  },
  {
    "city": "chicago",
    "state_code": "IL",
    "placeMasterId": "P02500000FsoF2LfIi4KWQZf7DPqshqNB04VNil1",
    "placeName": "chicago",
    "state": "IL"
  },
  {
    "city": "chicago",
    "state_code": "IL",
    "placeMasterId": "P02500000FsoF2LfIi4KWQZf7DPqshqNB04VNil1",
    "placeName": "chicago",
    "state": "IL"
  },
  {
    "city": "chicago",
    "state_code": "IL",
    "placeMasterId": "P02500000FsoF2LfIi4KWQZf7DPqshqNB04VNil1",
    "placeName": "chicago",
    "state": "IL"
  },
  {
    "city": "chicago",
    "state_code": "IL",
    "placeMasterId": "P02500000FsoF2LfIi4KWQZf7DPqshqNB04VNil1",
    "placeName": "chicago",
    "state": "IL"
  },
  {
    "city": "cabery",
    "state_code": "IL",
    "placeMasterId": "P02500000FsoF23yLVHAx3NAlbnA2srd3ZwIvBxb",
    "placeName": "cabery",
    "state": "IL"
  },
  {
    "city": "iroquois",
    "state_code": "IL",
    "placeMasterId": "P02500000FsoF4dCwMPZ5QBZu4PNZHgGSEJn7Ehl",
    "placeName": "iroquois",
    "state": "IL"
  },
  {
    "city": "piper city",
    "state_code": "IL",
    "placeMasterId": "P02500000FsoF6lu6PMDrjCFW7aYpx1t0m1W5Rim",
    "placeName": "piper city",
    "state": "IL"
  },
  {
    "city": "roberts",
    "state_code": "IL",
    "placeMasterId": "P02500000FsoF7CRXDXxDmzz2X1b5gUxhQWT1UXy",
    "placeName": "roberts",
    "state": "IL"
  },
  {
    "city": "cherry valley",
    "state_code": "IL",
    "placeMasterId": "P02500000FsoF2LfIi4KWQZf7DPqshqODRU68ycm",
    "placeName": "cherry valley",
    "state": "IL"
  },
  {
    "city": "pecatonica",
    "state_code": "IL",
    "placeMasterId": "P02500000FsoF6lu6PMDrjCFW7aYpx1s218oDmWT",
    "placeName": "pecatonica",
    "state": "IL"
  },
  {
    "city": "north henderson",
    "state_code": "IL",
    "placeMasterId": "P02500000FsoF6LMfbAUVfOVzi9WaDYi2tBfxpmr",
    "placeName": "north henderson",
    "state": "IL"
  },
  {
    "city": "topeka",
    "state_code": "IL",
    "placeMasterId": "P02500000FsoF8CMsRJzibChG9i113vb5UnTejri",
    "placeName": "topeka",
    "state": "IL"
  },
  {
    "city": "peoria",
    "state_code": "IL",
    "placeMasterId": "P02500000FsoF6lu6PMDrjCFW7aYpx1p1lcvPgcL",
    "placeName": "peoria",
    "state": "IL"
  },
  {
    "city": "bloomington",
    "state_code": "IL",
    "placeMasterId": "P02500000FsoF1v7rtsbAMlvanyocyNBnxxFGPjX",
    "placeName": "bloomington",
    "state": "IL"
  },
  {
    "city": "fairmount",
    "state_code": "IL",
    "placeMasterId": "P02500000FsoF3UR7XEwnvNcVducDzlHZh0GN3QP",
    "placeName": "fairmount",
    "state": "IL"
  },
  {
    "city": "homer",
    "state_code": "IL",
    "placeMasterId": "P02500000FsoF4UMSl0zIjaKjGb29NBw2B3XSzkm",
    "placeName": "homer",
    "state": "IL"
  },
  {
    "city": "rantoul",
    "state_code": "IL",
    "placeMasterId": "P02500000FsoF6uka0knePnUgvOuFrWDu7skssDP",
    "placeName": "rantoul",
    "state": "IL"
  },
  {
    "city": "hammond",
    "state_code": "IL",
    "placeMasterId": "P02500000FsoF43p1wpFwfmbCr9ztdim6YXkDGUw",
    "placeName": "hammond",
    "state": "IL"
  },
  {
    "city": "humboldt",
    "state_code": "IL",
    "placeMasterId": "P02500000FsoF4UMSl0zIjaKjGb29NBt7PQt5v6s",
    "placeName": "humboldt",
    "state": "IL"
  },
  {
    "city": "sullivan",
    "state_code": "IL",
    "placeMasterId": "P02500000FsoF83WOpvPvubS5Ltfb9RBzNyJv5hE",
    "placeName": "sullivan",
    "state": "IL"
  },
  {
    "city": "godfrey",
    "state_code": "IL",
    "placeMasterId": "P02500000FsoF3uyYLQg9zBM23LeTjEOuChvKTEG",
    "placeName": "godfrey",
    "state": "IL"
  },
  {
    "city": "valmeyer",
    "state_code": "IL",
    "placeMasterId": "P02500000FsoF8LDM2iZVHnwQxWMQyPu3UoGOrY3",
    "placeName": "valmeyer",
    "state": "IL"
  },
  {
    "city": "barry",
    "state_code": "IL",
    "placeMasterId": "P02500000FsoF1UaR5groIyC4OXmNEu64irBWXbb",
    "placeName": "barry",
    "state": "IL"
  },
  {
    "city": "pittsfield",
    "state_code": "IL",
    "placeMasterId": "P02500000FsoF6uka0knePnUgvOuFrWDedKVFtKw",
    "placeName": "pittsfield",
    "state": "IL"
  },
  {
    "city": "west point",
    "state_code": "IL",
    "placeMasterId": "P02500000FsoF8lkmquIrLbfxMxOght1gB7DYgcL",
    "placeName": "west point",
    "state": "IL"
  },
  {
    "city": "newton",
    "state_code": "IL",
    "placeMasterId": "P02500000FsoF6CWBzluiynGouLBAJ4OYufzezqY",
    "placeName": "newton",
    "state": "IL"
  },
  {
    "city": "west salem",
    "state_code": "IL",
    "placeMasterId": "P02500000FsoF8lkmquIrLbfxMxOght1OEFIM8fz",
    "placeName": "west salem",
    "state": "IL"
  },
  {
    "city": "decatur",
    "state_code": "IL",
    "placeMasterId": "P02500000FsoF2v3D7edfAydoQfEYLnpWbMReuOD",
    "placeName": "decatur",
    "state": "IL"
  },
  {
    "city": "athens",
    "state_code": "IL",
    "placeMasterId": "P02500000FsoF1UaR5groIyC4OXmNEu4M4IwoHwO",
    "placeName": "athens",
    "state": "IL"
  },
  {
    "city": "modesto",
    "state_code": "IL",
    "placeMasterId": "P02500000FsoF5lylBaBMuzXIUu8uZbEYVWcPusG",
    "placeName": "modesto",
    "state": "IL"
  },
  {
    "city": "virden",
    "state_code": "IL",
    "placeMasterId": "P02500000FsoF8U3pe79HyPBblKhqsuIgHmfRMGY",
    "placeName": "virden",
    "state": "IL"
  },
  {
    "city": "bonnie",
    "state_code": "IL",
    "placeMasterId": "P02500000FsoF1v7rtsbAMlvanyocyNBr9YV7qc4",
    "placeName": "bonnie",
    "state": "IL"
  },
  {
    "city": "johnsonville",
    "state_code": "IL",
    "placeMasterId": "P02500000FsoF4dCwMPZ5QBZu4PNZHgJtJllSgKz",
    "placeName": "johnsonville",
    "state": "IL"
  },
  {
    "city": "kell",
    "state_code": "IL",
    "placeMasterId": "P02500000FsoF4m3Pxo8s6mp4sDizCAc64scmGzR",
    "placeName": "kell",
    "state": "IL"
  },
  {
    "city": "mount carmel",
    "state_code": "IL",
    "placeMasterId": "P02500000FsoF5upEmyl9bamTIiUKU5cpCDeydvz",
    "placeName": "mount carmel",
    "state": "IL"
  },
  {
    "city": "muddy",
    "state_code": "IL",
    "placeMasterId": "P02500000FsoF63fiONKwIC1e6WpkOZz1qkLyvuO",
    "placeName": "muddy",
    "state": "IL"
  },
  {
    "city": "gray summit",
    "state_code": "MO",
    "placeMasterId": "P02500000FsoFkrkGtkPWo01TsldGygGlL1Dyxy8",
    "placeName": "gray summit",
    "state": "MO"
  },
  {
    "city": "portage des sioux",
    "state_code": "MO",
    "placeMasterId": "P02500000FsoFn9HuY5e5nbwGjl9xYWBKonBX9aE",
    "placeName": "portage des sioux",
    "state": "MO"
  },
  {
    "city": "bethel",
    "state_code": "MO",
    "placeMasterId": "P02500000FsoFj9aXezU6Yn5OF1UG2niLozZsxoB",
    "placeName": "bethel",
    "state": "MO"
  },
  {
    "city": "ewing",
    "state_code": "MO",
    "placeMasterId": "P02500000FsoFkIMMUA6O3b2mfWFbKis3eh5TsRf",
    "placeName": "ewing",
    "state": "MO"
  },
  {
    "city": "memphis",
    "state_code": "MO",
    "placeMasterId": "P02500000FsoFm9MZKJbazPE374k2B5j3PkRm6K8",
    "placeName": "memphis",
    "state": "MO"
  },
  {
    "city": "cardwell",
    "state_code": "MO",
    "placeMasterId": "P02500000FsoFjRHUrmdfvzZjqeB5rmYjz6eodnz",
    "placeName": "cardwell",
    "state": "MO"
  },
  {
    "city": "east prairie",
    "state_code": "MO",
    "placeMasterId": "P02500000FsoFk9VsslWbMznbrhuBQEPfil3OwYQ",
    "placeName": "east prairie",
    "state": "MO"
  },
  {
    "city": "grandview",
    "state_code": "MO",
    "placeMasterId": "P02500000FsoFkrkGtkPWo01TsldGygHHcWRxReY",
    "placeName": "grandview",
    "state": "MO"
  },
  {
    "city": "independence",
    "state_code": "MO",
    "placeMasterId": "P02500000FsoFlIHhhw8srnl0ICfWi9RhRk5k6hJ",
    "placeName": "independence",
    "state": "MO"
  },
  {
    "city": "independence",
    "state_code": "MO",
    "placeMasterId": "P02500000FsoFlIHhhw8srnl0ICfWi9RhRk5k6hJ",
    "placeName": "independence",
    "state": "MO"
  },
  {
    "city": "napoleon",
    "state_code": "MO",
    "placeMasterId": "P02500000FsoFmR3WX6lAMbiOihQs04MgRyJJURb",
    "placeName": "napoleon",
    "state": "MO"
  },
  {
    "city": "orrick",
    "state_code": "MO",
    "placeMasterId": "P02500000FsoFmikTjtujjoCkKK7hp39mT6eMEwp",
    "placeName": "orrick",
    "state": "MO"
  },
  {
    "city": "kansas city",
    "state_code": "MO",
    "placeMasterId": "P02500000FsoFlR8BJKifYP0B610wcdmJLAheztV",
    "placeName": "kansas city",
    "state": "MO"
  },
  {
    "city": "kansas city",
    "state_code": "MO",
    "placeMasterId": "P02500000FsoFlR8BJKifYP0B610wcdmJLAheztV",
    "placeName": "kansas city",
    "state": "MO"
  },
  {
    "city": "kansas city",
    "state_code": "MO",
    "placeMasterId": "P02500000FsoFlR8BJKifYP0B610wcdmJLAheztV",
    "placeName": "kansas city",
    "state": "MO"
  },
  {
    "city": "kansas city",
    "state_code": "MO",
    "placeMasterId": "P02500000FsoFlR8BJKifYP0B610wcdmJLAheztV",
    "placeName": "kansas city",
    "state": "MO"
  },
  {
    "city": "kansas city",
    "state_code": "MO",
    "placeMasterId": "P02500000FsoFlR8BJKifYP0B610wcdmJLAheztV",
    "placeName": "kansas city",
    "state": "MO"
  },
  {
    "city": "kansas city",
    "state_code": "MO",
    "placeMasterId": "P02500000FsoFlR8BJKifYP0B610wcdmJLAheztV",
    "placeName": "kansas city",
    "state": "MO"
  },
  {
    "city": "barnard",
    "state_code": "MO",
    "placeMasterId": "P02500000FsoFj0k43auJsBqDRD8q8JLILc80o2U",
    "placeName": "barnard",
    "state": "MO"
  },
  {
    "city": "oregon",
    "state_code": "MO",
    "placeMasterId": "P02500000FsoFmraxLIUWQPRv88T7jXOPQdcsYCf",
    "placeName": "oregon",
    "state": "MO"
  },
  {
    "city": "hale",
    "state_code": "MO",
    "placeMasterId": "P02500000FsoFl0akV8zJUbGegZygtAaL7HeInB9",
    "placeName": "hale",
    "state": "MO"
  },
  {
    "city": "ludlow",
    "state_code": "MO",
    "placeMasterId": "P02500000FsoFm0W5iv1oInysJGOcGbHLQVuIVFv",
    "placeName": "ludlow",
    "state": "MO"
  },
  {
    "city": "garden city",
    "state_code": "MO",
    "placeMasterId": "P02500000FsoFkitnILpk7OmJ4xHr4BqnA4np5td",
    "placeName": "garden city",
    "state": "MO"
  },
  {
    "city": "rockville",
    "state_code": "MO",
    "placeMasterId": "P02500000FsoFnQyrksnfAoQcLNqnNUx41Uo9GnU",
    "placeName": "rockville",
    "state": "MO"
  },
  {
    "city": "argyle",
    "state_code": "MO",
    "placeMasterId": "P02500000FsoFij36qnkkUzLrpaS0JKjprGFUgzc",
    "placeName": "argyle",
    "state": "MO"
  },
  {
    "city": "green ridge",
    "state_code": "MO",
    "placeMasterId": "P02500000FsoFl0akV8zJUbGegZygtAY5Z0ghKCL",
    "placeName": "green ridge",
    "state": "MO"
  },
  {
    "city": "newburg",
    "state_code": "MO",
    "placeMasterId": "P02500000FsoFmZu08VKx3CxZWVmHuYgXLLqZ7oo",
    "placeName": "newburg",
    "state": "MO"
  },
  {
    "city": "steelville",
    "state_code": "MO",
    "placeMasterId": "P02500000FsoFnifoxfxEY0uxx0XdCTmjEFne7Kf",
    "placeName": "steelville",
    "state": "MO"
  },
  {
    "city": "mansfield",
    "state_code": "MO",
    "placeMasterId": "P02500000FsoFm9MZKJbazPE374k2B5a8pfcJRpz",
    "placeName": "mansfield",
    "state": "MO"
  },
  {
    "city": "ozark",
    "state_code": "MO",
    "placeMasterId": "P02500000FsoFmraxLIUWQPRv88T7jXPKOOi1gVl",
    "placeName": "ozark",
    "state": "MO"
  },
  {
    "city": "pontiac",
    "state_code": "MO",
    "placeMasterId": "P02500000FsoFn0RQwh4J70h5vwoXe1sTQ8tYyhZ",
    "placeName": "pontiac",
    "state": "MO"
  },
  {
    "city": "mound city",
    "state_code": "KS",
    "placeMasterId": "P02500000FsoFLT5HXBfkV4SSsE8snU7mw4aK0ZN",
    "placeName": "mound city",
    "state": "KS"
  },
  {
    "city": "olathe",
    "state_code": "KS",
    "placeMasterId": "P02500000FsoFLkmEjypJsGwoTqpicSslgnGWwxM",
    "placeName": "olathe",
    "state": "KS"
  },
  {
    "city": "white cloud",
    "state_code": "KS",
    "placeMasterId": "P02500000FsoFMtY3Z9RbN4uCuLb3uNmV0Ukd8gf",
    "placeName": "white cloud",
    "state": "KS"
  },
  {
    "city": "overland park",
    "state_code": "KS",
    "placeMasterId": "P02500000FsoFLtciLNP6YsBzHfB8WxB9BAanqbl",
    "placeName": "overland park",
    "state": "KS"
  },
  {
    "city": "overland park",
    "state_code": "KS",
    "placeMasterId": "P02500000FsoFLtciLNP6YsBzHfB8WxB9BAanqbl",
    "placeName": "overland park",
    "state": "KS"
  },
  {
    "city": "goff",
    "state_code": "KS",
    "placeMasterId": "P02500000FsoFKT9wJPdFgrkFFXixQ3TLeQzmCbH",
    "placeName": "goff",
    "state": "KS"
  },
  {
    "city": "wamego",
    "state_code": "KS",
    "placeMasterId": "P02500000FsoFMkhZxkrogTf26XFdztRCDv7q0sn",
    "placeName": "wamego",
    "state": "KS"
  },
  {
    "city": "benedict",
    "state_code": "KS",
    "placeMasterId": "P02500000FsoFJTEb5daksf21crJ22crkttMcZLp",
    "placeName": "benedict",
    "state": "KS"
  },
  {
    "city": "cottonwood falls",
    "state_code": "KS",
    "placeMasterId": "P02500000FsoFJtm1tpK6wSlY2ILHm5zJSH7NvUM",
    "placeName": "cottonwood falls",
    "state": "KS"
  },
  {
    "city": "linn",
    "state_code": "KS",
    "placeMasterId": "P02500000FsoFL2XqizwORGiwSn6d411difaSq6O",
    "placeName": "linn",
    "state": "KS"
  },
  {
    "city": "narka",
    "state_code": "KS",
    "placeMasterId": "P02500000FsoFLT5HXBfkV4SSsE8snU6tPgYcDV8",
    "placeName": "narka",
    "state": "KS"
  },
  {
    "city": "cambridge",
    "state_code": "KS",
    "placeMasterId": "P02500000FsoFJc54h2AXZGHCQfeRx7Ih5xObtiH",
    "placeName": "cambridge",
    "state": "KS"
  },
  {
    "city": "coats",
    "state_code": "KS",
    "placeMasterId": "P02500000FsoFJkvYIQkKFrWNETzrrbfwNlZMzdG",
    "placeName": "coats",
    "state": "KS"
  },
  {
    "city": "coldwater",
    "state_code": "KS",
    "placeMasterId": "P02500000FsoFJkvYIQkKFrWNETzrrbd058Mgww1",
    "placeName": "coldwater",
    "state": "KS"
  },
  {
    "city": "potwin",
    "state_code": "KS",
    "placeMasterId": "P02500000FsoFM2TBwlytFTRA5TWYRRcNbPCRtOc",
    "placeName": "potwin",
    "state": "KS"
  },
  {
    "city": "valley center",
    "state_code": "KS",
    "placeMasterId": "P02500000FsoFMkhZxkrogTf26XFdztP7lVsJ1Ir",
    "placeName": "valley center",
    "state": "KS"
  },
  {
    "city": "whitewater",
    "state_code": "KS",
    "placeMasterId": "P02500000FsoFMkhZxkrogTf26XFdztT5VV5BtVq",
    "placeName": "whitewater",
    "state": "KS"
  },
  {
    "city": "winfield",
    "state_code": "KS",
    "placeMasterId": "P02500000FsoFMtY3Z9RbN4uCuLb3uNpaYOGAYGc",
    "placeName": "winfield",
    "state": "KS"
  },
  {
    "city": "wichita",
    "state_code": "KS",
    "placeMasterId": "P02500000FsoFMtY3Z9RbN4uCuLb3uNnBOyNlFLT",
    "placeName": "wichita",
    "state": "KS"
  },
  {
    "city": "wichita",
    "state_code": "KS",
    "placeMasterId": "P02500000FsoFMtY3Z9RbN4uCuLb3uNnBOyNlFLT",
    "placeName": "wichita",
    "state": "KS"
  },
  {
    "city": "sedan",
    "state_code": "KS",
    "placeMasterId": "P02500000FsoFMKA99Z8ScfvVh6DOGQIrEEldXMF",
    "placeName": "sedan",
    "state": "KS"
  },
  {
    "city": "miltonvale",
    "state_code": "KS",
    "placeMasterId": "P02500000FsoFLKEnvn5xoTDI4PnSsziwodsZecq",
    "placeName": "miltonvale",
    "state": "KS"
  },
  {
    "city": "morganville",
    "state_code": "KS",
    "placeMasterId": "P02500000FsoFLbvl8aFXBfhdg2UIhyQuT5UEyuV",
    "placeName": "morganville",
    "state": "KS"
  },
  {
    "city": "luray",
    "state_code": "KS",
    "placeMasterId": "P02500000FsoFLBOKKOWB7ry7GbS2yVMQ8A4P1pt",
    "placeName": "luray",
    "state": "KS"
  },
  {
    "city": "hoxie",
    "state_code": "KS",
    "placeMasterId": "P02500000FsoFKkqtWCmp44EarAPnF2DNgYV4TxI",
    "placeName": "hoxie",
    "state": "KS"
  },
  {
    "city": "herman",
    "state_code": "NE",
    "placeMasterId": "P02500000FsoFs8ucexqZqdVMrBFaRfIYON5Zq48",
    "placeName": "herman",
    "state": "NE"
  },
  {
    "city": "omaha",
    "state_code": "NE",
    "placeMasterId": "P02500000FsoFszzUHLJHyEyPg3K5ubV6FuzuT2T",
    "placeName": "omaha",
    "state": "NE"
  },
  {
    "city": "omaha",
    "state_code": "NE",
    "placeMasterId": "P02500000FsoFszzUHLJHyEyPg3K5ubV6FuzuT2T",
    "placeName": "omaha",
    "state": "NE"
  },
  {
    "city": "omaha",
    "state_code": "NE",
    "placeMasterId": "P02500000FsoFszzUHLJHyEyPg3K5ubV6FuzuT2T",
    "placeName": "omaha",
    "state": "NE"
  },
  {
    "city": "omaha",
    "state_code": "NE",
    "placeMasterId": "P02500000FsoFszzUHLJHyEyPg3K5ubV6FuzuT2T",
    "placeName": "omaha",
    "state": "NE"
  },
  {
    "city": "auburn",
    "state_code": "NE",
    "placeMasterId": "P02500000FsoFr08npnEILpXyQgUF9kEG9353dpw",
    "placeName": "auburn",
    "state": "NE"
  },
  {
    "city": "beaver crossing",
    "state_code": "NE",
    "placeMasterId": "P02500000FsoFr08npnEILpXyQgUF9kEJscb1qaD",
    "placeName": "beaver crossing",
    "state": "NE"
  },
  {
    "city": "manley",
    "state_code": "NE",
    "placeMasterId": "P02500000FsoFsiIX4Y9ib2U44QdG5cgBlfkNsVS",
    "placeName": "manley",
    "state": "NE"
  },
  {
    "city": "milford",
    "state_code": "NE",
    "placeMasterId": "P02500000FsoFsiIX4Y9ib2U44QdG5cnK3HEFpFc",
    "placeName": "milford",
    "state": "NE"
  },
  {
    "city": "nemaha",
    "state_code": "NE",
    "placeMasterId": "P02500000FsoFsr90fwjVHdjEsEyg073HCGZVeE6",
    "placeName": "nemaha",
    "state": "NE"
  },
  {
    "city": "palmyra",
    "state_code": "NE",
    "placeMasterId": "P02500000FsoFt8pxsjt4eqDaTrfVp5lFqy4TC50",
    "placeName": "palmyra",
    "state": "NE"
  },
  {
    "city": "plymouth",
    "state_code": "NE",
    "placeMasterId": "P02500000FsoFtHgRU8SrLRSlHg0vjaGPaGowWR2",
    "placeName": "plymouth",
    "state": "NE"
  },
  {
    "city": "weeping water",
    "state_code": "NE",
    "placeMasterId": "P02500000FsoFtzupV7LmmRgdIjk1I1zXItUY6X6",
    "placeName": "weeping water",
    "state": "NE"
  },
  {
    "city": "genoa",
    "state_code": "NE",
    "placeMasterId": "P02500000FsoFs0493ZGnA2GC3MuAXAlXqnJRQZL",
    "placeName": "genoa",
    "state": "NE"
  },
  {
    "city": "page",
    "state_code": "NE",
    "placeMasterId": "P02500000FsoFt8pxsjt4eqDaTrfVp5mXUq8iGBT",
    "placeName": "page",
    "state": "NE"
  },
  {
    "city": "wakefield",
    "state_code": "NE",
    "placeMasterId": "P02500000FsoFtzupV7LmmRgdIjk1I1yZVUL3YGQ",
    "placeName": "wakefield",
    "state": "NE"
  },
  {
    "city": "rockville",
    "state_code": "NE",
    "placeMasterId": "P02500000FsoFtQWv5X2e22hw5UMLe4Ykm4nNGGU",
    "placeName": "rockville",
    "state": "NE"
  },
  {
    "city": "sargent",
    "state_code": "NE",
    "placeMasterId": "P02500000FsoFtQWv5X2e22hw5UMLe4d6XLrL4ND",
    "placeName": "sargent",
    "state": "NE"
  },
  {
    "city": "stamford",
    "state_code": "NE",
    "placeMasterId": "P02500000FsoFtZNOgvcQidx6tIhlYYuo1nX3qkS",
    "placeName": "stamford",
    "state": "NE"
  },
  {
    "city": "big springs",
    "state_code": "NE",
    "placeMasterId": "P02500000FsoFr08npnEILpXyQgUF9kMRJRujLRT",
    "placeName": "big springs",
    "state": "NE"
  },
  {
    "city": "lodgepole",
    "state_code": "NE",
    "placeMasterId": "P02500000FsoFsZS3T9ZvuREtGcHqB8NyVl7Nf1p",
    "placeName": "lodgepole",
    "state": "NE"
  },
  {
    "city": "alliance",
    "state_code": "NE",
    "placeMasterId": "P02500000FsoFqrIKEOeVfEIncs8pFFndhlRlIca",
    "placeName": "alliance",
    "state": "NE"
  },
  {
    "city": "mitchell",
    "state_code": "NE",
    "placeMasterId": "P02500000FsoFsiIX4Y9ib2U44QdG5cmYSxt7MWt",
    "placeName": "mitchell",
    "state": "NE"
  },
  {
    "city": "new orleans",
    "state_code": "LA",
    "placeMasterId": "P02500000FsoFS21FHQDs6hiTpa26i1JVz94sOtB",
    "placeName": "new orleans",
    "state": "LA"
  },
  {
    "city": "larose",
    "state_code": "LA",
    "placeMasterId": "P02500000FsoFRkKI4d4IjVE8DxLGt2ThCU0Bmf3",
    "placeName": "larose",
    "state": "LA"
  },
  {
    "city": "rosepine",
    "state_code": "LA",
    "placeMasterId": "P02500000FsoFSSYg5bxEAVS0F14MRUSn5xmdlG0",
    "placeName": "rosepine",
    "state": "LA"
  },
  {
    "city": "baker",
    "state_code": "LA",
    "placeMasterId": "P02500000FsoFQJrW2fIRrUmOBpt5m8hSZYNWkuP",
    "placeName": "baker",
    "state": "LA"
  },
  {
    "city": "norwood",
    "state_code": "LA",
    "placeMasterId": "P02500000FsoFS21FHQDs6hiTpa26i1GnhomB8Yj",
    "placeName": "norwood",
    "state": "LA"
  },
  {
    "city": "monterey",
    "state_code": "LA",
    "placeMasterId": "P02500000FsoFS21FHQDs6hiTpa26i1Btd5uVK8t",
    "placeName": "monterey",
    "state": "LA"
  },
  {
    "city": "moreauville",
    "state_code": "LA",
    "placeMasterId": "P02500000FsoFRtAlg1e5Q6TJ1lggnWy16gz0JU0",
    "placeName": "moreauville",
    "state": "LA"
  },
  {
    "city": "campti",
    "state_code": "LA",
    "placeMasterId": "P02500000FsoFQShze3sEY61YzeEVgdFRvoxB9tR",
    "placeName": "campti",
    "state": "LA"
  },
  {
    "city": "forest hill",
    "state_code": "LA",
    "placeMasterId": "P02500000FsoFRAwNf2l9z6FR0hxbF4x6B1isdnY",
    "placeName": "forest hill",
    "state": "LA"
  },
  {
    "city": "bluff city",
    "state_code": "AR",
    "placeMasterId": "P02500000FsoEaoJ9IYvxodQU9hBDrIei8YbB1RA",
    "placeName": "bluff city",
    "state": "AR"
  },
  {
    "city": "augusta",
    "state_code": "AR",
    "placeMasterId": "P02500000FsoEafSfhAMB82BJLspnwoG4CZ8a1GJ",
    "placeName": "augusta",
    "state": "AR"
  },
  {
    "city": "cotton plant",
    "state_code": "AR",
    "placeMasterId": "P02500000FsoEb606VM5XBpuplJs3gHRQlt4NMyM",
    "placeName": "cotton plant",
    "state": "AR"
  },
  {
    "city": "guy",
    "state_code": "AR",
    "placeMasterId": "P02500000FsoEboEUWKyScq8hmNb9EjEPa12m5it",
    "placeName": "guy",
    "state": "AR"
  },
  {
    "city": "fairfield bay",
    "state_code": "AR",
    "placeMasterId": "P02500000FsoEbNh3i9F6Z2PBMwYtVG7qkJR8ho3",
    "placeName": "fairfield bay",
    "state": "AR"
  },
  {
    "city": "crawfordsville",
    "state_code": "AR",
    "placeMasterId": "P02500000FsoEbEqa6kfJsRA0Z8DTalkK7veoRNm",
    "placeName": "crawfordsville",
    "state": "AR"
  },
  {
    "city": "moro",
    "state_code": "AR",
    "placeMasterId": "P02500000FsoEcNcOvvHbNF7OzcyosgmgQvI7Eby",
    "placeName": "moro",
    "state": "AR"
  },
  {
    "city": "biggers",
    "state_code": "AR",
    "placeMasterId": "P02500000FsoEaoJ9IYvxodQU9hBDrIeNbUjYmMY",
    "placeName": "biggers",
    "state": "AR"
  },
  {
    "city": "caraway",
    "state_code": "AR",
    "placeMasterId": "P02500000FsoEax9ctxVkVEfexVWdln1FWTvUBOI",
    "placeName": "caraway",
    "state": "AR"
  },
  {
    "city": "grubbs",
    "state_code": "AR",
    "placeMasterId": "P02500000FsoEbfO0uwOfwEtWyZFjKEsUyunAZju",
    "placeName": "grubbs",
    "state": "AR"
  },
  {
    "city": "concord",
    "state_code": "AR",
    "placeMasterId": "P02500000FsoEax9ctxVkVEfexVWdln2IhehJjLS",
    "placeName": "concord",
    "state": "AR"
  },
  {
    "city": "cherokee village",
    "state_code": "AR",
    "placeMasterId": "P02500000FsoEax9ctxVkVEfexVWdln3Rc1MSNTy",
    "placeName": "cherokee village",
    "state": "AR"
  },
  {
    "city": "salem",
    "state_code": "AR",
    "placeMasterId": "P02500000FsoEcx0JLVak7e66CsMUWeFg5OvqmQn",
    "placeName": "salem",
    "state": "AR"
  },
  {
    "city": "sulphur rock",
    "state_code": "AR",
    "placeMasterId": "P02500000FsoEd5qmwuAWoFLH0ghuR8czVmP7F95",
    "placeName": "sulphur rock",
    "state": "AR"
  },
  {
    "city": "alpena",
    "state_code": "AR",
    "placeMasterId": "P02500000FsoEaWcC5lmORQw8Y4UO2JwhqZccopw",
    "placeName": "alpena",
    "state": "AR"
  },
  {
    "city": "lead hill",
    "state_code": "AR",
    "placeMasterId": "P02500000FsoEc5vRj88202d3O0Hz3hzesb8qsIX",
    "placeName": "lead hill",
    "state": "AR"
  },
  {
    "city": "dardanelle",
    "state_code": "AR",
    "placeMasterId": "P02500000FsoEbEqa6kfJsRA0Z8DTaljuYnzDKHL",
    "placeName": "dardanelle",
    "state": "AR"
  },
  {
    "city": "fort smith",
    "state_code": "AR",
    "placeMasterId": "P02500000FsoEbNh3i9F6Z2PBMwYtVG9FSSbjGea",
    "placeName": "fort smith",
    "state": "AR"
  },
  {
    "city": "ratcliff",
    "state_code": "AR",
    "placeMasterId": "P02500000FsoEco9pk70xR2qvP414c9uPk3Gvd0W",
    "placeName": "ratcliff",
    "state": "AR"
  },
  {
    "city": "choctaw",
    "state_code": "OK",
    "placeMasterId": "P02500000FsoGKgC7IFHdGmSDXaLAfdRZqFglsKH",
    "placeName": "choctaw",
    "state": "OK"
  },
  {
    "city": "tuttle",
    "state_code": "OK",
    "placeMasterId": "P02500000FsoGNoocYxyuNzq3DRwMiPdGijNnrdh",
    "placeName": "tuttle",
    "state": "OK"
  },
  {
    "city": "wynnewood",
    "state_code": "OK",
    "placeMasterId": "P02500000FsoGO6VZll8TlCKOp4dCXOUTvQHrj5p",
    "placeName": "wynnewood",
    "state": "OK"
  },
  {
    "city": "oklahoma city",
    "state_code": "OK",
    "placeMasterId": "P02500000FsoGMg2njnMctBsemxB1QUgVkw3g3BI",
    "placeName": "oklahoma city",
    "state": "OK"
  },
  {
    "city": "velma",
    "state_code": "OK",
    "placeMasterId": "P02500000FsoGNoocYxyuNzq3DRwMiPdVcskzTAy",
    "placeName": "velma",
    "state": "OK"
  },
  {
    "city": "frederick",
    "state_code": "OK",
    "placeMasterId": "P02500000FsoGLFa1hpam1BQukpiqJaxvCh56kXZ",
    "placeName": "frederick",
    "state": "OK"
  },
  {
    "city": "medicine park",
    "state_code": "OK",
    "placeMasterId": "P02500000FsoGMOLqX0D3VzOJBKUBbVs6akVA3S6",
    "placeName": "medicine park",
    "state": "OK"
  },
  {
    "city": "hennessey",
    "state_code": "OK",
    "placeMasterId": "P02500000FsoGLXGyuckLONvGMSPg8Zl24L2ZnqJ",
    "placeName": "hennessey",
    "state": "OK"
  },
  {
    "city": "depew",
    "state_code": "OK",
    "placeMasterId": "P02500000FsoGKxt4V2RCdywZ9D20Uc9fIIWIh91",
    "placeName": "depew",
    "state": "OK"
  },
  {
    "city": "wann",
    "state_code": "OK",
    "placeMasterId": "P02500000FsoGNxf6AMYh4b5E1GHmctyxYf9FXaO",
    "placeName": "wann",
    "state": "OK"
  },
  {
    "city": "tulsa",
    "state_code": "OK",
    "placeMasterId": "P02500000FsoGNfy8xZP7hOasPdawnvKembwKfLR",
    "placeName": "tulsa",
    "state": "OK"
  },
  {
    "city": "miami",
    "state_code": "OK",
    "placeMasterId": "P02500000FsoGMOLqX0D3VzOJBKUBbVr4EKMAIzA",
    "placeName": "miami",
    "state": "OK"
  },
  {
    "city": "kenefic",
    "state_code": "OK",
    "placeMasterId": "P02500000FsoGLoxw7PtulaPby56VxYPGJkHua5u",
    "placeName": "kenefic",
    "state": "OK"
  },
  {
    "city": "konawa",
    "state_code": "OK",
    "placeMasterId": "P02500000FsoGLxoPioThSBemltRvs2lqeM4XxIw",
    "placeName": "konawa",
    "state": "OK"
  },
  {
    "city": "flower mound",
    "state_code": "TX",
    "placeMasterId": "P02500000FsoGlDcvTydh4Vycycau8kfrgCsCk4U",
    "placeName": "flower mound",
    "state": "TX"
  },
  {
    "city": "irving",
    "state_code": "TX",
    "placeMasterId": "P02500000FsoGmVFDuXplFvBCCvhfL9vyF5GYbVg",
    "placeName": "irving",
    "state": "TX"
  },
  {
    "city": "kaufman",
    "state_code": "TX",
    "placeMasterId": "P02500000FsoGme5hVwPXwWQN0k35FeKsOReyxrv",
    "placeName": "kaufman",
    "state": "TX"
  },
  {
    "city": "dallas",
    "state_code": "TX",
    "placeMasterId": "P02500000FsoGkMY3rbAywuVa9kWOfoNE7vnQ9N4",
    "placeName": "dallas",
    "state": "TX"
  },
  {
    "city": "dallas",
    "state_code": "TX",
    "placeMasterId": "P02500000FsoGkMY3rbAywuVa9kWOfoNE7vnQ9N4",
    "placeName": "dallas",
    "state": "TX"
  },
  {
    "city": "anna",
    "state_code": "TX",
    "placeMasterId": "P02500000FsoGiVXr1Rfm16KJiC1xpRYLMKv4mmO",
    "placeName": "anna",
    "state": "TX"
  },
  {
    "city": "ladonia",
    "state_code": "TX",
    "placeMasterId": "P02500000FsoGmmwB7KzKd7fXoYOVA8jlHPjS14T",
    "placeName": "ladonia",
    "state": "TX"
  },
  {
    "city": "point",
    "state_code": "TX",
    "placeMasterId": "P02500000FsoGpDKIN4ngJKpVTMGbeT4V1yVscg2",
    "placeName": "point",
    "state": "TX"
  },
  {
    "city": "avery",
    "state_code": "TX",
    "placeMasterId": "P02500000FsoGieOKcqFYhhZUW0NNjvspomo13IB",
    "placeName": "avery",
    "state": "TX"
  },
  {
    "city": "henderson",
    "state_code": "TX",
    "placeMasterId": "P02500000FsoGm4hn6M6PC7RfnUfPbgodOaVWgbB",
    "placeName": "henderson",
    "state": "TX"
  },
  {
    "city": "new london",
    "state_code": "TX",
    "placeMasterId": "P02500000FsoGoV5uM5uksKbdSIXW61Bn2REfsiu",
    "placeName": "new london",
    "state": "TX"
  },
  {
    "city": "mineola",
    "state_code": "TX",
    "placeMasterId": "P02500000FsoGoDOx9IlBV87HqfqgH2NdQH9vfjM",
    "placeName": "mineola",
    "state": "TX"
  },
  {
    "city": "palestine",
    "state_code": "TX",
    "placeMasterId": "P02500000FsoGovdLAHe6w8L9rjZlpUIjlXxR4A3",
    "placeName": "palestine",
    "state": "TX"
  },
  {
    "city": "zavalla",
    "state_code": "TX",
    "placeMasterId": "P02500000FsoGsD6K2OvAjwyALPWNmklUnyiGUcW",
    "placeName": "zavalla",
    "state": "TX"
  },
  {
    "city": "arlington",
    "state_code": "TX",
    "placeMasterId": "P02500000FsoGiVXr1Rfm16KJiC1xpRRvnErdMUM",
    "placeName": "arlington",
    "state": "TX"
  },
  {
    "city": "boyd",
    "state_code": "TX",
    "placeMasterId": "P02500000FsoGjDmF2QYhS6YBjFl3NtLCKIdSTZX",
    "placeName": "boyd",
    "state": "TX"
  },
  {
    "city": "crowley",
    "state_code": "TX",
    "placeMasterId": "P02500000FsoGkDhaGCbCGJGPLwAylK05oW0BVQt",
    "placeName": "crowley",
    "state": "TX"
  },
  {
    "city": "fort worth",
    "state_code": "TX",
    "placeMasterId": "P02500000FsoGlMTP5NDTl7DnmQwK3EqQnKzuFlE",
    "placeName": "fort worth",
    "state": "TX"
  },
  {
    "city": "fort worth",
    "state_code": "TX",
    "placeMasterId": "P02500000FsoGlMTP5NDTl7DnmQwK3EqQnKzuFlE",
    "placeName": "fort worth",
    "state": "TX"
  },
  {
    "city": "whitesboro",
    "state_code": "TX",
    "placeMasterId": "P02500000FsoGs4FqR0LO3LizXbAxsGNPSglVM8t",
    "placeName": "whitesboro",
    "state": "TX"
  },
  {
    "city": "lipan",
    "state_code": "TX",
    "placeMasterId": "P02500000FsoGnMK5WvITNWeF1nmAo6DM57N67xl",
    "placeName": "lipan",
    "state": "TX"
  },
  {
    "city": "mingus",
    "state_code": "TX",
    "placeMasterId": "P02500000FsoGoDOx9IlBV87HqfqgH2SdSRlw1L4",
    "placeName": "mingus",
    "state": "TX"
  },
  {
    "city": "moran",
    "state_code": "TX",
    "placeMasterId": "P02500000FsoGoMFQkhKyBjMSeUC6BWdn3iHdtDO",
    "placeName": "moran",
    "state": "TX"
  },
  {
    "city": "tolar",
    "state_code": "TX",
    "placeMasterId": "P02500000FsoGrM1SQ1SScLV7WXRsJofBaHLGi95",
    "placeName": "tolar",
    "state": "TX"
  },
  {
    "city": "perrin",
    "state_code": "TX",
    "placeMasterId": "P02500000FsoGp4TolgDtcjaKfXvBjyfHPTp0peE",
    "placeName": "perrin",
    "state": "TX"
  },
  {
    "city": "bartlett",
    "state_code": "TX",
    "placeMasterId": "P02500000FsoGieOKcqFYhhZUW0NNjw5MyV7pvhR",
    "placeName": "bartlett",
    "state": "TX"
  },
  {
    "city": "gatesville",
    "state_code": "TX",
    "placeMasterId": "P02500000FsoGlVJsglnGRiSyaFHjxjDGUp84XUX",
    "placeName": "gatesville",
    "state": "TX"
  },
  {
    "city": "gatesville",
    "state_code": "TX",
    "placeMasterId": "P02500000FsoGlVJsglnGRiSyaFHjxjDGUp84XUX",
    "placeName": "gatesville",
    "state": "TX"
  },
  {
    "city": "crawford",
    "state_code": "TX",
    "placeMasterId": "P02500000FsoGkDhaGCbCGJGPLwAylK4plL5680T",
    "placeName": "crawford",
    "state": "TX"
  },
  {
    "city": "waco",
    "state_code": "TX",
    "placeMasterId": "P02500000FsoGrdiPcoc1zXzT8A8i8nMQbSmxQI8",
    "placeName": "waco",
    "state": "TX"
  },
  {
    "city": "brownwood",
    "state_code": "TX",
    "placeMasterId": "P02500000FsoGjDmF2QYhS6YBjFl3NtUYknptJzd",
    "placeName": "brownwood",
    "state": "TX"
  },
  {
    "city": "san angelo",
    "state_code": "TX",
    "placeMasterId": "P02500000FsoGqDFdaqqB7XXj62gX1tf1zCsiz03",
    "placeName": "san angelo",
    "state": "TX"
  },
  {
    "city": "sterling city",
    "state_code": "TX",
    "placeMasterId": "P02500000FsoGqvU1bpj6YXlb76PcaLYPfhzbM1C",
    "placeName": "sterling city",
    "state": "TX"
  },
  {
    "city": "houston",
    "state_code": "TX",
    "placeMasterId": "P02500000FsoGmDYGhkgBsigqbJ0pWBK8GcFdEcU",
    "placeName": "houston",
    "state": "TX"
  },
  {
    "city": "houston",
    "state_code": "TX",
    "placeMasterId": "P02500000FsoGmDYGhkgBsigqbJ0pWBK8GcFdEcU",
    "placeName": "houston",
    "state": "TX"
  },
  {
    "city": "conroe",
    "state_code": "TX",
    "placeMasterId": "P02500000FsoGk4r6eo1PZi1EY7pYqpW1YjRM0qs",
    "placeName": "conroe",
    "state": "TX"
  },
  {
    "city": "humble",
    "state_code": "TX",
    "placeMasterId": "P02500000FsoGmMOkJ9FyZJw1P7MFQfXHtJGBxlx",
    "placeName": "humble",
    "state": "TX"
  },
  {
    "city": "montgomery",
    "state_code": "TX",
    "placeMasterId": "P02500000FsoGoMFQkhKyBjMSeUC6BWgBgMiVjHQ",
    "placeName": "montgomery",
    "state": "TX"
  },
  {
    "city": "splendora",
    "state_code": "TX",
    "placeMasterId": "P02500000FsoGqmdY0R9JrwWQJI4Cfr77x6wWoo4",
    "placeName": "splendora",
    "state": "TX"
  },
  {
    "city": "east bernard",
    "state_code": "TX",
    "placeMasterId": "P02500000FsoGkeF14OKYK6zvlNDEUnAja6aB92F",
    "placeName": "east bernard",
    "state": "TX"
  },
  {
    "city": "fresno",
    "state_code": "TX",
    "placeMasterId": "P02500000FsoGlMTP5NDTl7DnmQwK3ExUZKZR0Mc",
    "placeName": "fresno",
    "state": "TX"
  },
  {
    "city": "pearland",
    "state_code": "TX",
    "placeMasterId": "P02500000FsoGp4TolgDtcjaKfXvBjyc8oC5JQMU",
    "placeName": "pearland",
    "state": "TX"
  },
  {
    "city": "texas city",
    "state_code": "TX",
    "placeMasterId": "P02500000FsoGrDAyocsfvkFwij6SPK8wNksUTtF",
    "placeName": "texas city",
    "state": "TX"
  },
  {
    "city": "kountze",
    "state_code": "TX",
    "placeMasterId": "P02500000FsoGmmwB7KzKd7fXoYOVA8iigyAK17d",
    "placeName": "kountze",
    "state": "TX"
  },
  {
    "city": "iola",
    "state_code": "TX",
    "placeMasterId": "P02500000FsoGmVFDuXplFvBCCvhfL9qHj5Drw7O",
    "placeName": "iola",
    "state": "TX"
  },
  {
    "city": "inez",
    "state_code": "TX",
    "placeMasterId": "P02500000FsoGmVFDuXplFvBCCvhfL9o20aI7gCp",
    "placeName": "inez",
    "state": "TX"
  },
  {
    "city": "laredo",
    "state_code": "TX",
    "placeMasterId": "P02500000FsoGnDTbvWiggvP4DzQktbfh6Rv89vp",
    "placeName": "laredo",
    "state": "TX"
  },
  {
    "city": "san antonio",
    "state_code": "TX",
    "placeMasterId": "P02500000FsoGqM67CFPxo8mttr1wwNqfYQdpCPu",
    "placeName": "san antonio",
    "state": "TX"
  },
  {
    "city": "san antonio",
    "state_code": "TX",
    "placeMasterId": "P02500000FsoGqM67CFPxo8mttr1wwNqfYQdpCPu",
    "placeName": "san antonio",
    "state": "TX"
  },
  {
    "city": "brownsville",
    "state_code": "TX",
    "placeMasterId": "P02500000FsoGjDmF2QYhS6YBjFl3NtYVw5QcyWp",
    "placeName": "brownsville",
    "state": "TX"
  },
  {
    "city": "falcon heights",
    "state_code": "TX",
    "placeMasterId": "P02500000FsoGl4mRsa3uNujSAoFUEGF63U8pgxz",
    "placeName": "falcon heights",
    "state": "TX"
  },
  {
    "city": "progreso",
    "state_code": "TX",
    "placeMasterId": "P02500000FsoGpMAlyTNSzw4gHAc1YxUYZpJNynM",
    "placeName": "progreso",
    "state": "TX"
  },
  {
    "city": "santa maria",
    "state_code": "TX",
    "placeMasterId": "P02500000FsoGqM67CFPxo8mttr1wwNzGmJfF9YT",
    "placeName": "santa maria",
    "state": "TX"
  },
  {
    "city": "sullivan city",
    "state_code": "TX",
    "placeMasterId": "P02500000FsoGqvU1bpj6YXlb76PcaLauZmNq3VT",
    "placeName": "sullivan city",
    "state": "TX"
  },
  {
    "city": "harper",
    "state_code": "TX",
    "placeMasterId": "P02500000FsoGln0ptYwpouxKBryZmiB1jFt7emQ",
    "placeName": "harper",
    "state": "TX"
  },
  {
    "city": "camp wood",
    "state_code": "TX",
    "placeMasterId": "P02500000FsoGjVTCFDiGpJ2XKsRtCs9vLIomW4e",
    "placeName": "camp wood",
    "state": "TX"
  },
  {
    "city": "bovina",
    "state_code": "TX",
    "placeMasterId": "P02500000FsoGj4vlR1yulVJ0vRPdTPC1bWd4th6",
    "placeName": "bovina",
    "state": "TX"
  },
  {
    "city": "dumas",
    "state_code": "TX",
    "placeMasterId": "P02500000FsoGkeF14OKYK6zvlNDEUn0OiZXK9oG",
    "placeName": "dumas",
    "state": "TX"
  },
  {
    "city": "happy",
    "state_code": "TX",
    "placeMasterId": "P02500000FsoGln0ptYwpouxKBryZmi99zyy9qBJ",
    "placeName": "happy",
    "state": "TX"
  },
  {
    "city": "amarillo",
    "state_code": "TX",
    "placeMasterId": "P02500000FsoGiMhNQ35zKV58uNgXuxIaAeFmU4D",
    "placeName": "amarillo",
    "state": "TX"
  },
  {
    "city": "turkey",
    "state_code": "TX",
    "placeMasterId": "P02500000FsoGrUrw1Q2FIwkIKLnIEIyzbjuORSy",
    "placeName": "turkey",
    "state": "TX"
  },
  {
    "city": "amherst",
    "state_code": "TX",
    "placeMasterId": "P02500000FsoGiMhNQ35zKV58uNgXuxEd41Gp5mC",
    "placeName": "amherst",
    "state": "TX"
  },
  {
    "city": "loop",
    "state_code": "TX",
    "placeMasterId": "P02500000FsoGnVAZ8JsG47tPpc7aiacTcvJF6Iy",
    "placeName": "loop",
    "state": "TX"
  },
  {
    "city": "abilene",
    "state_code": "TX",
    "placeMasterId": "P02500000FsoGiDqtoeWCdtpy6ZL80SrkQQVB2g4",
    "placeName": "abilene",
    "state": "TX"
  },
  {
    "city": "toyah",
    "state_code": "TX",
    "placeMasterId": "P02500000FsoGrM1SQ1SScLV7WXRsJoXDprKiSiA",
    "placeName": "toyah",
    "state": "TX"
  },
  {
    "city": "wickett",
    "state_code": "TX",
    "placeMasterId": "P02500000FsoGs4FqR0LO3LizXbAxsGNVTbG9NDw",
    "placeName": "wickett",
    "state": "TX"
  },
  {
    "city": "presidio",
    "state_code": "TX",
    "placeMasterId": "P02500000FsoGpV1FZrxFgXJr4yxRTRenReXoAni",
    "placeName": "presidio",
    "state": "TX"
  },
  {
    "city": "el paso",
    "state_code": "TX",
    "placeMasterId": "P02500000FsoGkn5UfmuL0iF6ZBYePHb6XkiWYkD",
    "placeName": "el paso",
    "state": "TX"
  },
  {
    "city": "arvada",
    "state_code": "CO",
    "placeMasterId": "P02500000FsoEmViIl4GM9tUm2HVUZT9cbsYF4K3",
    "placeName": "arvada",
    "state": "CO"
  },
  {
    "city": "aurora",
    "state_code": "CO",
    "placeMasterId": "P02500000FsoEmViIl4GM9tUm2HVUZT8wZbsyrI4",
    "placeName": "aurora",
    "state": "CO"
  },
  {
    "city": "castle rock",
    "state_code": "CO",
    "placeMasterId": "P02500000FsoEmnPFxrPvX5z7duCKORqaeNL8tmX",
    "placeName": "castle rock",
    "state": "CO"
  },
  {
    "city": "lone tree",
    "state_code": "CO",
    "placeMasterId": "P02500000FsoEnwB4n22D1twW4OxfgMooZg9BfOS",
    "placeName": "lone tree",
    "state": "CO"
  },
  {
    "city": "denver",
    "state_code": "CO",
    "placeMasterId": "P02500000FsoEmwFjZFziDhEIRiXkIwGQWtD2cc9",
    "placeName": "denver",
    "state": "CO"
  },
  {
    "city": "boulder",
    "state_code": "CO",
    "placeMasterId": "P02500000FsoEmeYmMSq8qUjwq5quTxTxPmoV1Le",
    "placeName": "boulder",
    "state": "CO"
  },
  {
    "city": "nederland",
    "state_code": "CO",
    "placeMasterId": "P02500000FsoEo51YOQbziVBgsDJ5arGClu7WfKn",
    "placeName": "nederland",
    "state": "CO"
  },
  {
    "city": "pierce",
    "state_code": "CO",
    "placeMasterId": "P02500000FsoEoMiVbDlZ5hg2TpzvPpuRD2kWW43",
    "placeName": "pierce",
    "state": "CO"
  },
  {
    "city": "genoa",
    "state_code": "CO",
    "placeMasterId": "P02500000FsoEnMnANRj4HUxor9a02PMdePsdtFx",
    "placeName": "genoa",
    "state": "CO"
  },
  {
    "city": "colorado springs",
    "state_code": "CO",
    "placeMasterId": "P02500000FsoEmwFjZFziDhEIRiXkIwGl9Aki2Up",
    "placeName": "colorado springs",
    "state": "CO"
  },
  {
    "city": "colorado springs",
    "state_code": "CO",
    "placeMasterId": "P02500000FsoEmwFjZFziDhEIRiXkIwGl9Aki2Up",
    "placeName": "colorado springs",
    "state": "CO"
  },
  {
    "city": "swink",
    "state_code": "CO",
    "placeMasterId": "P02500000FsoEonFwPPUv9VPYtH2B9J1yEkzcLus",
    "placeName": "swink",
    "state": "CO"
  },
  {
    "city": "manassa",
    "state_code": "CO",
    "placeMasterId": "P02500000FsoEo51YOQbziVBgsDJ5arBN7yBXLLk",
    "placeName": "manassa",
    "state": "CO"
  },
  {
    "city": "crawford",
    "state_code": "CO",
    "placeMasterId": "P02500000FsoEmwFjZFziDhEIRiXkIwGOPf6YUVv",
    "placeName": "crawford",
    "state": "CO"
  },
  {
    "city": "ophir",
    "state_code": "CO",
    "placeMasterId": "P02500000FsoEoDs1zpBmP6Qrg1eVVLZB04xp9pz",
    "placeName": "ophir",
    "state": "CO"
  },
  {
    "city": "palisade",
    "state_code": "CO",
    "placeMasterId": "P02500000FsoEoDs1zpBmP6Qrg1eVVLZ85JYlgpU",
    "placeName": "palisade",
    "state": "CO"
  },
  {
    "city": "basalt",
    "state_code": "CO",
    "placeMasterId": "P02500000FsoEmeYmMSq8qUjwq5quTxS9gwKaOL8",
    "placeName": "basalt",
    "state": "CO"
  },
  {
    "city": "craig",
    "state_code": "CO",
    "placeMasterId": "P02500000FsoEmwFjZFziDhEIRiXkIwEFsB6ob24",
    "placeName": "craig",
    "state": "CO"
  },
  {
    "city": "meeker",
    "state_code": "CO",
    "placeMasterId": "P02500000FsoEnwB4n22D1twW4OxfgMqGoImfOtG",
    "placeName": "meeker",
    "state": "CO"
  },
  {
    "city": "burlington",
    "state_code": "WY",
    "placeMasterId": "P02500000FsoH8lHi0NsGRdMNXbarTZwcTeyVRvO",
    "placeName": "burlington",
    "state": "WY"
  },
  {
    "city": "deaver",
    "state_code": "WY",
    "placeMasterId": "P02500000FsoH8u8BbmS38EbYLPwHO4BmHpU9vZo",
    "placeName": "deaver",
    "state": "WY"
  },
  {
    "city": "gillette",
    "state_code": "WY",
    "placeMasterId": "P02500000FsoH92yfDB1popqj9EHhIYhyaDPf4m1",
    "placeName": "gillette",
    "state": "WY"
  },
  {
    "city": "atomic city",
    "state_code": "ID",
    "placeMasterId": "P02500000FsoEzvHBSKWAkMV9YbymDVz9OqHdIS2",
    "placeName": "atomic city",
    "state": "ID"
  },
  {
    "city": "craigmont",
    "state_code": "ID",
    "placeMasterId": "P02500000FsoF047f3j5xQxkKMQKC80OJGvq4x2r",
    "placeName": "craigmont",
    "state": "ID"
  },
  {
    "city": "white bird",
    "state_code": "ID",
    "placeMasterId": "P02500000FsoF1430HV8SFASXz6k7VR0o55LpBxu",
    "placeName": "white bird",
    "state": "ID"
  },
  {
    "city": "moscow",
    "state_code": "ID",
    "placeMasterId": "P02500000FsoF0Uf5rupJUlTqlrMRrTYnOcWSDmK",
    "placeName": "moscow",
    "state": "ID"
  },
  {
    "city": "vernon",
    "state_code": "UT",
    "placeMasterId": "P02500000FsoGtvG3H9qaz9uFz9fOidHoInx5s6y",
    "placeName": "vernon",
    "state": "UT"
  },
  {
    "city": "salt lake city",
    "state_code": "UT",
    "placeMasterId": "P02500000FsoGtmPZflGoIYf5BLJyo8m8TJqdpCK",
    "placeName": "salt lake city",
    "state": "UT"
  },
  {
    "city": "salt lake city",
    "state_code": "UT",
    "placeMasterId": "P02500000FsoGtmPZflGoIYf5BLJyo8m8TJqdpCK",
    "placeName": "salt lake city",
    "state": "UT"
  },
  {
    "city": "millville",
    "state_code": "UT",
    "placeMasterId": "P02500000FsoGtD1fGAxfY9gNy5wJABWKTaCN83G",
    "placeName": "millville",
    "state": "UT"
  },
  {
    "city": "smithfield",
    "state_code": "UT",
    "placeMasterId": "P02500000FsoGtmPZflGoIYf5BLJyo8rIo5f7VrS",
    "placeName": "smithfield",
    "state": "UT"
  },
  {
    "city": "la sal",
    "state_code": "UT",
    "placeMasterId": "P02500000FsoGt4BBemNsrYRDAHatFh6bMhi94Xf",
    "placeName": "la sal",
    "state": "UT"
  },
  {
    "city": "moab",
    "state_code": "UT",
    "placeMasterId": "P02500000FsoGtLs8rZXSEkvYluHj4flPLtIu12r",
    "placeName": "moab",
    "state": "UT"
  },
  {
    "city": "holden",
    "state_code": "UT",
    "placeMasterId": "P02500000FsoGsvKi3No6AxC2MTFTLCkavF5Ieyo",
    "placeName": "holden",
    "state": "UT"
  },
  {
    "city": "redmond",
    "state_code": "UT",
    "placeMasterId": "P02500000FsoGtdZ64Mh1bxPuNWyYteW5ojCS74D",
    "placeName": "redmond",
    "state": "UT"
  },
  {
    "city": "cannonville",
    "state_code": "UT",
    "placeMasterId": "P02500000FsoGsUnHFC4k79SVx2DDbjaOJzmsIgD",
    "placeName": "cannonville",
    "state": "UT"
  },
  {
    "city": "enterprise",
    "state_code": "UT",
    "placeMasterId": "P02500000FsoGsddkqaeWnkhgkqYdWE0ZqkgIoBf",
    "placeName": "enterprise",
    "state": "UT"
  },
  {
    "city": "teasdale",
    "state_code": "UT",
    "placeMasterId": "P02500000FsoGu46WsYQNfl9Qmy0od7UhSCu78LW",
    "placeName": "teasdale",
    "state": "UT"
  },
  {
    "city": "virgin",
    "state_code": "UT",
    "placeMasterId": "P02500000FsoGu46WsYQNfl9Qmy0od7WDMwpIbAb",
    "placeName": "virgin",
    "state": "UT"
  },
  {
    "city": "veyo",
    "state_code": "UT",
    "placeMasterId": "P02500000FsoGtvG3H9qaz9uFz9fOidJrYUyKH2n",
    "placeName": "veyo",
    "state": "UT"
  },
  {
    "city": "phoenix",
    "state_code": "AZ",
    "placeMasterId": "P02500000FsoEZWgqrzjtdEDuvO4SetJca76kZR3",
    "placeName": "phoenix",
    "state": "AZ"
  },
  {
    "city": "phoenix",
    "state_code": "AZ",
    "placeMasterId": "P02500000FsoEZWgqrzjtdEDuvO4SetJca76kZR3",
    "placeName": "phoenix",
    "state": "AZ"
  },
  {
    "city": "fountain hills",
    "state_code": "AZ",
    "placeMasterId": "P02500000FsoEYoSSr0qyCE02uKLN6RSuXxw7isb",
    "placeName": "fountain hills",
    "state": "AZ"
  },
  {
    "city": "yuma",
    "state_code": "AZ",
    "placeMasterId": "P02500000FsoEaNliUNCbkpgxkG8y7pZnvCTjXZi",
    "placeName": "yuma",
    "state": "AZ"
  },
  {
    "city": "buckeye",
    "state_code": "AZ",
    "placeMasterId": "P02500000FsoEY6E4q1y2lDmAtGcHXzd6oJTSQwm",
    "placeName": "buckeye",
    "state": "AZ"
  },
  {
    "city": "vernon",
    "state_code": "AZ",
    "placeMasterId": "P02500000FsoEaNliUNCbkpgxkG8y7pVtlOcSglX",
    "placeName": "vernon",
    "state": "AZ"
  },
  {
    "city": "ganado",
    "state_code": "AZ",
    "placeMasterId": "P02500000FsoEYoSSr0qyCE02uKLN6RSXIhll3eU",
    "placeName": "ganado",
    "state": "AZ"
  },
  {
    "city": "albuquerque",
    "state_code": "NM",
    "placeMasterId": "P02500000FsoFyHJ9b0fLOT1rP66Ycj5SoodoNbU",
    "placeName": "albuquerque",
    "state": "NM"
  },
  {
    "city": "taos ski valley",
    "state_code": "NM",
    "placeMasterId": "P02500000FsoG0Q0JdxK7hThTSHHpI4pZoBPz2Ia",
    "placeName": "taos ski valley",
    "state": "NM"
  },
  {
    "city": "roy",
    "state_code": "NM",
    "placeMasterId": "P02500000FsoG08JMRAAYKHD7qeazT61xRoRNRNF",
    "placeName": "roy",
    "state": "NM"
  },
  {
    "city": "ute park",
    "state_code": "NM",
    "placeMasterId": "P02500000FsoG0YqnFLtuO4weG5dFCZDrPOODoEa",
    "placeName": "ute park",
    "state": "NM"
  },
  {
    "city": "playas",
    "state_code": "NM",
    "placeMasterId": "P02500000FsoFzzSsplaldfxx2qFZYbZl21cJlxt",
    "placeName": "playas",
    "state": "NM"
  },
  {
    "city": "hanover",
    "state_code": "NM",
    "placeMasterId": "P02500000FsoFyzXXbzYGpTFjQ9peBB6bK0bEIfv",
    "placeName": "hanover",
    "state": "NM"
  },
  {
    "city": "mimbres",
    "state_code": "NM",
    "placeMasterId": "P02500000FsoFzYvS1ZrPZsEQdPDJp8eErkLGADR",
    "placeName": "mimbres",
    "state": "NM"
  },
  {
    "city": "grady",
    "state_code": "NM",
    "placeMasterId": "P02500000FsoFyzXXbzYGpTFjQ9peBB4hurGG1Lx",
    "placeName": "grady",
    "state": "NM"
  },
  {
    "city": "henderson",
    "state_code": "NV",
    "placeMasterId": "P02500000FsoFuQSGJJ58qFQ9iAmH1VFxDxgAeEI",
    "placeName": "henderson",
    "state": "NV"
  },
  {
    "city": "henderson",
    "state_code": "NV",
    "placeMasterId": "P02500000FsoFuQSGJJ58qFQ9iAmH1VFxDxgAeEI",
    "placeName": "henderson",
    "state": "NV"
  },
  {
    "city": "tonopah",
    "state_code": "NV",
    "placeMasterId": "P02500000FsoFuqzh7UoUu39g7boWkyJ7XRcq1iF",
    "placeName": "tonopah",
    "state": "NV"
  },
  {
    "city": "ruth",
    "state_code": "NV",
    "placeMasterId": "P02500000FsoFui9DW6EiDRuVJnT6qU3Flw8acJE",
    "placeName": "ruth",
    "state": "NV"
  },
  {
    "city": "reno",
    "state_code": "NV",
    "placeMasterId": "P02500000FsoFuZIjuhevWqfKVz7gvzemDKMzraO",
    "placeName": "reno",
    "state": "NV"
  },
  {
    "city": "montello",
    "state_code": "NV",
    "placeMasterId": "P02500000FsoFui9DW6EiDRuVJnT6qTnt24V5cov",
    "placeName": "montello",
    "state": "NV"
  },
  {
    "city": "los angeles",
    "state_code": "CA",
    "placeMasterId": "P02500000FsoEiEJyfAwnXs9Xvv8xEm0Sp2kcekK",
    "placeName": "los angeles",
    "state": "CA"
  },
  {
    "city": "los angeles",
    "state_code": "CA",
    "placeMasterId": "P02500000FsoEiEJyfAwnXs9Xvv8xEm0Sp2kcekK",
    "placeName": "los angeles",
    "state": "CA"
  },
  {
    "city": "bell gardens",
    "state_code": "CA",
    "placeMasterId": "P02500000FsoEe5m8AgD1cS3UdN7poZBMxrXrAXs",
    "placeName": "bell gardens",
    "state": "CA"
  },
  {
    "city": "beverly hills",
    "state_code": "CA",
    "placeMasterId": "P02500000FsoEe5m8AgD1cS3UdN7poZE32BSPuWk",
    "placeName": "beverly hills",
    "state": "CA"
  },
  {
    "city": "el segundo",
    "state_code": "CA",
    "placeMasterId": "P02500000FsoEgETIDcrnvSj6gYJ6TujOrIL1k1N",
    "placeName": "el segundo",
    "state": "CA"
  },
  {
    "city": "cerritos",
    "state_code": "CA",
    "placeMasterId": "P02500000FsoEf5hTOSFWQeliG3XlBzlIlpTP7UB",
    "placeName": "cerritos",
    "state": "CA"
  },
  {
    "city": "carlsbad",
    "state_code": "CA",
    "placeMasterId": "P02500000FsoEefA2aGWAMr2BqcVVSWiivaOM0iP",
    "placeName": "carlsbad",
    "state": "CA"
  },
  {
    "city": "carlsbad",
    "state_code": "CA",
    "placeMasterId": "P02500000FsoEefA2aGWAMr2BqcVVSWiivaOM0iP",
    "placeName": "carlsbad",
    "state": "CA"
  },
  {
    "city": "san diego",
    "state_code": "CA",
    "placeMasterId": "P02500000FsoEkVrcJWBMXU4KmufdobvSE82FU0j",
    "placeName": "san diego",
    "state": "CA"
  },
  {
    "city": "imperial",
    "state_code": "CA",
    "placeMasterId": "P02500000FsoEhEOdROuIjfRKJEj1rLOwIYJPxcJ",
    "placeName": "imperial",
    "state": "CA"
  },
  {
    "city": "palm desert",
    "state_code": "CA",
    "placeMasterId": "P02500000FsoEjVwH5k8rjHM7AEFiRBJp2Oc2t4D",
    "placeName": "palm desert",
    "state": "CA"
  },
  {
    "city": "palm springs",
    "state_code": "CA",
    "placeMasterId": "P02500000FsoEjVwH5k8rjHM7AEFiRBKGeyucZ5S",
    "placeName": "palm springs",
    "state": "CA"
  },
  {
    "city": "redlands",
    "state_code": "CA",
    "placeMasterId": "P02500000FsoEk5KBVKS0TgKoNTdO58nIekdODzb",
    "placeName": "redlands",
    "state": "CA"
  },
  {
    "city": "riverside",
    "state_code": "CA",
    "placeMasterId": "P02500000FsoEkN18i7bZqsp9z6KDu7ViUSFSn4j",
    "placeName": "riverside",
    "state": "CA"
  },
  {
    "city": "huntington beach",
    "state_code": "CA",
    "placeMasterId": "P02500000FsoEhEOdROuIjfRKJEj1rLL32zMdZPI",
    "placeName": "huntington beach",
    "state": "CA"
  },
  {
    "city": "laguna beach",
    "state_code": "CA",
    "placeMasterId": "P02500000FsoEhew4FadenTAqiflHaoSUz0e33YT",
    "placeName": "laguna beach",
    "state": "CA"
  },
  {
    "city": "fullerton",
    "state_code": "CA",
    "placeMasterId": "P02500000FsoEgf0j1ob9zGSd5zLMDNrY2a3wavS",
    "placeName": "fullerton",
    "state": "CA"
  },
  {
    "city": "garden grove",
    "state_code": "CA",
    "placeMasterId": "P02500000FsoEgWAFQQ1NIfDSIAzwItXKd1qktLQ",
    "placeName": "garden grove",
    "state": "CA"
  },
  {
    "city": "ventura",
    "state_code": "CA",
    "placeMasterId": "P02500000FsoEkei5uul9E5JVaj13j6FL1ptM6qq",
    "placeName": "ventura",
    "state": "CA"
  },
  {
    "city": "avenal",
    "state_code": "CA",
    "placeMasterId": "P02500000FsoEdwveZHdEvqoJpYmPu4puJ3L8eam",
    "placeName": "avenal",
    "state": "CA"
  },
  {
    "city": "lamont",
    "state_code": "CA",
    "placeMasterId": "P02500000FsoEhnmXqzDRU4Q1WU6hVIryL6jYtAS",
    "placeName": "lamont",
    "state": "CA"
  },
  {
    "city": "stratford",
    "state_code": "CA",
    "placeMasterId": "P02500000FsoElMwTvte4f5XNbmk9HY73cP93Fct",
    "placeName": "stratford",
    "state": "CA"
  },
  {
    "city": "casmalia",
    "state_code": "CA",
    "placeMasterId": "P02500000FsoEeo0WBf5x3SHMeQqvN15PuO4rCwd",
    "placeName": "casmalia",
    "state": "CA"
  },
  {
    "city": "keeler",
    "state_code": "CA",
    "placeMasterId": "P02500000FsoEhW5aeC3s6rvfurPrgK5u83puaTN",
    "placeName": "keeler",
    "state": "CA"
  },
  {
    "city": "sunnyvale",
    "state_code": "CA",
    "placeMasterId": "P02500000FsoElMwTvte4f5XNbmk9HY85cDelRDT",
    "placeName": "sunnyvale",
    "state": "CA"
  },
  {
    "city": "san francisco",
    "state_code": "CA",
    "placeMasterId": "P02500000FsoEkVrcJWBMXU4KmufdobtfKVREvsP",
    "placeName": "san francisco",
    "state": "CA"
  },
  {
    "city": "bethel island",
    "state_code": "CA",
    "placeMasterId": "P02500000FsoEe5m8AgD1cS3UdN7poZDCDg7yymB",
    "placeName": "bethel island",
    "state": "CA"
  },
  {
    "city": "port costa",
    "state_code": "CA",
    "placeMasterId": "P02500000FsoEjwThtvsDn55dZfHyAeP4Y8BUAUQ",
    "placeName": "port costa",
    "state": "CA"
  },
  {
    "city": "san lorenzo",
    "state_code": "CA",
    "placeMasterId": "P02500000FsoEkei5uul9E5JVaj13j6Ix2YyKUWB",
    "placeName": "san lorenzo",
    "state": "CA"
  },
  {
    "city": "berkeley",
    "state_code": "CA",
    "placeMasterId": "P02500000FsoEeEcbm4moJ3IfRBTFj3Xr6gOP3lm",
    "placeName": "berkeley",
    "state": "CA"
  },
  {
    "city": "berkeley",
    "state_code": "CA",
    "placeMasterId": "P02500000FsoEeEcbm4moJ3IfRBTFj3Xr6gOP3lm",
    "placeName": "berkeley",
    "state": "CA"
  },
  {
    "city": "mill valley",
    "state_code": "CA",
    "placeMasterId": "P02500000FsoEierPTMg9bft4LMBCyF6e6z6u5bX",
    "placeName": "mill valley",
    "state": "CA"
  },
  {
    "city": "felton",
    "state_code": "CA",
    "placeMasterId": "P02500000FsoEgNJlp1Rac3yHUMeWOP99FFq4Npb",
    "placeName": "felton",
    "state": "CA"
  },
  {
    "city": "milpitas",
    "state_code": "CA",
    "placeMasterId": "P02500000FsoEinht4lFwIH8F9AWcsjQ1vlVAT6a",
    "placeName": "milpitas",
    "state": "CA"
  },
  {
    "city": "gustine",
    "state_code": "CA",
    "placeMasterId": "P02500000FsoEgwhgEbkjMSwyhc2C2MbQmnV0gK7",
    "placeName": "gustine",
    "state": "CA"
  },
  {
    "city": "merced",
    "state_code": "CA",
    "placeMasterId": "P02500000FsoEierPTMg9bft4LMBCyF4pk8W4LC4",
    "placeName": "merced",
    "state": "CA"
  },
  {
    "city": "monte rio",
    "state_code": "CA",
    "placeMasterId": "P02500000FsoEinht4lFwIH8F9AWcsjU4c2E0oIH",
    "placeName": "monte rio",
    "state": "CA"
  },
  {
    "city": "knights landing",
    "state_code": "CA",
    "placeMasterId": "P02500000FsoEhW5aeC3s6rvfurPrgK8PPAao7hj",
    "placeName": "knights landing",
    "state": "CA"
  },
  {
    "city": "sacramento",
    "state_code": "CA",
    "placeMasterId": "P02500000FsoEkVrcJWBMXU4KmufdobsP4JCiDgI",
    "placeName": "sacramento",
    "state": "CA"
  },
  {
    "city": "french gulch",
    "state_code": "CA",
    "placeMasterId": "P02500000FsoEgWAFQQ1NIfDSIAzwItY3LnVkyhO",
    "placeName": "french gulch",
    "state": "CA"
  },
  {
    "city": "clio",
    "state_code": "CA",
    "placeMasterId": "P02500000FsoEf5hTOSFWQeliG3XlBzmbF9q8S3f",
    "placeName": "clio",
    "state": "CA"
  },
  {
    "city": "eagleville",
    "state_code": "CA",
    "placeMasterId": "P02500000FsoEfwmL0piEYGEl4vcGew1cBGS9HWN",
    "placeName": "eagleville",
    "state": "CA"
  },
  {
    "city": "topaz",
    "state_code": "CA",
    "placeMasterId": "P02500000FsoElVmxXIDrLgmYPb5ZC2YiEHawqs8",
    "placeName": "topaz",
    "state": "CA"
  },
  {
    "city": "kings beach",
    "state_code": "CA",
    "placeMasterId": "P02500000FsoEhW5aeC3s6rvfurPrgK7ysia3dGa",
    "placeName": "kings beach",
    "state": "CA"
  },
  {
    "city": "kapolei",
    "state_code": "HI",
    "placeMasterId": "P02500000FsoEzLtH2kD1zxWSLMb6ZYWBP1W9NnS",
    "placeName": "kapolei",
    "state": "HI"
  },
  {
    "city": "kahului",
    "state_code": "HI",
    "placeMasterId": "P02500000FsoEzD2nRLdFJMHHXYFgf4CNT0CoU3I",
    "placeName": "kahului",
    "state": "HI"
  },
  {
    "city": "antelope",
    "state_code": "OR",
    "placeMasterId": "P02500000FsoGO6VZll8TlCKOp4dCXOXCJl3rSNx",
    "placeName": "antelope",
    "state": "OR"
  },
  {
    "city": "dufur",
    "state_code": "OR",
    "placeMasterId": "P02500000FsoGOftUBLRcVbJ62K0sBLvU6zK0see",
    "placeName": "dufur",
    "state": "OR"
  },
  {
    "city": "gladstone",
    "state_code": "OR",
    "placeMasterId": "P02500000FsoGOxaRO8bBsnnRdwhi0Ke3QFeKZHI",
    "placeName": "gladstone",
    "state": "OR"
  },
  {
    "city": "neskowin",
    "state_code": "OR",
    "placeMasterId": "P02500000FsoGPWyLniuKdCm8rC5NeI5KXC3EjyF",
    "placeName": "neskowin",
    "state": "OR"
  },
  {
    "city": "portland",
    "state_code": "OR",
    "placeMasterId": "P02500000FsoGPfopP7U7Jo1Jf0QnYmTaqhg2Hwh",
    "placeName": "portland",
    "state": "OR"
  },
  {
    "city": "portland",
    "state_code": "OR",
    "placeMasterId": "P02500000FsoGPfopP7U7Jo1Jf0QnYmTaqhg2Hwh",
    "placeName": "portland",
    "state": "OR"
  },
  {
    "city": "philomath",
    "state_code": "OR",
    "placeMasterId": "P02500000FsoGPfopP7U7Jo1Jf0QnYmd10Q0sCns",
    "placeName": "philomath",
    "state": "OR"
  },
  {
    "city": "sublimity",
    "state_code": "OR",
    "placeMasterId": "P02500000FsoGQ6MGDJDTNbkq4RT3IFbUbfVK85u",
    "placeName": "sublimity",
    "state": "OR"
  },
  {
    "city": "bandon",
    "state_code": "OR",
    "placeMasterId": "P02500000FsoGOFM3N9iGRnZZcsycRsnm5ltrK4B",
    "placeName": "bandon",
    "state": "OR"
  },
  {
    "city": "coos bay",
    "state_code": "OR",
    "placeMasterId": "P02500000FsoGOX30Zwrpp03vEVfSGrXpX3GIxlO",
    "placeName": "coos bay",
    "state": "OR"
  },
  {
    "city": "culver",
    "state_code": "OR",
    "placeMasterId": "P02500000FsoGOftUBLRcVbJ62K0sBLnqHiZHUvm",
    "placeName": "culver",
    "state": "OR"
  },
  {
    "city": "la pine",
    "state_code": "OR",
    "placeMasterId": "P02500000FsoGPFHOavklG0HnFZOXpJUC8kU6SO2",
    "placeName": "la pine",
    "state": "OR"
  },
  {
    "city": "fossil",
    "state_code": "OR",
    "placeMasterId": "P02500000FsoGOxaRO8bBsnnRdwhi0KZ8MnoBRab",
    "placeName": "fossil",
    "state": "OR"
  },
  {
    "city": "juntura",
    "state_code": "OR",
    "placeMasterId": "P02500000FsoGPFHOavklG0HnFZOXpJMq1rn7NDG",
    "placeName": "juntura",
    "state": "OR"
  },
  {
    "city": "edmonds",
    "state_code": "WA",
    "placeMasterId": "P02500000FsoGz3jEzQcrimiWuO6RWGdWKAr4jbK",
    "placeName": "edmonds",
    "state": "WA"
  },
  {
    "city": "kent",
    "state_code": "WA",
    "placeMasterId": "P02500000FsoGzd79P0w0TBhE7dU7AE8vavLnglK",
    "placeName": "kent",
    "state": "WA"
  },
  {
    "city": "renton",
    "state_code": "WA",
    "placeMasterId": "P02500000FsoH0ujRpa84eatnLwasMdUmishnjiO",
    "placeName": "renton",
    "state": "WA"
  },
  {
    "city": "seattle",
    "state_code": "WA",
    "placeMasterId": "P02500000FsoH13ZvQyhrLC8y9kwIH7vOQ9mB44J",
    "placeName": "seattle",
    "state": "WA"
  },
  {
    "city": "arlington",
    "state_code": "WA",
    "placeMasterId": "P02500000FsoGyCeNN3A9bBFU5W1w3KMKyL3pgr5",
    "placeName": "arlington",
    "state": "WA"
  },
  {
    "city": "ferndale",
    "state_code": "WA",
    "placeMasterId": "P02500000FsoGzCZiapCePNxhiCRrQkxWDdjTYLA",
    "placeName": "ferndale",
    "state": "WA"
  },
  {
    "city": "lynden",
    "state_code": "WA",
    "placeMasterId": "P02500000FsoH03eaDCfMWzQkX4WMthDk5NzjpGB",
    "placeName": "lynden",
    "state": "WA"
  },
  {
    "city": "oak harbor",
    "state_code": "WA",
    "placeMasterId": "P02500000FsoH0UC11OOianAGwVYcdAMJoujJsHT",
    "placeName": "oak harbor",
    "state": "WA"
  },
  {
    "city": "clallam bay",
    "state_code": "WA",
    "placeMasterId": "P02500000FsoGym2HmdTILaEBIlPbhHpD0q67cWZ",
    "placeName": "clallam bay",
    "state": "WA"
  },
  {
    "city": "irwinton",
    "state_code": "GA",
    "placeMasterId": "P02500000FsoEx4LdOOyT0LbfUN4PzicBfNNWMM3",
    "placeName": "irwinton",
    "state": "GA"
  },
  {
    "city": "roberta",
    "state_code": "GA",
    "placeMasterId": "P02500000FsoEyD7SDZakV9Z3urplHdY7k52cSbD",
    "placeName": "roberta",
    "state": "GA"
  },
  {
    "city": "warner robins",
    "state_code": "GA",
    "placeMasterId": "P02500000FsoEyvLqEYTfw9mvvvYqq5O93HROii0",
    "placeName": "warner robins",
    "state": "GA"
  },
  {
    "city": "macon",
    "state_code": "GA",
    "placeMasterId": "P02500000FsoExUt4Cahp49LBto6fjBgwFvKC0bb",
    "placeName": "macon",
    "state": "GA"
  },
  {
    "city": "waverly hall",
    "state_code": "GA",
    "placeMasterId": "P02500000FsoEyvLqEYTfw9mvvvYqq5Q7TPboBxg",
    "placeName": "waverly hall",
    "state": "GA"
  },
  {
    "city": "columbus",
    "state_code": "GA",
    "placeMasterId": "P02500000FsoEwDGlm1Vksk8cfUzuWmKM4R9DiHm",
    "placeName": "columbus",
    "state": "GA"
  },
  {
    "city": "starke",
    "state_code": "FL",
    "placeMasterId": "P02500000FsoEuV72XGaKdXCX1kqtatuHs9JOKRF",
    "placeName": "starke",
    "state": "FL"
  },
  {
    "city": "jacksonville",
    "state_code": "FL",
    "placeMasterId": "P02500000FsoEs4ivHWlyxK2ZMwyn6Zc9nJdRTGT",
    "placeName": "jacksonville",
    "state": "FL"
  },
  {
    "city": "panama city",
    "state_code": "FL",
    "placeMasterId": "P02500000FsoEte2Aut7cVvjUCsmO7xed8yxJdcN",
    "placeName": "panama city",
    "state": "FL"
  },
  {
    "city": "pensacola",
    "state_code": "FL",
    "placeMasterId": "P02500000FsoEte2Aut7cVvjUCsmO7xi1ABLGBK0",
    "placeName": "pensacola",
    "state": "FL"
  },
  {
    "city": "deltona",
    "state_code": "FL",
    "placeMasterId": "P02500000FsoEr4na3kjU97KLkGYrj90R1y2k7KQ",
    "placeName": "deltona",
    "state": "FL"
  },
  {
    "city": "casselberry",
    "state_code": "FL",
    "placeMasterId": "P02500000FsoEqeG9FZ085JapKpWbzfua4sGC2SQ",
    "placeName": "casselberry",
    "state": "FL"
  },
  {
    "city": "orlando",
    "state_code": "FL",
    "placeMasterId": "P02500000FsoEtVBhJUXppKUJP4QyDTHMDbz9uFq",
    "placeName": "orlando",
    "state": "FL"
  },
  {
    "city": "orlando",
    "state_code": "FL",
    "placeMasterId": "P02500000FsoEtVBhJUXppKUJP4QyDTHMDbz9uFq",
    "placeName": "orlando",
    "state": "FL"
  },
  {
    "city": "patrick afb",
    "state_code": "FL",
    "placeMasterId": "P02500000FsoEte2Aut7cVvjUCsmO7xeCtg2bx0f",
    "placeName": "patrick afb",
    "state": "FL"
  },
  {
    "city": "malabar",
    "state_code": "FL",
    "placeMasterId": "P02500000FsoEsmxJIVeuOKGRO0hsf1SDeJVd6W1",
    "placeName": "malabar",
    "state": "FL"
  },
  {
    "city": "vero beach",
    "state_code": "FL",
    "placeMasterId": "P02500000FsoEuveTLSJghKw3RBt9KMzs5ZihiYU",
    "placeName": "vero beach",
    "state": "FL"
  },
  {
    "city": "miami",
    "state_code": "FL",
    "placeMasterId": "P02500000FsoEsvnmtuEh4vVcBp3IZVnnnRh03zn",
    "placeName": "miami",
    "state": "FL"
  },
  {
    "city": "miami",
    "state_code": "FL",
    "placeMasterId": "P02500000FsoEsvnmtuEh4vVcBp3IZVnnnRh03zn",
    "placeName": "miami",
    "state": "FL"
  },
  {
    "city": "miami",
    "state_code": "FL",
    "placeMasterId": "P02500000FsoEsvnmtuEh4vVcBp3IZVnnnRh03zn",
    "placeName": "miami",
    "state": "FL"
  },
  {
    "city": "miami",
    "state_code": "FL",
    "placeMasterId": "P02500000FsoEsvnmtuEh4vVcBp3IZVnnnRh03zn",
    "placeName": "miami",
    "state": "FL"
  },
  {
    "city": "fort lauderdale",
    "state_code": "FL",
    "placeMasterId": "P02500000FsoErVL0rwSqCv3s9hb7Sc4XvAWhbEe",
    "placeName": "fort lauderdale",
    "state": "FL"
  },
  {
    "city": "tampa",
    "state_code": "FL",
    "placeMasterId": "P02500000FsoEudxW8fA7K8RhpZCJVOG5RK5OQjD",
    "placeName": "tampa",
    "state": "FL"
  },
  {
    "city": "clearwater",
    "state_code": "FL",
    "placeMasterId": "P02500000FsoEqn6cqxZuluq08ds1uAGuY1C0NsC",
    "placeName": "clearwater",
    "state": "FL"
  },
  {
    "city": "captiva",
    "state_code": "FL",
    "placeMasterId": "P02500000FsoEqeG9FZ085JapKpWbzfu31Bm22AL",
    "placeName": "captiva",
    "state": "FL"
  },
  {
    "city": "naples",
    "state_code": "FL",
    "placeMasterId": "P02500000FsoEtDUk6hOGS7zxnRk8OUWxbxM86aZ",
    "placeName": "naples",
    "state": "FL"
  },
  {
    "city": "arcadia",
    "state_code": "FL",
    "placeMasterId": "P02500000FsoEqDiiRNGm1VrIvOUMGClpwGMDMFW",
    "placeName": "arcadia",
    "state": "FL"
  },
  {
    "city": "ocala",
    "state_code": "FL",
    "placeMasterId": "P02500000FsoEtMLDi5y38jF8bG5YIyvCqOZlLNH",
    "placeName": "ocala",
    "state": "FL"
  },
  {
    "city": "brooksville",
    "state_code": "FL",
    "placeMasterId": "P02500000FsoEqeG9FZ085JapKpWbzfrUjbP6P2v",
    "placeName": "brooksville",
    "state": "FL"
  },
  {
    "city": "hudson",
    "state_code": "FL",
    "placeMasterId": "P02500000FsoEs4ivHWlyxK2ZMwyn6Za1x93GFO3",
    "placeName": "hudson",
    "state": "FL"
  },
  {
    "city": "aripeka",
    "state_code": "FL",
    "placeMasterId": "P02500000FsoEq4sEpygzKuc87a8wLiP7lIoxfuG",
    "placeName": "aripeka",
    "state": "FL"
  },
  {
    "city": "pell city",
    "state_code": "AL",
    "placeMasterId": "P02500000FsoEUxbZZJGle0OLDP15VDQmJlqhLSc",
    "placeName": "pell city",
    "state": "AL"
  },
  {
    "city": "athens",
    "state_code": "AL",
    "placeMasterId": "P02500000FsoESg3vuy2CeOTYMPUOvNX2ycprCdN",
    "placeName": "athens",
    "state": "AL"
  },
  {
    "city": "hillsboro",
    "state_code": "AL",
    "placeMasterId": "P02500000FsoETxgELXEGpng7aibA7msHTPqSzGl",
    "placeName": "hillsboro",
    "state": "AL"
  },
  {
    "city": "madison",
    "state_code": "AL",
    "placeMasterId": "P02500000FsoEUX48l7XPaCeonxyplkIKAzVe3xk",
    "placeName": "madison",
    "state": "AL"
  },
  {
    "city": "huntsville",
    "state_code": "AL",
    "placeMasterId": "P02500000FsoEU6Whwvo3WOvIOWwa2HFC064RRO9",
    "placeName": "huntsville",
    "state": "AL"
  },
  {
    "city": "huntsville",
    "state_code": "AL",
    "placeMasterId": "P02500000FsoEU6Whwvo3WOvIOWwa2HFC064RRO9",
    "placeName": "huntsville",
    "state": "AL"
  },
  {
    "city": "huntsville",
    "state_code": "AL",
    "placeMasterId": "P02500000FsoEU6Whwvo3WOvIOWwa2HFC064RRO9",
    "placeName": "huntsville",
    "state": "AL"
  },
  {
    "city": "brantley",
    "state_code": "AL",
    "placeMasterId": "P02500000FsoESouPWMbzKzijADpoprsraEPcbQ6",
    "placeName": "brantley",
    "state": "AL"
  },
  {
    "city": "clio",
    "state_code": "AL",
    "placeMasterId": "P02500000FsoET6bMj9lYiCD4lqWeeqd4uWyTb3h",
    "placeName": "clio",
    "state": "AL"
  },
  {
    "city": "montgomery",
    "state_code": "AL",
    "placeMasterId": "P02500000FsoEUX48l7XPaCeonxyplkMDm5NRSjd",
    "placeName": "montgomery",
    "state": "AL"
  },
  {
    "city": "montgomery",
    "state_code": "AL",
    "placeMasterId": "P02500000FsoEUX48l7XPaCeonxyplkMDm5NRSjd",
    "placeName": "montgomery",
    "state": "AL"
  },
  {
    "city": "fruithurst",
    "state_code": "AL",
    "placeMasterId": "P02500000FsoETfzH8k4hSbBlz5uKIo3s9HWU2rg",
    "placeName": "fruithurst",
    "state": "AL"
  },
  {
    "city": "ashford",
    "state_code": "AL",
    "placeMasterId": "P02500000FsoESg3vuy2CeOTYMPUOvNTlwF5RlFj",
    "placeName": "ashford",
    "state": "AL"
  },
  {
    "city": "elba",
    "state_code": "AL",
    "placeMasterId": "P02500000FsoETX8nXLUulzwbBHYuOJguz0iqucf",
    "placeName": "elba",
    "state": "AL"
  },
  {
    "city": "excel",
    "state_code": "AL",
    "placeMasterId": "P02500000FsoETX8nXLUulzwbBHYuOJgdxlrvzqE",
    "placeName": "excel",
    "state": "AL"
  },
  {
    "city": "grove hill",
    "state_code": "AL",
    "placeMasterId": "P02500000FsoETopkk8eU9CQwmuFkDIRr30LD3Qs",
    "placeName": "grove hill",
    "state": "AL"
  },
  {
    "city": "grand bay",
    "state_code": "AL",
    "placeMasterId": "P02500000FsoETopkk8eU9CQwmuFkDIRmVTS0gYn",
    "placeName": "grand bay",
    "state": "AL"
  },
  {
    "city": "mobile",
    "state_code": "AL",
    "placeMasterId": "P02500000FsoEUX48l7XPaCeonxyplkKNMXCzpeH",
    "placeName": "mobile",
    "state": "AL"
  },
  {
    "city": "bell buckle",
    "state_code": "TN",
    "placeMasterId": "P02500000FsoGfnSmYuhqxgg0RlT1W8Zn26tyPQu",
    "placeName": "bell buckle",
    "state": "TN"
  },
  {
    "city": "eagleville",
    "state_code": "TN",
    "placeMasterId": "P02500000FsoGgMqgyV0zi5ehf0qhA62KLghi0JF",
    "placeName": "eagleville",
    "state": "TN"
  },
  {
    "city": "westmoreland",
    "state_code": "TN",
    "placeMasterId": "P02500000FsoGi50QDFwPxIanIkzi5yVqEPrGuYD",
    "placeName": "westmoreland",
    "state": "TN"
  },
  {
    "city": "nashville",
    "state_code": "TN",
    "placeMasterId": "P02500000FsoGhMm2CH3UWIMvHhGcXWZ0CJVUMa1",
    "placeName": "nashville",
    "state": "TN"
  },
  {
    "city": "dunlap",
    "state_code": "TN",
    "placeMasterId": "P02500000FsoGgMqgyV0zi5ehf0qhA5r1bLqZCjw",
    "placeName": "dunlap",
    "state": "TN"
  },
  {
    "city": "whitwell",
    "state_code": "TN",
    "placeMasterId": "P02500000FsoGiDqtoeWCdtpy6ZL80SlEDNnZARt",
    "placeName": "whitwell",
    "state": "TN"
  },
  {
    "city": "luttrell",
    "state_code": "TN",
    "placeMasterId": "P02500000FsoGh554zTtv95sZg4ZmiXl6PfVpJSa",
    "placeName": "luttrell",
    "state": "TN"
  },
  {
    "city": "oneida",
    "state_code": "TN",
    "placeMasterId": "P02500000FsoGhMm2CH3UWIMvHhGcXWdM8tfpXQN",
    "placeName": "oneida",
    "state": "TN"
  },
  {
    "city": "tazewell",
    "state_code": "TN",
    "placeMasterId": "P02500000FsoGhw9wbrMdGhLcUweIBU49sWI5qjL",
    "placeName": "tazewell",
    "state": "TN"
  },
  {
    "city": "ridgely",
    "state_code": "TN",
    "placeMasterId": "P02500000FsoGhVcVnfdHCtc65Vc2S113MZ01L7g",
    "placeName": "ridgely",
    "state": "TN"
  },
  {
    "city": "memphis",
    "state_code": "TN",
    "placeMasterId": "P02500000FsoGh554zTtv95sZg4ZmiXoGr41AEmS",
    "placeName": "memphis",
    "state": "TN"
  },
  {
    "city": "camden",
    "state_code": "TN",
    "placeMasterId": "P02500000FsoGg59jlhrQKtAM3O9rL7A28BEWVhd",
    "placeName": "camden",
    "state": "TN"
  },
  {
    "city": "crump",
    "state_code": "TN",
    "placeMasterId": "P02500000FsoGgMqgyV0zi5ehf0qhA5taBELdSoS",
    "placeName": "crump",
    "state": "TN"
  },
  {
    "city": "decaturville",
    "state_code": "TN",
    "placeMasterId": "P02500000FsoGgMqgyV0zi5ehf0qhA5rW4NdxnW0",
    "placeName": "decaturville",
    "state": "TN"
  },
  {
    "city": "grimsley",
    "state_code": "TN",
    "placeMasterId": "P02500000FsoGgeXeBIAZ5I93GdXWz4p30x5bTIM",
    "placeName": "grimsley",
    "state": "TN"
  },
  {
    "city": "drew",
    "state_code": "MS",
    "placeMasterId": "P02500000FsoFh0tNc2pKFmPmBqIzNSJDkpybr1O",
    "placeName": "drew",
    "state": "MS"
  },
  {
    "city": "duncan",
    "state_code": "MS",
    "placeMasterId": "P02500000FsoFh0tNc2pKFmPmBqIzNSJNYS9tseL",
    "placeName": "duncan",
    "state": "MS"
  },
  {
    "city": "murdo",
    "state_code": "SD",
    "placeMasterId": "P02500000FsoGenXRL8fM9Txmp5368ho9Z8qrBgy",
    "placeName": "murdo",
    "state": "SD"
  },
  {
    "city": "rapid city",
    "state_code": "SD",
    "placeMasterId": "P02500000FsoGfE4s9KOiDHhJEW5LsAx3cR9wHuM",
    "placeName": "rapid city",
    "state": "SD"
  },
  {
    "city": "mayville",
    "state_code": "ND",
    "placeMasterId": "P02500000FsoGBgs2IGv9yw2EvQZqGm8bBKcAWae",
    "placeName": "mayville",
    "state": "ND"
  },
  {
    "city": "pekin",
    "state_code": "ND",
    "placeMasterId": "P02500000FsoGByYzV44jM8WaX3Gg5kmzCnR0IOl",
    "placeName": "pekin",
    "state": "ND"
  },
  {
    "city": "jamestown",
    "state_code": "ND",
    "placeMasterId": "P02500000FsoGBGKbU5Bnv8IiVzXaXIwz89mRGPS",
    "placeName": "jamestown",
    "state": "ND"
  },
  {
    "city": "gackle",
    "state_code": "ND",
    "placeMasterId": "P02500000FsoGAydeHI2EXvoMuMqkiKJp68UqBRu",
    "placeName": "gackle",
    "state": "ND"
  },
  {
    "city": "grace city",
    "state_code": "ND",
    "placeMasterId": "P02500000FsoGB7U7sgc1EX3XiBCAcocfMKaR5XZ",
    "placeName": "grace city",
    "state": "ND"
  },
  {
    "city": "bismarck",
    "state_code": "ND",
    "placeMasterId": "P02500000FsoGAPFjrhj5nWpfh7T54MfqDrJrMoa",
    "placeName": "bismarck",
    "state": "ND"
  },
  {
    "city": "solen",
    "state_code": "ND",
    "placeMasterId": "P02500000FsoGC7PT6SeW2jllKrc60FLLNCL4KcN",
    "placeName": "solen",
    "state": "ND"
  },
  {
    "city": "sterling",
    "state_code": "ND",
    "placeMasterId": "P02500000FsoI7ghaYeKZq8rmbL6JWkQLZTdTApJ",
    "placeName": "sterling",
    "state": "ND"
  },
  {
    "city": "reeder",
    "state_code": "ND",
    "placeMasterId": "P02500000FsoGByYzV44jM8WaX3Gg5ksHwpjiumx",
    "placeName": "reeder",
    "state": "ND"
  },
  {
    "city": "sentinel butte",
    "state_code": "ND",
    "placeMasterId": "P02500000FsoGC7PT6SeW2jllKrc60FHXKIqbT1B",
    "placeName": "sentinel butte",
    "state": "ND"
  },
  {
    "city": "crosby",
    "state_code": "ND",
    "placeMasterId": "P02500000FsoGAgwh4UsfAjK1Ik9utLVY8tylg8d",
    "placeName": "crosby",
    "state": "ND"
  },
  {
    "city": "albany",
    "state_code": "OR",
    "placeMasterId": "P02500000FsoGO6VZll8TlCKOp4dCXOTzwZxUIzN",
    "placeName": "albany",
    "state": "OR"
  },
  {
    "city": "reedsport",
    "state_code": "OR",
    "placeMasterId": "P02500000FsoGPfopP7U7Jo1Jf0QnYmbPPJFQ5mg",
    "placeName": "reedsport",
    "state": "OR"
  },
  {
    "city": "springfield",
    "state_code": "OR",
    "placeMasterId": "P02500000FsoGQ6MGDJDTNbkq4RT3IFaux1Blg1O",
    "placeName": "springfield",
    "state": "OR"
  },
  {
    "city": "williams",
    "state_code": "OR",
    "placeMasterId": "P02500000FsoGQO3DQ6N2koFBg49t7EIFwOlJFbL",
    "placeName": "williams",
    "state": "OR"
  },
  {
    "city": "beatty",
    "state_code": "OR",
    "placeMasterId": "P02500000FsoGOOCWyYI38OokQhK2MN7ZDYpps4E",
    "placeName": "beatty",
    "state": "OR"
  },
  {
    "city": "jarrettsville",
    "state_code": "MD",
    "placeMasterId": "P02500000FsoFUk6JjxBnA7Mn60b31KRTH5GD70j",
    "placeName": "jarrettsville",
    "state": "MD"
  },
  {
    "city": "toomsboro",
    "state_code": "GA",
    "placeMasterId": "P02500000FsoEydet1lK6YxIaKIs116faupojzN8",
    "placeName": "toomsboro",
    "state": "GA"
  },
  {
    "city": "warner robins",
    "state_code": "GA",
    "placeMasterId": "P02500000FsoEyvLqEYTfw9mvvvYqq5O93HROii0",
    "placeName": "warner robins",
    "state": "GA"
  },
  {
    "city": "savannah",
    "state_code": "GA",
    "placeMasterId": "P02500000FsoEyD7SDZakV9Z3urplHdbJAuUvfKW",
    "placeName": "savannah",
    "state": "GA"
  },
  {
    "city": "denton",
    "state_code": "GA",
    "placeMasterId": "P02500000FsoEwM7FNQ5XZLNnTJLKRGkceimqftl",
    "placeName": "denton",
    "state": "GA"
  },
  {
    "city": "douglas",
    "state_code": "GA",
    "placeMasterId": "P02500000FsoEwM7FNQ5XZLNnTJLKRGlbxeIdpCS",
    "placeName": "douglas",
    "state": "GA"
  },
  {
    "city": "jacksonville",
    "state_code": "GA",
    "placeMasterId": "P02500000FsoEx4LdOOyT0LbfUN4Pzicr9CBoGPi",
    "placeName": "jacksonville",
    "state": "GA"
  },
  {
    "city": "jesup",
    "state_code": "GA",
    "placeMasterId": "P02500000FsoEx4LdOOyT0LbfUN4Pzib0ezaV7P6",
    "placeName": "jesup",
    "state": "GA"
  },
  {
    "city": "nahunta",
    "state_code": "GA",
    "placeMasterId": "P02500000FsoExdjXnzHbkkaMhcS5dg5S0hvne2K",
    "placeName": "nahunta",
    "state": "GA"
  },
  {
    "city": "surrency",
    "state_code": "GA",
    "placeMasterId": "P02500000FsoEyUoPQMkJsM3PWUWb6cHeuheDgjo",
    "placeName": "surrency",
    "state": "GA"
  },
  {
    "city": "berlin",
    "state_code": "GA",
    "placeMasterId": "P02500000FsoEvdsrMRCc8L9vSFcEsoqGQYDpPea",
    "placeName": "berlin",
    "state": "GA"
  },
  {
    "city": "sycamore",
    "state_code": "GA",
    "placeMasterId": "P02500000FsoEydet1lK6YxIaKIs116eswnRBRVR",
    "placeName": "sycamore",
    "state": "GA"
  },
  {
    "city": "manchester",
    "state_code": "GA",
    "placeMasterId": "P02500000FsoExUt4Cahp49LBto6fjBgDB0OmpLW",
    "placeName": "manchester",
    "state": "GA"
  },
  {
    "city": "woodland",
    "state_code": "GA",
    "placeMasterId": "P02500000FsoEyvLqEYTfw9mvvvYqq5RwlTSOf3Q",
    "placeName": "woodland",
    "state": "GA"
  },
  {
    "city": "jennings",
    "state_code": "FL",
    "placeMasterId": "P02500000FsoEs4ivHWlyxK2ZMwyn6ZcVLRaY9Wh",
    "placeName": "jennings",
    "state": "FL"
  },
  {
    "city": "lee",
    "state_code": "FL",
    "placeMasterId": "P02500000FsoEse6ph757hj1GaCMSkX3E8pUwNbJ",
    "placeName": "lee",
    "state": "FL"
  },
  {
    "city": "live oak",
    "state_code": "FL",
    "placeMasterId": "P02500000FsoEse6ph757hj1GaCMSkX2tbsmap3Q",
    "placeName": "live oak",
    "state": "FL"
  },
  {
    "city": "orange park",
    "state_code": "FL",
    "placeMasterId": "P02500000FsoEtMLDi5y38jF8bG5YIyxMM6pW6Ru",
    "placeName": "orange park",
    "state": "FL"
  },
  {
    "city": "seville",
    "state_code": "FL",
    "placeMasterId": "P02500000FsoEuMGYvs0XwvxMDwVTgPWbYqAjdvw",
    "placeName": "seville",
    "state": "FL"
  },
  {
    "city": "tallahassee",
    "state_code": "FL",
    "placeMasterId": "P02500000FsoEuV72XGaKdXCX1kqtatxuQPy6zAD",
    "placeName": "tallahassee",
    "state": "FL"
  },
  {
    "city": "crawfordville",
    "state_code": "FL",
    "placeMasterId": "P02500000FsoEqn6cqxZuluq08ds1uAHaec2Ibjo",
    "placeName": "crawfordville",
    "state": "FL"
  },
  {
    "city": "panama city",
    "state_code": "FL",
    "placeMasterId": "P02500000FsoEte2Aut7cVvjUCsmO7xed8yxJdcN",
    "placeName": "panama city",
    "state": "FL"
  },
  {
    "city": "bascom",
    "state_code": "FL",
    "placeMasterId": "P02500000FsoEqDiiRNGm1VrIvOUMGCjWxAvmd2o",
    "placeName": "bascom",
    "state": "FL"
  },
  {
    "city": "wewahitchka",
    "state_code": "FL",
    "placeMasterId": "P02500000FsoEv4UwwqtTNwBEF0EZErOnqoSjqfT",
    "placeName": "wewahitchka",
    "state": "FL"
  },
  {
    "city": "westville",
    "state_code": "FL",
    "placeMasterId": "P02500000FsoEv4UwwqtTNwBEF0EZErQHfKMebsD",
    "placeName": "westville",
    "state": "FL"
  },
  {
    "city": "bagdad",
    "state_code": "FL",
    "placeMasterId": "P02500000FsoEqDiiRNGm1VrIvOUMGCljG0t78gY",
    "placeName": "bagdad",
    "state": "FL"
  },
  {
    "city": "gainesville",
    "state_code": "FL",
    "placeMasterId": "P02500000FsoErVL0rwSqCv3s9hb7Sc6QcwCAknl",
    "placeName": "gainesville",
    "state": "FL"
  },
  {
    "city": "keystone heights",
    "state_code": "FL",
    "placeMasterId": "P02500000FsoEsMPsUJvYKWWuyZfcvYIzgwhkiMv",
    "placeName": "keystone heights",
    "state": "FL"
  },
  {
    "city": "orlando",
    "state_code": "FL",
    "placeMasterId": "P02500000FsoEtVBhJUXppKUJP4QyDTHMDbz9uFq",
    "placeName": "orlando",
    "state": "FL"
  },
  {
    "city": "orlando",
    "state_code": "FL",
    "placeMasterId": "P02500000FsoEtVBhJUXppKUJP4QyDTHMDbz9uFq",
    "placeName": "orlando",
    "state": "FL"
  },
  {
    "city": "cocoa",
    "state_code": "FL",
    "placeMasterId": "P02500000FsoEqn6cqxZuluq08ds1uAFjI1CSzq5",
    "placeName": "cocoa",
    "state": "FL"
  },
  {
    "city": "merritt island",
    "state_code": "FL",
    "placeMasterId": "P02500000FsoEsmxJIVeuOKGRO0hsf1SFpS75ADW",
    "placeName": "merritt island",
    "state": "FL"
  },
  {
    "city": "homestead",
    "state_code": "FL",
    "placeMasterId": "P02500000FsoErvsRg8CCGinOZ8dNC5FcyBHlPvk",
    "placeName": "homestead",
    "state": "FL"
  },
  {
    "city": "miami",
    "state_code": "FL",
    "placeMasterId": "P02500000FsoEsvnmtuEh4vVcBp3IZVnnnRh03zn",
    "placeName": "miami",
    "state": "FL"
  },
  {
    "city": "miami",
    "state_code": "FL",
    "placeMasterId": "P02500000FsoEsvnmtuEh4vVcBp3IZVnnnRh03zn",
    "placeName": "miami",
    "state": "FL"
  },
  {
    "city": "miami",
    "state_code": "FL",
    "placeMasterId": "P02500000FsoEsvnmtuEh4vVcBp3IZVnnnRh03zn",
    "placeName": "miami",
    "state": "FL"
  },
  {
    "city": "jupiter",
    "state_code": "FL",
    "placeMasterId": "P02500000FsoEsDZOsvLldvHkAlKD13x1mDkXZSB",
    "placeName": "jupiter",
    "state": "FL"
  },
  {
    "city": "boca raton",
    "state_code": "FL",
    "placeMasterId": "P02500000FsoEqVPfeAQLOiLeX1BC5BUmAvSIYfv",
    "placeName": "boca raton",
    "state": "FL"
  },
  {
    "city": "seffner",
    "state_code": "FL",
    "placeMasterId": "P02500000FsoEuMGYvs0XwvxMDwVTgPVm5cJLMUP",
    "placeName": "seffner",
    "state": "FL"
  },
  {
    "city": "tampa",
    "state_code": "FL",
    "placeMasterId": "P02500000FsoEudxW8fA7K8RhpZCJVOG5RK5OQjD",
    "placeName": "tampa",
    "state": "FL"
  },
  {
    "city": "tampa",
    "state_code": "FL",
    "placeMasterId": "P02500000FsoEudxW8fA7K8RhpZCJVOG5RK5OQjD",
    "placeName": "tampa",
    "state": "FL"
  },
  {
    "city": "tampa",
    "state_code": "FL",
    "placeMasterId": "P02500000FsoEudxW8fA7K8RhpZCJVOG5RK5OQjD",
    "placeName": "tampa",
    "state": "FL"
  },
  {
    "city": "bay pines",
    "state_code": "FL",
    "placeMasterId": "P02500000FsoEqDiiRNGm1VrIvOUMGCkbHKOwjys",
    "placeName": "bay pines",
    "state": "FL"
  },
  {
    "city": "clearwater",
    "state_code": "FL",
    "placeMasterId": "P02500000FsoEqn6cqxZuluq08ds1uAGuY1C0NsC",
    "placeName": "clearwater",
    "state": "FL"
  },
  {
    "city": "eagle lake",
    "state_code": "FL",
    "placeMasterId": "P02500000FsoErDe3f9JGpiZWY4uHddKtQ4MRsfe",
    "placeName": "eagle lake",
    "state": "FL"
  },
  {
    "city": "sarasota",
    "state_code": "FL",
    "placeMasterId": "P02500000FsoEu4Zbj4qyZjT0cJodrQpDdnRoRQk",
    "placeName": "sarasota",
    "state": "FL"
  },
  {
    "city": "cullman",
    "state_code": "AL",
    "placeMasterId": "P02500000FsoETFRqKYLLOnSFZes4ZKzcnHRGV71",
    "placeName": "cullman",
    "state": "AL"
  },
  {
    "city": "pell city",
    "state_code": "AL",
    "placeMasterId": "P02500000FsoEUxbZZJGle0OLDP15VDQmJlqhLSc",
    "placeName": "pell city",
    "state": "AL"
  },
  {
    "city": "birmingham",
    "state_code": "AL",
    "placeMasterId": "P02500000FsoESouPWMbzKzijADpoprrGKsxshig",
    "placeName": "birmingham",
    "state": "AL"
  },
  {
    "city": "emelle",
    "state_code": "AL",
    "placeMasterId": "P02500000FsoETX8nXLUulzwbBHYuOJjREQjd9W5",
    "placeName": "emelle",
    "state": "AL"
  },
  {
    "city": "oakman",
    "state_code": "AL",
    "placeMasterId": "P02500000FsoEUol5xugyxP9APaffaj5rObX23hT",
    "placeName": "oakman",
    "state": "AL"
  },
  {
    "city": "hollywood",
    "state_code": "AL",
    "placeMasterId": "P02500000FsoEU6Whwvo3WOvIOWwa2HDqjk2NE2B",
    "placeName": "hollywood",
    "state": "AL"
  },
  {
    "city": "attalla",
    "state_code": "AL",
    "placeMasterId": "P02500000FsoESg3vuy2CeOTYMPUOvNVIKIU6J2p",
    "placeName": "attalla",
    "state": "AL"
  },
  {
    "city": "tuskegee",
    "state_code": "AL",
    "placeMasterId": "P02500000FsoEVfpxaI9h50cDESkB3fGX9KsOTZW",
    "placeName": "tuskegee",
    "state": "AL"
  },
  {
    "city": "montgomery",
    "state_code": "AL",
    "placeMasterId": "P02500000FsoEUX48l7XPaCeonxyplkMDm5NRSjd",
    "placeName": "montgomery",
    "state": "AL"
  },
  {
    "city": "montgomery",
    "state_code": "AL",
    "placeMasterId": "P02500000FsoEUX48l7XPaCeonxyplkMDm5NRSjd",
    "placeName": "montgomery",
    "state": "AL"
  },
  {
    "city": "millerville",
    "state_code": "AL",
    "placeMasterId": "P02500000FsoEUX48l7XPaCeonxyplkHad0ag6j2",
    "placeName": "millerville",
    "state": "AL"
  },
  {
    "city": "lockhart",
    "state_code": "AL",
    "placeMasterId": "P02500000FsoEUFNBYKNqD0ATCLHzwlbzOHlxLJf",
    "placeName": "lockhart",
    "state": "AL"
  },
  {
    "city": "chunchula",
    "state_code": "AL",
    "placeMasterId": "P02500000FsoET6bMj9lYiCD4lqWeeqcpSp1RqP6",
    "placeName": "chunchula",
    "state": "AL"
  },
  {
    "city": "creola",
    "state_code": "AL",
    "placeMasterId": "P02500000FsoETFRqKYLLOnSFZes4ZKxgGAptO9H",
    "placeName": "creola",
    "state": "AL"
  },
  {
    "city": "mcintosh",
    "state_code": "AL",
    "placeMasterId": "P02500000FsoEUODf9ixctbPe09dPrFwxgoaIyI5",
    "placeName": "mcintosh",
    "state": "AL"
  },
  {
    "city": "malcolm",
    "state_code": "AL",
    "placeMasterId": "P02500000FsoEUX48l7XPaCeonxyplkHt0Q5usb2",
    "placeName": "malcolm",
    "state": "AL"
  },
  {
    "city": "orrville",
    "state_code": "AL",
    "placeMasterId": "P02500000FsoEUxbZZJGle0OLDP15VDRRUjinke5",
    "placeName": "orrville",
    "state": "AL"
  },
  {
    "city": "hurtsboro",
    "state_code": "AL",
    "placeMasterId": "P02500000FsoEU6Whwvo3WOvIOWwa2HC4LQx4yA1",
    "placeName": "hurtsboro",
    "state": "AL"
  },
  {
    "city": "dickson",
    "state_code": "TN",
    "placeMasterId": "P02500000FsoGgMqgyV0zi5ehf0qhA5tITxxalzb",
    "placeName": "dickson",
    "state": "TN"
  },
  {
    "city": "gallatin",
    "state_code": "TN",
    "placeMasterId": "P02500000FsoGgVhAZtamOgtsSpC74aV1CMrsUnH",
    "placeName": "gallatin",
    "state": "TN"
  },
  {
    "city": "lebanon",
    "state_code": "TN",
    "placeMasterId": "P02500000FsoGgwEbO5K8SUdOsGEMo3ZQO0gujV7",
    "placeName": "lebanon",
    "state": "TN"
  },
  {
    "city": "white house",
    "state_code": "TN",
    "placeMasterId": "P02500000FsoGiDqtoeWCdtpy6ZL80SlMhnA1Pgk",
    "placeName": "white house",
    "state": "TN"
  },
  {
    "city": "calhoun",
    "state_code": "TN",
    "placeMasterId": "P02500000FsoGg59jlhrQKtAM3O9rL7FFxXbnO9H",
    "placeName": "calhoun",
    "state": "TN"
  },
  {
    "city": "cleveland",
    "state_code": "TN",
    "placeMasterId": "P02500000FsoGg59jlhrQKtAM3O9rL7IJqNHwESQ",
    "placeName": "cleveland",
    "state": "TN"
  },
  {
    "city": "lookout mountain",
    "state_code": "TN",
    "placeMasterId": "P02500000FsoGh554zTtv95sZg4ZmiXkqtQDSfwi",
    "placeName": "lookout mountain",
    "state": "TN"
  },
  {
    "city": "chattanooga",
    "state_code": "TN",
    "placeMasterId": "P02500000FsoGg59jlhrQKtAM3O9rL7CHHcMaKbF",
    "placeName": "chattanooga",
    "state": "TN"
  },
  {
    "city": "erwin",
    "state_code": "TN",
    "placeMasterId": "P02500000FsoGgVhAZtamOgtsSpC74aDyyRIukSF",
    "placeName": "erwin",
    "state": "TN"
  },
  {
    "city": "kingsport",
    "state_code": "TN",
    "placeMasterId": "P02500000FsoGgwEbO5K8SUdOsGEMo3MxSIHySjZ",
    "placeName": "kingsport",
    "state": "TN"
  },
  {
    "city": "andersonville",
    "state_code": "TN",
    "placeMasterId": "P02500000FsoGfnSmYuhqxgg0RlT1W8Y11pApiOB",
    "placeName": "andersonville",
    "state": "TN"
  },
  {
    "city": "greenback",
    "state_code": "TN",
    "placeMasterId": "P02500000FsoGgeXeBIAZ5I93GdXWz4hOP0GAQ5S",
    "placeName": "greenback",
    "state": "TN"
  },
  {
    "city": "jacksboro",
    "state_code": "TN",
    "placeMasterId": "P02500000FsoGgnO7mgkLltOE4RswtZD3iFXUTZp",
    "placeName": "jacksboro",
    "state": "TN"
  },
  {
    "city": "knoxville",
    "state_code": "TN",
    "placeMasterId": "P02500000FsoGgwEbO5K8SUdOsGEMo3NrnN3KYab",
    "placeName": "knoxville",
    "state": "TN"
  },
  {
    "city": "henning",
    "state_code": "TN",
    "placeMasterId": "P02500000FsoGgeXeBIAZ5I93GdXWz4nV5TVRUuM",
    "placeName": "henning",
    "state": "TN"
  },
  {
    "city": "rossville",
    "state_code": "TN",
    "placeMasterId": "P02500000FsoGheSzP4D3tUrGtJxSMVJk06g71AT",
    "placeName": "rossville",
    "state": "TN"
  },
  {
    "city": "memphis",
    "state_code": "TN",
    "placeMasterId": "P02500000FsoGh554zTtv95sZg4ZmiXoGr41AEmS",
    "placeName": "memphis",
    "state": "TN"
  },
  {
    "city": "big sandy",
    "state_code": "TN",
    "placeMasterId": "P02500000FsoGfwJGAJHdeHvBFZoRQcoUnMbFnhZ",
    "placeName": "big sandy",
    "state": "TN"
  },
  {
    "city": "gleason",
    "state_code": "TN",
    "placeMasterId": "P02500000FsoGgeXeBIAZ5I93GdXWz4hNxB7GGER",
    "placeName": "gleason",
    "state": "TN"
  },
  {
    "city": "huntingdon",
    "state_code": "TN",
    "placeMasterId": "P02500000FsoGgnO7mgkLltOE4RswtZ3iIYCshQ1",
    "placeName": "huntingdon",
    "state": "TN"
  },
  {
    "city": "ethridge",
    "state_code": "TN",
    "placeMasterId": "P02500000FsoGgVhAZtamOgtsSpC74aMG6zs22ag",
    "placeName": "ethridge",
    "state": "TN"
  },
  {
    "city": "sparta",
    "state_code": "TN",
    "placeMasterId": "P02500000FsoGhnJT0Smqa66Rh8IsGzj1OEYilxM",
    "placeName": "sparta",
    "state": "TN"
  },
  {
    "city": "ripley",
    "state_code": "MS",
    "placeMasterId": "P02500000FsoFi0oiporp3z7zoWiukswWWRbP9HT",
    "placeName": "ripley",
    "state": "MS"
  },
  {
    "city": "walls",
    "state_code": "MS",
    "placeMasterId": "P02500000FsoFiRM9e0bB7mrWDxlAULvYtKsweVz",
    "placeName": "walls",
    "state": "MS"
  },
  {
    "city": "boyle",
    "state_code": "MS",
    "placeMasterId": "P02500000FsoFgjCQPFfksZvQaDc9YTU4AAlGglr",
    "placeName": "boyle",
    "state": "MS"
  },
  {
    "city": "booneville",
    "state_code": "MS",
    "placeMasterId": "P02500000FsoFgaLwnr5yBygFmPGjdzA4BLxzhIU",
    "placeName": "booneville",
    "state": "MS"
  },
  {
    "city": "golden",
    "state_code": "MS",
    "placeMasterId": "P02500000FsoFhIaKopytcyu7nSzpCQz49anSOvH",
    "placeName": "golden",
    "state": "MS"
  },
  {
    "city": "holcomb",
    "state_code": "MS",
    "placeMasterId": "P02500000FsoFhIaKopytcyu7nSzpCR5HFWIq8f2",
    "placeName": "holcomb",
    "state": "MS"
  },
  {
    "city": "louise",
    "state_code": "MS",
    "placeMasterId": "P02500000FsoFhaHI1d8T0BOTP5gf1Pd3nXHhGi2",
    "placeName": "louise",
    "state": "MS"
  },
  {
    "city": "vicksburg",
    "state_code": "MS",
    "placeMasterId": "P02500000FsoFiRM9e0bB7mrWDxlAULscYoDNsAk",
    "placeName": "vicksburg",
    "state": "MS"
  },
  {
    "city": "meridian",
    "state_code": "MS",
    "placeMasterId": "P02500000FsoFhj7ld1iFgmdeCu24vu7e7IQOcP0",
    "placeName": "meridian",
    "state": "MS"
  },
  {
    "city": "noxapater",
    "state_code": "MS",
    "placeMasterId": "P02500000FsoFhryFEQI2NNsp0iNUqOOKPj3NI4u",
    "placeName": "noxapater",
    "state": "MS"
  },
  {
    "city": "pachuta",
    "state_code": "MS",
    "placeMasterId": "P02500000FsoFi0oiporp3z7zoWiukskRNTeupmL",
    "placeName": "pachuta",
    "state": "MS"
  },
  {
    "city": "seminary",
    "state_code": "MS",
    "placeMasterId": "P02500000FsoFi9fCRDRbkaNAcL4KfNAOIwDZkXL",
    "placeName": "seminary",
    "state": "MS"
  },
  {
    "city": "mccomb",
    "state_code": "MS",
    "placeMasterId": "P02500000FsoFhaHI1d8T0BOTP5gf1Plpa7QkMtP",
    "placeName": "mccomb",
    "state": "MS"
  },
  {
    "city": "woodland",
    "state_code": "MS",
    "placeMasterId": "P02500000FsoFiaCdFPAxoO6h1m6aOqG7RlmVdeD",
    "placeName": "woodland",
    "state": "MS"
  },
  {
    "city": "bainbridge",
    "state_code": "GA",
    "placeMasterId": "P02500000FsoEvV2Nl2cpRjukeRGoyKXZWNfkkGG",
    "placeName": "bainbridge",
    "state": "GA"
  },
  {
    "city": "bronwood",
    "state_code": "GA",
    "placeMasterId": "P02500000FsoEvmjKxpmOowP6G3xenJG2GgFN50u",
    "placeName": "bronwood",
    "state": "GA"
  },
  {
    "city": "donalsonville",
    "state_code": "GA",
    "placeMasterId": "P02500000FsoEwM7FNQ5XZLNnTJLKRGjoo0hxWa5",
    "placeName": "donalsonville",
    "state": "GA"
  },
  {
    "city": "prospect",
    "state_code": "KY",
    "placeMasterId": "P02500000FsoFPJwAotFx3I4AZ9TAOiHxMpR9KNw",
    "placeName": "prospect",
    "state": "KY"
  },
  {
    "city": "lebanon junction",
    "state_code": "KY",
    "placeMasterId": "P02500000FsoFObhmnuN1cHqIY5k4qGNdeRUOctb",
    "placeName": "lebanon junction",
    "state": "KY"
  },
  {
    "city": "vine grove",
    "state_code": "KY",
    "placeMasterId": "P02500000FsoFPtK5ETZ5nh2rmOqq2fgZL64PXZd",
    "placeName": "vine grove",
    "state": "KY"
  },
  {
    "city": "louisville",
    "state_code": "KY",
    "placeMasterId": "P02500000FsoFOkYGPIwoIt5TLu5UkkhkzCsPo64",
    "placeName": "louisville",
    "state": "KY"
  },
  {
    "city": "louisville",
    "state_code": "KY",
    "placeMasterId": "P02500000FsoFOkYGPIwoIt5TLu5UkkhkzCsPo64",
    "placeName": "louisville",
    "state": "KY"
  },
  {
    "city": "frenchburg",
    "state_code": "KY",
    "placeMasterId": "P02500000FsoFO2JsOK3srsrbKqMPCItJ0HssDNV",
    "placeName": "frenchburg",
    "state": "KY"
  }
]