[
  {
    "city": "bryan",
    "state_code": "TX",
    "placeMasterId": "P02500000FsoGjDmF2QYhS6YBjFl3NtQgH5uAyKI",
    "placeName": "bryan",
    "state": "TX"
  },
  {
    "city": "victoria",
    "state_code": "TX",
    "placeMasterId": "P02500000FsoGrdiPcoc1zXzT8A8i8nPOiX3939k",
    "placeName": "victoria",
    "state": "TX"
  },
  {
    "city": "devine",
    "state_code": "TX",
    "placeMasterId": "P02500000FsoGkVOXSzkldVkkxYroaIc5xXqhnvN",
    "placeName": "devine",
    "state": "TX"
  },
  {
    "city": "laredo",
    "state_code": "TX",
    "placeMasterId": "P02500000FsoGnDTbvWiggvP4DzQktbfh6Rv89vp",
    "placeName": "laredo",
    "state": "TX"
  },
  {
    "city": "san ygnacio",
    "state_code": "TX",
    "placeMasterId": "P02500000FsoGqM67CFPxo8mttr1wwO57rKPMv7l",
    "placeName": "san ygnacio",
    "state": "TX"
  },
  {
    "city": "ingleside",
    "state_code": "TX",
    "placeMasterId": "P02500000FsoGmVFDuXplFvBCCvhfL9r4pVl01v7",
    "placeName": "ingleside",
    "state": "TX"
  },
  {
    "city": "mathis",
    "state_code": "TX",
    "placeMasterId": "P02500000FsoGnvhzwVbc7vcwF39qS3bUEIaoIu0",
    "placeName": "mathis",
    "state": "TX"
  },
  {
    "city": "mirando city",
    "state_code": "TX",
    "placeMasterId": "P02500000FsoGo4YTXuBOoWs72rVGMYB3C6eaJrj",
    "placeName": "mirando city",
    "state": "TX"
  },
  {
    "city": "orange grove",
    "state_code": "TX",
    "placeMasterId": "P02500000FsoGovdLAHe6w8L9rjZlpUD9KKXWltx",
    "placeName": "orange grove",
    "state": "TX"
  },
  {
    "city": "corpus christi",
    "state_code": "TX",
    "placeMasterId": "P02500000FsoGkDhaGCbCGJGPLwAylJumHp42lmi",
    "placeName": "corpus christi",
    "state": "TX"
  },
  {
    "city": "corpus christi",
    "state_code": "TX",
    "placeMasterId": "P02500000FsoGkDhaGCbCGJGPLwAylJumHp42lmi",
    "placeName": "corpus christi",
    "state": "TX"
  },
  {
    "city": "georgetown",
    "state_code": "TX",
    "placeMasterId": "P02500000FsoGlVJsglnGRiSyaFHjxjL4riowMVX",
    "placeName": "georgetown",
    "state": "TX"
  },
  {
    "city": "austin",
    "state_code": "TX",
    "placeMasterId": "P02500000FsoGieOKcqFYhhZUW0NNjvrbzzBh3wR",
    "placeName": "austin",
    "state": "TX"
  },
  {
    "city": "asherton",
    "state_code": "TX",
    "placeMasterId": "P02500000FsoGieOKcqFYhhZUW0NNjvpu6ayuWNH",
    "placeName": "asherton",
    "state": "TX"
  },
  {
    "city": "borger",
    "state_code": "TX",
    "placeMasterId": "P02500000FsoGj4vlR1yulVJ0vRPdTP0CLlFM3iO",
    "placeName": "borger",
    "state": "TX"
  },
  {
    "city": "follett",
    "state_code": "TX",
    "placeMasterId": "P02500000FsoGlDcvTydh4Vycycau8kV4xDI3zCi",
    "placeName": "follett",
    "state": "TX"
  },
  {
    "city": "friona",
    "state_code": "TX",
    "placeMasterId": "P02500000FsoGlDcvTydh4Vycycau8kkeur04Rkh",
    "placeName": "friona",
    "state": "TX"
  },
  {
    "city": "gruver",
    "state_code": "TX",
    "placeMasterId": "P02500000FsoGln0ptYwpouxKBryZmhyvJwUW9Qy",
    "placeName": "gruver",
    "state": "TX"
  },
  {
    "city": "pampa",
    "state_code": "TX",
    "placeMasterId": "P02500000FsoGp4TolgDtcjaKfXvBjyVIfJKJITa",
    "placeName": "pampa",
    "state": "TX"
  },
  {
    "city": "wheeler",
    "state_code": "TX",
    "placeMasterId": "P02500000FsoGrvPMpblbMkTojmpXxm46ecINS1W",
    "placeName": "wheeler",
    "state": "TX"
  },
  {
    "city": "crowell",
    "state_code": "TX",
    "placeMasterId": "P02500000FsoGkDhaGCbCGJGPLwAylKAjTAq8Bxq",
    "placeName": "crowell",
    "state": "TX"
  },
  {
    "city": "lockney",
    "state_code": "TX",
    "placeMasterId": "P02500000FsoGnVAZ8JsG47tPpc7aiaZVKfbN6Xp",
    "placeName": "lockney",
    "state": "TX"
  },
  {
    "city": "shallowater",
    "state_code": "TX",
    "placeMasterId": "P02500000FsoGqdn4P2ZXBLHFVTimlMerUPpLvkX",
    "placeName": "shallowater",
    "state": "TX"
  },
  {
    "city": "whiteface",
    "state_code": "TX",
    "placeMasterId": "P02500000FsoGs4FqR0LO3LizXbAxsGJUr9lrGgJ",
    "placeName": "whiteface",
    "state": "TX"
  },
  {
    "city": "lubbock",
    "state_code": "TX",
    "placeMasterId": "P02500000FsoGne12jiS2kj8adQT0d50AbRrldL6",
    "placeName": "lubbock",
    "state": "TX"
  },
  {
    "city": "aurora",
    "state_code": "CO",
    "placeMasterId": "P02500000FsoEmViIl4GM9tUm2HVUZT8wZbsyrI4",
    "placeName": "aurora",
    "state": "CO"
  },
  {
    "city": "westminster",
    "state_code": "CO",
    "placeMasterId": "P02500000FsoEow6Q0o4hq6ejh5Nb3nSsC1RZmhZ",
    "placeName": "westminster",
    "state": "CO"
  },
  {
    "city": "littleton",
    "state_code": "CO",
    "placeMasterId": "P02500000FsoEnwB4n22D1twW4OxfgMnLpWDqofA",
    "placeName": "littleton",
    "state": "CO"
  },
  {
    "city": "watkins",
    "state_code": "CO",
    "placeMasterId": "P02500000FsoEow6Q0o4hq6ejh5Nb3nQ2VKFXJYc",
    "placeName": "watkins",
    "state": "CO"
  },
  {
    "city": "denver",
    "state_code": "CO",
    "placeMasterId": "P02500000FsoEmwFjZFziDhEIRiXkIwGQWtD2cc9",
    "placeName": "denver",
    "state": "CO"
  },
  {
    "city": "brighton",
    "state_code": "CO",
    "placeMasterId": "P02500000FsoEmeYmMSq8qUjwq5quTxXGQc8hW0X",
    "placeName": "brighton",
    "state": "CO"
  },
  {
    "city": "orchard",
    "state_code": "CO",
    "placeMasterId": "P02500000FsoEoDs1zpBmP6Qrg1eVVLaLRDLHJNv",
    "placeName": "orchard",
    "state": "CO"
  },
  {
    "city": "fort morgan",
    "state_code": "CO",
    "placeMasterId": "P02500000FsoEnMnANRj4HUxor9a02PMCpoMbONQ",
    "placeName": "fort morgan",
    "state": "CO"
  },
  {
    "city": "holyoke",
    "state_code": "CO",
    "placeMasterId": "P02500000FsoEnVddyqIqy6CzexvPwtiwZDYFm68",
    "placeName": "holyoke",
    "state": "CO"
  },
  {
    "city": "peetz",
    "state_code": "CO",
    "placeMasterId": "P02500000FsoEoMiVbDlZ5hg2TpzvPpv6EOlVInP",
    "placeName": "peetz",
    "state": "CO"
  },
  {
    "city": "cripple creek",
    "state_code": "CO",
    "placeMasterId": "P02500000FsoEmwFjZFziDhEIRiXkIwG338jDOMf",
    "placeName": "cripple creek",
    "state": "CO"
  },
  {
    "city": "divide",
    "state_code": "CO",
    "placeMasterId": "P02500000FsoEn56DAeZUuITTFWtADQZFiEpFgxS",
    "placeName": "divide",
    "state": "CO"
  },
  {
    "city": "colorado springs",
    "state_code": "CO",
    "placeMasterId": "P02500000FsoEmwFjZFziDhEIRiXkIwGl9Aki2Up",
    "placeName": "colorado springs",
    "state": "CO"
  },
  {
    "city": "ordway",
    "state_code": "CO",
    "placeMasterId": "P02500000FsoEoDs1zpBmP6Qrg1eVVLaUHqhDvN7",
    "placeName": "ordway",
    "state": "CO"
  },
  {
    "city": "pine bluffs",
    "state_code": "WY",
    "placeMasterId": "P02500000FsoH9TW61MlBsdaFYfJx21loFDwKbQR",
    "placeName": "pine bluffs",
    "state": "WY"
  },
  {
    "city": "arapahoe",
    "state_code": "WY",
    "placeMasterId": "P02500000FsoH8cREOzITl27CjnFRZ5Xvtj9Hlm6",
    "placeName": "arapahoe",
    "state": "WY"
  },
  {
    "city": "irwin",
    "state_code": "ID",
    "placeMasterId": "P02500000FsoF0Uf5rupJUlTqlrMRrTTg62NYz9h",
    "placeName": "irwin",
    "state": "ID"
  },
  {
    "city": "peck",
    "state_code": "ID",
    "placeMasterId": "P02500000FsoF0mM34hysrxyCNU3HgSH5jXWIiPE",
    "placeName": "peck",
    "state": "ID"
  },
  {
    "city": "stites",
    "state_code": "ID",
    "placeMasterId": "P02500000FsoF1430HV8SFASXz6k7VR0tkneFirI",
    "placeName": "stites",
    "state": "ID"
  },
  {
    "city": "harrison",
    "state_code": "ID",
    "placeMasterId": "P02500000FsoF0LocGWFWoAEfy311wz7ABiUaSlW",
    "placeName": "harrison",
    "state": "ID"
  },
  {
    "city": "mullan",
    "state_code": "ID",
    "placeMasterId": "P02500000FsoF0dVZTJP6BMj1Zfhrlxu0snjQmKM",
    "placeName": "mullan",
    "state": "ID"
  },
  {
    "city": "south jordan",
    "state_code": "UT",
    "placeMasterId": "P02500000FsoGtmPZflGoIYf5BLJyo8widmuQqWm",
    "placeName": "south jordan",
    "state": "UT"
  },
  {
    "city": "salt lake city",
    "state_code": "UT",
    "placeMasterId": "P02500000FsoGtmPZflGoIYf5BLJyo8m8TJqdpCK",
    "placeName": "salt lake city",
    "state": "UT"
  },
  {
    "city": "cornish",
    "state_code": "UT",
    "placeMasterId": "P02500000FsoGsddkqaeWnkhgkqYdWDtK7DxdeyP",
    "placeName": "cornish",
    "state": "UT"
  },
  {
    "city": "ogden",
    "state_code": "UT",
    "placeMasterId": "P02500000FsoGtUicSy7EvMAjZid8zAAtcfI8iZF",
    "placeName": "ogden",
    "state": "UT"
  },
  {
    "city": "spanish fork",
    "state_code": "UT",
    "placeMasterId": "P02500000FsoGtmPZflGoIYf5BLJyo8uoynXcb2a",
    "placeName": "spanish fork",
    "state": "UT"
  },
  {
    "city": "loa",
    "state_code": "UT",
    "placeMasterId": "P02500000FsoGtD1fGAxfY9gNy5wJABO6vXRjWg0",
    "placeName": "loa",
    "state": "UT"
  },
  {
    "city": "torrey",
    "state_code": "UT",
    "placeMasterId": "P02500000FsoGtvG3H9qaz9uFz9fOidDDF4z3cgJ",
    "placeName": "torrey",
    "state": "UT"
  },
  {
    "city": "phoenix",
    "state_code": "AZ",
    "placeMasterId": "P02500000FsoEZWgqrzjtdEDuvO4SetJca76kZR3",
    "placeName": "phoenix",
    "state": "AZ"
  },
  {
    "city": "phoenix",
    "state_code": "AZ",
    "placeMasterId": "P02500000FsoEZWgqrzjtdEDuvO4SetJca76kZR3",
    "placeName": "phoenix",
    "state": "AZ"
  },
  {
    "city": "phoenix",
    "state_code": "AZ",
    "placeMasterId": "P02500000FsoEZWgqrzjtdEDuvO4SetJca76kZR3",
    "placeName": "phoenix",
    "state": "AZ"
  },
  {
    "city": "phoenix",
    "state_code": "AZ",
    "placeMasterId": "P02500000FsoEZWgqrzjtdEDuvO4SetJca76kZR3",
    "placeName": "phoenix",
    "state": "AZ"
  },
  {
    "city": "gilbert",
    "state_code": "AZ",
    "placeMasterId": "P02500000FsoEYoSSr0qyCE02uKLN6RRSCzrOsv4",
    "placeName": "gilbert",
    "state": "AZ"
  },
  {
    "city": "bouse",
    "state_code": "AZ",
    "placeMasterId": "P02500000FsoEY6E4q1y2lDmAtGcHXzcy42A0NZD",
    "placeName": "bouse",
    "state": "AZ"
  },
  {
    "city": "wittmann",
    "state_code": "AZ",
    "placeMasterId": "P02500000FsoEaNliUNCbkpgxkG8y7pZLpS9kQFa",
    "placeName": "wittmann",
    "state": "AZ"
  },
  {
    "city": "yuma",
    "state_code": "AZ",
    "placeMasterId": "P02500000FsoEaNliUNCbkpgxkG8y7pZnvCTjXZi",
    "placeName": "yuma",
    "state": "AZ"
  },
  {
    "city": "marana",
    "state_code": "AZ",
    "placeMasterId": "P02500000FsoEZEztfCaKG1jZJlNcpua6gvbxMoT",
    "placeName": "marana",
    "state": "AZ"
  },
  {
    "city": "tucson",
    "state_code": "AZ",
    "placeMasterId": "P02500000FsoEa64lHa32NdCc8dS8IqpdZHyNtyf",
    "placeName": "tucson",
    "state": "AZ"
  },
  {
    "city": "whiteriver",
    "state_code": "AZ",
    "placeMasterId": "P02500000FsoEaNliUNCbkpgxkG8y7pXEbqkXd3L",
    "placeName": "whiteriver",
    "state": "AZ"
  },
  {
    "city": "many farms",
    "state_code": "AZ",
    "placeMasterId": "P02500000FsoEZEztfCaKG1jZJlNcpuZEoPhWbA2",
    "placeName": "many farms",
    "state": "AZ"
  },
  {
    "city": "algodones",
    "state_code": "NM",
    "placeMasterId": "P02500000FsoFyHJ9b0fLOT1rP66Ycj8qxWuoowT",
    "placeName": "algodones",
    "state": "NM"
  },
  {
    "city": "coyote",
    "state_code": "NM",
    "placeMasterId": "P02500000FsoFyhqaPCOhSGlNoX8oMCQDPZC9OuP",
    "placeName": "coyote",
    "state": "NM"
  },
  {
    "city": "mcintosh",
    "state_code": "NM",
    "placeMasterId": "P02500000FsoFzYvS1ZrPZsEQdPDJp8ZQRq8ChoK",
    "placeName": "mcintosh",
    "state": "NM"
  },
  {
    "city": "sandia park",
    "state_code": "NM",
    "placeMasterId": "P02500000FsoG08JMRAAYKHD7qeazT69xvxbna4c",
    "placeName": "sandia park",
    "state": "NM"
  },
  {
    "city": "albuquerque",
    "state_code": "NM",
    "placeMasterId": "P02500000FsoFyHJ9b0fLOT1rP66Ycj5SoodoNbU",
    "placeName": "albuquerque",
    "state": "NM"
  },
  {
    "city": "gallup",
    "state_code": "NM",
    "placeMasterId": "P02500000FsoFyzXXbzYGpTFjQ9peBBB2JTMs6K6",
    "placeName": "gallup",
    "state": "NM"
  },
  {
    "city": "la plata",
    "state_code": "NM",
    "placeMasterId": "P02500000FsoFzHEUomhqCfk51mWU09kO4y2cG5r",
    "placeName": "la plata",
    "state": "NM"
  },
  {
    "city": "santa fe",
    "state_code": "NM",
    "placeMasterId": "P02500000FsoG0H9q2YkL0sSIeSwPNaViwlgh893",
    "placeName": "santa fe",
    "state": "NM"
  },
  {
    "city": "rincon",
    "state_code": "NM",
    "placeMasterId": "P02500000FsoG08JMRAAYKHD7qeazT61MyfJmPZ0",
    "placeName": "rincon",
    "state": "NM"
  },
  {
    "city": "las cruces",
    "state_code": "NM",
    "placeMasterId": "P02500000FsoFzQ4yQBHctGzFpartueC0C0ojOkG",
    "placeName": "las cruces",
    "state": "NM"
  },
  {
    "city": "las cruces",
    "state_code": "NM",
    "placeMasterId": "P02500000FsoFzQ4yQBHctGzFpartueC0C0ojOkG",
    "placeName": "las cruces",
    "state": "NM"
  },
  {
    "city": "arenas valley",
    "state_code": "NM",
    "placeMasterId": "P02500000FsoFyHJ9b0fLOT1rP66Ycj8aDzRXUzd",
    "placeName": "arenas valley",
    "state": "NM"
  },
  {
    "city": "loco hills",
    "state_code": "NM",
    "placeMasterId": "P02500000FsoFzQ4yQBHctGzFpartueGtrai0nrc",
    "placeName": "loco hills",
    "state": "NM"
  },
  {
    "city": "nogal",
    "state_code": "NM",
    "placeMasterId": "P02500000FsoFzhlvcyRCGTTbRDYjjcuqzx8VL8i",
    "placeName": "nogal",
    "state": "NM"
  },
  {
    "city": "caliente",
    "state_code": "NV",
    "placeMasterId": "P02500000FsoFuHbmhuVM9eAyuMQr70gqzv7OgET",
    "placeName": "caliente",
    "state": "NV"
  },
  {
    "city": "laughlin",
    "state_code": "NV",
    "placeMasterId": "P02500000FsoFuQSGJJ58qFQ9iAmH1VFPUhAcmZX",
    "placeName": "laughlin",
    "state": "NV"
  },
  {
    "city": "las vegas",
    "state_code": "NV",
    "placeMasterId": "P02500000FsoFuQSGJJ58qFQ9iAmH1VC0RKB5lYR",
    "placeName": "las vegas",
    "state": "NV"
  },
  {
    "city": "las vegas",
    "state_code": "NV",
    "placeMasterId": "P02500000FsoFuQSGJJ58qFQ9iAmH1VC0RKB5lYR",
    "placeName": "las vegas",
    "state": "NV"
  },
  {
    "city": "las vegas",
    "state_code": "NV",
    "placeMasterId": "P02500000FsoFuQSGJJ58qFQ9iAmH1VC0RKB5lYR",
    "placeName": "las vegas",
    "state": "NV"
  },
  {
    "city": "orovada",
    "state_code": "NV",
    "placeMasterId": "P02500000FsoFuZIjuhevWqfKVz7gvzZOgLucXD1",
    "placeName": "orovada",
    "state": "NV"
  },
  {
    "city": "sparks",
    "state_code": "NV",
    "placeMasterId": "P02500000FsoFui9DW6EiDRuVJnT6qTsW0mL5w4C",
    "placeName": "sparks",
    "state": "NV"
  },
  {
    "city": "brimfield",
    "state_code": "MA",
    "placeMasterId": "P02500000FsoHdRGMgby6AmyqHBriMtjwUVORcwn",
    "placeName": "brimfield",
    "state": "MA"
  },
  {
    "city": "chicopee",
    "state_code": "MA",
    "placeMasterId": "P02500000FsoFWJPZNJXQij3hvwOe2iQ5MICNfya",
    "placeName": "chicopee",
    "state": "MA"
  },
  {
    "city": "ludlow",
    "state_code": "MA",
    "placeMasterId": "P02500000FsoHe0eH6CHEvBxXURFO0r8qCvGEMKa",
    "placeName": "ludlow",
    "state": "MA"
  },
  {
    "city": "westfield",
    "state_code": "MA",
    "placeMasterId": "P02500000FsoFWsnTmtqZT82P9BmJgg3efbtGGFE",
    "placeName": "westfield",
    "state": "MA"
  },
  {
    "city": "great barrington",
    "state_code": "MA",
    "placeMasterId": "P02500000FsoHAl8ORvxG42momyQiER9RDMg3Y3f",
    "placeName": "great barrington",
    "state": "MA"
  },
  {
    "city": "tyringham",
    "state_code": "MA",
    "placeMasterId": "P02500000FsoHeRBhuO0ayzh3tsHdkKLdsGFNdQd",
    "placeName": "tyringham",
    "state": "MA"
  },
  {
    "city": "deerfield",
    "state_code": "MA",
    "placeMasterId": "P02500000FsoHdixJtP7fXzTBsoYYBsPv3r4A8UY",
    "placeName": "deerfield",
    "state": "MA"
  },
  {
    "city": "andover",
    "state_code": "MA",
    "placeMasterId": "P02500000FsoHAl8ORvxG42momyQiER9oTqGiiWt",
    "placeName": "andover",
    "state": "MA"
  },
  {
    "city": "lawrence",
    "state_code": "MA",
    "placeMasterId": "P02500000FsoFWb6Wa6h05vY3XZ5Trh6EWAiAZPK",
    "placeName": "lawrence",
    "state": "MA"
  },
  {
    "city": "wrentham",
    "state_code": "MA",
    "placeMasterId": "P02500000FsoHea2BVmaNfawEhgd3eocwsmRKamS",
    "placeName": "wrentham",
    "state": "MA"
  },
  {
    "city": "carver",
    "state_code": "MA",
    "placeMasterId": "P02500000FsoHdRGMgby6AmyqHBriMtjbMxrXQyf",
    "placeName": "carver",
    "state": "MA"
  },
  {
    "city": "west bridgewater",
    "state_code": "MA",
    "placeMasterId": "P02500000FsoHea2BVmaNfawEhgd3eocWFRIog8N",
    "placeName": "west bridgewater",
    "state": "MA"
  },
  {
    "city": "waltham",
    "state_code": "MA",
    "placeMasterId": "P02500000FsoFWsnTmtqZT82P9BmJgfsN7hT1rsV",
    "placeName": "waltham",
    "state": "MA"
  },
  {
    "city": "monument beach",
    "state_code": "MA",
    "placeMasterId": "P02500000FsoFWb6Wa6h05vY3XZ5TrhH6mSZVY0l",
    "placeName": "monument beach",
    "state": "MA"
  },
  {
    "city": "siasconset",
    "state_code": "MA",
    "placeMasterId": "P02500000FsoFWsnTmtqZT82P9BmJgfnYwGa5kQA",
    "placeName": "siasconset",
    "state": "MA"
  },
  {
    "city": "dennis",
    "state_code": "MA",
    "placeMasterId": "P02500000FsoHAtys3KX2ke1zamm88vJxwnqsPHL",
    "placeName": "dennis",
    "state": "MA"
  },
  {
    "city": "north eastham",
    "state_code": "MA",
    "placeMasterId": "P02500000FsoFWjx0BVGmmWnELNQtmBR0z8hUJUC",
    "placeName": "north eastham",
    "state": "MA"
  },
  {
    "city": "new bedford",
    "state_code": "MA",
    "placeMasterId": "P02500000FsoFWb6Wa6h05vY3XZ5Trh9cEAayOJT",
    "placeName": "new bedford",
    "state": "MA"
  },
  {
    "city": "providence",
    "state_code": "RI",
    "placeMasterId": "P02500000FsoGb5X1epewHrbFvy4ERyD7lvGA4Im",
    "placeName": "providence",
    "state": "RI"
  },
  {
    "city": "amherst",
    "state_code": "NH",
    "placeMasterId": "P02500000FsoIBFrWdYlD19z8gdjlIzmNlDkon20",
    "placeName": "amherst",
    "state": "NH"
  },
  {
    "city": "hollis",
    "state_code": "NH",
    "placeMasterId": "P02500000FsoIBgOxRkUZ4xif64m12SupxHwbCIQ",
    "placeName": "hollis",
    "state": "NH"
  },
  {
    "city": "new boston",
    "state_code": "NH",
    "placeMasterId": "P02500000FsoIBpFR394LlYxptt7QwxFhXEfUTjV",
    "placeName": "new boston",
    "state": "NH"
  },
  {
    "city": "manchester",
    "state_code": "NH",
    "placeMasterId": "P02500000FsoFuzqAitOHaeOqvQ9wfSewcJ9IWcK",
    "placeName": "manchester",
    "state": "NH"
  },
  {
    "city": "contoocook",
    "state_code": "NH",
    "placeMasterId": "P02500000FsoFuzqAitOHaeOqvQ9wfSYUPQTV9NN",
    "placeName": "contoocook",
    "state": "NH"
  },
  {
    "city": "nottingham",
    "state_code": "NH",
    "placeMasterId": "P02500000FsoIBy5ueXe8SAD0hhSqrRYwkWLZcic",
    "placeName": "nottingham",
    "state": "NH"
  },
  {
    "city": "nelson",
    "state_code": "NH",
    "placeMasterId": "P02500000FsoIBpFR394LlYxptt7QwxBA0EN08y7",
    "placeName": "nelson",
    "state": "NH"
  },
  {
    "city": "acworth",
    "state_code": "NH",
    "placeMasterId": "P02500000FsoIBFrWdYlD19z8gdjlIznSIlQSW2m",
    "placeName": "acworth",
    "state": "NH"
  },
  {
    "city": "rye",
    "state_code": "NH",
    "placeMasterId": "P02500000FsoIC6wOFwDv8lSBVVoGlvvfv6TpXbC",
    "placeName": "rye",
    "state": "NH"
  },
  {
    "city": "saco",
    "state_code": "ME",
    "placeMasterId": "P02500000FsoFTAn46aq9bVfsG4nRzwI1B7hmzQO",
    "placeName": "saco",
    "state": "ME"
  },
  {
    "city": "waterford",
    "state_code": "ME",
    "placeMasterId": "P02500000FsoHgZsrxKfNI0Mfx3SuPfzIvrxyBmR",
    "placeName": "waterford",
    "state": "ME"
  },
  {
    "city": "corinth",
    "state_code": "ME",
    "placeMasterId": "P02500000FsoHf0ZcJyJjjOfl77fJOHpkSuc4ZQ4",
    "placeName": "corinth",
    "state": "ME"
  },
  {
    "city": "milo",
    "state_code": "ME",
    "placeMasterId": "P02500000FsoHAcHuqXNTNRXdzA5IJwiaUKXaLNa",
    "placeName": "milo",
    "state": "ME"
  },
  {
    "city": "cushing",
    "state_code": "ME",
    "placeMasterId": "P02500000FsoHf9Q5vMtWPzuvuw0jImBSVAcPZgK",
    "placeName": "cushing",
    "state": "ME"
  },
  {
    "city": "milbridge",
    "state_code": "ME",
    "placeMasterId": "P02500000FsoHfreTwLmRr08nvzjorE31jAAsK2b",
    "placeName": "milbridge",
    "state": "ME"
  },
  {
    "city": "pembroke",
    "state_code": "ME",
    "placeMasterId": "P02500000FsoHg9LR98w1ECd9XcQegCjIXBHVlK2",
    "placeName": "pembroke",
    "state": "ME"
  },
  {
    "city": "wesley",
    "state_code": "ME",
    "placeMasterId": "P02500000FsoHgijLYjF9ybbqkroKKAATgeWuTGn",
    "placeName": "wesley",
    "state": "ME"
  },
  {
    "city": "patten",
    "state_code": "ME",
    "placeMasterId": "P02500000FsoHg9LR98w1ECd9XcQegCiqcNMfGxI",
    "placeName": "patten",
    "state": "ME"
  },
  {
    "city": "sherman",
    "state_code": "ME",
    "placeMasterId": "P02500000FsoHgIBukXVnunsKLQm4ahATlXSKsxf",
    "placeName": "sherman",
    "state": "ME"
  },
  {
    "city": "rangeley",
    "state_code": "ME",
    "placeMasterId": "P02500000FsoHgIBukXVnunsKLQm4ah1vAq57V5H",
    "placeName": "rangeley",
    "state": "ME"
  },
  {
    "city": "rutland",
    "state_code": "VT",
    "placeMasterId": "P02500000FsoGuUdxgk9jjYsxCP34MajVq876v9p",
    "placeName": "rutland",
    "state": "VT"
  },
  {
    "city": "poultney",
    "state_code": "VT",
    "placeMasterId": "P02500000FsoHE2bNK3EJrrPpGeNKBheKJSNTXn6",
    "placeName": "poultney",
    "state": "VT"
  },
  {
    "city": "peacham",
    "state_code": "VT",
    "placeMasterId": "P02500000FsoIf4lJhPOKci8YbLw6jNG6XP9xStZ",
    "placeName": "peacham",
    "state": "VT"
  },
  {
    "city": "west simsbury",
    "state_code": "CT",
    "placeMasterId": "P02500000FsoEpeKo1mxdH6sbi96gcFF8TnCJKMr",
    "placeName": "west simsbury",
    "state": "CT"
  },
  {
    "city": "coventry",
    "state_code": "CT",
    "placeMasterId": "P02500000FsoHGK90yOSsrTKc7du0lXa8umuCWm1",
    "placeName": "coventry",
    "state": "CT"
  },
  {
    "city": "sterling",
    "state_code": "CT",
    "placeMasterId": "P02500000FsoHGkgRmaCEvH48X4wGV0lim2M4yZS",
    "placeName": "sterling",
    "state": "CT"
  },
  {
    "city": "meriden",
    "state_code": "CT",
    "placeMasterId": "P02500000FsoEpDnNDbEHDJ95Ii4Qsm9xc2j6MWq",
    "placeName": "meriden",
    "state": "CT"
  },
  {
    "city": "seymour",
    "state_code": "CT",
    "placeMasterId": "P02500000FsoHGkgRmaCEvH48X4wGV0eF6gQDnVe",
    "placeName": "seymour",
    "state": "CT"
  },
  {
    "city": "bethany",
    "state_code": "CT",
    "placeMasterId": "P02500000FsoHGK90yOSsrTKc7du0lXTqjP4fk75",
    "placeName": "bethany",
    "state": "CT"
  },
  {
    "city": "norwalk",
    "state_code": "CT",
    "placeMasterId": "P02500000FsoEpMdqozo3tuOG6WPqnGVjKk8zkLb",
    "placeName": "norwalk",
    "state": "CT"
  },
  {
    "city": "cranford",
    "state_code": "NJ",
    "placeMasterId": "P02500000FsoICOdLSjNUVxwX78V6auo9tOg871T",
    "placeName": "cranford",
    "state": "NJ"
  },
  {
    "city": "garwood",
    "state_code": "NJ",
    "placeMasterId": "P02500000FsoFvzlVwfQmOr74Y6Zs2tIzXQqEWF5",
    "placeName": "garwood",
    "state": "NJ"
  },
  {
    "city": "wallington",
    "state_code": "NJ",
    "placeMasterId": "P02500000FsoFxzcCODVm1GXVnTPinkSPrw3gE0c",
    "placeName": "wallington",
    "state": "NJ"
  },
  {
    "city": "weehawken",
    "state_code": "NJ",
    "placeMasterId": "P02500000FsoIDgFdtIZYhN96LRbrnJx21t2d0Yi",
    "placeName": "weehawken",
    "state": "NJ"
  },
  {
    "city": "hillside",
    "state_code": "NJ",
    "placeMasterId": "P02500000FsoICpAmGv6qZlg3WZXMKNtc43tv7K3",
    "placeName": "hillside",
    "state": "NJ"
  },
  {
    "city": "mahwah",
    "state_code": "NJ",
    "placeMasterId": "P02500000FsoICy1FsJgdGMvEKNsmEs88RB5l3K7",
    "placeName": "mahwah",
    "state": "NJ"
  },
  {
    "city": "teterboro",
    "state_code": "NJ",
    "placeMasterId": "P02500000FsoFxqlimovzKfIKzf4ItFzILIt9iQj",
    "placeName": "teterboro",
    "state": "NJ"
  },
  {
    "city": "keansburg",
    "state_code": "NJ",
    "placeMasterId": "P02500000FsoFwHST9SaLm3bQ9jGhrs40V0M95Ac",
    "placeName": "keansburg",
    "state": "NJ"
  },
  {
    "city": "keyport",
    "state_code": "NJ",
    "placeMasterId": "P02500000FsoFwQIwkrA8SeqaxXc7mMIIMkdoo1v",
    "placeName": "keyport",
    "state": "NJ"
  },
  {
    "city": "ocean grove",
    "state_code": "NJ",
    "placeMasterId": "P02500000FsoFwzgrARTHD3pIAmznQJwF9Tvk3Mi",
    "placeName": "ocean grove",
    "state": "NJ"
  },
  {
    "city": "andover",
    "state_code": "NJ",
    "placeMasterId": "P02500000FsoICFmrrKnhpMhMJK9ggQMVc3x7we6",
    "placeName": "andover",
    "state": "NJ"
  },
  {
    "city": "camden",
    "state_code": "NJ",
    "placeMasterId": "P02500000FsoFvZE58ThQL3NY8fXcJQ9WqxkSIUJ",
    "placeName": "camden",
    "state": "NJ"
  },
  {
    "city": "stone harbor",
    "state_code": "NJ",
    "placeMasterId": "P02500000FsoFxhvFBQMCe43ABqisylp9yUkncA0",
    "placeName": "stone harbor",
    "state": "NJ"
  },
  {
    "city": "strathmere",
    "state_code": "NJ",
    "placeMasterId": "P02500000FsoFxqlimovzKfIKzf4ItFyokveBwWx",
    "placeName": "strathmere",
    "state": "NJ"
  },
  {
    "city": "woodbine",
    "state_code": "NJ",
    "placeMasterId": "P02500000FsoFy8Sfzc5YhrmgbHl8iEmo3Y2BAva",
    "placeName": "woodbine",
    "state": "NJ"
  },
  {
    "city": "seaside park",
    "state_code": "NJ",
    "placeMasterId": "P02500000FsoFxZ4la1mPxSnzO2NT4HOLwWNw7VP",
    "placeName": "seaside park",
    "state": "NJ"
  },
  {
    "city": "dunellen",
    "state_code": "NJ",
    "placeMasterId": "P02500000FsoFvi4YjsHD1eciwTt2DuasVQRs51Z",
    "placeName": "dunellen",
    "state": "NJ"
  },
  {
    "city": "glen gardner",
    "state_code": "NJ",
    "placeMasterId": "P02500000FsoFw8bzY40Z5SMFLuvHxNbl0AyI38K",
    "placeName": "glen gardner",
    "state": "NJ"
  },
  {
    "city": "new york",
    "state_code": "NY",
    "placeMasterId": "P02500000FsoG3hTIW4bBVIKTvxERFLPbpMNP8u9",
    "placeName": "new york",
    "state": "NY"
  },
  {
    "city": "new york",
    "state_code": "NY",
    "placeMasterId": "P02500000FsoG3hTIW4bBVIKTvxERFLPbpMNP8u9",
    "placeName": "new york",
    "state": "NY"
  },
  {
    "city": "new york",
    "state_code": "NY",
    "placeMasterId": "P02500000FsoG3hTIW4bBVIKTvxERFLPbpMNP8u9",
    "placeName": "new york",
    "state": "NY"
  },
  {
    "city": "new york",
    "state_code": "NY",
    "placeMasterId": "P02500000FsoG3hTIW4bBVIKTvxERFLPbpMNP8u9",
    "placeName": "new york",
    "state": "NY"
  },
  {
    "city": "new york",
    "state_code": "NY",
    "placeMasterId": "P02500000FsoG3hTIW4bBVIKTvxERFLPbpMNP8u9",
    "placeName": "new york",
    "state": "NY"
  },
  {
    "city": "staten island",
    "state_code": "NY",
    "placeMasterId": "P02500000FsoHDBWVhflbkFwmRmIoilOWW8CMZ4T",
    "placeName": "staten island",
    "state": "NY"
  },
  {
    "city": "hawthorne",
    "state_code": "NY",
    "placeMasterId": "P02500000FsoG2YhTgtyu0UN5VST5xQTg3QISJMf",
    "placeName": "hawthorne",
    "state": "NY"
  },
  {
    "city": "rye",
    "state_code": "NY",
    "placeMasterId": "P02500000FsoHDc3wVrUxo3gIrDL4SEZ2dBSG7Xx",
    "placeName": "rye",
    "state": "NY"
  },
  {
    "city": "yorktown heights",
    "state_code": "NY",
    "placeMasterId": "P02500000FsoG5qASZ1FxoJ05z8PhugwXwSos6bi",
    "placeName": "yorktown heights",
    "state": "NY"
  },
  {
    "city": "new hyde park",
    "state_code": "NY",
    "placeMasterId": "P02500000FsoG3qJm7TAyBtZejlZr9pckzHLyevi",
    "placeName": "new hyde park",
    "state": "NY"
  },
  {
    "city": "brooklyn",
    "state_code": "NY",
    "placeMasterId": "P02500000FsoHCc8bI5SSzqy5EWv94nnzJKQNSS5",
    "placeName": "brooklyn",
    "state": "NY"
  },
  {
    "city": "cedarhurst",
    "state_code": "NY",
    "placeMasterId": "P02500000FsoG1H5BGKmpp5AWH9MKl16UYzV77JA",
    "placeName": "cedarhurst",
    "state": "NY"
  },
  {
    "city": "island park",
    "state_code": "NY",
    "placeMasterId": "P02500000FsoG2zEuV5iG4I6butVLgtMrgrbJr9c",
    "placeName": "island park",
    "state": "NY"
  },
  {
    "city": "jericho",
    "state_code": "NY",
    "placeMasterId": "P02500000FsoG2zEuV5iG4I6butVLgtOZtGnFp9A",
    "placeName": "jericho",
    "state": "NY"
  },
  {
    "city": "medford",
    "state_code": "NY",
    "placeMasterId": "P02500000FsoG3Ycoug1Ooh5J88t1Kqx3CwXSPqm",
    "placeName": "medford",
    "state": "NY"
  },
  {
    "city": "ridge",
    "state_code": "NY",
    "placeMasterId": "P02500000FsoG4YYA8S3tctnWkpIwiHQ28PPBXa3",
    "placeName": "ridge",
    "state": "NY"
  },
  {
    "city": "east greenbush",
    "state_code": "NY",
    "placeMasterId": "P02500000FsoHD2g26HBp3ehbdxxOoH6qw499W2d",
    "placeName": "east greenbush",
    "state": "NY"
  },
  {
    "city": "schoharie",
    "state_code": "NY",
    "placeMasterId": "P02500000FsoHDKMzJ4LOQrBxFaeEdFcqIVJsKHa",
    "placeName": "schoharie",
    "state": "NY"
  },
  {
    "city": "west sand lake",
    "state_code": "NY",
    "placeMasterId": "P02500000FsoG5hJyxcgB7hkvBK4I0CXkSwZ4PN1",
    "placeName": "west sand lake",
    "state": "NY"
  },
  {
    "city": "shandaken",
    "state_code": "NY",
    "placeMasterId": "P02500000FsoIGg1fYch37zHlDUrdvbt7MLvMtg1",
    "placeName": "shandaken",
    "state": "NY"
  },
  {
    "city": "west hurley",
    "state_code": "NY",
    "placeMasterId": "P02500000FsoG5hJyxcgB7hkvBK4I0CSMhD8QCpM",
    "placeName": "west hurley",
    "state": "NY"
  },
  {
    "city": "amenia",
    "state_code": "NY",
    "placeMasterId": "P02500000FsoHCKRe5IItceTjcuEJFp3f2LjsO0s",
    "placeName": "amenia",
    "state": "NY"
  },
  {
    "city": "newburgh",
    "state_code": "NY",
    "placeMasterId": "P02500000FsoG3hTIW4bBVIKTvxERFLIs4kZmSYP",
    "placeName": "newburgh",
    "state": "NY"
  },
  {
    "city": "new paltz",
    "state_code": "NY",
    "placeMasterId": "P02500000FsoHDTDSuSvB7SR83OzeXk77MVPGWg4",
    "placeName": "new paltz",
    "state": "NY"
  },
  {
    "city": "pawling",
    "state_code": "NY",
    "placeMasterId": "P02500000FsoHCKRe5IItceTjcuEJFp3sjeGRosS",
    "placeName": "pawling",
    "state": "NY"
  },
  {
    "city": "bloomingburg",
    "state_code": "NY",
    "placeMasterId": "P02500000FsoG18EhewD38TvLTL0uqWc6AqzdAjk",
    "placeName": "bloomingburg",
    "state": "NY"
  },
  {
    "city": "fort ann",
    "state_code": "NY",
    "placeMasterId": "P02500000FsoHDc3wVrUxo3gIrDL4SEWNr0CHvi3",
    "placeName": "fort ann",
    "state": "NY"
  },
  {
    "city": "au sable forks",
    "state_code": "NY",
    "placeMasterId": "P02500000FsoG0qXkS93TlHQzriK51XqxacKMQJy",
    "placeName": "au sable forks",
    "state": "NY"
  },
  {
    "city": "witherbee",
    "state_code": "NY",
    "placeMasterId": "P02500000FsoG5qASZ1FxoJ05z8PhugogOVr5Ljp",
    "placeName": "witherbee",
    "state": "NY"
  },
  {
    "city": "hobart",
    "state_code": "NY",
    "placeMasterId": "P02500000FsoG2qOQth8TNgrR759vmP2v623bWBi",
    "placeName": "hobart",
    "state": "NY"
  },
  {
    "city": "newark valley",
    "state_code": "NY",
    "placeMasterId": "P02500000FsoHDTDSuSvB7SR83OzeXkBYdta4AQc",
    "placeName": "newark valley",
    "state": "NY"
  },
  {
    "city": "unadilla",
    "state_code": "NY",
    "placeMasterId": "P02500000FsoHD2g26HBp3ehbdxxOoGyOtUPOKg0",
    "placeName": "unadilla",
    "state": "NY"
  },
  {
    "city": "lancaster",
    "state_code": "NY",
    "placeMasterId": "P02500000FsoHCKRe5IItceTjcuEJFp7z8xuRH7N",
    "placeName": "lancaster",
    "state": "NY"
  },
  {
    "city": "middleport",
    "state_code": "NY",
    "placeMasterId": "P02500000FsoG3Ycoug1Ooh5J88t1Kr0YAZ7JdBO",
    "placeName": "middleport",
    "state": "NY"
  },
  {
    "city": "sanborn",
    "state_code": "NY",
    "placeMasterId": "P02500000FsoG4hOdjqdgJV2hYdeMcm3V7dNh2VO",
    "placeName": "sanborn",
    "state": "NY"
  },
  {
    "city": "niagara falls",
    "state_code": "NY",
    "placeMasterId": "P02500000FsoG3qJm7TAyBtZejlZr9poKSoSQyCo",
    "placeName": "niagara falls",
    "state": "NY"
  },
  {
    "city": "hemlock",
    "state_code": "NY",
    "placeMasterId": "P02500000FsoG2hXxIIYgh5cGJGoVrugdLw6LRR8",
    "placeName": "hemlock",
    "state": "NY"
  },
  {
    "city": "holley",
    "state_code": "NY",
    "placeMasterId": "P02500000FsoG2qOQth8TNgrR759vmP5KySck6ge",
    "placeName": "holley",
    "state": "NY"
  },
  {
    "city": "kent",
    "state_code": "NY",
    "placeMasterId": "P02500000FsoIFOPN83Uywa5BzBksjCRNFQ4KB8j",
    "placeName": "kent",
    "state": "NY"
  },
  {
    "city": "penfield",
    "state_code": "NY",
    "placeMasterId": "P02500000FsoIGFUEkQxh4BYEo3pOC8fOrRIr8s3",
    "placeName": "penfield",
    "state": "NY"
  },
  {
    "city": "sodus point",
    "state_code": "NY",
    "placeMasterId": "P02500000FsoG4z5awdnFghX3AGLCRkXGfqUn095",
    "placeName": "sodus point",
    "state": "NY"
  },
  {
    "city": "rochester",
    "state_code": "NY",
    "placeMasterId": "P02500000FsoG4YYA8S3tctnWkpIwiHXc7FWLpT6",
    "placeName": "rochester",
    "state": "NY"
  },
  {
    "city": "new kensington",
    "state_code": "PA",
    "placeMasterId": "P02500000FsoGWo8hYwLNfqG1pbhh7H7v8sp2Kz9",
    "placeName": "new kensington",
    "state": "PA"
  },
  {
    "city": "pittsburgh",
    "state_code": "PA",
    "placeMasterId": "P02500000FsoGXfDZBJo5nRj4eTmCaDENhHWAB15",
    "placeName": "pittsburgh",
    "state": "PA"
  },
  {
    "city": "stoystown",
    "state_code": "PA",
    "placeMasterId": "P02500000FsoGZNNIQ4jW2efAIDvDW5nvLi5KRz7",
    "placeName": "stoystown",
    "state": "PA"
  },
  {
    "city": "hyde park",
    "state_code": "PA",
    "placeMasterId": "P02500000FsoGUfRXVzgbMpaPmQWQRvWlAKtp3gp",
    "placeName": "hyde park",
    "state": "PA"
  },
  {
    "city": "ernest",
    "state_code": "PA",
    "placeMasterId": "P02500000FsoGT68HsdKxoDtUwUipQXW3YlSq2in",
    "placeName": "ernest",
    "state": "PA"
  },
  {
    "city": "rossiter",
    "state_code": "PA",
    "placeMasterId": "P02500000FsoGYEbTau7EXqhlrj9sEArnODVjfWb",
    "placeName": "rossiter",
    "state": "PA"
  },
  {
    "city": "kersey",
    "state_code": "PA",
    "placeMasterId": "P02500000FsoGUx8UimqAk24lO3DGGuKHmfbhB7T",
    "placeName": "kersey",
    "state": "PA"
  },
  {
    "city": "jerome",
    "state_code": "PA",
    "placeMasterId": "P02500000FsoGUx8UimqAk24lO3DGGu9ISI4HmGb",
    "placeName": "jerome",
    "state": "PA"
  },
  {
    "city": "saxonburg",
    "state_code": "PA",
    "placeMasterId": "P02500000FsoGYWIQnhGnv3C7TLqi39YoDeyUttr",
    "placeName": "saxonburg",
    "state": "PA"
  },
  {
    "city": "west pittsburg",
    "state_code": "PA",
    "placeMasterId": "P02500000FsoGaNIddqm0qrNNuuL8tWQY8WDeyrf",
    "placeName": "west pittsburg",
    "state": "PA"
  },
  {
    "city": "ford cliff",
    "state_code": "PA",
    "placeMasterId": "P02500000FsoGTWfigp4Js1d1Lvl5A0QBPZ3RIDX",
    "placeName": "ford cliff",
    "state": "PA"
  },
  {
    "city": "manorville",
    "state_code": "PA",
    "placeMasterId": "P02500000FsoGVoDMLAIsrdXoCvHljqTlHnCXB9s",
    "placeName": "manorville",
    "state": "PA"
  },
  {
    "city": "meadville",
    "state_code": "PA",
    "placeMasterId": "P02500000FsoGVx3pwYsfYEmz0jdBeKziJhNCHPd",
    "placeName": "meadville",
    "state": "PA"
  },
  {
    "city": "boalsburg",
    "state_code": "PA",
    "placeMasterId": "P02500000FsoGRF852TpksPiEUwEOaAmxroLuqqD",
    "placeName": "boalsburg",
    "state": "PA"
  },
  {
    "city": "grampian",
    "state_code": "PA",
    "placeMasterId": "P02500000FsoGTxD9V0nfvpMXlMnKtTcL34rUIiZ",
    "placeName": "grampian",
    "state": "PA"
  },
  {
    "city": "landisburg",
    "state_code": "PA",
    "placeMasterId": "P02500000FsoGVEpRvZzk7EZ6zfu65st924RlpFF",
    "placeName": "landisburg",
    "state": "PA"
  },
  {
    "city": "lemoyne",
    "state_code": "PA",
    "placeMasterId": "P02500000FsoGVNfvWyZWnpoHnUFW0NRC0rHBxdx",
    "placeName": "lemoyne",
    "state": "PA"
  },
  {
    "city": "mechanicsburg",
    "state_code": "PA",
    "placeMasterId": "P02500000FsoGW5uJXxSSEq29oXybYpEAdya3lAf",
    "placeName": "mechanicsburg",
    "state": "PA"
  },
  {
    "city": "blue ridge summit",
    "state_code": "PA",
    "placeMasterId": "P02500000FsoGRF852TpksPiEUwEOaAp9tL2JRNK",
    "placeName": "blue ridge summit",
    "state": "PA"
  },
  {
    "city": "new freedom",
    "state_code": "PA",
    "placeMasterId": "P02500000FsoGWo8hYwLNfqG1pbhh7H2KS9Es29V",
    "placeName": "new freedom",
    "state": "PA"
  },
  {
    "city": "terre hill",
    "state_code": "PA",
    "placeMasterId": "P02500000FsoGZf4Fcrt5Pr9Vtqc3L4R2RxRNfNn",
    "placeName": "terre hill",
    "state": "PA"
  },
  {
    "city": "branchdale",
    "state_code": "PA",
    "placeMasterId": "P02500000FsoGRF852TpksPiEUwEOaAmNtjV7yKU",
    "placeName": "branchdale",
    "state": "PA"
  },
  {
    "city": "coplay",
    "state_code": "PA",
    "placeMasterId": "P02500000FsoGSF3QGFsFgcQS7ceJxbFhWHPpJxc",
    "placeName": "coplay",
    "state": "PA"
  },
  {
    "city": "jim thorpe",
    "state_code": "PA",
    "placeMasterId": "P02500000FsoGUoI17OGO3QpaaErqMPycoVGmkS6",
    "placeName": "jim thorpe",
    "state": "PA"
  },
  {
    "city": "prospect park",
    "state_code": "PA",
    "placeMasterId": "P02500000FsoGXo42miNsU2yFSI7cUhq8c7A8wEv",
    "placeName": "prospect park",
    "state": "PA"
  },
  {
    "city": "philadelphia",
    "state_code": "PA",
    "placeMasterId": "P02500000FsoGXWN5ZvEJ6qTtqfQmfiyVODy6MPW",
    "placeName": "philadelphia",
    "state": "PA"
  },
  {
    "city": "philadelphia",
    "state_code": "PA",
    "placeMasterId": "P02500000FsoGXWN5ZvEJ6qTtqfQmfiyVODy6MPW",
    "placeName": "philadelphia",
    "state": "PA"
  },
  {
    "city": "philadelphia",
    "state_code": "PA",
    "placeMasterId": "P02500000FsoGXWN5ZvEJ6qTtqfQmfiyVODy6MPW",
    "placeName": "philadelphia",
    "state": "PA"
  },
  {
    "city": "philadelphia",
    "state_code": "PA",
    "placeMasterId": "P02500000FsoGXWN5ZvEJ6qTtqfQmfiyVODy6MPW",
    "placeName": "philadelphia",
    "state": "PA"
  },
  {
    "city": "mohrsville",
    "state_code": "PA",
    "placeMasterId": "P02500000FsoGWEkn9M2EvRHKcMK1TJgjlMGUsEa",
    "placeName": "mohrsville",
    "state": "PA"
  },
  {
    "city": "reading",
    "state_code": "PA",
    "placeMasterId": "P02500000FsoGY5kzzVXRrFSb3uoSJgIQftycIhP",
    "placeName": "reading",
    "state": "PA"
  },
  {
    "city": "wilmington",
    "state_code": "DE",
    "placeMasterId": "P02500000FsoEq4sEpygzKuc87a8wLiOkGKX6CVd",
    "placeName": "wilmington",
    "state": "DE"
  },
  {
    "city": "wilmington",
    "state_code": "DE",
    "placeMasterId": "P02500000FsoEq4sEpygzKuc87a8wLiOkGKX6CVd",
    "placeName": "wilmington",
    "state": "DE"
  },
  {
    "city": "wilmington",
    "state_code": "DE",
    "placeMasterId": "P02500000FsoEq4sEpygzKuc87a8wLiOkGKX6CVd",
    "placeName": "wilmington",
    "state": "DE"
  },
  {
    "city": "bridgeville",
    "state_code": "DE",
    "placeMasterId": "P02500000FsoEpeKo1mxdH6sbi96gcFFtY8nmdFy",
    "placeName": "bridgeville",
    "state": "DE"
  },
  {
    "city": "ellendale",
    "state_code": "DE",
    "placeMasterId": "P02500000FsoEpeKo1mxdH6sbi96gcFIFR8Um2Pu",
    "placeName": "ellendale",
    "state": "DE"
  },
  {
    "city": "frankford",
    "state_code": "DE",
    "placeMasterId": "P02500000FsoEpnBHdBXPxi7mVxS6WjctSujcXPn",
    "placeName": "frankford",
    "state": "DE"
  },
  {
    "city": "washington",
    "state_code": "DC",
    "placeMasterId": "P02500000FsoEq4sEpygzKuc87a8wLiQYg142PzN",
    "placeName": "washington",
    "state": "DC"
  },
  {
    "city": "reston",
    "state_code": "VA",
    "placeMasterId": "P02500000FsoGxCj29H7emyXGSpc0ftwYckJGSZW",
    "placeName": "reston",
    "state": "VA"
  },
  {
    "city": "prince frederick",
    "state_code": "MD",
    "placeMasterId": "P02500000FsoFVbBBMKeVHippusfYUGUrZNHa3ZN",
    "placeName": "prince frederick",
    "state": "MD"
  },
  {
    "city": "solomons",
    "state_code": "MD",
    "placeMasterId": "P02500000FsoFVss8Z7o4evKBWVMOJFDIqUOaBjE",
    "placeName": "solomons",
    "state": "MD"
  },
  {
    "city": "bethesda",
    "state_code": "MD",
    "placeMasterId": "P02500000FsoFTSU1JNziyiADrhUHov1PtuCMBne",
    "placeName": "bethesda",
    "state": "MD"
  },
  {
    "city": "germantown",
    "state_code": "MD",
    "placeMasterId": "P02500000FsoFUbFq8Yc0TW7cICFd6prSiR5vzAA",
    "placeName": "germantown",
    "state": "MD"
  },
  {
    "city": "glen burnie",
    "state_code": "MD",
    "placeMasterId": "P02500000FsoFUbFq8Yc0TW7cICFd6pvRTfjAhlK",
    "placeName": "glen burnie",
    "state": "MD"
  },
  {
    "city": "baltimore",
    "state_code": "MD",
    "placeMasterId": "P02500000FsoFTSU1JNziyiADrhUHous91WaBH4V",
    "placeName": "baltimore",
    "state": "MD"
  },
  {
    "city": "betterton",
    "state_code": "MD",
    "placeMasterId": "P02500000FsoFTSU1JNziyiADrhUHouuAO3BsIb6",
    "placeName": "betterton",
    "state": "MD"
  },
  {
    "city": "centreville",
    "state_code": "MD",
    "placeMasterId": "P02500000FsoFTkAyWB9ILueZTKB7dtheUel8uSZ",
    "placeName": "centreville",
    "state": "MD"
  },
  {
    "city": "east new market",
    "state_code": "MD",
    "placeMasterId": "P02500000FsoFUAiPKMsePiO5slDNNMk0GcQKBEG",
    "placeName": "east new market",
    "state": "MD"
  },
  {
    "city": "goldsboro",
    "state_code": "MD",
    "placeMasterId": "P02500000FsoFUbFq8Yc0TW7cICFd6ppZ0eOSjW7",
    "placeName": "goldsboro",
    "state": "MD"
  },
  {
    "city": "fairplay",
    "state_code": "MD",
    "placeMasterId": "P02500000FsoFUJYsvlSR6JdGgZYnHrAAkj1R1Tx",
    "placeName": "fairplay",
    "state": "MD"
  },
  {
    "city": "williamsport",
    "state_code": "MD",
    "placeMasterId": "P02500000FsoFWAZ5luxe27oX883E8E65rvN0kKw",
    "placeName": "williamsport",
    "state": "MD"
  },
  {
    "city": "woodsboro",
    "state_code": "MD",
    "placeMasterId": "P02500000FsoFWJPZNJXQij3hvwOe2iMUAhp9IdK",
    "placeName": "woodsboro",
    "state": "MD"
  },
  {
    "city": "snow hill",
    "state_code": "MD",
    "placeMasterId": "P02500000FsoFVss8Z7o4evKBWVMOJFLdbBPLxm0",
    "placeName": "snow hill",
    "state": "MD"
  },
  {
    "city": "fredericksburg",
    "state_code": "VA",
    "placeMasterId": "P02500000FsoGvmGG7JLnuy5WQi9pZ00uWETqz97",
    "placeName": "fredericksburg",
    "state": "VA"
  },
  {
    "city": "boyce",
    "state_code": "VA",
    "placeMasterId": "P02500000FsoGuvBOUvt5nMcTbq5K63qB64dqeZk",
    "placeName": "boyce",
    "state": "VA"
  },
  {
    "city": "chester gap",
    "state_code": "VA",
    "placeMasterId": "P02500000FsoGvCsLhj2fAZ6pDSm9v2XXF0W80aN",
    "placeName": "chester gap",
    "state": "VA"
  },
  {
    "city": "crozet",
    "state_code": "VA",
    "placeMasterId": "P02500000FsoGvLipJ7cRrAM01H7ZpWyNvDAAHHf",
    "placeName": "crozet",
    "state": "VA"
  },
  {
    "city": "richmond",
    "state_code": "VA",
    "placeMasterId": "P02500000FsoGxLZVkfhRTZmRGdxQaO3uqNoDmKN",
    "placeName": "richmond",
    "state": "VA"
  },
  {
    "city": "richmond",
    "state_code": "VA",
    "placeMasterId": "P02500000FsoGxLZVkfhRTZmRGdxQaO3uqNoDmKN",
    "placeName": "richmond",
    "state": "VA"
  },
  {
    "city": "richmond",
    "state_code": "VA",
    "placeMasterId": "P02500000FsoGxLZVkfhRTZmRGdxQaO3uqNoDmKN",
    "placeName": "richmond",
    "state": "VA"
  },
  {
    "city": "atlantic",
    "state_code": "VA",
    "placeMasterId": "P02500000FsoGudURI8jWQA880DOUH51jtOXuLao",
    "placeName": "atlantic",
    "state": "VA"
  },
  {
    "city": "onancock",
    "state_code": "VA",
    "placeMasterId": "P02500000FsoGx3sYXsXs6NI5f1GalPNVCCYkERT",
    "placeName": "onancock",
    "state": "VA"
  },
  {
    "city": "virginia beach",
    "state_code": "VA",
    "placeMasterId": "P02500000FsoGxuxQAG0aDyl8TtL6ELfzK3Qkryw",
    "placeName": "virginia beach",
    "state": "VA"
  },
  {
    "city": "norfolk",
    "state_code": "VA",
    "placeMasterId": "P02500000FsoGx3sYXsXs6NI5f1GalPIXzep0Ccf",
    "placeName": "norfolk",
    "state": "VA"
  },
  {
    "city": "lawrenceville",
    "state_code": "VA",
    "placeMasterId": "P02500000FsoGwLeAWtewfN4DdxXVCxUoj2dia6E",
    "placeName": "lawrenceville",
    "state": "VA"
  },
  {
    "city": "roanoke",
    "state_code": "VA",
    "placeMasterId": "P02500000FsoGxLZVkfhRTZmRGdxQaO4ZAL3W16u",
    "placeName": "roanoke",
    "state": "VA"
  },
  {
    "city": "glen lyn",
    "state_code": "VA",
    "placeMasterId": "P02500000FsoGvmGG7JLnuy5WQi9pZ08MEJAZy5g",
    "placeName": "glen lyn",
    "state": "VA"
  },
  {
    "city": "pearisburg",
    "state_code": "VA",
    "placeMasterId": "P02500000FsoGx3sYXsXs6NI5f1GalPN0ZF45mYE",
    "placeName": "pearisburg",
    "state": "VA"
  },
  {
    "city": "deerfield",
    "state_code": "VA",
    "placeMasterId": "P02500000FsoGvLipJ7cRrAM01H7ZpX3v302Le3C",
    "placeName": "deerfield",
    "state": "VA"
  },
  {
    "city": "bluefield",
    "state_code": "VA",
    "placeMasterId": "P02500000FsoGumKutXJJ6lNIo1juBZZOiLI3uVq",
    "placeName": "bluefield",
    "state": "VA"
  },
  {
    "city": "montcalm",
    "state_code": "WV",
    "placeMasterId": "P02500000FsoH3L7Z5JwQKo3l0kSyqximHKMKX1f",
    "placeName": "montcalm",
    "state": "WV"
  },
  {
    "city": "pineville",
    "state_code": "WV",
    "placeMasterId": "P02500000FsoH3coWI75zi0Y6cN9ofwQM85IcXxL",
    "placeName": "pineville",
    "state": "WV"
  },
  {
    "city": "falling waters",
    "state_code": "WV",
    "placeMasterId": "P02500000FsoH2ctB4L3UtnpszgjtIVtwMFLxIIa",
    "placeName": "falling waters",
    "state": "WV"
  },
  {
    "city": "big creek",
    "state_code": "WV",
    "placeMasterId": "P02500000FsoH23VGekkM9OrBmRMDeYXEvu1FrsG",
    "placeName": "big creek",
    "state": "WV"
  },
  {
    "city": "hamlin",
    "state_code": "WV",
    "placeMasterId": "P02500000FsoH2ua8H8D4H0KEbJQj7UbOzANNq0e",
    "placeName": "hamlin",
    "state": "WV"
  },
  {
    "city": "wellsburg",
    "state_code": "WV",
    "placeMasterId": "P02500000FsoH43Lx6IpLloHd1oC4PPamXoRaNfC",
    "placeName": "wellsburg",
    "state": "WV"
  },
  {
    "city": "farmington",
    "state_code": "WV",
    "placeMasterId": "P02500000FsoH2ctB4L3UtnpszgjtIVwVxxDmoH2",
    "placeName": "farmington",
    "state": "WV"
  },
  {
    "city": "worthington",
    "state_code": "WV",
    "placeMasterId": "P02500000FsoH4CCQhhP8SPWnpcXUJtySxFEd5mC",
    "placeName": "worthington",
    "state": "WV"
  },
  {
    "city": "green spring",
    "state_code": "WV",
    "placeMasterId": "P02500000FsoH2ljefjdHaP53nV5JD0Ozowj6uRm",
    "placeName": "green spring",
    "state": "WV"
  },
  {
    "city": "burlington",
    "state_code": "NC",
    "placeMasterId": "P02500000FsoG6PYMybZ6YhynCNnNYeOHStV3hyY",
    "placeName": "burlington",
    "state": "NC"
  },
  {
    "city": "butner",
    "state_code": "NC",
    "placeMasterId": "P02500000FsoG6PYMybZ6YhynCNnNYeU1OsSGb3z",
    "placeName": "butner",
    "state": "NC"
  },
  {
    "city": "rocky mount",
    "state_code": "NC",
    "placeMasterId": "P02500000FsoG97dRR8X1c7d6SoMJrxKBjQOZu5t",
    "placeName": "rocky mount",
    "state": "NC"
  },
  {
    "city": "halifax",
    "state_code": "NC",
    "placeMasterId": "P02500000FsoG7YKBnmBO3VwBcsYiqZDZZVuoN6T",
    "placeName": "halifax",
    "state": "NC"
  },
  {
    "city": "pikeville",
    "state_code": "NC",
    "placeMasterId": "P02500000FsoG8h60cwnfYJta3NK48UNzrR2C3NK",
    "placeName": "pikeville",
    "state": "NC"
  },
  {
    "city": "hertford",
    "state_code": "NC",
    "placeMasterId": "P02500000FsoG7hAfPAlAk7BMQgu8l3ceRHUsR9v",
    "placeName": "hertford",
    "state": "NC"
  },
  {
    "city": "salvo",
    "state_code": "NC",
    "placeMasterId": "P02500000FsoG9GTv2X6oIisHGchjmRhNcMZrED5",
    "placeName": "salvo",
    "state": "NC"
  },
  {
    "city": "cramerton",
    "state_code": "NC",
    "placeMasterId": "P02500000FsoG6hFKBOifvuT8o0UDNdHtZ3KcIvx",
    "placeName": "cramerton",
    "state": "NC"
  },
  {
    "city": "denver",
    "state_code": "NC",
    "placeMasterId": "P02500000FsoG6q5nmnIScViJbopdI7ZCxXZVFJX",
    "placeName": "denver",
    "state": "NC"
  },
  {
    "city": "charlotte",
    "state_code": "NC",
    "placeMasterId": "P02500000FsoG6YOqa08tFJDy0C8nT8qHEOhlkFv",
    "placeName": "charlotte",
    "state": "NC"
  },
  {
    "city": "charlotte",
    "state_code": "NC",
    "placeMasterId": "P02500000FsoG6YOqa08tFJDy0C8nT8qHEOhlkFv",
    "placeName": "charlotte",
    "state": "NC"
  },
  {
    "city": "fayetteville",
    "state_code": "NC",
    "placeMasterId": "P02500000FsoG77mkzaS1ziCfDRWT76CllOZaZAj",
    "placeName": "fayetteville",
    "state": "NC"
  },
  {
    "city": "maxton",
    "state_code": "NC",
    "placeMasterId": "P02500000FsoG8GYZol4JUWA3dwHoP1NjMUqObLl",
    "placeName": "maxton",
    "state": "NC"
  },
  {
    "city": "wilmington",
    "state_code": "NC",
    "placeMasterId": "P02500000FsoGA7YmeuZWQKLK5UmFFNulrAI1CsW",
    "placeName": "wilmington",
    "state": "NC"
  },
  {
    "city": "rocky point",
    "state_code": "NC",
    "placeMasterId": "P02500000FsoG97dRR8X1c7d6SoMJrxLi1fR8IDp",
    "placeName": "rocky point",
    "state": "NC"
  },
  {
    "city": "crossnore",
    "state_code": "NC",
    "placeMasterId": "P02500000FsoG6q5nmnIScViJbopdI7RyvwmXPtz",
    "placeName": "crossnore",
    "state": "NC"
  },
  {
    "city": "gerton",
    "state_code": "NC",
    "placeMasterId": "P02500000FsoG7GdEaz1ogJRq1Frt1abofVHXOVw",
    "placeName": "gerton",
    "state": "NC"
  },
  {
    "city": "marshall",
    "state_code": "NC",
    "placeMasterId": "P02500000FsoG8GYZol4JUWA3dwHoP1FrcfcnMQ7",
    "placeName": "marshall",
    "state": "NC"
  },
  {
    "city": "bamberg",
    "state_code": "SC",
    "placeMasterId": "P02500000FsoGbENVGEEiySqQjmPeMSYkSGvSJDr",
    "placeName": "bamberg",
    "state": "SC"
  },
  {
    "city": "denmark",
    "state_code": "SC",
    "placeMasterId": "P02500000FsoGbW4ST1OILfKmLP6UBRRP3v49sr1",
    "placeName": "denmark",
    "state": "SC"
  },
  {
    "city": "lexington",
    "state_code": "SC",
    "placeMasterId": "P02500000FsoGcEIqU0HDmfYeMSpZjtCNIT3lGiV",
    "placeName": "lexington",
    "state": "SC"
  },
  {
    "city": "ridge spring",
    "state_code": "SC",
    "placeMasterId": "P02500000FsoGcwXEUzA9DfmWNWYfIKy11bgJdYx",
    "placeName": "ridge spring",
    "state": "SC"
  },
  {
    "city": "spartanburg",
    "state_code": "SC",
    "placeMasterId": "P02500000FsoGd5Ni6NjvuH1hBKu5CpXaXbdjPdQ",
    "placeName": "spartanburg",
    "state": "SC"
  },
  {
    "city": "gaffney",
    "state_code": "SC",
    "placeMasterId": "P02500000FsoGbnlPfoXrirp7x1nK0Q4HBa8R8Rv",
    "placeName": "gaffney",
    "state": "SC"
  },
  {
    "city": "roebuck",
    "state_code": "SC",
    "placeMasterId": "P02500000FsoGcwXEUzA9DfmWNWYfIL1kQx43agc",
    "placeName": "roebuck",
    "state": "SC"
  },
  {
    "city": "charleston",
    "state_code": "SC",
    "placeMasterId": "P02500000FsoGbNDyrcoVf45bXal4Gx4gp6ShtVb",
    "placeName": "charleston",
    "state": "SC"
  },
  {
    "city": "florence",
    "state_code": "SC",
    "placeMasterId": "P02500000FsoGbnlPfoXrirp7x1nK0PySuHMNkHx",
    "placeName": "florence",
    "state": "SC"
  },
  {
    "city": "wallace",
    "state_code": "SC",
    "placeMasterId": "P02500000FsoGdN4fJAtVHTW2mxav1o4LfJYVUrH",
    "placeName": "wallace",
    "state": "SC"
  },
  {
    "city": "piedmont",
    "state_code": "SC",
    "placeMasterId": "P02500000FsoGcngktaaMX4XLZiDFNqcJ9NET1U1",
    "placeName": "piedmont",
    "state": "SC"
  },
  {
    "city": "pageland",
    "state_code": "SC",
    "placeMasterId": "P02500000FsoGcVzngnQn9s2zy5WPYs3HNq18XKX",
    "placeName": "pageland",
    "state": "SC"
  },
  {
    "city": "scotia",
    "state_code": "SC",
    "placeMasterId": "P02500000FsoGcwXEUzA9DfmWNWYfIL4Ulq3XY0y",
    "placeName": "scotia",
    "state": "SC"
  },
  {
    "city": "marietta",
    "state_code": "GA",
    "placeMasterId": "P02500000FsoExM2abC82NY615zlFohL9dHDdiW0",
    "placeName": "marietta",
    "state": "GA"
  },
  {
    "city": "dacula",
    "state_code": "GA",
    "placeMasterId": "P02500000FsoEwDGlm1Vksk8cfUzuWmNz0AZNCKR",
    "placeName": "dacula",
    "state": "GA"
  },
  {
    "city": "canton",
    "state_code": "GA",
    "placeMasterId": "P02500000FsoEvvZoZEMBVXeH3sJ4hndo0kd6Po2",
    "placeName": "canton",
    "state": "GA"
  },
  {
    "city": "barnesville",
    "state_code": "GA",
    "placeMasterId": "P02500000FsoEvdsrMRCc8L9vSFcEsoqnzLbmBpm",
    "placeName": "barnesville",
    "state": "GA"
  },
  {
    "city": "fayetteville",
    "state_code": "GA",
    "placeMasterId": "P02500000FsoEwUxiyofKFwcyH7gkLl6jBuC9uyN",
    "placeName": "fayetteville",
    "state": "GA"
  },
  {
    "city": "franklin",
    "state_code": "GA",
    "placeMasterId": "P02500000FsoEwmegBbotd97JskNaAjt4L8mYWGl",
    "placeName": "franklin",
    "state": "GA"
  },
  {
    "city": "jonesboro",
    "state_code": "GA",
    "placeMasterId": "P02500000FsoExDC6znYFgwqqIBPpuCyZjikuBQM",
    "placeName": "jonesboro",
    "state": "GA"
  },
  {
    "city": "claxton",
    "state_code": "GA",
    "placeMasterId": "P02500000FsoEvvZoZEMBVXeH3sJ4hncave0czvU",
    "placeName": "claxton",
    "state": "GA"
  },
  {
    "city": "collins",
    "state_code": "GA",
    "placeMasterId": "P02500000FsoEw4QIAcvyC8tRrgeUcI05ofx9vLg",
    "placeName": "collins",
    "state": "GA"
  },
  {
    "city": "wadley",
    "state_code": "GA",
    "placeMasterId": "P02500000FsoEydet1lK6YxIaKIs116gehj5rMI3",
    "placeName": "wadley",
    "state": "GA"
  },
  {
    "city": "hoschton",
    "state_code": "GA",
    "placeMasterId": "P02500000FsoEx4LdOOyT0LbfUN4PziZBZghtDkM",
    "placeName": "hoschton",
    "state": "GA"
  },
  {
    "city": "chatsworth",
    "state_code": "GA",
    "placeMasterId": "P02500000FsoEvvZoZEMBVXeH3sJ4hnbmY09fYqb",
    "placeName": "chatsworth",
    "state": "GA"
  },
  {
    "city": "tunnel hill",
    "state_code": "GA",
    "placeMasterId": "P02500000FsoEydet1lK6YxIaKIs116gGhKnM7PH",
    "placeName": "tunnel hill",
    "state": "GA"
  },
  {
    "city": "avera",
    "state_code": "GA",
    "placeMasterId": "P02500000FsoEvV2Nl2cpRjukeRGoyKWAZVG2bzR",
    "placeName": "avera",
    "state": "GA"
  },
  {
    "city": "wrens",
    "state_code": "GA",
    "placeMasterId": "P02500000FsoEz4CJpx3Scl26jjuGkZlIXUkMly9",
    "placeName": "wrens",
    "state": "GA"
  },
  {
    "city": "leverett",
    "state_code": "MA",
    "placeMasterId": "P02500000FsoHe0eH6CHEvBxXURFO0r8qzV75Xv8",
    "placeName": "leverett",
    "state": "MA"
  },
  {
    "city": "shutesbury",
    "state_code": "MA",
    "placeMasterId": "P02500000FsoHeILEIzQoIORt63wDppyzZq9v9ek",
    "placeName": "shutesbury",
    "state": "MA"
  },
  {
    "city": "springfield",
    "state_code": "MA",
    "placeMasterId": "P02500000FsoFWsnTmtqZT82P9BmJgfxQ61bP7CW",
    "placeName": "springfield",
    "state": "MA"
  },
  {
    "city": "dalton",
    "state_code": "MA",
    "placeMasterId": "P02500000FsoHda6qI0XsrOE150D8HO7ggSHBfF7",
    "placeName": "dalton",
    "state": "MA"
  },
  {
    "city": "sheffield",
    "state_code": "MA",
    "placeMasterId": "P02500000FsoHeILEIzQoIORt63wDppy0AVpefrA",
    "placeName": "sheffield",
    "state": "MA"
  },
  {
    "city": "south deerfield",
    "state_code": "MA",
    "placeMasterId": "P02500000FsoFWjx0BVGmmWnELNQtmBdiijwCG8h",
    "placeName": "south deerfield",
    "state": "MA"
  },
  {
    "city": "worcester",
    "state_code": "MA",
    "placeMasterId": "P02500000FsoFX1dxOIQM9jHZx07jbAFLDi9kkRa",
    "placeName": "worcester",
    "state": "MA"
  },
  {
    "city": "bolton",
    "state_code": "MA",
    "placeMasterId": "P02500000FsoHdRGMgby6AmyqHBriMtk64SkOEyu",
    "placeName": "bolton",
    "state": "MA"
  },
  {
    "city": "lynn",
    "state_code": "MA",
    "placeMasterId": "P02500000FsoFWb6Wa6h05vY3XZ5Trh7DsIrKl2t",
    "placeName": "lynn",
    "state": "MA"
  },
  {
    "city": "mansfield",
    "state_code": "MA",
    "placeMasterId": "P02500000FsoHe0eH6CHEvBxXURFO0rDm5QuxCaT",
    "placeName": "mansfield",
    "state": "MA"
  },
  {
    "city": "sharon",
    "state_code": "MA",
    "placeMasterId": "P02500000FsoHBBfpG7gc7qWLCPSxxuJ9oBLdg9t",
    "placeName": "sharon",
    "state": "MA"
  },
  {
    "city": "quincy",
    "state_code": "MA",
    "placeMasterId": "P02500000FsoFWjx0BVGmmWnELNQtmBcS4Fo7RFo",
    "placeName": "quincy",
    "state": "MA"
  },
  {
    "city": "boston",
    "state_code": "MA",
    "placeMasterId": "P02500000FsoFWJPZNJXQij3hvwOe2iNmqEqJmO9",
    "placeName": "boston",
    "state": "MA"
  },
  {
    "city": "rockland",
    "state_code": "MA",
    "placeMasterId": "P02500000FsoHeILEIzQoIORt63wDppwHjMLZM9o",
    "placeName": "rockland",
    "state": "MA"
  },
  {
    "city": "sagamore",
    "state_code": "MA",
    "placeMasterId": "P02500000FsoFWjx0BVGmmWnELNQtmBcTjBNNWuZ",
    "placeName": "sagamore",
    "state": "MA"
  },
  {
    "city": "fall river",
    "state_code": "MA",
    "placeMasterId": "P02500000FsoFWSG2yi7DPKIsjkk3xCn8F22M4Rt",
    "placeName": "fall river",
    "state": "MA"
  },
  {
    "city": "raynham",
    "state_code": "MA",
    "placeMasterId": "P02500000FsoHe9Ukhar1bnCiIFanvLdjXXhbPbC",
    "placeName": "raynham",
    "state": "MA"
  },
  {
    "city": "jamestown",
    "state_code": "RI",
    "placeMasterId": "P02500000FsoIZ5DGMl9LlTrErFQYSngle2vFXpT",
    "placeName": "jamestown",
    "state": "RI"
  },
  {
    "city": "warwick",
    "state_code": "RI",
    "placeMasterId": "P02500000FsoGb5X1epewHrbFvy4ERyBqmHLiLnl",
    "placeName": "warwick",
    "state": "RI"
  },
  {
    "city": "auburn",
    "state_code": "NH",
    "placeMasterId": "P02500000FsoIBFrWdYlD19z8gdjlIzgwr7Vydnl",
    "placeName": "auburn",
    "state": "NH"
  },
  {
    "city": "nashua",
    "state_code": "NH",
    "placeMasterId": "P02500000FsoFuzqAitOHaeOqvQ9wfShffTuAHJR",
    "placeName": "nashua",
    "state": "NH"
  },
  {
    "city": "hillsborough",
    "state_code": "NH",
    "placeMasterId": "P02500000FsoHBl3jfhzksFV2PeqdbrYH82EB163",
    "placeName": "hillsborough",
    "state": "NH"
  },
  {
    "city": "groveton",
    "state_code": "NH",
    "placeMasterId": "P02500000FsoFuzqAitOHaeOqvQ9wfSdcW6HXd5h",
    "placeName": "groveton",
    "state": "NH"
  },
  {
    "city": "pittsburg",
    "state_code": "NH",
    "placeMasterId": "P02500000FsoIBy5ueXe8SAD0hhSqrRgqeYdz2ID",
    "placeName": "pittsburg",
    "state": "NH"
  },
  {
    "city": "lyme",
    "state_code": "NH",
    "placeMasterId": "P02500000FsoIBpFR394LlYxptt7QwxBnT9ZUJfj",
    "placeName": "lyme",
    "state": "NH"
  },
  {
    "city": "east kingston",
    "state_code": "NH",
    "placeMasterId": "P02500000FsoIBXYTqLumOMTUIGQb7yUqPOE6Uxr",
    "placeName": "east kingston",
    "state": "NH"
  },
  {
    "city": "newton",
    "state_code": "NH",
    "placeMasterId": "P02500000FsoIBy5ueXe8SAD0hhSqrRVYhgShNYn",
    "placeName": "newton",
    "state": "NH"
  },
  {
    "city": "north hampton",
    "state_code": "NH",
    "placeMasterId": "P02500000FsoIBy5ueXe8SAD0hhSqrRaE8qq2y1q",
    "placeName": "north hampton",
    "state": "NH"
  },
  {
    "city": "eliot",
    "state_code": "ME",
    "placeMasterId": "P02500000FsoHf9Q5vMtWPzuvuw0jImFKOUbzdDT",
    "placeName": "eliot",
    "state": "ME"
  },
  {
    "city": "bridgton",
    "state_code": "ME",
    "placeMasterId": "P02500000FsoHAKaxdkDu0F3INXOSUxxvQpVlEo6",
    "placeName": "bridgton",
    "state": "ME"
  },
  {
    "city": "limerick",
    "state_code": "ME",
    "placeMasterId": "P02500000FsoHfio0KxCfAOtd8BOOwjYC9zCVkRt",
    "placeName": "limerick",
    "state": "ME"
  },
  {
    "city": "lisbon",
    "state_code": "ME",
    "placeMasterId": "P02500000FsoHfio0KxCfAOtd8BOOwjgKubrhwjp",
    "placeName": "lisbon",
    "state": "ME"
  },
  {
    "city": "peru",
    "state_code": "ME",
    "placeMasterId": "P02500000FsoHg9LR98w1ECd9XcQegCkaH5KzE2W",
    "placeName": "peru",
    "state": "ME"
  },
  {
    "city": "palermo",
    "state_code": "ME",
    "placeMasterId": "P02500000FsoHg9LR98w1ECd9XcQegCfxmZRorAW",
    "placeName": "palermo",
    "state": "ME"
  },
  {
    "city": "lagrange",
    "state_code": "ME",
    "placeMasterId": "P02500000FsoHfZxWjYcsTneSKN2z2FJmTm0x9W1",
    "placeName": "lagrange",
    "state": "ME"
  },
  {
    "city": "passadumkeag",
    "state_code": "ME",
    "placeMasterId": "P02500000FsoHg9LR98w1ECd9XcQegCjV0H7PEnl",
    "placeName": "passadumkeag",
    "state": "ME"
  },
  {
    "city": "isle au haut",
    "state_code": "ME",
    "placeMasterId": "P02500000FsoHfZxWjYcsTneSKN2z2FKyfXQZrrm",
    "placeName": "isle au haut",
    "state": "ME"
  },
  {
    "city": "perry",
    "state_code": "ME",
    "placeMasterId": "P02500000FsoHg9LR98w1ECd9XcQegCkSKvw2WW4",
    "placeName": "perry",
    "state": "ME"
  },
  {
    "city": "caribou",
    "state_code": "ME",
    "placeMasterId": "P02500000FsoFT1waVCGMuuQhSGS25RsJzxgysNg",
    "placeName": "caribou",
    "state": "ME"
  },
  {
    "city": "monroe",
    "state_code": "ME",
    "placeMasterId": "P02500000FsoHfreTwLmRr08nvzjorDx382POCme",
    "placeName": "monroe",
    "state": "ME"
  },
  {
    "city": "solon",
    "state_code": "ME",
    "placeMasterId": "P02500000FsoHgR2OLw5abP7V9F7UVBRWawwmiic",
    "placeName": "solon",
    "state": "ME"
  },
  {
    "city": "woodstock",
    "state_code": "VT",
    "placeMasterId": "P02500000FsoHEBRqvRo6YSf04Sik6BreZVTOpYn",
    "placeName": "woodstock",
    "state": "VT"
  },
  {
    "city": "dorset",
    "state_code": "VT",
    "placeMasterId": "P02500000FsoIeeDstDeyYuP2Butqzu8HSYABjvF",
    "placeName": "dorset",
    "state": "VT"
  },
  {
    "city": "east montpelier",
    "state_code": "VT",
    "placeMasterId": "P02500000FsoIeeDstDeyYuP2Butqzu7a8u9yDdE",
    "placeName": "east montpelier",
    "state": "VT"
  },
  {
    "city": "marshfield",
    "state_code": "VT",
    "placeMasterId": "P02500000FsoHE2bNK3EJrrPpGeNKBhYg2V0yeyE",
    "placeName": "marshfield",
    "state": "VT"
  },
  {
    "city": "canaan",
    "state_code": "CT",
    "placeMasterId": "P02500000FsoH9u3WpYUXwRJly6MClUuYUnoZWq4",
    "placeName": "canaan",
    "state": "CT"
  },
  {
    "city": "granby",
    "state_code": "CT",
    "placeMasterId": "P02500000FsoHGSzUZn2fY4ZmvSFQg1rIwmKPdMD",
    "placeName": "granby",
    "state": "CT"
  },
  {
    "city": "simsbury",
    "state_code": "CT",
    "placeMasterId": "P02500000FsoHGkgRmaCEvH48X4wGV0hCScfdoNB",
    "placeName": "simsbury",
    "state": "CT"
  },
  {
    "city": "lebanon",
    "state_code": "CT",
    "placeMasterId": "P02500000FsoHGSzUZn2fY4ZmvSFQg1ztxw5rnKZ",
    "placeName": "lebanon",
    "state": "CT"
  },
  {
    "city": "putnam",
    "state_code": "CT",
    "placeMasterId": "P02500000FsoHGkgRmaCEvH48X4wGV0kJ5kKBzbc",
    "placeName": "putnam",
    "state": "CT"
  },
  {
    "city": "milford",
    "state_code": "CT",
    "placeMasterId": "P02500000FsoH9u3WpYUXwRJly6MClUkwEmvkBH7",
    "placeName": "milford",
    "state": "CT"
  },
  {
    "city": "southington",
    "state_code": "CT",
    "placeMasterId": "P02500000FsoHGtWvNym1bsJJKtHgPV0llsJB3Qs",
    "placeName": "southington",
    "state": "CT"
  },
  {
    "city": "woodbridge",
    "state_code": "CT",
    "placeMasterId": "P02500000FsoHH2NOzNLoITYU8hd6JzNO11GS2eJ",
    "placeName": "woodbridge",
    "state": "CT"
  },
  {
    "city": "bridgeport",
    "state_code": "CT",
    "placeMasterId": "P02500000FsoEp4wtcCeUWhtuUtj0yHmMyLTfY5r",
    "placeName": "bridgeport",
    "state": "CT"
  },
  {
    "city": "bridgewater",
    "state_code": "CT",
    "placeMasterId": "P02500000FsoHGK90yOSsrTKc7du0lXaOY4Eh8yZ",
    "placeName": "bridgewater",
    "state": "CT"
  },
  {
    "city": "new fairfield",
    "state_code": "CT",
    "placeMasterId": "P02500000FsoHGbpyBBcSEfoxjGaqaWLdNfgdMXv",
    "placeName": "new fairfield",
    "state": "CT"
  },
  {
    "city": "fairfield",
    "state_code": "CT",
    "placeMasterId": "P02500000FsoHGSzUZn2fY4ZmvSFQg1xkp518m9w",
    "placeName": "fairfield",
    "state": "CT"
  },
  {
    "city": "plainfield",
    "state_code": "NJ",
    "placeMasterId": "P02500000FsoFxHNoNEcqaGJdmPgdFIYWsKaqB7h",
    "placeName": "plainfield",
    "state": "NJ"
  },
  {
    "city": "roselle",
    "state_code": "NJ",
    "placeMasterId": "P02500000FsoFxQEHydCdGrYoaE239n11lu2JCbc",
    "placeName": "roselle",
    "state": "NJ"
  },
  {
    "city": "elizabeth",
    "state_code": "NJ",
    "placeMasterId": "P02500000FsoFvqv2LGqziFrtkIES8OmzLJRmyou",
    "placeName": "elizabeth",
    "state": "NJ"
  },
  {
    "city": "midland park",
    "state_code": "NJ",
    "placeMasterId": "P02500000FsoFwhztxeJhprKwZAIxbL7QjO3zImk",
    "placeName": "midland park",
    "state": "NJ"
  },
  {
    "city": "mahwah",
    "state_code": "NJ",
    "placeMasterId": "P02500000FsoICy1FsJgdGMvEKNsmEs88RB5l3K7",
    "placeName": "mahwah",
    "state": "NJ"
  },
  {
    "city": "paterson",
    "state_code": "NJ",
    "placeMasterId": "P02500000FsoFxHNoNEcqaGJdmPgdFIXGNmXiJXB",
    "placeName": "paterson",
    "state": "NJ"
  },
  {
    "city": "teaneck",
    "state_code": "NJ",
    "placeMasterId": "P02500000FsoIDXPAHtzm0ltvXdGRspbvz8ZvtR2",
    "placeName": "teaneck",
    "state": "NJ"
  },
  {
    "city": "highlands",
    "state_code": "NJ",
    "placeMasterId": "P02500000FsoFwHST9SaLm3bQ9jGhrrz3XfTpmwt",
    "placeName": "highlands",
    "state": "NJ"
  },
  {
    "city": "allamuchy",
    "state_code": "NJ",
    "placeMasterId": "P02500000FsoICOdLSjNUVxwX78V6auh6cIgRKEQ",
    "placeName": "allamuchy",
    "state": "NJ"
  },
  {
    "city": "hainesport",
    "state_code": "NJ",
    "placeMasterId": "P02500000FsoICpAmGv6qZlg3WZXMKNmdr3FoRoz",
    "placeName": "hainesport",
    "state": "NJ"
  },
  {
    "city": "mount ephraim",
    "state_code": "NJ",
    "placeMasterId": "P02500000FsoFwqqNZ2tUWSa7MyeNVpWRfAyqHgp",
    "placeName": "mount ephraim",
    "state": "NJ"
  },
  {
    "city": "woodbury heights",
    "state_code": "NJ",
    "placeMasterId": "P02500000FsoFy8Sfzc5YhrmgbHl8iEtglP8YFSj",
    "placeName": "woodbury heights",
    "state": "NJ"
  },
  {
    "city": "camden",
    "state_code": "NJ",
    "placeMasterId": "P02500000FsoFvZE58ThQL3NY8fXcJQ9WqxkSIUJ",
    "placeName": "camden",
    "state": "NJ"
  },
  {
    "city": "rosenhayn",
    "state_code": "NJ",
    "placeMasterId": "P02500000FsoFxZ4la1mPxSnzO2NT4HF4EVxoXca",
    "placeName": "rosenhayn",
    "state": "NJ"
  },
  {
    "city": "chesterfield",
    "state_code": "NJ",
    "placeMasterId": "P02500000FsoICXTp47xHCZBhuwqWVOxLaGbeoZo",
    "placeName": "chesterfield",
    "state": "NJ"
  },
  {
    "city": "princeton junction",
    "state_code": "NJ",
    "placeMasterId": "P02500000FsoFxHNoNEcqaGJdmPgdFIeTNbuqWZQ",
    "placeName": "princeton junction",
    "state": "NJ"
  },
  {
    "city": "broadway",
    "state_code": "NJ",
    "placeMasterId": "P02500000FsoFvZE58ThQL3NY8fXcJQ3TMAU0PXS",
    "placeName": "broadway",
    "state": "NJ"
  },
  {
    "city": "new york",
    "state_code": "NY",
    "placeMasterId": "P02500000FsoG3hTIW4bBVIKTvxERFLPbpMNP8u9",
    "placeName": "new york",
    "state": "NY"
  },
  {
    "city": "new york",
    "state_code": "NY",
    "placeMasterId": "P02500000FsoG3hTIW4bBVIKTvxERFLPbpMNP8u9",
    "placeName": "new york",
    "state": "NY"
  },
  {
    "city": "new york",
    "state_code": "NY",
    "placeMasterId": "P02500000FsoG3hTIW4bBVIKTvxERFLPbpMNP8u9",
    "placeName": "new york",
    "state": "NY"
  },
  {
    "city": "brewster",
    "state_code": "NY",
    "placeMasterId": "P02500000FsoG1H5BGKmpp5AWH9MKl12TzqMG4r1",
    "placeName": "brewster",
    "state": "NY"
  },
  {
    "city": "ossining",
    "state_code": "NY",
    "placeMasterId": "P02500000FsoHDkuQ7G4kUevTf1gUMipaApGGd2j",
    "placeName": "ossining",
    "state": "NY"
  },
  {
    "city": "peekskill",
    "state_code": "NY",
    "placeMasterId": "P02500000FsoG4GrCveuKFhJB9Cc6tIiLcHNukCa",
    "placeName": "peekskill",
    "state": "NY"
  },
  {
    "city": "greenwood lake",
    "state_code": "NY",
    "placeMasterId": "P02500000FsoG2YhTgtyu0UN5VST5xQGsoxui17p",
    "placeName": "greenwood lake",
    "state": "NY"
  },
  {
    "city": "otisville",
    "state_code": "NY",
    "placeMasterId": "P02500000FsoG480jKGKXZ640LOGgyoXyEA3CMHn",
    "placeName": "otisville",
    "state": "NY"
  },
  {
    "city": "brooklyn",
    "state_code": "NY",
    "placeMasterId": "P02500000FsoHCc8bI5SSzqy5EWv94nnzJKQNSS5",
    "placeName": "brooklyn",
    "state": "NY"
  },
  {
    "city": "brooklyn",
    "state_code": "NY",
    "placeMasterId": "P02500000FsoHCc8bI5SSzqy5EWv94nnzJKQNSS5",
    "placeName": "brooklyn",
    "state": "NY"
  },
  {
    "city": "brooklyn",
    "state_code": "NY",
    "placeMasterId": "P02500000FsoHCc8bI5SSzqy5EWv94nnzJKQNSS5",
    "placeName": "brooklyn",
    "state": "NY"
  },
  {
    "city": "central islip",
    "state_code": "NY",
    "placeMasterId": "P02500000FsoG1PverjMcVgPh4xhkfVI12u9rTLS",
    "placeName": "central islip",
    "state": "NY"
  },
  {
    "city": "greenlawn",
    "state_code": "NY",
    "placeMasterId": "P02500000FsoG2Pr05VP7Jt7uhe7g2w6EL4EvX7X",
    "placeName": "greenlawn",
    "state": "NY"
  },
  {
    "city": "hicksville",
    "state_code": "NY",
    "placeMasterId": "P02500000FsoG2hXxIIYgh5cGJGoVruo0prkrUJd",
    "placeName": "hicksville",
    "state": "NY"
  },
  {
    "city": "east moriches",
    "state_code": "NY",
    "placeMasterId": "P02500000FsoG1qT5fv5yZU9DUOk0OyYgZbLSn1Q",
    "placeName": "east moriches",
    "state": "NY"
  },
  {
    "city": "jamesport",
    "state_code": "NY",
    "placeMasterId": "P02500000FsoG2zEuV5iG4I6butVLgtOTLYO2lW4",
    "placeName": "jamesport",
    "state": "NY"
  },
  {
    "city": "central bridge",
    "state_code": "NY",
    "placeMasterId": "P02500000FsoG1PverjMcVgPh4xhkfVVprYHiwRY",
    "placeName": "central bridge",
    "state": "NY"
  },
  {
    "city": "hoosick",
    "state_code": "NY",
    "placeMasterId": "P02500000FsoIF6iPvGLPZNaqNZ42uDqqqvPXWwV",
    "placeName": "hoosick",
    "state": "NY"
  },
  {
    "city": "richmondville",
    "state_code": "NY",
    "placeMasterId": "P02500000FsoHDKMzJ4LOQrBxFaeEdFlw68e3Ikm",
    "placeName": "richmondville",
    "state": "NY"
  },
  {
    "city": "westerlo",
    "state_code": "NY",
    "placeMasterId": "P02500000FsoIHFPZyD0BsOGSQkFJZZR4uiTXkz6",
    "placeName": "westerlo",
    "state": "NY"
  },
  {
    "city": "schenectady",
    "state_code": "NY",
    "placeMasterId": "P02500000FsoG4hOdjqdgJV2hYdeMcm1RzdPFAPT",
    "placeName": "schenectady",
    "state": "NY"
  },
  {
    "city": "rosendale",
    "state_code": "NY",
    "placeMasterId": "P02500000FsoIGXBBxE7GRO2aPgWE17PcquFXd7X",
    "placeName": "rosendale",
    "state": "NY"
  },
  {
    "city": "hadley",
    "state_code": "NY",
    "placeMasterId": "P02500000FsoIF6iPvGLPZNaqNZ42uDh0tS0WKaO",
    "placeName": "hadley",
    "state": "NY"
  },
  {
    "city": "newcomb",
    "state_code": "NY",
    "placeMasterId": "P02500000FsoIFxnHXdo7gz3tCR8YN9w13aq8MFo",
    "placeName": "newcomb",
    "state": "NY"
  },
  {
    "city": "canastota",
    "state_code": "NY",
    "placeMasterId": "P02500000FsoG1H5BGKmpp5AWH9MKl0zRaxKgbY8",
    "placeName": "canastota",
    "state": "NY"
  },
  {
    "city": "preble",
    "state_code": "NY",
    "placeMasterId": "P02500000FsoIGOKiLpXTkmnPbsAo6czCFE4Rk2K",
    "placeName": "preble",
    "state": "NY"
  },
  {
    "city": "clark mills",
    "state_code": "NY",
    "placeMasterId": "P02500000FsoG1Ym8T7wPCHersm3AZzePyY7WgpU",
    "placeName": "clark mills",
    "state": "NY"
  },
  {
    "city": "oneida",
    "state_code": "NY",
    "placeMasterId": "P02500000FsoG480jKGKXZ640LOGgyoSGluPUfBI",
    "placeName": "oneida",
    "state": "NY"
  },
  {
    "city": "cape vincent",
    "state_code": "NY",
    "placeMasterId": "P02500000FsoHCTI7ggsgJFiuQiZjAJcYbg0y6k5",
    "placeName": "cape vincent",
    "state": "NY"
  },
  {
    "city": "redwood",
    "state_code": "NY",
    "placeMasterId": "P02500000FsoG4PhgX3U6wIYLx0xWnnCjkhkkybl",
    "placeName": "redwood",
    "state": "NY"
  },
  {
    "city": "thousand island park",
    "state_code": "NY",
    "placeMasterId": "P02500000FsoG57w4Y2N2NImDy4gcMF68xpXp43R",
    "placeName": "thousand island park",
    "state": "NY"
  },
  {
    "city": "maine",
    "state_code": "NY",
    "placeMasterId": "P02500000FsoIFg6KKqeYJmZXaoRiYBD55MykcNZ",
    "placeName": "maine",
    "state": "NY"
  },
  {
    "city": "marathon",
    "state_code": "NY",
    "placeMasterId": "P02500000FsoHCBbATtj6w3EYp5stLKna65oU8Fp",
    "placeName": "marathon",
    "state": "NY"
  },
  {
    "city": "sidney",
    "state_code": "NY",
    "placeMasterId": "P02500000FsoHCBbATtj6w3EYp5stLKuY16dpWzR",
    "placeName": "sidney",
    "state": "NY"
  },
  {
    "city": "binghamton",
    "state_code": "NY",
    "placeMasterId": "P02500000FsoG0zOE3XdGRsgAfWfUw2HIWCT02ES",
    "placeName": "binghamton",
    "state": "NY"
  },
  {
    "city": "binghamton",
    "state_code": "NY",
    "placeMasterId": "P02500000FsoG0zOE3XdGRsgAfWfUw2HIWCT02ES",
    "placeName": "binghamton",
    "state": "NY"
  },
  {
    "city": "dunkirk",
    "state_code": "NY",
    "placeMasterId": "P02500000FsoG1qT5fv5yZU9DUOk0OyPHpPjJmzu",
    "placeName": "dunkirk",
    "state": "NY"
  },
  {
    "city": "gowanda",
    "state_code": "NY",
    "placeMasterId": "P02500000FsoG2Pr05VP7Jt7uhe7g2w4o34OhRHK",
    "placeName": "gowanda",
    "state": "NY"
  },
  {
    "city": "orchard park",
    "state_code": "NY",
    "placeMasterId": "P02500000FsoHCKRe5IItceTjcuEJFp4ariEa8KH",
    "placeName": "orchard park",
    "state": "NY"
  },
  {
    "city": "buffalo",
    "state_code": "NY",
    "placeMasterId": "P02500000FsoG1H5BGKmpp5AWH9MKl12AT3E2vOM",
    "placeName": "buffalo",
    "state": "NY"
  },
  {
    "city": "buffalo",
    "state_code": "NY",
    "placeMasterId": "P02500000FsoG1H5BGKmpp5AWH9MKl12AT3E2vOM",
    "placeName": "buffalo",
    "state": "NY"
  },
  {
    "city": "clifton springs",
    "state_code": "NY",
    "placeMasterId": "P02500000FsoG1Ym8T7wPCHersm3AZzhABOX9sYS",
    "placeName": "clifton springs",
    "state": "NY"
  },
  {
    "city": "fairport",
    "state_code": "NY",
    "placeMasterId": "P02500000FsoG1zJZHJflG5OOID5QJSvzFHl0Ryp",
    "placeName": "fairport",
    "state": "NY"
  },
  {
    "city": "manchester",
    "state_code": "NY",
    "placeMasterId": "P02500000FsoHCtpYUsc2N3SQq9bytmeDxTBmHEJ",
    "placeName": "manchester",
    "state": "NY"
  },
  {
    "city": "williamson",
    "state_code": "NY",
    "placeMasterId": "P02500000FsoIHOG3ZbZyYzVdEYajU3fEMtW8IKv",
    "placeName": "williamson",
    "state": "NY"
  },
  {
    "city": "rochester",
    "state_code": "NY",
    "placeMasterId": "P02500000FsoG4YYA8S3tctnWkpIwiHXc7FWLpT6",
    "placeName": "rochester",
    "state": "NY"
  },
  {
    "city": "belfast",
    "state_code": "NY",
    "placeMasterId": "P02500000FsoIDp67Uh9LNyOH9FxHhoK5XRwMwAB",
    "placeName": "belfast",
    "state": "NY"
  },
  {
    "city": "andover",
    "state_code": "NY",
    "placeMasterId": "P02500000FsoHBtuDH6ZXYqkDDTC3WLxzZraj4Wp",
    "placeName": "andover",
    "state": "NY"
  },
  {
    "city": "big flats",
    "state_code": "NY",
    "placeMasterId": "P02500000FsoHBtuDH6ZXYqkDDTC3WM7BZL64d1x",
    "placeName": "big flats",
    "state": "NY"
  },
  {
    "city": "campbell",
    "state_code": "NY",
    "placeMasterId": "P02500000FsoIE6n4hUIulAsckse7Wn65xbCiDUQ",
    "placeName": "campbell",
    "state": "NY"
  },
  {
    "city": "odessa",
    "state_code": "NY",
    "placeMasterId": "P02500000FsoG3zAFirkksUopXZvH4KAFpgj0umo",
    "placeName": "odessa",
    "state": "NY"
  },
  {
    "city": "ambridge",
    "state_code": "PA",
    "placeMasterId": "P02500000FsoGQWth1UwpRPUMTsVJ1itDIeyXdEa",
    "placeName": "ambridge",
    "state": "PA"
  },
  {
    "city": "brackenridge",
    "state_code": "PA",
    "placeMasterId": "P02500000FsoGRNyYdsPXZ0xPIkZoUeqV5LvuPND",
    "placeName": "brackenridge",
    "state": "PA"
  },
  {
    "city": "south heights",
    "state_code": "PA",
    "placeMasterId": "P02500000FsoGZ5gLDHZwfSAogbENh72ToEM3AaY",
    "placeName": "south heights",
    "state": "PA"
  },
  {
    "city": "bethel park",
    "state_code": "PA",
    "placeMasterId": "P02500000FsoGR6HbR5FyBoT3h7syfgEyOTGshEv",
    "placeName": "bethel park",
    "state": "PA"
  },
  {
    "city": "pittsburgh",
    "state_code": "PA",
    "placeMasterId": "P02500000FsoGXfDZBJo5nRj4eTmCaDENhHWAB15",
    "placeName": "pittsburgh",
    "state": "PA"
  },
  {
    "city": "pittsburgh",
    "state_code": "PA",
    "placeMasterId": "P02500000FsoGXfDZBJo5nRj4eTmCaDENhHWAB15",
    "placeName": "pittsburgh",
    "state": "PA"
  },
  {
    "city": "fredericktown",
    "state_code": "PA",
    "placeMasterId": "P02500000FsoGTfWCIDe6YcsC9k6V4UnWMea8qSj",
    "placeName": "fredericktown",
    "state": "PA"
  },
  {
    "city": "hickory",
    "state_code": "PA",
    "placeMasterId": "P02500000FsoGUNkaJCX1zd64AnpacweKm9a8029",
    "placeName": "hickory",
    "state": "PA"
  },
  {
    "city": "waynesburg",
    "state_code": "PA",
    "placeMasterId": "P02500000FsoGaESA2SCEAG8D75ziz1uZGBPAJXT",
    "placeName": "waynesburg",
    "state": "PA"
  },
  {
    "city": "smock",
    "state_code": "PA",
    "placeMasterId": "P02500000FsoGZ5gLDHZwfSAogbENh6uZ7UOk0pR",
    "placeName": "smock",
    "state": "PA"
  },
  {
    "city": "vandergrift",
    "state_code": "PA",
    "placeMasterId": "P02500000FsoGZwlCpf2en3drVTItA3LoZUk2APj",
    "placeName": "vandergrift",
    "state": "PA"
  },
  {
    "city": "reynoldsville",
    "state_code": "PA",
    "placeMasterId": "P02500000FsoGYEbTau7EXqhlrj9sEAfuCcJlld3",
    "placeName": "reynoldsville",
    "state": "PA"
  },
  {
    "city": "sidman",
    "state_code": "PA",
    "placeMasterId": "P02500000FsoGYwprbt09yqvdsmsxmcZTQmBAG8q",
    "placeName": "sidman",
    "state": "PA"
  },
  {
    "city": "shinglehouse",
    "state_code": "PA",
    "placeMasterId": "P02500000FsoGYnzO0UQNIFgT4yXXs8JMtzhAOGM",
    "placeName": "shinglehouse",
    "state": "PA"
  },
  {
    "city": "bellefonte",
    "state_code": "PA",
    "placeMasterId": "P02500000FsoGQxR7pggBVDDstJXYlBz2oHQm2lo",
    "placeName": "bellefonte",
    "state": "PA"
  },
  {
    "city": "moshannon",
    "state_code": "PA",
    "placeMasterId": "P02500000FsoGWWRkM9BoIdlgDz0rIIFG24WpilE",
    "placeName": "moshannon",
    "state": "PA"
  },
  {
    "city": "knoxville",
    "state_code": "PA",
    "placeMasterId": "P02500000FsoGV5yyKBPxQdJwBrYgBObAPhuLpDn",
    "placeName": "knoxville",
    "state": "PA"
  },
  {
    "city": "millerton",
    "state_code": "PA",
    "placeMasterId": "P02500000FsoGWEkn9M2EvRHKcMK1TJfUYh7SSRg",
    "placeName": "millerton",
    "state": "PA"
  },
  {
    "city": "belleville",
    "state_code": "PA",
    "placeMasterId": "P02500000FsoGQxR7pggBVDDstJXYlBvXagae6K2",
    "placeName": "belleville",
    "state": "PA"
  },
  {
    "city": "mechanicsburg",
    "state_code": "PA",
    "placeMasterId": "P02500000FsoGW5uJXxSSEq29oXybYpEAdya3lAf",
    "placeName": "mechanicsburg",
    "state": "PA"
  },
  {
    "city": "middletown",
    "state_code": "PA",
    "placeMasterId": "P02500000FsoGW5uJXxSSEq29oXybYpFZhLNNjCQ",
    "placeName": "middletown",
    "state": "PA"
  },
  {
    "city": "mount gretna",
    "state_code": "PA",
    "placeMasterId": "P02500000FsoGWWRkM9BoIdlgDz0rIIOA1cUaKOU",
    "placeName": "mount gretna",
    "state": "PA"
  },
  {
    "city": "new buffalo",
    "state_code": "PA",
    "placeMasterId": "P02500000FsoGWfIDxXlazF0r1nMHCmqlAv4Wxxm",
    "placeName": "new buffalo",
    "state": "PA"
  },
  {
    "city": "reedsville",
    "state_code": "PA",
    "placeMasterId": "P02500000FsoGY5kzzVXRrFSb3uoSJgPBGMfI03T",
    "placeName": "reedsville",
    "state": "PA"
  },
  {
    "city": "chambersburg",
    "state_code": "PA",
    "placeMasterId": "P02500000FsoGRoVzS48tcogviBc4E89fxu7AoYX",
    "placeName": "chambersburg",
    "state": "PA"
  },
  {
    "city": "rouzerville",
    "state_code": "PA",
    "placeMasterId": "P02500000FsoGYEbTau7EXqhlrj9sEAtRXVeuMUZ",
    "placeName": "rouzerville",
    "state": "PA"
  },
  {
    "city": "red lion",
    "state_code": "PA",
    "placeMasterId": "P02500000FsoGXwuWO6xfAeDQG6T2PC72HywAnq8",
    "placeName": "red lion",
    "state": "PA"
  },
  {
    "city": "york",
    "state_code": "PA",
    "placeMasterId": "P02500000FsoGawgY3R59bGM589ioXTlpd4bjuYi",
    "placeName": "york",
    "state": "PA"
  },
  {
    "city": "williamsport",
    "state_code": "PA",
    "placeMasterId": "P02500000FsoGaW97FFLnXScYiigYo0o1WrFINgr",
    "placeName": "williamsport",
    "state": "PA"
  },
  {
    "city": "watsontown",
    "state_code": "PA",
    "placeMasterId": "P02500000FsoGa5bgR3cRTet2JHeJ4XeCOYJXU7k",
    "placeName": "watsontown",
    "state": "PA"
  },
  {
    "city": "gordon",
    "state_code": "PA",
    "placeMasterId": "P02500000FsoGTxD9V0nfvpMXlMnKtTldhOsQzoU",
    "placeName": "gordon",
    "state": "PA"
  },
  {
    "city": "honesdale",
    "state_code": "PA",
    "placeMasterId": "P02500000FsoGUNkaJCX1zd64AnpacwnnETuqmmA",
    "placeName": "honesdale",
    "state": "PA"
  },
  {
    "city": "little meadows",
    "state_code": "PA",
    "placeMasterId": "P02500000FsoGVWWP8N9JUR3SbIavurnn9YMBRgh",
    "placeName": "little meadows",
    "state": "PA"
  },
  {
    "city": "hatboro",
    "state_code": "PA",
    "placeMasterId": "P02500000FsoGUEu6hnxFJ1qtMzUAiSL3m7EREBi",
    "placeName": "hatboro",
    "state": "PA"
  },
  {
    "city": "spring city",
    "state_code": "PA",
    "placeMasterId": "P02500000FsoGZEWoog9jM3PzUPZnbbMM00FAyVr",
    "placeName": "spring city",
    "state": "PA"
  },
  {
    "city": "adamstown",
    "state_code": "PA",
    "placeMasterId": "P02500000FsoGQO3DQ6N2koFBg49t7EQCPGrCEvr",
    "placeName": "adamstown",
    "state": "PA"
  },
  {
    "city": "topton",
    "state_code": "PA",
    "placeMasterId": "P02500000FsoGZf4Fcrt5Pr9Vtqc3L4WDjZpHc8f",
    "placeName": "topton",
    "state": "PA"
  },
  {
    "city": "womelsdorf",
    "state_code": "PA",
    "placeMasterId": "P02500000FsoGanq4S2VMuf6uKLNOczQofZXZ4m3",
    "placeName": "womelsdorf",
    "state": "PA"
  },
  {
    "city": "wilmington",
    "state_code": "DE",
    "placeMasterId": "P02500000FsoEq4sEpygzKuc87a8wLiOkGKX6CVd",
    "placeName": "wilmington",
    "state": "DE"
  },
  {
    "city": "bethel",
    "state_code": "DE",
    "placeMasterId": "P02500000FsoEpeKo1mxdH6sbi96gcFGW5cSH4TD",
    "placeName": "bethel",
    "state": "DE"
  },
  {
    "city": "lewes",
    "state_code": "DE",
    "placeMasterId": "P02500000FsoEpw1lEa7CeJMxJlnWRE17psVkBF8",
    "placeName": "lewes",
    "state": "DE"
  },
  {
    "city": "ocean view",
    "state_code": "DE",
    "placeMasterId": "P02500000FsoEpw1lEa7CeJMxJlnWRE1FDlRjs2W",
    "placeName": "ocean view",
    "state": "DE"
  },
  {
    "city": "gainesville",
    "state_code": "VA",
    "placeMasterId": "P02500000FsoGvmGG7JLnuy5WQi9pZ05g48RyVdS",
    "placeName": "gainesville",
    "state": "VA"
  },
  {
    "city": "laurel",
    "state_code": "MD",
    "placeMasterId": "P02500000FsoFUk6JjxBnA7Mn60b31KSXjyFMd7C",
    "placeName": "laurel",
    "state": "MD"
  },
  {
    "city": "laurel",
    "state_code": "MD",
    "placeMasterId": "P02500000FsoFUk6JjxBnA7Mn60b31KSXjyFMd7C",
    "placeName": "laurel",
    "state": "MD"
  },
  {
    "city": "oxon hill",
    "state_code": "MD",
    "placeMasterId": "P02500000FsoFVJUE9XUvuWLUJFyifHyyid6xo1S",
    "placeName": "oxon hill",
    "state": "MD"
  },
  {
    "city": "hyattsville",
    "state_code": "MD",
    "placeMasterId": "P02500000FsoFUk6JjxBnA7Mn60b31KN4Wj0BAWZ",
    "placeName": "hyattsville",
    "state": "MD"
  },
  {
    "city": "baltimore",
    "state_code": "MD",
    "placeMasterId": "P02500000FsoFTSU1JNziyiADrhUHous91WaBH4V",
    "placeName": "baltimore",
    "state": "MD"
  },
  {
    "city": "parkville",
    "state_code": "MD",
    "placeMasterId": "P02500000FsoFVSKhkw4ib7af74K8Zm8SfjeLp1g",
    "placeName": "parkville",
    "state": "MD"
  },
  {
    "city": "rosedale",
    "state_code": "MD",
    "placeMasterId": "P02500000FsoFVk1exjEHyK50ih0yOko7Msg8cjB",
    "placeName": "rosedale",
    "state": "MD"
  },
  {
    "city": "hillsboro",
    "state_code": "MD",
    "placeMasterId": "P02500000FsoFUbFq8Yc0TW7cICFd6py4i4BWOcn",
    "placeName": "hillsboro",
    "state": "MD"
  },
  {
    "city": "marydel",
    "state_code": "MD",
    "placeMasterId": "P02500000FsoFV1nGwkLMXJr8hdHsqJAwOSpGrro",
    "placeName": "marydel",
    "state": "MD"
  },
  {
    "city": "allen",
    "state_code": "MD",
    "placeMasterId": "P02500000FsoFTAn46aq9bVfsG4nRzwFDDfhjf9i",
    "placeName": "allen",
    "state": "MD"
  },
  {
    "city": "bivalve",
    "state_code": "MD",
    "placeMasterId": "P02500000FsoFTbKUumZVfJPOfVphjPFKE4h3GeD",
    "placeName": "bivalve",
    "state": "MD"
  },
  {
    "city": "dumfries",
    "state_code": "VA",
    "placeMasterId": "P02500000FsoGvUZIuWCEXlbAp5Szk1Lb3cb2d18",
    "placeName": "dumfries",
    "state": "VA"
  },
  {
    "city": "fairfax station",
    "state_code": "VA",
    "placeMasterId": "P02500000FsoGvdPmVum1EMqLctoPeVi04uBQDGg",
    "placeName": "fairfax station",
    "state": "VA"
  },
  {
    "city": "alexandria",
    "state_code": "VA",
    "placeMasterId": "P02500000FsoGuUdxgk9jjYsxCP34MaiKDaDtr2h",
    "placeName": "alexandria",
    "state": "VA"
  },
  {
    "city": "west point",
    "state_code": "VA",
    "placeMasterId": "P02500000FsoGy3ntleaMua0JHhgW8pttBMmzzz1",
    "placeName": "west point",
    "state": "VA"
  },
  {
    "city": "painter",
    "state_code": "VA",
    "placeMasterId": "P02500000FsoGwv24wTy5Pm2urCvAqv8TfAjRz1H",
    "placeName": "painter",
    "state": "VA"
  },
  {
    "city": "virginia beach",
    "state_code": "VA",
    "placeMasterId": "P02500000FsoGxuxQAG0aDyl8TtL6ELfzK3Qkryw",
    "placeName": "virginia beach",
    "state": "VA"
  },
  {
    "city": "yorktown",
    "state_code": "VA",
    "placeMasterId": "P02500000FsoGy3ntleaMua0JHhgW8q4paQ08CpQ",
    "placeName": "yorktown",
    "state": "VA"
  },
  {
    "city": "petersburg",
    "state_code": "VA",
    "placeMasterId": "P02500000FsoGx3sYXsXs6NI5f1GalPYADAv3kTp",
    "placeName": "petersburg",
    "state": "VA"
  },
  {
    "city": "courtland",
    "state_code": "VA",
    "placeMasterId": "P02500000FsoGvLipJ7cRrAM01H7ZpWtQd2jG3tg",
    "placeName": "courtland",
    "state": "VA"
  },
  {
    "city": "roanoke",
    "state_code": "VA",
    "placeMasterId": "P02500000FsoGxLZVkfhRTZmRGdxQaO4ZAL3W16u",
    "placeName": "roanoke",
    "state": "VA"
  },
  {
    "city": "bassett",
    "state_code": "VA",
    "placeMasterId": "P02500000FsoGumKutXJJ6lNIo1juBZN1dY8vJzD",
    "placeName": "bassett",
    "state": "VA"
  },
  {
    "city": "bristol",
    "state_code": "VA",
    "placeMasterId": "P02500000FsoGumKutXJJ6lNIo1juBZZWuMwUZNX",
    "placeName": "bristol",
    "state": "VA"
  },
  {
    "city": "coeburn",
    "state_code": "VA",
    "placeMasterId": "P02500000FsoGvLipJ7cRrAM01H7ZpWsLUOIGNsW",
    "placeName": "coeburn",
    "state": "VA"
  },
  {
    "city": "vansant",
    "state_code": "VA",
    "placeMasterId": "P02500000FsoGxuxQAG0aDyl8TtL6ELcWjlJtS67",
    "placeName": "vansant",
    "state": "VA"
  },
  {
    "city": "peterstown",
    "state_code": "WV",
    "placeMasterId": "P02500000FsoH3Ty2giWD1PIvoYoOlSBLTR4L2rp",
    "placeName": "peterstown",
    "state": "WV"
  },
  {
    "city": "gauley bridge",
    "state_code": "WV",
    "placeMasterId": "P02500000FsoH2ljefjdHaP53nV5JD0CN3ag10Ce",
    "placeName": "gauley bridge",
    "state": "WV"
  },
  {
    "city": "milton",
    "state_code": "WV",
    "placeMasterId": "P02500000FsoH3L7Z5JwQKo3l0kSyqxjUsXRqrjf",
    "placeName": "milton",
    "state": "WV"
  },
  {
    "city": "holden",
    "state_code": "WV",
    "placeMasterId": "P02500000FsoH33QbsWmqxbZPP7m91yu3UWpk7o3",
    "placeName": "holden",
    "state": "WV"
  },
  {
    "city": "williamstown",
    "state_code": "WV",
    "placeMasterId": "P02500000FsoH4CCQhhP8SPWnpcXUJtrC4RcwPFl",
    "placeName": "williamstown",
    "state": "WV"
  },
  {
    "city": "galloway",
    "state_code": "WV",
    "placeMasterId": "P02500000FsoH2ljefjdHaP53nV5JD09SzKsgpju",
    "placeName": "galloway",
    "state": "WV"
  },
  {
    "city": "rowlesburg",
    "state_code": "WV",
    "placeMasterId": "P02500000FsoH3leztVfmObnHQBVEaQri9eVJqms",
    "placeName": "rowlesburg",
    "state": "WV"
  },
  {
    "city": "reedsville",
    "state_code": "WV",
    "placeMasterId": "P02500000FsoH3leztVfmObnHQBVEaQohHgY4S6W",
    "placeName": "reedsville",
    "state": "WV"
  },
  {
    "city": "summersville",
    "state_code": "WV",
    "placeMasterId": "P02500000FsoH3uVTUuFZ5D2SDzqeUvH3Qim5BZK",
    "placeName": "summersville",
    "state": "WV"
  },
  {
    "city": "madison",
    "state_code": "NC",
    "placeMasterId": "P02500000FsoG8GYZol4JUWA3dwHoP19q4QUVv9a",
    "placeName": "madison",
    "state": "NC"
  },
  {
    "city": "denton",
    "state_code": "NC",
    "placeMasterId": "P02500000FsoG6q5nmnIScViJbopdI7Vey2UfLSS",
    "placeName": "denton",
    "state": "NC"
  },
  {
    "city": "high point",
    "state_code": "NC",
    "placeMasterId": "P02500000FsoG7YKBnmBO3VwBcsYiqZMYSFM4NK8",
    "placeName": "high point",
    "state": "NC"
  },
  {
    "city": "star",
    "state_code": "NC",
    "placeMasterId": "P02500000FsoG9YAsFKGNfvMcsFOZbQaGn3o5OPR",
    "placeName": "star",
    "state": "NC"
  },
  {
    "city": "cary",
    "state_code": "NC",
    "placeMasterId": "P02500000FsoG6PYMybZ6YhynCNnNYeRe98ichEV",
    "placeName": "cary",
    "state": "NC"
  },
  {
    "city": "apex",
    "state_code": "NC",
    "placeMasterId": "P02500000FsoG5z0wAPpkUuFGmwl7pB9aG4soHBj",
    "placeName": "apex",
    "state": "NC"
  },
  {
    "city": "selma",
    "state_code": "NC",
    "placeMasterId": "P02500000FsoG9GTv2X6oIisHGchjmRqsQ4JEfRo",
    "placeName": "selma",
    "state": "NC"
  },
  {
    "city": "casar",
    "state_code": "NC",
    "placeMasterId": "P02500000FsoG6PYMybZ6YhynCNnNYeSGQCwSBh7",
    "placeName": "casar",
    "state": "NC"
  },
  {
    "city": "iron station",
    "state_code": "NC",
    "placeMasterId": "P02500000FsoG7hAfPAlAk7BMQgu8l3nkiBadTQ7",
    "placeName": "iron station",
    "state": "NC"
  },
  {
    "city": "charlotte",
    "state_code": "NC",
    "placeMasterId": "P02500000FsoG6YOqa08tFJDy0C8nT8qHEOhlkFv",
    "placeName": "charlotte",
    "state": "NC"
  },
  {
    "city": "tar heel",
    "state_code": "NC",
    "placeMasterId": "P02500000FsoG9h1LqiqAMWbng3jzVuonkEPqGfV",
    "placeName": "tar heel",
    "state": "NC"
  },
  {
    "city": "castle hayne",
    "state_code": "NC",
    "placeMasterId": "P02500000FsoG6YOqa08tFJDy0C8nT8mfSIGUkWZ",
    "placeName": "castle hayne",
    "state": "NC"
  },
  {
    "city": "whiteville",
    "state_code": "NC",
    "placeMasterId": "P02500000FsoG9yiJ3Vzjjj69HgQpKtgurBa4gLs",
    "placeName": "whiteville",
    "state": "NC"
  },
  {
    "city": "marshallberg",
    "state_code": "NC",
    "placeMasterId": "P02500000FsoG87i6DMUWnuusq7wOUWtrEDEV3wo",
    "placeName": "marshallberg",
    "state": "NC"
  },
  {
    "city": "hays",
    "state_code": "NC",
    "placeMasterId": "P02500000FsoG7YKBnmBO3VwBcsYiqZFrkQP6YwZ",
    "placeName": "hays",
    "state": "NC"
  },
  {
    "city": "lenoir",
    "state_code": "NC",
    "placeMasterId": "P02500000FsoG87i6DMUWnuusq7wOUWighEuaat4",
    "placeName": "lenoir",
    "state": "NC"
  },
  {
    "city": "rhodhiss",
    "state_code": "NC",
    "placeMasterId": "P02500000FsoG8ymxpjxEvWNvf00txT0F4OFdHne",
    "placeName": "rhodhiss",
    "state": "NC"
  },
  {
    "city": "saluda",
    "state_code": "NC",
    "placeMasterId": "P02500000FsoG9GTv2X6oIisHGchjmRkTdBuwqMt",
    "placeName": "saluda",
    "state": "NC"
  },
  {
    "city": "swannanoa",
    "state_code": "NC",
    "placeMasterId": "P02500000FsoG9YAsFKGNfvMcsFOZbQa0THk1iGo",
    "placeName": "swannanoa",
    "state": "NC"
  },
  {
    "city": "carlisle",
    "state_code": "SC",
    "placeMasterId": "P02500000FsoGbNDyrcoVf45bXal4GwtWig2W23o",
    "placeName": "carlisle",
    "state": "SC"
  },
  {
    "city": "olanta",
    "state_code": "SC",
    "placeMasterId": "P02500000FsoGceqHIC0ZqTIAltrpTMH2OUpfPbl",
    "placeName": "olanta",
    "state": "SC"
  },
  {
    "city": "ridgeway",
    "state_code": "SC",
    "placeMasterId": "P02500000FsoGcngktaaMX4XLZiDFNqp9TIMlVfe",
    "placeName": "ridgeway",
    "state": "SC"
  },
  {
    "city": "columbia",
    "state_code": "SC",
    "placeMasterId": "P02500000FsoGbW4ST1OILfKmLP6UBRJpkapmyqZ",
    "placeName": "columbia",
    "state": "SC"
  },
  {
    "city": "columbia",
    "state_code": "SC",
    "placeMasterId": "P02500000FsoGbW4ST1OILfKmLP6UBRJpkapmyqZ",
    "placeName": "columbia",
    "state": "SC"
  },
  {
    "city": "columbia",
    "state_code": "SC",
    "placeMasterId": "P02500000FsoGbW4ST1OILfKmLP6UBRJpkapmyqZ",
    "placeName": "columbia",
    "state": "SC"
  },
  {
    "city": "columbia",
    "state_code": "SC",
    "placeMasterId": "P02500000FsoGbW4ST1OILfKmLP6UBRJpkapmyqZ",
    "placeName": "columbia",
    "state": "SC"
  },
  {
    "city": "cross hill",
    "state_code": "SC",
    "placeMasterId": "P02500000FsoGbW4ST1OILfKmLP6UBRJR0M7LIoT",
    "placeName": "cross hill",
    "state": "SC"
  },
  {
    "city": "pacolet",
    "state_code": "SC",
    "placeMasterId": "P02500000FsoGceqHIC0ZqTIAltrpTMMvyoOLsHR",
    "placeName": "pacolet",
    "state": "SC"
  },
  {
    "city": "reevesville",
    "state_code": "SC",
    "placeMasterId": "P02500000FsoGcwXEUzA9DfmWNWYfIKx3WEJy1wT",
    "placeName": "reevesville",
    "state": "SC"
  },
  {
    "city": "conway",
    "state_code": "SC",
    "placeMasterId": "P02500000FsoGbW4ST1OILfKmLP6UBRMtx5EuYiv",
    "placeName": "conway",
    "state": "SC"
  },
  {
    "city": "dillon",
    "state_code": "SC",
    "placeMasterId": "P02500000FsoGbeuw4Py52GZx9DRu5vaUxElXquu",
    "placeName": "dillon",
    "state": "SC"
  },
  {
    "city": "greenville",
    "state_code": "SC",
    "placeMasterId": "P02500000FsoGbwbtHD7ePT4Ikq8juuKkVY6QuEs",
    "placeName": "greenville",
    "state": "SC"
  },
  {
    "city": "williamston",
    "state_code": "SC",
    "placeMasterId": "P02500000FsoGdN4fJAtVHTW2mxav1oCb8I60YuV",
    "placeName": "williamston",
    "state": "SC"
  },
  {
    "city": "beaufort",
    "state_code": "SC",
    "placeMasterId": "P02500000FsoGbENVGEEiySqQjmPeMSdXgboltfr",
    "placeName": "beaufort",
    "state": "SC"
  },
  {
    "city": "brunson",
    "state_code": "SC",
    "placeMasterId": "P02500000FsoGbNDyrcoVf45bXal4GwwFImFhtLd",
    "placeName": "brunson",
    "state": "SC"
  },
  {
    "city": "avondale estates",
    "state_code": "GA",
    "placeMasterId": "P02500000FsoEvdsrMRCc8L9vSFcEsorHT0iutVo",
    "placeName": "avondale estates",
    "state": "GA"
  },
  {
    "city": "decatur",
    "state_code": "GA",
    "placeMasterId": "P02500000FsoEwM7FNQ5XZLNnTJLKRGjUEchrJsh",
    "placeName": "decatur",
    "state": "GA"
  },
  {
    "city": "marietta",
    "state_code": "GA",
    "placeMasterId": "P02500000FsoExM2abC82NY615zlFohL9dHDdiW0",
    "placeName": "marietta",
    "state": "GA"
  },
  {
    "city": "scottdale",
    "state_code": "GA",
    "placeMasterId": "P02500000FsoEyLxvoyAXBkoEigBBC7uCf7IrERg",
    "placeName": "scottdale",
    "state": "GA"
  },
  {
    "city": "bremen",
    "state_code": "GA",
    "placeMasterId": "P02500000FsoEvmjKxpmOowP6G3xenJFIsU9ZtXx",
    "placeName": "bremen",
    "state": "GA"
  },
  {
    "city": "cartersville",
    "state_code": "GA",
    "placeMasterId": "P02500000FsoEvvZoZEMBVXeH3sJ4hneN8P5XG8c",
    "placeName": "cartersville",
    "state": "GA"
  },
  {
    "city": "dallas",
    "state_code": "GA",
    "placeMasterId": "P02500000FsoEwDGlm1Vksk8cfUzuWmMz4VgBIy0",
    "placeName": "dallas",
    "state": "GA"
  },
  {
    "city": "rome",
    "state_code": "GA",
    "placeMasterId": "P02500000FsoEyD7SDZakV9Z3urplHda5fOLAdnq",
    "placeName": "rome",
    "state": "GA"
  },
  {
    "city": "atlanta",
    "state_code": "GA",
    "placeMasterId": "P02500000FsoEvV2Nl2cpRjukeRGoyKXsQZ9lvPs",
    "placeName": "atlanta",
    "state": "GA"
  },
  {
    "city": "cobbtown",
    "state_code": "GA",
    "placeMasterId": "P02500000FsoEw4QIAcvyC8tRrgeUcHzlV3uTcJq",
    "placeName": "cobbtown",
    "state": "GA"
  },
  {
    "city": "louisville",
    "state_code": "GA",
    "placeMasterId": "P02500000FsoExM2abC82NY615zlFohLr1xuVShQ",
    "placeName": "louisville",
    "state": "GA"
  },
  {
    "city": "larimore",
    "state_code": "ND",
    "placeMasterId": "P02500000FsoGBPB55TlabjXtJnt0RnRW0EEWNqq",
    "placeName": "larimore",
    "state": "ND"
  },
  {
    "city": "jamestown",
    "state_code": "ND",
    "placeMasterId": "P02500000FsoGBGKbU5Bnv8IiVzXaXIwz89mRGPS",
    "placeName": "jamestown",
    "state": "ND"
  },
  {
    "city": "fort yates",
    "state_code": "ND",
    "placeMasterId": "P02500000FsoGAydeHI2EXvoMuMqkiKH2CW814tj",
    "placeName": "fort yates",
    "state": "ND"
  },
  {
    "city": "beach",
    "state_code": "ND",
    "placeMasterId": "P02500000FsoGAGPGGJ9J6vaUtJ7f9sbbDMbbS0y",
    "placeName": "beach",
    "state": "ND"
  },
  {
    "city": "new england",
    "state_code": "ND",
    "placeMasterId": "P02500000FsoGBpiVtfUwfXHPjEvGBGMTgusKvHa",
    "placeName": "new england",
    "state": "ND"
  },
  {
    "city": "goshen",
    "state_code": "MA",
    "placeMasterId": "P02500000FsoHdixJtP7fXzTBsoYYBsOyNmlJtlx",
    "placeName": "goshen",
    "state": "MA"
  },
  {
    "city": "southampton",
    "state_code": "MA",
    "placeMasterId": "P02500000FsoHeRBhuO0ayzh3tsHdkKC9d25QvPi",
    "placeName": "southampton",
    "state": "MA"
  },
  {
    "city": "lanesborough",
    "state_code": "MA",
    "placeMasterId": "P02500000FsoHe0eH6CHEvBxXURFO0r6fhpRA3ne",
    "placeName": "lanesborough",
    "state": "MA"
  },
  {
    "city": "gardner",
    "state_code": "MA",
    "placeMasterId": "P02500000FsoFWSG2yi7DPKIsjkk3xCno2hlvRfu",
    "placeName": "gardner",
    "state": "MA"
  },
  {
    "city": "holden",
    "state_code": "MA",
    "placeMasterId": "P02500000FsoHdrnnUnhSEaiMgcty6MtFdnPfSAP",
    "placeName": "holden",
    "state": "MA"
  },
  {
    "city": "paxton",
    "state_code": "MA",
    "placeMasterId": "P02500000FsoHe9Ukhar1bnCiIFanvLTwc9ceV7b",
    "placeName": "paxton",
    "state": "MA"
  },
  {
    "city": "lowell",
    "state_code": "MA",
    "placeMasterId": "P02500000FsoFWb6Wa6h05vY3XZ5Trh8C13Bjmyh",
    "placeName": "lowell",
    "state": "MA"
  },
  {
    "city": "brockton",
    "state_code": "MA",
    "placeMasterId": "P02500000FsoFWJPZNJXQij3hvwOe2iZLIP0ui3x",
    "placeName": "brockton",
    "state": "MA"
  },
  {
    "city": "plymouth",
    "state_code": "MA",
    "placeMasterId": "P02500000FsoHBBfpG7gc7qWLCPSxxuFgf4Oyjym",
    "placeName": "plymouth",
    "state": "MA"
  },
  {
    "city": "north kingstown",
    "state_code": "RI",
    "placeMasterId": "P02500000FsoIZ5DGMl9LlTrErFQYSni4qKa0qEP",
    "placeName": "north kingstown",
    "state": "RI"
  },
  {
    "city": "cranston",
    "state_code": "RI",
    "placeMasterId": "P02500000FsoGawgY3R59bGM589ioXTxS6mxJlKr",
    "placeName": "cranston",
    "state": "RI"
  },
  {
    "city": "nashua",
    "state_code": "NH",
    "placeMasterId": "P02500000FsoFuzqAitOHaeOqvQ9wfShffTuAHJR",
    "placeName": "nashua",
    "state": "NH"
  },
  {
    "city": "manchester",
    "state_code": "NH",
    "placeMasterId": "P02500000FsoFuzqAitOHaeOqvQ9wfSewcJ9IWcK",
    "placeName": "manchester",
    "state": "NH"
  },
  {
    "city": "manchester",
    "state_code": "NH",
    "placeMasterId": "P02500000FsoFuzqAitOHaeOqvQ9wfSewcJ9IWcK",
    "placeName": "manchester",
    "state": "NH"
  },
  {
    "city": "north woodstock",
    "state_code": "NH",
    "placeMasterId": "P02500000FsoFuzqAitOHaeOqvQ9wfSi6ej3xksG",
    "placeName": "north woodstock",
    "state": "NH"
  },
  {
    "city": "rumney",
    "state_code": "NH",
    "placeMasterId": "P02500000FsoIBy5ueXe8SAD0hhSqrRegZstrWti",
    "placeName": "rumney",
    "state": "NH"
  },
  {
    "city": "chesterfield",
    "state_code": "NH",
    "placeMasterId": "P02500000FsoIBOi0ExKzhlEJUS5BDU2kDjpay7j",
    "placeName": "chesterfield",
    "state": "NH"
  },
  {
    "city": "harrisville",
    "state_code": "NH",
    "placeMasterId": "P02500000FsoIBgOxRkUZ4xif64m12Sl9dgWVxdt",
    "placeName": "harrisville",
    "state": "NH"
  },
  {
    "city": "alton",
    "state_code": "NH",
    "placeMasterId": "P02500000FsoIBFrWdYlD19z8gdjlIzlfkQmWcwc",
    "placeName": "alton",
    "state": "NH"
  },
  {
    "city": "dover",
    "state_code": "NH",
    "placeMasterId": "P02500000FsoFuzqAitOHaeOqvQ9wfSgJDvzlkIk",
    "placeName": "dover",
    "state": "NH"
  },
  {
    "city": "bowdoinham",
    "state_code": "ME",
    "placeMasterId": "P02500000FsoHerj8iZjx2nQaJJJtTnJqt5kO9i1",
    "placeName": "bowdoinham",
    "state": "ME"
  },
  {
    "city": "cornish",
    "state_code": "ME",
    "placeMasterId": "P02500000FsoHf9Q5vMtWPzuvuw0jIm46EX21GrT",
    "placeName": "cornish",
    "state": "ME"
  },
  {
    "city": "newry",
    "state_code": "ME",
    "placeMasterId": "P02500000FsoHg0UxXkMEXbNyjo5EliQU72LfWDm",
    "placeName": "newry",
    "state": "ME"
  },
  {
    "city": "roxbury",
    "state_code": "ME",
    "placeMasterId": "P02500000FsoHgIBukXVnunsKLQm4ah8mtae10sH",
    "placeName": "roxbury",
    "state": "ME"
  },
  {
    "city": "friendship",
    "state_code": "ME",
    "placeMasterId": "P02500000FsoHfIGZWlTJ6bA6ikM9DGc4i1eOI7b",
    "placeName": "friendship",
    "state": "ME"
  },
  {
    "city": "brooklin",
    "state_code": "ME",
    "placeMasterId": "P02500000FsoHerj8iZjx2nQaJJJtTnSGhA2L2nY",
    "placeName": "brooklin",
    "state": "ME"
  },
  {
    "city": "calais",
    "state_code": "ME",
    "placeMasterId": "P02500000FsoFTAn46aq9bVfsG4nRzw8yKGpliGf",
    "placeName": "calais",
    "state": "ME"
  },
  {
    "city": "harrington",
    "state_code": "ME",
    "placeMasterId": "P02500000FsoHfZxWjYcsTneSKN2z2FBOSOqza1X",
    "placeName": "harrington",
    "state": "ME"
  },
  {
    "city": "lubec",
    "state_code": "ME",
    "placeMasterId": "P02500000FsoHfio0KxCfAOtd8BOOwjjZfDOCaqE",
    "placeName": "lubec",
    "state": "ME"
  },
  {
    "city": "stonington",
    "state_code": "ME",
    "placeMasterId": "P02500000FsoHgZsrxKfNI0Mfx3SuPflguk86KSd",
    "placeName": "stonington",
    "state": "ME"
  },
  {
    "city": "anson",
    "state_code": "ME",
    "placeMasterId": "P02500000FsoHAcHuqXNTNRXdzA5IJwmWEm5f3R0",
    "placeName": "anson",
    "state": "ME"
  },
  {
    "city": "freedom",
    "state_code": "ME",
    "placeMasterId": "P02500000FsoHfIGZWlTJ6bA6ikM9DGakZchOLIO",
    "placeName": "freedom",
    "state": "ME"
  },
  {
    "city": "liberty",
    "state_code": "ME",
    "placeMasterId": "P02500000FsoHfZxWjYcsTneSKN2z2FIZ5cccOFb",
    "placeName": "liberty",
    "state": "ME"
  },
  {
    "city": "plymouth",
    "state_code": "ME",
    "placeMasterId": "P02500000FsoHgIBukXVnunsKLQm4ah3Tt6fY2mt",
    "placeName": "plymouth",
    "state": "ME"
  },
  {
    "city": "chelsea",
    "state_code": "VT",
    "placeMasterId": "P02500000FsoIeVNPHp5BsJ9rO6YR5Pl51voYugK",
    "placeName": "chelsea",
    "state": "VT"
  },
  {
    "city": "londonderry",
    "state_code": "VT",
    "placeMasterId": "P02500000FsoIen4MUcElFVeCzjFGuOVOcZuajWx",
    "placeName": "londonderry",
    "state": "VT"
  },
  {
    "city": "wilmington",
    "state_code": "VT",
    "placeMasterId": "P02500000FsoIfVIkVb7ggVs50myMSqM3o1JmK01",
    "placeName": "wilmington",
    "state": "VT"
  },
  {
    "city": "cambridge",
    "state_code": "VT",
    "placeMasterId": "P02500000FsoHE2bNK3EJrrPpGeNKBhYWJ6dmxID",
    "placeName": "cambridge",
    "state": "VT"
  },
  {
    "city": "vergennes",
    "state_code": "VT",
    "placeMasterId": "P02500000FsoGuUdxgk9jjYsxCP34MakEQxc2xYw",
    "placeName": "vergennes",
    "state": "VT"
  },
  {
    "city": "hyde park",
    "state_code": "VT",
    "placeMasterId": "P02500000FsoHDtktieeXBGAeSq1uHDGf7k0hKbS",
    "placeName": "hyde park",
    "state": "VT"
  },
  {
    "city": "rochester",
    "state_code": "VT",
    "placeMasterId": "P02500000FsoIf4lJhPOKci8YbLw6jNIj4ZhUofl",
    "placeName": "rochester",
    "state": "VT"
  },
  {
    "city": "albany",
    "state_code": "VT",
    "placeMasterId": "P02500000FsoHDtktieeXBGAeSq1uHDKquQEPqTt",
    "placeName": "albany",
    "state": "VT"
  },
  {
    "city": "bristol",
    "state_code": "CT",
    "placeMasterId": "P02500000FsoEp4wtcCeUWhtuUtj0yHmTeHvmHuB",
    "placeName": "bristol",
    "state": "CT"
  },
  {
    "city": "tariffville",
    "state_code": "CT",
    "placeMasterId": "P02500000FsoEpVUKQONqaVdQuKlGhkv4SBRc6Oa",
    "placeName": "tariffville",
    "state": "CT"
  },
  {
    "city": "windham",
    "state_code": "CT",
    "placeMasterId": "P02500000FsoHGtWvNym1bsJJKtHgPV4gVyUfNYD",
    "placeName": "windham",
    "state": "CT"
  },
  {
    "city": "jewett city",
    "state_code": "CT",
    "placeMasterId": "P02500000FsoEp4wtcCeUWhtuUtj0yHqKiXBXC7f",
    "placeName": "jewett city",
    "state": "CT"
  },
  {
    "city": "cheshire",
    "state_code": "CT",
    "placeMasterId": "P02500000FsoHGK90yOSsrTKc7du0lXVBo4SxOe5",
    "placeName": "cheshire",
    "state": "CT"
  },
  {
    "city": "madison",
    "state_code": "CT",
    "placeMasterId": "P02500000FsoHGbpyBBcSEfoxjGaqaWJ4SNoh5W9",
    "placeName": "madison",
    "state": "CT"
  },
  {
    "city": "marlborough",
    "state_code": "CT",
    "placeMasterId": "P02500000FsoHGbpyBBcSEfoxjGaqaWGsPyiKfwr",
    "placeName": "marlborough",
    "state": "CT"
  },
  {
    "city": "new haven",
    "state_code": "CT",
    "placeMasterId": "P02500000FsoEpMdqozo3tuOG6WPqnGYhHDltz2z",
    "placeName": "new haven",
    "state": "CT"
  },
  {
    "city": "new milford",
    "state_code": "CT",
    "placeMasterId": "P02500000FsoH9u3WpYUXwRJly6MClUr7s1TQxCT",
    "placeName": "new milford",
    "state": "CT"
  },
  {
    "city": "darien",
    "state_code": "CT",
    "placeMasterId": "P02500000FsoH9u3WpYUXwRJly6MClUsQcZXdKpC",
    "placeName": "darien",
    "state": "CT"
  },
  {
    "city": "wilton",
    "state_code": "CT",
    "placeMasterId": "P02500000FsoHH2NOzNLoITYU8hd6JzMPIQFUnm9",
    "placeName": "wilton",
    "state": "CT"
  },
  {
    "city": "clifton",
    "state_code": "NJ",
    "placeMasterId": "P02500000FsoFvZE58ThQL3NY8fXcJQ7MCKBxIkX",
    "placeName": "clifton",
    "state": "NJ"
  },
  {
    "city": "lyndhurst",
    "state_code": "NJ",
    "placeMasterId": "P02500000FsoID6rjTiGPwyAP8CEC9MUcppVP0oo",
    "placeName": "lyndhurst",
    "state": "NJ"
  },
  {
    "city": "fair lawn",
    "state_code": "NJ",
    "placeMasterId": "P02500000FsoFvzlVwfQmOr74Y6Zs2tBhCuAHLWX",
    "placeName": "fair lawn",
    "state": "NJ"
  },
  {
    "city": "palisades park",
    "state_code": "NJ",
    "placeMasterId": "P02500000FsoFx8XKlq33tf4SybLDKoFRB4BAmMz",
    "placeName": "palisades park",
    "state": "NJ"
  },
  {
    "city": "woodcliff lake",
    "state_code": "NJ",
    "placeMasterId": "P02500000FsoFy8Sfzc5YhrmgbHl8iEqMIAOJltK",
    "placeName": "woodcliff lake",
    "state": "NJ"
  },
  {
    "city": "belford",
    "state_code": "NJ",
    "placeMasterId": "P02500000FsoFvHX7vgXqxqtCX2qmURSVgYFMqL9",
    "placeName": "belford",
    "state": "NJ"
  },
  {
    "city": "eatontown",
    "state_code": "NJ",
    "placeMasterId": "P02500000FsoFvqv2LGqziFrtkIES8OnEp3M5rnH",
    "placeName": "eatontown",
    "state": "NJ"
  },
  {
    "city": "delaware",
    "state_code": "NJ",
    "placeMasterId": "P02500000FsoFvi4YjsHD1eciwTt2DuVGXDBCX46",
    "placeName": "delaware",
    "state": "NJ"
  },
  {
    "city": "cherry hill",
    "state_code": "NJ",
    "placeMasterId": "P02500000FsoICOdLSjNUVxwX78V6auiQaUCbiOz",
    "placeName": "cherry hill",
    "state": "NJ"
  },
  {
    "city": "hancocks bridge",
    "state_code": "NJ",
    "placeMasterId": "P02500000FsoFw8bzY40Z5SMFLuvHxNdrAHGRPI9",
    "placeName": "hancocks bridge",
    "state": "NJ"
  },
  {
    "city": "mount laurel",
    "state_code": "NJ",
    "placeMasterId": "P02500000FsoID6rjTiGPwyAP8CEC9McdUjvTKoG",
    "placeName": "mount laurel",
    "state": "NJ"
  },
  {
    "city": "pemberton",
    "state_code": "NJ",
    "placeMasterId": "P02500000FsoIDFiD56qCdZPZw0Zc3quGiQ7hRy6",
    "placeName": "pemberton",
    "state": "NJ"
  },
  {
    "city": "pennsville",
    "state_code": "NJ",
    "placeMasterId": "P02500000FsoIDFiD56qCdZPZw0Zc3qs09ovIt7X",
    "placeName": "pennsville",
    "state": "NJ"
  },
  {
    "city": "runnemede",
    "state_code": "NJ",
    "placeMasterId": "P02500000FsoFxQEHydCdGrYoaE239my7lOTqgex",
    "placeName": "runnemede",
    "state": "NJ"
  },
  {
    "city": "swedesboro",
    "state_code": "NJ",
    "placeMasterId": "P02500000FsoFxqlimovzKfIKzf4ItG6ECoRLhFF",
    "placeName": "swedesboro",
    "state": "NJ"
  },
  {
    "city": "roebling",
    "state_code": "NJ",
    "placeMasterId": "P02500000FsoFxQEHydCdGrYoaE239muLppEpSsH",
    "placeName": "roebling",
    "state": "NJ"
  },
  {
    "city": "bloomsbury",
    "state_code": "NJ",
    "placeMasterId": "P02500000FsoFvQNbX57deS8NKrCCOviuxr1byj7",
    "placeName": "bloomsbury",
    "state": "NJ"
  },
  {
    "city": "east brunswick",
    "state_code": "NJ",
    "placeMasterId": "P02500000FsoICXTp47xHCZBhuwqWVP6GFyEvkva",
    "placeName": "east brunswick",
    "state": "NJ"
  },
  {
    "city": "middlesex",
    "state_code": "NJ",
    "placeMasterId": "P02500000FsoFwhztxeJhprKwZAIxbL7WuYSC6jq",
    "placeName": "middlesex",
    "state": "NJ"
  },
  {
    "city": "new york",
    "state_code": "NY",
    "placeMasterId": "P02500000FsoG3hTIW4bBVIKTvxERFLPbpMNP8u9",
    "placeName": "new york",
    "state": "NY"
  },
  {
    "city": "bronxville",
    "state_code": "NY",
    "placeMasterId": "P02500000FsoG1H5BGKmpp5AWH9MKl17VPNLpwaT",
    "placeName": "bronxville",
    "state": "NY"
  },
  {
    "city": "new rochelle",
    "state_code": "NY",
    "placeMasterId": "P02500000FsoG3qJm7TAyBtZejlZr9pjujTUKZVY",
    "placeName": "new rochelle",
    "state": "NY"
  },
  {
    "city": "highland falls",
    "state_code": "NY",
    "placeMasterId": "P02500000FsoG2hXxIIYgh5cGJGoVrulZiA6x2Ml",
    "placeName": "highland falls",
    "state": "NY"
  },
  {
    "city": "hillburn",
    "state_code": "NY",
    "placeMasterId": "P02500000FsoG2hXxIIYgh5cGJGoVruio535Akud",
    "placeName": "hillburn",
    "state": "NY"
  },
  {
    "city": "stony point",
    "state_code": "NY",
    "placeMasterId": "P02500000FsoHD2g26HBp3ehbdxxOoH8xgVd9FMr",
    "placeName": "stony point",
    "state": "NY"
  },
  {
    "city": "brooklyn",
    "state_code": "NY",
    "placeMasterId": "P02500000FsoHCc8bI5SSzqy5EWv94nnzJKQNSS5",
    "placeName": "brooklyn",
    "state": "NY"
  },
  {
    "city": "uniondale",
    "state_code": "NY",
    "placeMasterId": "P02500000FsoG5Pd1kpWbkVGZZhNSBDjIBsA6pXj",
    "placeName": "uniondale",
    "state": "NY"
  },
  {
    "city": "great river",
    "state_code": "NY",
    "placeMasterId": "P02500000FsoG2Pr05VP7Jt7uhe7g2w3hjrB860z",
    "placeName": "great river",
    "state": "NY"
  },
  {
    "city": "huntington",
    "state_code": "NY",
    "placeMasterId": "P02500000FsoHDKMzJ4LOQrBxFaeEdFkfL7ucS9n",
    "placeName": "huntington",
    "state": "NY"
  },
  {
    "city": "massapequa park",
    "state_code": "NY",
    "placeMasterId": "P02500000FsoG3Ycoug1Ooh5J88t1KqqDQIwwrZJ",
    "placeName": "massapequa park",
    "state": "NY"
  },
  {
    "city": "oyster bay",
    "state_code": "NY",
    "placeMasterId": "P02500000FsoHCkz4tU2FgSDG2LGYzIJ0suHsTVB",
    "placeName": "oyster bay",
    "state": "NY"
  },
  {
    "city": "east marion",
    "state_code": "NY",
    "placeMasterId": "P02500000FsoG1zJZHJflG5OOID5QJSo5iwTKOvx",
    "placeName": "east marion",
    "state": "NY"
  },
  {
    "city": "averill park",
    "state_code": "NY",
    "placeMasterId": "P02500000FsoG0qXkS93TlHQzriK51Y3UIKGH8w4",
    "placeName": "averill park",
    "state": "NY"
  },
  {
    "city": "stamford",
    "state_code": "NY",
    "placeMasterId": "P02500000FsoHCBbATtj6w3EYp5stLKtzt0fukpR",
    "placeName": "stamford",
    "state": "NY"
  },
  {
    "city": "albany",
    "state_code": "NY",
    "placeMasterId": "P02500000FsoG0qXkS93TlHQzriK51XlWeUkwFLA",
    "placeName": "albany",
    "state": "NY"
  },
  {
    "city": "millbrook",
    "state_code": "NY",
    "placeMasterId": "P02500000FsoG3Ycoug1Ooh5J88t1KqpIFBUKt0C",
    "placeName": "millbrook",
    "state": "NY"
  },
  {
    "city": "livingston manor",
    "state_code": "NY",
    "placeMasterId": "P02500000FsoG3GvrhsrpRUaxWWCBVs5aPu2sfLl",
    "placeName": "livingston manor",
    "state": "NY"
  },
  {
    "city": "forestburgh",
    "state_code": "NY",
    "placeMasterId": "P02500000FsoIEgAz74c3VZrJy81nAkiX6BGbexs",
    "placeName": "forestburgh",
    "state": "NY"
  },
  {
    "city": "lake luzerne",
    "state_code": "NY",
    "placeMasterId": "P02500000FsoIFXFqjS4ldBKMn06IdgnyYVsK2Nn",
    "placeName": "lake luzerne",
    "state": "NY"
  },
  {
    "city": "plattsburgh",
    "state_code": "NY",
    "placeMasterId": "P02500000FsoG4GrCveuKFhJB9Cc6tIuIIVonG32",
    "placeName": "plattsburgh",
    "state": "NY"
  },
  {
    "city": "plattsburgh",
    "state_code": "NY",
    "placeMasterId": "P02500000FsoG4GrCveuKFhJB9Cc6tIuIIVonG32",
    "placeName": "plattsburgh",
    "state": "NY"
  },
  {
    "city": "jay",
    "state_code": "NY",
    "placeMasterId": "P02500000FsoIFFYtWevCFyq1BNPSoiDFtUGTfIx",
    "placeName": "jay",
    "state": "NY"
  },
  {
    "city": "auburn",
    "state_code": "NY",
    "placeMasterId": "P02500000FsoG0qXkS93TlHQzriK51XuuNBfZYrU",
    "placeName": "auburn",
    "state": "NY"
  },
  {
    "city": "wampsville",
    "state_code": "NY",
    "placeMasterId": "P02500000FsoG5YTVME6OR6VkNVis5i3YKEeAYnS",
    "placeName": "wampsville",
    "state": "NY"
  },
  {
    "city": "syracuse",
    "state_code": "NY",
    "placeMasterId": "P02500000FsoG57w4Y2N2NImDy4gcMF3udu0wEbR",
    "placeName": "syracuse",
    "state": "NY"
  },
  {
    "city": "west winfield",
    "state_code": "NY",
    "placeMasterId": "P02500000FsoG5hJyxcgB7hkvBK4I0CfJzXwiuxi",
    "placeName": "west winfield",
    "state": "NY"
  },
  {
    "city": "brownville",
    "state_code": "NY",
    "placeMasterId": "P02500000FsoHCTI7ggsgJFiuQiZjAJYxaVVMGd0",
    "placeName": "brownville",
    "state": "NY"
  },
  {
    "city": "ogdensburg",
    "state_code": "NY",
    "placeMasterId": "P02500000FsoG480jKGKXZ640LOGgyoLCiVU9vQt",
    "placeName": "ogdensburg",
    "state": "NY"
  },
  {
    "city": "hamden",
    "state_code": "NY",
    "placeMasterId": "P02500000FsoIF6iPvGLPZNaqNZ42uDgPkys8zhB",
    "placeName": "hamden",
    "state": "NY"
  },
  {
    "city": "hancock",
    "state_code": "NY",
    "placeMasterId": "P02500000FsoHCBbATtj6w3EYp5stLKqzMbOt5Lx",
    "placeName": "hancock",
    "state": "NY"
  },
  {
    "city": "lisle",
    "state_code": "NY",
    "placeMasterId": "P02500000FsoHBtuDH6ZXYqkDDTC3WM5dO7J8PRl",
    "placeName": "lisle",
    "state": "NY"
  },
  {
    "city": "nichols",
    "state_code": "NY",
    "placeMasterId": "P02500000FsoHDTDSuSvB7SR83OzeXk1xlQDdr0y",
    "placeName": "nichols",
    "state": "NY"
  },
  {
    "city": "dayton",
    "state_code": "NY",
    "placeMasterId": "P02500000FsoIEXKVVg2Goyc9AJgNGGKf2gmp74m",
    "placeName": "dayton",
    "state": "NY"
  },
  {
    "city": "eden",
    "state_code": "NY",
    "placeMasterId": "P02500000FsoHCKRe5IItceTjcuEJFp5o1MyOJ6W",
    "placeName": "eden",
    "state": "NY"
  },
  {
    "city": "buffalo",
    "state_code": "NY",
    "placeMasterId": "P02500000FsoG1H5BGKmpp5AWH9MKl12AT3E2vOM",
    "placeName": "buffalo",
    "state": "NY"
  },
  {
    "city": "buffalo",
    "state_code": "NY",
    "placeMasterId": "P02500000FsoG1H5BGKmpp5AWH9MKl12AT3E2vOM",
    "placeName": "buffalo",
    "state": "NY"
  },
  {
    "city": "buffalo",
    "state_code": "NY",
    "placeMasterId": "P02500000FsoG1H5BGKmpp5AWH9MKl12AT3E2vOM",
    "placeName": "buffalo",
    "state": "NY"
  },
  {
    "city": "buffalo",
    "state_code": "NY",
    "placeMasterId": "P02500000FsoG1H5BGKmpp5AWH9MKl12AT3E2vOM",
    "placeName": "buffalo",
    "state": "NY"
  },
  {
    "city": "byron",
    "state_code": "NY",
    "placeMasterId": "P02500000FsoIDxwb65j84ZdRx4IhcIo1o2j3CZ7",
    "placeName": "byron",
    "state": "NY"
  },
  {
    "city": "nunda",
    "state_code": "NY",
    "placeMasterId": "P02500000FsoHCc8bI5SSzqy5EWv94o1k8BZyTmu",
    "placeName": "nunda",
    "state": "NY"
  },
  {
    "city": "wayland",
    "state_code": "NY",
    "placeMasterId": "P02500000FsoHDKMzJ4LOQrBxFaeEdFiD8I3QhtG",
    "placeName": "wayland",
    "state": "NY"
  },
  {
    "city": "wolcott",
    "state_code": "NY",
    "placeMasterId": "P02500000FsoHDc3wVrUxo3gIrDL4SEWTqd4KfMb",
    "placeName": "wolcott",
    "state": "NY"
  },
  {
    "city": "rochester",
    "state_code": "NY",
    "placeMasterId": "P02500000FsoG4YYA8S3tctnWkpIwiHXc7FWLpT6",
    "placeName": "rochester",
    "state": "NY"
  },
  {
    "city": "horseheads",
    "state_code": "NY",
    "placeMasterId": "P02500000FsoHBtuDH6ZXYqkDDTC3WM7zkKMXPNn",
    "placeName": "horseheads",
    "state": "NY"
  },
  {
    "city": "van etten",
    "state_code": "NY",
    "placeMasterId": "P02500000FsoHC2kgsV9KFRzO1HXTQqOyPEGXLO3",
    "placeName": "van etten",
    "state": "NY"
  },
  {
    "city": "woodhull",
    "state_code": "NY",
    "placeMasterId": "P02500000FsoIHOG3ZbZyYzVdEYajU3dGSC5xnAG",
    "placeName": "woodhull",
    "state": "NY"
  },
  {
    "city": "elmira",
    "state_code": "NY",
    "placeMasterId": "P02500000FsoG28A2siFXwgdZ61QqDxAMojeC91P",
    "placeName": "elmira",
    "state": "NY"
  },
  {
    "city": "charleroi",
    "state_code": "PA",
    "placeMasterId": "P02500000FsoGRxMT3SigJPw6VzxU8cKIkOe7jrB",
    "placeName": "charleroi",
    "state": "PA"
  },
  {
    "city": "leetsdale",
    "state_code": "PA",
    "placeMasterId": "P02500000FsoGVNfvWyZWnpoHnUFW0NI1axM4r1b",
    "placeName": "leetsdale",
    "state": "PA"
  },
  {
    "city": "midway",
    "state_code": "PA",
    "placeMasterId": "P02500000FsoGWEkn9M2EvRHKcMK1TJTj4fbvakv",
    "placeName": "midway",
    "state": "PA"
  },
  {
    "city": "slovan",
    "state_code": "PA",
    "placeMasterId": "P02500000FsoGYwprbt09yqvdsmsxmckxBVkhaPy",
    "placeName": "slovan",
    "state": "PA"
  },
  {
    "city": "pittsburgh",
    "state_code": "PA",
    "placeMasterId": "P02500000FsoGXfDZBJo5nRj4eTmCaDENhHWAB15",
    "placeName": "pittsburgh",
    "state": "PA"
  },
  {
    "city": "carmichaels",
    "state_code": "PA",
    "placeMasterId": "P02500000FsoGRffVqfZ6wDRkuNGeJdq5uEQydhQ",
    "placeName": "carmichaels",
    "state": "PA"
  },
  {
    "city": "van voorhis",
    "state_code": "PA",
    "placeMasterId": "P02500000FsoGZwlCpf2en3drVTItA3HfyPyUi44",
    "placeName": "van voorhis",
    "state": "PA"
  },
  {
    "city": "point marion",
    "state_code": "PA",
    "placeMasterId": "P02500000FsoGXo42miNsU2yFSI7cUhksKasN2Wg",
    "placeName": "point marion",
    "state": "PA"
  },
  {
    "city": "weedville",
    "state_code": "PA",
    "placeMasterId": "P02500000FsoGaESA2SCEAG8D75ziz1zJwsZ6fqf",
    "placeName": "weedville",
    "state": "PA"
  },
  {
    "city": "colver",
    "state_code": "PA",
    "placeMasterId": "P02500000FsoGS6CwerIT01BHJoIu36to5nyWkEu",
    "placeName": "colver",
    "state": "PA"
  },
  {
    "city": "atlantic",
    "state_code": "PA",
    "placeMasterId": "P02500000FsoGQoaeEI6Oobyi5VC8qhOXaQFUQTM",
    "placeName": "atlantic",
    "state": "PA"
  },
  {
    "city": "hermitage",
    "state_code": "PA",
    "placeMasterId": "P02500000FsoGUNkaJCX1zd64AnpacwlvHQzoM3h",
    "placeName": "hermitage",
    "state": "PA"
  },
  {
    "city": "guys mills",
    "state_code": "PA",
    "placeMasterId": "P02500000FsoGU63d6PNScQbiZB8knxvZSgaWKP8",
    "placeName": "guys mills",
    "state": "PA"
  },
  {
    "city": "erie",
    "state_code": "PA",
    "placeMasterId": "P02500000FsoGT68HsdKxoDtUwUipQXb9IbBAKWB",
    "placeName": "erie",
    "state": "PA"
  },
  {
    "city": "bellwood",
    "state_code": "PA",
    "placeMasterId": "P02500000FsoGQxR7pggBVDDstJXYlBqnNGtaQwD",
    "placeName": "bellwood",
    "state": "PA"
  },
  {
    "city": "carlisle",
    "state_code": "PA",
    "placeMasterId": "P02500000FsoGRffVqfZ6wDRkuNGeJdgb4EK58IY",
    "placeName": "carlisle",
    "state": "PA"
  },
  {
    "city": "cornwall",
    "state_code": "PA",
    "placeMasterId": "P02500000FsoGSF3QGFsFgcQS7ceJxbAuMkaWTDU",
    "placeName": "cornwall",
    "state": "PA"
  },
  {
    "city": "hershey",
    "state_code": "PA",
    "placeMasterId": "P02500000FsoGUNkaJCX1zd64AnpacwhQzdcxzJ7",
    "placeName": "hershey",
    "state": "PA"
  },
  {
    "city": "new kingstown",
    "state_code": "PA",
    "placeMasterId": "P02500000FsoGWo8hYwLNfqG1pbhh7H1E6JMrrf9",
    "placeName": "new kingstown",
    "state": "PA"
  },
  {
    "city": "york",
    "state_code": "PA",
    "placeMasterId": "P02500000FsoGawgY3R59bGM589ioXTlpd4bjuYi",
    "placeName": "york",
    "state": "PA"
  },
  {
    "city": "york",
    "state_code": "PA",
    "placeMasterId": "P02500000FsoGawgY3R59bGM589ioXTlpd4bjuYi",
    "placeName": "york",
    "state": "PA"
  },
  {
    "city": "york",
    "state_code": "PA",
    "placeMasterId": "P02500000FsoGawgY3R59bGM589ioXTlpd4bjuYi",
    "placeName": "york",
    "state": "PA"
  },
  {
    "city": "washingtonville",
    "state_code": "PA",
    "placeMasterId": "P02500000FsoGa5bgR3cRTet2JHeJ4XcCf4OqkKa",
    "placeName": "washingtonville",
    "state": "PA"
  },
  {
    "city": "bethlehem",
    "state_code": "PA",
    "placeMasterId": "P02500000FsoGR6HbR5FyBoT3h7syfgEDIimWLKK",
    "placeName": "bethlehem",
    "state": "PA"
  },
  {
    "city": "easton",
    "state_code": "PA",
    "placeMasterId": "P02500000FsoGSoRKfqBOR1P9Ks1zbYqZA8MyzjS",
    "placeName": "easton",
    "state": "PA"
  },
  {
    "city": "palmerton",
    "state_code": "PA",
    "placeMasterId": "P02500000FsoGXNWbyWeWQFEj2r5MlEhTgWf1xrC",
    "placeName": "palmerton",
    "state": "PA"
  },
  {
    "city": "schnecksville",
    "state_code": "PA",
    "placeMasterId": "P02500000FsoGYWIQnhGnv3C7TLqi39Voit4AbRD",
    "placeName": "schnecksville",
    "state": "PA"
  },
  {
    "city": "tatamy",
    "state_code": "PA",
    "placeMasterId": "P02500000FsoGZWDm1TJIjFuL62GdQaBOWwiTEDz",
    "placeName": "tatamy",
    "state": "PA"
  },
  {
    "city": "allentown",
    "state_code": "PA",
    "placeMasterId": "P02500000FsoGQWth1UwpRPUMTsVJ1inYRsHJgCK",
    "placeName": "allentown",
    "state": "PA"
  },
  {
    "city": "matamoras",
    "state_code": "PA",
    "placeMasterId": "P02500000FsoGVx3pwYsfYEmz0jdBeKqNSe24LMl",
    "placeName": "matamoras",
    "state": "PA"
  },
  {
    "city": "clarks summit",
    "state_code": "PA",
    "placeMasterId": "P02500000FsoGRxMT3SigJPw6VzxU8cRjaSx6l1u",
    "placeName": "clarks summit",
    "state": "PA"
  },
  {
    "city": "dalton",
    "state_code": "PA",
    "placeMasterId": "P02500000FsoGSWkNT31p3ounjFL9mZqD2VgyVZv",
    "placeName": "dalton",
    "state": "PA"
  },
  {
    "city": "morton",
    "state_code": "PA",
    "placeMasterId": "P02500000FsoGWNbGkkc1c2WVQAfRNnyyTNcOJ4H",
    "placeName": "morton",
    "state": "PA"
  },
  {
    "city": "philadelphia",
    "state_code": "PA",
    "placeMasterId": "P02500000FsoGXWN5ZvEJ6qTtqfQmfiyVODy6MPW",
    "placeName": "philadelphia",
    "state": "PA"
  },
  {
    "city": "philadelphia",
    "state_code": "PA",
    "placeMasterId": "P02500000FsoGXWN5ZvEJ6qTtqfQmfiyVODy6MPW",
    "placeName": "philadelphia",
    "state": "PA"
  },
  {
    "city": "pomeroy",
    "state_code": "PA",
    "placeMasterId": "P02500000FsoGXo42miNsU2yFSI7cUhgZqVbMLc2",
    "placeName": "pomeroy",
    "state": "PA"
  },
  {
    "city": "thorndale",
    "state_code": "PA",
    "placeMasterId": "P02500000FsoGZf4Fcrt5Pr9Vtqc3L4ST3lfUFA6",
    "placeName": "thorndale",
    "state": "PA"
  },
  {
    "city": "reading",
    "state_code": "PA",
    "placeMasterId": "P02500000FsoGY5kzzVXRrFSb3uoSJgIQftycIhP",
    "placeName": "reading",
    "state": "PA"
  },
  {
    "city": "reading",
    "state_code": "PA",
    "placeMasterId": "P02500000FsoGY5kzzVXRrFSb3uoSJgIQftycIhP",
    "placeName": "reading",
    "state": "PA"
  },
  {
    "city": "reading",
    "state_code": "PA",
    "placeMasterId": "P02500000FsoGY5kzzVXRrFSb3uoSJgIQftycIhP",
    "placeName": "reading",
    "state": "PA"
  },
  {
    "city": "fenwick island",
    "state_code": "DE",
    "placeMasterId": "P02500000FsoEpnBHdBXPxi7mVxS6WjcX60EqxKf",
    "placeName": "fenwick island",
    "state": "DE"
  },
  {
    "city": "washington",
    "state_code": "DC",
    "placeMasterId": "P02500000FsoEq4sEpygzKuc87a8wLiQYg142PzN",
    "placeName": "washington",
    "state": "DC"
  },
  {
    "city": "manassas",
    "state_code": "VA",
    "placeMasterId": "P02500000FsoGwUUe8IEjLyJORlsv7RtCoUDQg1y",
    "placeName": "manassas",
    "state": "VA"
  },
  {
    "city": "ashburn",
    "state_code": "VA",
    "placeMasterId": "P02500000FsoGudURI8jWQA880DOUH5CC7RYtUHc",
    "placeName": "ashburn",
    "state": "VA"
  },
  {
    "city": "california",
    "state_code": "MD",
    "placeMasterId": "P02500000FsoFTbKUumZVfJPOfVphjPPPp134bAn",
    "placeName": "california",
    "state": "MD"
  },
  {
    "city": "tall timbers",
    "state_code": "MD",
    "placeMasterId": "P02500000FsoFW1icAWNrLWZMKJhoDjaCDPWHdh3",
    "placeName": "tall timbers",
    "state": "MD"
  },
  {
    "city": "laurel",
    "state_code": "MD",
    "placeMasterId": "P02500000FsoFUk6JjxBnA7Mn60b31KSXjyFMd7C",
    "placeName": "laurel",
    "state": "MD"
  },
  {
    "city": "friendship",
    "state_code": "MD",
    "placeMasterId": "P02500000FsoFUJYsvlSR6JdGgZYnHrD8mVS8hGR",
    "placeName": "friendship",
    "state": "MD"
  },
  {
    "city": "poolesville",
    "state_code": "MD",
    "placeMasterId": "P02500000FsoFVbBBMKeVHippusfYUGVDOa9Ax0J",
    "placeName": "poolesville",
    "state": "MD"
  },
  {
    "city": "lonaconing",
    "state_code": "MD",
    "placeMasterId": "P02500000FsoFV1nGwkLMXJr8hdHsqJ0zKgIacNy",
    "placeName": "lonaconing",
    "state": "MD"
  },
  {
    "city": "frederick",
    "state_code": "MD",
    "placeMasterId": "P02500000FsoFUJYsvlSR6JdGgZYnHrC7Vb7aVJm",
    "placeName": "frederick",
    "state": "MD"
  },
  {
    "city": "myersville",
    "state_code": "MD",
    "placeMasterId": "P02500000FsoFVAdkY8v9Dv6JVRdIkncKKINlFeP",
    "placeName": "myersville",
    "state": "MD"
  },
  {
    "city": "stanardsville",
    "state_code": "VA",
    "placeMasterId": "P02500000FsoGxdGSxSr0qmGmsGeGPMwY2WymRxO",
    "placeName": "stanardsville",
    "state": "VA"
  },
  {
    "city": "waynesboro",
    "state_code": "VA",
    "placeMasterId": "P02500000FsoGxuxQAG0aDyl8TtL6ELmXp0jTX4n",
    "placeName": "waynesboro",
    "state": "VA"
  },
  {
    "city": "ashland",
    "state_code": "VA",
    "placeMasterId": "P02500000FsoGudURI8jWQA880DOUH5DoCSHN9xR",
    "placeName": "ashland",
    "state": "VA"
  },
  {
    "city": "sandston",
    "state_code": "VA",
    "placeMasterId": "P02500000FsoGxLZVkfhRTZmRGdxQaO6oAkaR0nb",
    "placeName": "sandston",
    "state": "VA"
  },
  {
    "city": "richmond",
    "state_code": "VA",
    "placeMasterId": "P02500000FsoGxLZVkfhRTZmRGdxQaO3uqNoDmKN",
    "placeName": "richmond",
    "state": "VA"
  },
  {
    "city": "virginia beach",
    "state_code": "VA",
    "placeMasterId": "P02500000FsoGxuxQAG0aDyl8TtL6ELfzK3Qkryw",
    "placeName": "virginia beach",
    "state": "VA"
  },
  {
    "city": "poquoson",
    "state_code": "VA",
    "placeMasterId": "P02500000FsoGxCj29H7emyXGSpc0ftk78d55G5s",
    "placeName": "poquoson",
    "state": "VA"
  },
  {
    "city": "chester",
    "state_code": "VA",
    "placeMasterId": "P02500000FsoGv41s6KSsTxrePeQk0YEIndRRAJi",
    "placeName": "chester",
    "state": "VA"
  },
  {
    "city": "ebony",
    "state_code": "VA",
    "placeMasterId": "P02500000FsoGvUZIuWCEXlbAp5Szk1QG91v7juZ",
    "placeName": "ebony",
    "state": "VA"
  },
  {
    "city": "mckenney",
    "state_code": "VA",
    "placeMasterId": "P02500000FsoGwUUe8IEjLyJORlsv7RovzDHZJSY",
    "placeName": "mckenney",
    "state": "VA"
  },
  {
    "city": "belspring",
    "state_code": "VA",
    "placeMasterId": "P02500000FsoGumKutXJJ6lNIo1juBZVM6sKAR8i",
    "placeName": "belspring",
    "state": "VA"
  },
  {
    "city": "abingdon",
    "state_code": "VA",
    "placeMasterId": "P02500000FsoGudURI8jWQA880DOUH50hyzOwPDa",
    "placeName": "abingdon",
    "state": "VA"
  },
  {
    "city": "mount sidney",
    "state_code": "VA",
    "placeMasterId": "P02500000FsoGwmBbL5OIjAnk3OZkwQc4VVOR1os",
    "placeName": "mount sidney",
    "state": "VA"
  },
  {
    "city": "bramwell",
    "state_code": "WV",
    "placeMasterId": "P02500000FsoH23VGekkM9OrBmRMDeYUuAmFou8F",
    "placeName": "bramwell",
    "state": "WV"
  },
  {
    "city": "gary",
    "state_code": "WV",
    "placeMasterId": "P02500000FsoH2ljefjdHaP53nV5JD098ClBWO0q",
    "placeName": "gary",
    "state": "WV"
  },
  {
    "city": "justice",
    "state_code": "WV",
    "placeMasterId": "P02500000FsoH33QbsWmqxbZPP7m91yyWinH3GXk",
    "placeName": "justice",
    "state": "WV"
  },
  {
    "city": "pageton",
    "state_code": "WV",
    "placeMasterId": "P02500000FsoH3Ty2giWD1PIvoYoOlS5zluZ26gH",
    "placeName": "pageton",
    "state": "WV"
  },
  {
    "city": "hometown",
    "state_code": "WV",
    "placeMasterId": "P02500000FsoH2ua8H8D4H0KEbJQj7UgDXhFwjAp",
    "placeName": "hometown",
    "state": "WV"
  },
  {
    "city": "harpers ferry",
    "state_code": "WV",
    "placeMasterId": "P02500000FsoH2ua8H8D4H0KEbJQj7UeKrPZkF94",
    "placeName": "harpers ferry",
    "state": "WV"
  },
  {
    "city": "sarah ann",
    "state_code": "WV",
    "placeMasterId": "P02500000FsoH3leztVfmObnHQBVEaQrnhAGybDq",
    "placeName": "sarah ann",
    "state": "WV"
  },
  {
    "city": "mabscott",
    "state_code": "WV",
    "placeMasterId": "P02500000FsoH3CH5TvMdeCoaCw7YwTOJpGhP53K",
    "placeName": "mabscott",
    "state": "WV"
  },
  {
    "city": "piney view",
    "state_code": "WV",
    "placeMasterId": "P02500000FsoH3coWI75zi0Y6cN9ofwPBQk6WTz7",
    "placeName": "piney view",
    "state": "WV"
  },
  {
    "city": "harman",
    "state_code": "WV",
    "placeMasterId": "P02500000FsoH2ua8H8D4H0KEbJQj7UVyfMF5je1",
    "placeName": "harman",
    "state": "WV"
  },
  {
    "city": "valley bend",
    "state_code": "WV",
    "placeMasterId": "P02500000FsoH3uVTUuFZ5D2SDzqeUvLKwMYa35k",
    "placeName": "valley bend",
    "state": "WV"
  },
  {
    "city": "harrisville",
    "state_code": "WV",
    "placeMasterId": "P02500000FsoH2ua8H8D4H0KEbJQj7UYAxxpiTZl",
    "placeName": "harrisville",
    "state": "WV"
  },
  {
    "city": "shinnston",
    "state_code": "WV",
    "placeMasterId": "P02500000FsoH3leztVfmObnHQBVEaQySKPAreYK",
    "placeName": "shinnston",
    "state": "WV"
  },
  {
    "city": "spelter",
    "state_code": "WV",
    "placeMasterId": "P02500000FsoH3uVTUuFZ5D2SDzqeUvBIvu30Wkb",
    "placeName": "spelter",
    "state": "WV"
  },
  {
    "city": "fairmont",
    "state_code": "WV",
    "placeMasterId": "P02500000FsoH2ctB4L3UtnpszgjtIVrvFxdBZrT",
    "placeName": "fairmont",
    "state": "WV"
  },
  {
    "city": "clemmons",
    "state_code": "NC",
    "placeMasterId": "P02500000FsoG6hFKBOifvuT8o0UDNd0El7dUl8f",
    "placeName": "clemmons",
    "state": "NC"
  },
  {
    "city": "king",
    "state_code": "NC",
    "placeMasterId": "P02500000FsoG7q190ZKxQiQXEVFYfY5utpUbb9A",
    "placeName": "king",
    "state": "NC"
  },
  {
    "city": "walkertown",
    "state_code": "NC",
    "placeMasterId": "P02500000FsoG9prpS7Px37qyTs5PQPE9OxYRyTV",
    "placeName": "walkertown",
    "state": "NC"
  },
  {
    "city": "haw river",
    "state_code": "NC",
    "placeMasterId": "P02500000FsoG7YKBnmBO3VwBcsYiqZHiPP1qDxy",
    "placeName": "haw river",
    "state": "NC"
  },
  {
    "city": "liberty",
    "state_code": "NC",
    "placeMasterId": "P02500000FsoG7yrcbxuk7Jfi2Jaya2S3qtWJXyR",
    "placeName": "liberty",
    "state": "NC"
  },
  {
    "city": "norlina",
    "state_code": "NC",
    "placeMasterId": "P02500000FsoG8h60cwnfYJta3NK48UDRWd2RWG6",
    "placeName": "norlina",
    "state": "NC"
  },
  {
    "city": "garysburg",
    "state_code": "NC",
    "placeMasterId": "P02500000FsoG7GdEaz1ogJRq1Frt1aay6Leovud",
    "placeName": "garysburg",
    "state": "NC"
  },
  {
    "city": "murfreesboro",
    "state_code": "NC",
    "placeMasterId": "P02500000FsoG8YFX1YDsriePFYyeDzrNHBrNO7s",
    "placeName": "murfreesboro",
    "state": "NC"
  },
  {
    "city": "greenville",
    "state_code": "NC",
    "placeMasterId": "P02500000FsoG7PTiCNbbMuh0p4DIw4z5xIHTHIh",
    "placeName": "greenville",
    "state": "NC"
  },
  {
    "city": "sunbury",
    "state_code": "NC",
    "placeMasterId": "P02500000FsoG9YAsFKGNfvMcsFOZbQZnRv0QcGf",
    "placeName": "sunbury",
    "state": "NC"
  },
  {
    "city": "ellenboro",
    "state_code": "NC",
    "placeMasterId": "P02500000FsoG6ywHOBsFJ6xUPdB3CbqTH7JmpBb",
    "placeName": "ellenboro",
    "state": "NC"
  },
  {
    "city": "grover",
    "state_code": "NC",
    "placeMasterId": "P02500000FsoG7YKBnmBO3VwBcsYiqZHDpH4DyRA",
    "placeName": "grover",
    "state": "NC"
  },
  {
    "city": "rutherfordton",
    "state_code": "NC",
    "placeMasterId": "P02500000FsoG9GTv2X6oIisHGchjmRioT6ay1Al",
    "placeName": "rutherfordton",
    "state": "NC"
  },
  {
    "city": "shelby",
    "state_code": "NC",
    "placeMasterId": "P02500000FsoG9GTv2X6oIisHGchjmRz2OKIcMbu",
    "placeName": "shelby",
    "state": "NC"
  },
  {
    "city": "waxhaw",
    "state_code": "NC",
    "placeMasterId": "P02500000FsoG9yiJ3Vzjjj69HgQpKtYf6SgZPBL",
    "placeName": "waxhaw",
    "state": "NC"
  },
  {
    "city": "charlotte",
    "state_code": "NC",
    "placeMasterId": "P02500000FsoG6YOqa08tFJDy0C8nT8qHEOhlkFv",
    "placeName": "charlotte",
    "state": "NC"
  },
  {
    "city": "cameron",
    "state_code": "NC",
    "placeMasterId": "P02500000FsoG6PYMybZ6YhynCNnNYeKBSGM1Msb",
    "placeName": "cameron",
    "state": "NC"
  },
  {
    "city": "proctorville",
    "state_code": "NC",
    "placeMasterId": "P02500000FsoG8pwUELNSEv8krBfU2ynF9hdj3Wz",
    "placeName": "proctorville",
    "state": "NC"
  },
  {
    "city": "atlantic beach",
    "state_code": "NC",
    "placeMasterId": "P02500000FsoG5z0wAPpkUuFGmwl7pBGVntbOwii",
    "placeName": "atlantic beach",
    "state": "NC"
  },
  {
    "city": "beulaville",
    "state_code": "NC",
    "placeMasterId": "P02500000FsoG6GhtNCzJs6jcOZRxe9xZIczrvCQ",
    "placeName": "beulaville",
    "state": "NC"
  },
  {
    "city": "glen alpine",
    "state_code": "NC",
    "placeMasterId": "P02500000FsoG7PTiCNbbMuh0p4DIw4vprDQgDVa",
    "placeName": "glen alpine",
    "state": "NC"
  },
  {
    "city": "burnsville",
    "state_code": "NC",
    "placeMasterId": "P02500000FsoG6PYMybZ6YhynCNnNYeN62AgsV2m",
    "placeName": "burnsville",
    "state": "NC"
  },
  {
    "city": "spruce pine",
    "state_code": "NC",
    "placeMasterId": "P02500000FsoG9YAsFKGNfvMcsFOZbQQiHXEVYof",
    "placeName": "spruce pine",
    "state": "NC"
  },
  {
    "city": "tryon",
    "state_code": "NC",
    "placeMasterId": "P02500000FsoG9h1LqiqAMWbng3jzVv4UtZIpW26",
    "placeName": "tryon",
    "state": "NC"
  },
  {
    "city": "asheville",
    "state_code": "NC",
    "placeMasterId": "P02500000FsoG5z0wAPpkUuFGmwl7pBJp7vcNZCo",
    "placeName": "asheville",
    "state": "NC"
  },
  {
    "city": "bishopville",
    "state_code": "SC",
    "placeMasterId": "P02500000FsoGbENVGEEiySqQjmPeMSdoUeCVupF",
    "placeName": "bishopville",
    "state": "SC"
  },
  {
    "city": "glendale",
    "state_code": "SC",
    "placeMasterId": "P02500000FsoGbnlPfoXrirp7x1nK0Q7UZSof6sU",
    "placeName": "glendale",
    "state": "SC"
  },
  {
    "city": "wellford",
    "state_code": "SC",
    "placeMasterId": "P02500000FsoGdN4fJAtVHTW2mxav1o6e8lz2k1L",
    "placeName": "wellford",
    "state": "SC"
  },
  {
    "city": "blenheim",
    "state_code": "SC",
    "placeMasterId": "P02500000FsoGbENVGEEiySqQjmPeMSai3VRSaj4",
    "placeName": "blenheim",
    "state": "SC"
  },
  {
    "city": "greenville",
    "state_code": "SC",
    "placeMasterId": "P02500000FsoGbwbtHD7ePT4Ikq8juuKkVY6QuEs",
    "placeName": "greenville",
    "state": "SC"
  },
  {
    "city": "norris",
    "state_code": "SC",
    "placeMasterId": "P02500000FsoGcVzngnQn9s2zy5WPYrwypmQxsJn",
    "placeName": "norris",
    "state": "SC"
  },
  {
    "city": "rock hill",
    "state_code": "SC",
    "placeMasterId": "P02500000FsoGcwXEUzA9DfmWNWYfIL2scSRCBrM",
    "placeName": "rock hill",
    "state": "SC"
  },
  {
    "city": "beaufort",
    "state_code": "SC",
    "placeMasterId": "P02500000FsoGbENVGEEiySqQjmPeMSdXgboltfr",
    "placeName": "beaufort",
    "state": "SC"
  },
  {
    "city": "lilburn",
    "state_code": "GA",
    "placeMasterId": "P02500000FsoExDC6znYFgwqqIBPpuCxu4mao1VR",
    "placeName": "lilburn",
    "state": "GA"
  },
  {
    "city": "smyrna",
    "state_code": "GA",
    "placeMasterId": "P02500000FsoEyLxvoyAXBkoEigBBC7wvCyunD0n",
    "placeName": "smyrna",
    "state": "GA"
  },
  {
    "city": "duluth",
    "state_code": "GA",
    "placeMasterId": "P02500000FsoEwM7FNQ5XZLNnTJLKRGl5BquiCwy",
    "placeName": "duluth",
    "state": "GA"
  },
  {
    "city": "rockmart",
    "state_code": "GA",
    "placeMasterId": "P02500000FsoEyD7SDZakV9Z3urplHdY9HfnBa5D",
    "placeName": "rockmart",
    "state": "GA"
  },
  {
    "city": "austell",
    "state_code": "GA",
    "placeMasterId": "P02500000FsoEvV2Nl2cpRjukeRGoyKVqeOREJlP",
    "placeName": "austell",
    "state": "GA"
  },
  {
    "city": "newnan",
    "state_code": "GA",
    "placeMasterId": "P02500000FsoExma1PNrORLpXVQnVYAQLXFFj2Qr",
    "placeName": "newnan",
    "state": "GA"
  },
  {
    "city": "the rock",
    "state_code": "GA",
    "placeMasterId": "P02500000FsoEyUoPQMkJsM3PWUWb6cLB0Arp996",
    "placeName": "the rock",
    "state": "GA"
  },
  {
    "city": "atlanta",
    "state_code": "GA",
    "placeMasterId": "P02500000FsoEvV2Nl2cpRjukeRGoyKXsQZ9lvPs",
    "placeName": "atlanta",
    "state": "GA"
  },
  {
    "city": "daisy",
    "state_code": "GA",
    "placeMasterId": "P02500000FsoEwDGlm1Vksk8cfUzuWmOhoP2ki4g",
    "placeName": "daisy",
    "state": "GA"
  },
  {
    "city": "mccaysville",
    "state_code": "GA",
    "placeMasterId": "P02500000FsoExUt4Cahp49LBto6fjBfqyWzqRUQ",
    "placeName": "mccaysville",
    "state": "GA"
  },
  {
    "city": "mineral bluff",
    "state_code": "GA",
    "placeMasterId": "P02500000FsoExUt4Cahp49LBto6fjBjzvoLeedE",
    "placeName": "mineral bluff",
    "state": "GA"
  },
  {
    "city": "crawford",
    "state_code": "GA",
    "placeMasterId": "P02500000FsoEw4QIAcvyC8tRrgeUcI1gcv4BrNt",
    "placeName": "crawford",
    "state": "GA"
  },
  {
    "city": "dalton",
    "state_code": "GA",
    "placeMasterId": "P02500000FsoEwDGlm1Vksk8cfUzuWmOq9Bopob7",
    "placeName": "dalton",
    "state": "GA"
  },
  {
    "city": "hemet",
    "state_code": "CA",
    "placeMasterId": "P02500000FsoEgwhgEbkjMSwyhc2C2MerC0o42P9",
    "placeName": "hemet",
    "state": "CA"
  },
  {
    "city": "perris",
    "state_code": "CA",
    "placeMasterId": "P02500000FsoEjemkh8iePsbHy2b8Lfk0yYO9vFB",
    "placeName": "perris",
    "state": "CA"
  },
  {
    "city": "temecula",
    "state_code": "CA",
    "placeMasterId": "P02500000FsoElVmxXIDrLgmYPb5ZC2XFPwEYYTa",
    "placeName": "temecula",
    "state": "CA"
  },
  {
    "city": "san clemente",
    "state_code": "CA",
    "placeMasterId": "P02500000FsoEkVrcJWBMXU4KmufdobuN91nYaUk",
    "placeName": "san clemente",
    "state": "CA"
  },
  {
    "city": "westminster",
    "state_code": "CA",
    "placeMasterId": "P02500000FsoEm5ArwsX065lFcqTEq01e0X9nVHc",
    "placeName": "westminster",
    "state": "CA"
  },
  {
    "city": "orange",
    "state_code": "CA",
    "placeMasterId": "P02500000FsoEjN5nULZ52g6wMPuIWgyRxHqSV9r",
    "placeName": "orange",
    "state": "CA"
  },
  {
    "city": "santa barbara",
    "state_code": "CA",
    "placeMasterId": "P02500000FsoEkei5uul9E5JVaj13j6J6FwOz9kT",
    "placeName": "santa barbara",
    "state": "CA"
  },
  {
    "city": "buttonwillow",
    "state_code": "CA",
    "placeMasterId": "P02500000FsoEefA2aGWAMr2BqcVVSWf5Y8HjZfd",
    "placeName": "buttonwillow",
    "state": "CA"
  },
  {
    "city": "bakersfield",
    "state_code": "CA",
    "placeMasterId": "P02500000FsoEdwveZHdEvqoJpYmPu4r7PsLmxxn",
    "placeName": "bakersfield",
    "state": "CA"
  },
  {
    "city": "arroyo grande",
    "state_code": "CA",
    "placeMasterId": "P02500000FsoEdwveZHdEvqoJpYmPu4q1W13igGs",
    "placeName": "arroyo grande",
    "state": "CA"
  },
  {
    "city": "monterey",
    "state_code": "CA",
    "placeMasterId": "P02500000FsoEiwYMg9piysNPwys2nDn50aOedzy",
    "placeName": "monterey",
    "state": "CA"
  },
  {
    "city": "palo alto",
    "state_code": "CA",
    "placeMasterId": "P02500000FsoEjVwH5k8rjHM7AEFiRBLCFgnSDCA",
    "placeName": "palo alto",
    "state": "CA"
  },
  {
    "city": "danville",
    "state_code": "CA",
    "placeMasterId": "P02500000FsoEfWEuCdysUSVEfUa0vSvh94xdsdV",
    "placeName": "danville",
    "state": "CA"
  },
  {
    "city": "castro valley",
    "state_code": "CA",
    "placeMasterId": "P02500000FsoEewqzn3fjk3WXSFCLHVODODgSuND",
    "placeName": "castro valley",
    "state": "CA"
  },
  {
    "city": "napa",
    "state_code": "CA",
    "placeMasterId": "P02500000FsoEj5OqHYPVfTcaknDShiAvOVNpWT4",
    "placeName": "napa",
    "state": "CA"
  },
  {
    "city": "newark",
    "state_code": "CA",
    "placeMasterId": "P02500000FsoEj5OqHYPVfTcaknDShiENIwcPq1T",
    "placeName": "newark",
    "state": "CA"
  },
  {
    "city": "pleasanton",
    "state_code": "CA",
    "placeMasterId": "P02500000FsoEjndEIXIR6TqSlqwYGA4yFj35Ytq",
    "placeName": "pleasanton",
    "state": "CA"
  },
  {
    "city": "walnut creek",
    "state_code": "CA",
    "placeMasterId": "P02500000FsoEm5ArwsX065lFcqTEpzxiwocScrl",
    "placeName": "walnut creek",
    "state": "CA"
  },
  {
    "city": "bodega bay",
    "state_code": "CA",
    "placeMasterId": "P02500000FsoEeNT5NTMazeXqEzofdXwWTRleWYx",
    "placeName": "bodega bay",
    "state": "CA"
  },
  {
    "city": "gilroy",
    "state_code": "CA",
    "placeMasterId": "P02500000FsoEgf0j1ob9zGSd5zLMDNrdBkpafYf",
    "placeName": "gilroy",
    "state": "CA"
  },
  {
    "city": "santa clara",
    "state_code": "CA",
    "placeMasterId": "P02500000FsoEknYZWJKvugYgOXMTdafb3ziMRag",
    "placeName": "santa clara",
    "state": "CA"
  },
  {
    "city": "san jose",
    "state_code": "CA",
    "placeMasterId": "P02500000FsoEkei5uul9E5JVaj13j6FZZ7utLyF",
    "placeName": "san jose",
    "state": "CA"
  },
  {
    "city": "san jose",
    "state_code": "CA",
    "placeMasterId": "P02500000FsoEkei5uul9E5JVaj13j6FZZ7utLyF",
    "placeName": "san jose",
    "state": "CA"
  },
  {
    "city": "linden",
    "state_code": "CA",
    "placeMasterId": "P02500000FsoEi5TV3mN0rGuN86nXKHbThd7wH66",
    "placeName": "linden",
    "state": "CA"
  },
  {
    "city": "woodbridge",
    "state_code": "CA",
    "placeMasterId": "P02500000FsoEmMrp9fgZTIFbETA4eyjacODzWJ9",
    "placeName": "woodbridge",
    "state": "CA"
  },
  {
    "city": "tracy",
    "state_code": "CA",
    "placeMasterId": "P02500000FsoEledR8gne2I1jDPQz6Wqbtb26Uif",
    "placeName": "tracy",
    "state": "CA"
  },
  {
    "city": "santa rosa",
    "state_code": "CA",
    "placeMasterId": "P02500000FsoEknYZWJKvugYgOXMTdahIPSeh1En",
    "placeName": "santa rosa",
    "state": "CA"
  },
  {
    "city": "lucerne",
    "state_code": "CA",
    "placeMasterId": "P02500000FsoEiNASGZWaETOijjUN9GJdL3mYoxo",
    "placeName": "lucerne",
    "state": "CA"
  },
  {
    "city": "potter valley",
    "state_code": "CA",
    "placeMasterId": "P02500000FsoEjwThtvsDn55dZfHyAeRlkDh5SdI",
    "placeName": "potter valley",
    "state": "CA"
  },
  {
    "city": "dixon",
    "state_code": "CA",
    "placeMasterId": "P02500000FsoEfnvrPR8RrezaH7GqkRe3SxzD7QP",
    "placeName": "dixon",
    "state": "CA"
  },
  {
    "city": "madison",
    "state_code": "CA",
    "placeMasterId": "P02500000FsoEiNASGZWaETOijjUN9GLoP13XQGW",
    "placeName": "madison",
    "state": "CA"
  },
  {
    "city": "elk grove",
    "state_code": "CA",
    "placeMasterId": "P02500000FsoEg5cocEI1ErTvsjxgZQMYI7ka412",
    "placeName": "elk grove",
    "state": "CA"
  },
  {
    "city": "sacramento",
    "state_code": "CA",
    "placeMasterId": "P02500000FsoEkVrcJWBMXU4KmufdobsP4JCiDgI",
    "placeName": "sacramento",
    "state": "CA"
  },
  {
    "city": "sacramento",
    "state_code": "CA",
    "placeMasterId": "P02500000FsoEkVrcJWBMXU4KmufdobsP4JCiDgI",
    "placeName": "sacramento",
    "state": "CA"
  },
  {
    "city": "burney",
    "state_code": "CA",
    "placeMasterId": "P02500000FsoEeWJYyrwNgFn12oA5Y2JLUUXJrjC",
    "placeName": "burney",
    "state": "CA"
  },
  {
    "city": "grenada",
    "state_code": "CA",
    "placeMasterId": "P02500000FsoEgnrCdDAwfrhntngm7sGNRG97AM7",
    "placeName": "grenada",
    "state": "CA"
  },
  {
    "city": "alturas",
    "state_code": "CA",
    "placeMasterId": "P02500000FsoEdfEhMUTfYeJyDw5a567c8FQicia",
    "placeName": "alturas",
    "state": "CA"
  },
  {
    "city": "honolulu",
    "state_code": "HI",
    "placeMasterId": "P02500000FsoEzdaEFXMbNA0nwzHwOXKc1cb4u6p",
    "placeName": "honolulu",
    "state": "HI"
  },
  {
    "city": "moro",
    "state_code": "OR",
    "placeMasterId": "P02500000FsoGPO7sCKKXwbWy3Njxjno4jjZtYhR",
    "placeName": "moro",
    "state": "OR"
  },
  {
    "city": "amity",
    "state_code": "OR",
    "placeMasterId": "P02500000FsoGOFM3N9iGRnZZcsycRslOY1c40kS",
    "placeName": "amity",
    "state": "OR"
  },
  {
    "city": "sherwood",
    "state_code": "OR",
    "placeMasterId": "P02500000FsoGPxVmbudgh0VfGd7dNlKHQHirWht",
    "placeName": "sherwood",
    "state": "OR"
  },
  {
    "city": "tillamook",
    "state_code": "OR",
    "placeMasterId": "P02500000FsoGQ6MGDJDTNbkq4RT3IFYlK5J4CHJ",
    "placeName": "tillamook",
    "state": "OR"
  },
  {
    "city": "portland",
    "state_code": "OR",
    "placeMasterId": "P02500000FsoGPfopP7U7Jo1Jf0QnYmTaqhg2Hwh",
    "placeName": "portland",
    "state": "OR"
  },
  {
    "city": "portland",
    "state_code": "OR",
    "placeMasterId": "P02500000FsoGPfopP7U7Jo1Jf0QnYmTaqhg2Hwh",
    "placeName": "portland",
    "state": "OR"
  },
  {
    "city": "portland",
    "state_code": "OR",
    "placeMasterId": "P02500000FsoGPfopP7U7Jo1Jf0QnYmTaqhg2Hwh",
    "placeName": "portland",
    "state": "OR"
  },
  {
    "city": "portland",
    "state_code": "OR",
    "placeMasterId": "P02500000FsoGPfopP7U7Jo1Jf0QnYmTaqhg2Hwh",
    "placeName": "portland",
    "state": "OR"
  },
  {
    "city": "scio",
    "state_code": "OR",
    "placeMasterId": "P02500000FsoGPofJ0W3u0PGUSomDTH1jv2F4ANR",
    "placeName": "scio",
    "state": "OR"
  },
  {
    "city": "scotts mills",
    "state_code": "OR",
    "placeMasterId": "P02500000FsoGPxVmbudgh0VfGd7dNlFqkPFkQPT",
    "placeName": "scotts mills",
    "state": "OR"
  },
  {
    "city": "central point",
    "state_code": "OR",
    "placeMasterId": "P02500000FsoGOX30Zwrpp03vEVfSGrQRcpUrmvY",
    "placeName": "central point",
    "state": "OR"
  },
  {
    "city": "phoenix",
    "state_code": "OR",
    "placeMasterId": "P02500000FsoGPfopP7U7Jo1Jf0QnYmRAtZj3SVt",
    "placeName": "phoenix",
    "state": "OR"
  },
  {
    "city": "lakeview",
    "state_code": "OR",
    "placeMasterId": "P02500000FsoGPFHOavklG0HnFZOXpJKZ0HE2XCz",
    "placeName": "lakeview",
    "state": "OR"
  },
  {
    "city": "bend",
    "state_code": "OR",
    "placeMasterId": "P02500000FsoGOFM3N9iGRnZZcsycRsuaGa3qkle",
    "placeName": "bend",
    "state": "OR"
  },
  {
    "city": "echo",
    "state_code": "OR",
    "placeMasterId": "P02500000FsoGOojxmk1PCCYGq8MI5qAbVMmkQHF",
    "placeName": "echo",
    "state": "OR"
  },
  {
    "city": "imbler",
    "state_code": "OR",
    "placeMasterId": "P02500000FsoGP6QuzXAyZP2cRl37uou1QiPjaUB",
    "placeName": "imbler",
    "state": "OR"
  },
  {
    "city": "joseph",
    "state_code": "OR",
    "placeMasterId": "P02500000FsoGP6QuzXAyZP2cRl37up3ihSRqu9O",
    "placeName": "joseph",
    "state": "OR"
  },
  {
    "city": "long creek",
    "state_code": "OR",
    "placeMasterId": "P02500000FsoGPO7sCKKXwbWy3NjxjneHIdYzheF",
    "placeName": "long creek",
    "state": "OR"
  },
  {
    "city": "seattle",
    "state_code": "WA",
    "placeMasterId": "P02500000FsoH13ZvQyhrLC8y9kwIH7vOQ9mB44J",
    "placeName": "seattle",
    "state": "WA"
  },
  {
    "city": "seattle",
    "state_code": "WA",
    "placeMasterId": "P02500000FsoH13ZvQyhrLC8y9kwIH7vOQ9mB44J",
    "placeName": "seattle",
    "state": "WA"
  },
  {
    "city": "anacortes",
    "state_code": "WA",
    "placeMasterId": "P02500000FsoGyLUqyRjwHmUetKNLxogIMDeZnPt",
    "placeName": "anacortes",
    "state": "WA"
  },
  {
    "city": "bellingham",
    "state_code": "WA",
    "placeMasterId": "P02500000FsoGyLUqyRjwHmUetKNLxotcfpDA0PG",
    "placeName": "bellingham",
    "state": "WA"
  },
  {
    "city": "lyman",
    "state_code": "WA",
    "placeMasterId": "P02500000FsoH03eaDCfMWzQkX4WMthDA0nQJ97s",
    "placeName": "lyman",
    "state": "WA"
  },
  {
    "city": "brinnon",
    "state_code": "WA",
    "placeMasterId": "P02500000FsoGyULKZqJiyNjph8ilsJ911mVaFwt",
    "placeName": "brinnon",
    "state": "WA"
  },
  {
    "city": "los angeles",
    "state_code": "CA",
    "placeMasterId": "P02500000FsoEiEJyfAwnXs9Xvv8xEm0Sp2kcekK",
    "placeName": "los angeles",
    "state": "CA"
  },
  {
    "city": "los angeles",
    "state_code": "CA",
    "placeMasterId": "P02500000FsoEiEJyfAwnXs9Xvv8xEm0Sp2kcekK",
    "placeName": "los angeles",
    "state": "CA"
  },
  {
    "city": "inglewood",
    "state_code": "CA",
    "placeMasterId": "P02500000FsoEhEOdROuIjfRKJEj1rLNsoCk4oxk",
    "placeName": "inglewood",
    "state": "CA"
  },
  {
    "city": "buena park",
    "state_code": "CA",
    "placeMasterId": "P02500000FsoEeWJYyrwNgFn12oA5Y2IWpjhBxk2",
    "placeName": "buena park",
    "state": "CA"
  },
  {
    "city": "montebello",
    "state_code": "CA",
    "placeMasterId": "P02500000FsoEinht4lFwIH8F9AWcsjTL3x9oEcp",
    "placeName": "montebello",
    "state": "CA"
  },
  {
    "city": "seal beach",
    "state_code": "CA",
    "placeMasterId": "P02500000FsoEknYZWJKvugYgOXMTdahGWe5nt6q",
    "placeName": "seal beach",
    "state": "CA"
  },
  {
    "city": "signal hill",
    "state_code": "CA",
    "placeMasterId": "P02500000FsoEl5FWj6UVHt320A3JSZMdz5CBJDG",
    "placeName": "signal hill",
    "state": "CA"
  },
  {
    "city": "stevenson ranch",
    "state_code": "CA",
    "placeMasterId": "P02500000FsoElMwTvte4f5XNbmk9HY6NMcXzXul",
    "placeName": "stevenson ranch",
    "state": "CA"
  },
  {
    "city": "chino",
    "state_code": "CA",
    "placeMasterId": "P02500000FsoEf5hTOSFWQeliG3XlBzn37qHAO2v",
    "placeName": "chino",
    "state": "CA"
  },
  {
    "city": "west covina",
    "state_code": "CA",
    "placeMasterId": "P02500000FsoEm5ArwsX065lFcqTEq00Z7l5wZ2O",
    "placeName": "west covina",
    "state": "CA"
  },
  {
    "city": "solana beach",
    "state_code": "CA",
    "placeMasterId": "P02500000FsoEl5FWj6UVHt320A3JSZMNTgtKy7c",
    "placeName": "solana beach",
    "state": "CA"
  },
  {
    "city": "brawley",
    "state_code": "CA",
    "placeMasterId": "P02500000FsoEeWJYyrwNgFn12oA5Y2HKaLT9NcI",
    "placeName": "brawley",
    "state": "CA"
  },
  {
    "city": "cabazon",
    "state_code": "CA",
    "placeMasterId": "P02500000FsoEeWJYyrwNgFn12oA5Y2KGuXc7re8",
    "placeName": "cabazon",
    "state": "CA"
  },
  {
    "city": "ocotillo",
    "state_code": "CA",
    "placeMasterId": "P02500000FsoEjN5nULZ52g6wMPuIWgup5MLHsFT",
    "placeName": "ocotillo",
    "state": "CA"
  },
  {
    "city": "san simeon",
    "state_code": "CA",
    "placeMasterId": "P02500000FsoEknYZWJKvugYgOXMTdadpuAHfrD2",
    "placeName": "san simeon",
    "state": "CA"
  },
  {
    "city": "randsburg",
    "state_code": "CA",
    "placeMasterId": "P02500000FsoEk5KBVKS0TgKoNTdO58nRCfFB0Lk",
    "placeName": "randsburg",
    "state": "CA"
  },
  {
    "city": "bonney lake",
    "state_code": "WA",
    "placeMasterId": "P02500000FsoGyULKZqJiyNjph8ilsJ2N06H1uUE",
    "placeName": "bonney lake",
    "state": "WA"
  },
  {
    "city": "tacoma",
    "state_code": "WA",
    "placeMasterId": "P02500000FsoH1LGsdlrQiOdJlNd866Yu1WjXF5B",
    "placeName": "tacoma",
    "state": "WA"
  },
  {
    "city": "tacoma",
    "state_code": "WA",
    "placeMasterId": "P02500000FsoH1LGsdlrQiOdJlNd866Yu1WjXF5B",
    "placeName": "tacoma",
    "state": "WA"
  },
  {
    "city": "belfair",
    "state_code": "WA",
    "placeMasterId": "P02500000FsoGyLUqyRjwHmUetKNLxomdnR1TwkV",
    "placeName": "belfair",
    "state": "WA"
  },
  {
    "city": "raymond",
    "state_code": "WA",
    "placeMasterId": "P02500000FsoH0ujRpa84eatnLwasMdQpAoAnkel",
    "placeName": "raymond",
    "state": "WA"
  },
  {
    "city": "grays river",
    "state_code": "WA",
    "placeMasterId": "P02500000FsoGzLQCCDmR5zCsW0nHLFStsQzeK4O",
    "placeName": "grays river",
    "state": "WA"
  },
  {
    "city": "george",
    "state_code": "WA",
    "placeMasterId": "P02500000FsoGzLQCCDmR5zCsW0nHLFIWotVen8e",
    "placeName": "george",
    "state": "WA"
  },
  {
    "city": "zillah",
    "state_code": "WA",
    "placeMasterId": "P02500000FsoH1uen3MAZSnc0yd0nk42mau27UWD",
    "placeName": "zillah",
    "state": "WA"
  },
  {
    "city": "waverly",
    "state_code": "WA",
    "placeMasterId": "P02500000FsoH1cxpqZ105b7fN0Jxv5Oe6rPfHx7",
    "placeName": "waverly",
    "state": "WA"
  },
  {
    "city": "lacrosse",
    "state_code": "WA",
    "placeMasterId": "P02500000FsoGzlxd0PVn9mwOvRpX4iWD3kPkSpb",
    "placeName": "lacrosse",
    "state": "WA"
  },
  {
    "city": "anchorage",
    "state_code": "AK",
    "placeMasterId": "P02500000FsoEVxWun5JGSD6Yq5R0se5X03Bxqi1",
    "placeName": "anchorage",
    "state": "AK"
  },
  {
    "city": "adak",
    "state_code": "AK",
    "placeMasterId": "P02500000FsoEVxWun5JGSD6Yq5R0se0v1asOT61",
    "placeName": "adak",
    "state": "AK"
  },
  {
    "city": "mcgrath",
    "state_code": "AK",
    "placeMasterId": "P02500000FsoEX6IjcFvXx13xGaCMAYzxL6OGVvE",
    "placeName": "mcgrath",
    "state": "AK"
  },
  {
    "city": "nunapitchuk",
    "state_code": "AK",
    "placeMasterId": "P02500000FsoEXF9DDeVKdcJ84OXm53PQmNfyi3S",
    "placeName": "nunapitchuk",
    "state": "AK"
  },
  {
    "city": "tok",
    "state_code": "AK",
    "placeMasterId": "P02500000FsoEXoX7dEoTO1HpHdvRj0pKiz7jXgy",
    "placeName": "tok",
    "state": "AK"
  },
  {
    "city": "haines",
    "state_code": "AK",
    "placeMasterId": "P02500000FsoEWWupCfcPCc5G3KogWbYYOxgUUWr",
    "placeName": "haines",
    "state": "AK"
  },
  {
    "city": "pelican",
    "state_code": "AK",
    "placeMasterId": "P02500000FsoEXF9DDeVKdcJ84OXm53PgDfRQq5b",
    "placeName": "pelican",
    "state": "AK"
  },
  {
    "city": "skagway",
    "state_code": "AK",
    "placeMasterId": "P02500000FsoEXfge1qEghQ2eTpa1oWSVlYsFK4P",
    "placeName": "skagway",
    "state": "AK"
  },
  {
    "city": "bearcreek",
    "state_code": "MT",
    "placeMasterId": "P02500000FsoFoibABRzjMDdBZgxYZuESk65t7Dz",
    "placeName": "bearcreek",
    "state": "MT"
  },
  {
    "city": "martinsdale",
    "state_code": "MT",
    "placeMasterId": "P02500000FsoFprMz0cc0r1aa0BitrpJaaLhnLXY",
    "placeName": "martinsdale",
    "state": "MT"
  },
  {
    "city": "park city",
    "state_code": "MT",
    "placeMasterId": "P02500000FsoFq0DSc1BnXcpko04JmJbQnBluvtL",
    "placeName": "park city",
    "state": "MT"
  },
  {
    "city": "frazer",
    "state_code": "MT",
    "placeMasterId": "P02500000FsoFpQpYCQsenDr3akge8M7G6yhtgAQ",
    "placeName": "frazer",
    "state": "MT"
  },
  {
    "city": "hinsdale",
    "state_code": "MT",
    "placeMasterId": "P02500000FsoFpZg1npSRTp6EOZ242qZqMHRrDRN",
    "placeName": "hinsdale",
    "state": "MT"
  },
  {
    "city": "sidney",
    "state_code": "MT",
    "placeMasterId": "P02500000FsoFqQktQCv9bQZHDR6ZVml0EHmC8Ty",
    "placeName": "sidney",
    "state": "MT"
  },
  {
    "city": "browning",
    "state_code": "MT",
    "placeMasterId": "P02500000FsoForRdmqZW2osMNVIyUOmCMA9nlHs",
    "placeName": "browning",
    "state": "MT"
  },
  {
    "city": "hingham",
    "state_code": "MT",
    "placeMasterId": "P02500000FsoFpZg1npSRTp6EOZ242qXmpD0vRCf",
    "placeName": "hingham",
    "state": "MT"
  },
  {
    "city": "townsend",
    "state_code": "MT",
    "placeMasterId": "P02500000FsoFqZbN1bUwI1oS1FRzQH2BR5kIsMv",
    "placeName": "townsend",
    "state": "MT"
  },
  {
    "city": "gallatin gateway",
    "state_code": "MT",
    "placeMasterId": "P02500000FsoFpQpYCQsenDr3akge8M3bbprv9Tq",
    "placeName": "gallatin gateway",
    "state": "MT"
  },
  {
    "city": "lake bluff",
    "state_code": "IL",
    "placeMasterId": "P02500000FsoF4uttZCienO4Fg24P6ezekhMlhil",
    "placeName": "lake bluff",
    "state": "IL"
  },
  {
    "city": "lake zurich",
    "state_code": "IL",
    "placeMasterId": "P02500000FsoF53kNAbIRTzJQTqPp19NHz2MRucz",
    "placeName": "lake zurich",
    "state": "IL"
  },
  {
    "city": "addison",
    "state_code": "IL",
    "placeMasterId": "P02500000FsoF1CtTstiEvlhimv5XPvNg5HIRYHZ",
    "placeName": "addison",
    "state": "IL"
  },
  {
    "city": "malta",
    "state_code": "IL",
    "placeMasterId": "P02500000FsoF5UHnyn1nXn2wtHS4kcTnAKujPZ1",
    "placeName": "malta",
    "state": "IL"
  },
  {
    "city": "melrose park",
    "state_code": "IL",
    "placeMasterId": "P02500000FsoF5lylBaBMuzXIUu8uZbD6ovPxaQu",
    "placeName": "melrose park",
    "state": "IL"
  },
  {
    "city": "south holland",
    "state_code": "IL",
    "placeMasterId": "P02500000FsoF7ufvEWq9E0CuY5KBEwmntIF1qJw",
    "placeName": "south holland",
    "state": "IL"
  },
  {
    "city": "big rock",
    "state_code": "IL",
    "placeMasterId": "P02500000FsoF1mHOIU1NgAgQ0ATD3srKkVTt7dT",
    "placeName": "big rock",
    "state": "IL"
  },
  {
    "city": "plainfield",
    "state_code": "IL",
    "placeMasterId": "P02500000FsoF6uka0knePnUgvOuFrWCuaS4lOh5",
    "placeName": "plainfield",
    "state": "IL"
  },
  {
    "city": "chicago",
    "state_code": "IL",
    "placeMasterId": "P02500000FsoF2LfIi4KWQZf7DPqshqNB04VNil1",
    "placeName": "chicago",
    "state": "IL"
  },
  {
    "city": "emington",
    "state_code": "IL",
    "placeMasterId": "P02500000FsoF3CkAKRnEYB8A2HvOAma1i6i1D1D",
    "placeName": "emington",
    "state": "IL"
  },
  {
    "city": "elizabeth",
    "state_code": "IL",
    "placeMasterId": "P02500000FsoF3LadvqN1EmNKq6Go5GuEmz5GASh",
    "placeName": "elizabeth",
    "state": "IL"
  },
  {
    "city": "stockton",
    "state_code": "IL",
    "placeMasterId": "P02500000FsoF83WOpvPvubS5Ltfb9RAHcXd8Spm",
    "placeName": "stockton",
    "state": "IL"
  },
  {
    "city": "andalusia",
    "state_code": "IL",
    "placeMasterId": "P02500000FsoF1LjxUII1cMwtajQxKPj1V5POBvc",
    "placeName": "andalusia",
    "state": "IL"
  },
  {
    "city": "buda",
    "state_code": "IL",
    "placeMasterId": "P02500000FsoF1v7rtsbAMlvanyocyNFBpjGcvNZ",
    "placeName": "buda",
    "state": "IL"
  },
  {
    "city": "dana",
    "state_code": "IL",
    "placeMasterId": "P02500000FsoF2v3D7edfAydoQfEYLnnWKnEJ8Zq",
    "placeName": "dana",
    "state": "IL"
  },
  {
    "city": "good hope",
    "state_code": "IL",
    "placeMasterId": "P02500000FsoF3uyYLQg9zBM23LeTjERWPKNxvO2",
    "placeName": "good hope",
    "state": "IL"
  },
  {
    "city": "lomax",
    "state_code": "IL",
    "placeMasterId": "P02500000FsoF5CaqlzsEAaYbHelEvdmO68YTyGi",
    "placeName": "lomax",
    "state": "IL"
  },
  {
    "city": "table grove",
    "state_code": "IL",
    "placeMasterId": "P02500000FsoF83WOpvPvubS5Ltfb9RBygD8kefL",
    "placeName": "table grove",
    "state": "IL"
  },
  {
    "city": "liverpool",
    "state_code": "IL",
    "placeMasterId": "P02500000FsoF5CaqlzsEAaYbHelEvdmibkjtfFD",
    "placeName": "liverpool",
    "state": "IL"
  },
  {
    "city": "allerton",
    "state_code": "IL",
    "placeMasterId": "P02500000FsoF1CtTstiEvlhimv5XPvObsTttOo4",
    "placeName": "allerton",
    "state": "IL"
  },
  {
    "city": "catlin",
    "state_code": "IL",
    "placeMasterId": "P02500000FsoF2LfIi4KWQZf7DPqshqIZVKvNha0",
    "placeName": "catlin",
    "state": "IL"
  },
  {
    "city": "farmer city",
    "state_code": "IL",
    "placeMasterId": "P02500000FsoF3UR7XEwnvNcVducDzlIHwrKsc7q",
    "placeName": "farmer city",
    "state": "IL"
  },
  {
    "city": "foosland",
    "state_code": "IL",
    "placeMasterId": "P02500000FsoF3dHb8dWabyrgRixduFeFIxsFdmu",
    "placeName": "foosland",
    "state": "IL"
  },
  {
    "city": "longview",
    "state_code": "IL",
    "placeMasterId": "P02500000FsoF5CaqlzsEAaYbHelEvdlEex4OFzE",
    "placeName": "longview",
    "state": "IL"
  },
  {
    "city": "philo",
    "state_code": "IL",
    "placeMasterId": "P02500000FsoF6lu6PMDrjCFW7aYpx1rzji2UoqL",
    "placeName": "philo",
    "state": "IL"
  },
  {
    "city": "ashmore",
    "state_code": "IL",
    "placeMasterId": "P02500000FsoF1LjxUII1cMwtajQxKPkSdsJXfqM",
    "placeName": "ashmore",
    "state": "IL"
  },
  {
    "city": "camargo",
    "state_code": "IL",
    "placeMasterId": "P02500000FsoF2Cop6fkjjyPwPbVSnLz8JwLAcqd",
    "placeName": "camargo",
    "state": "IL"
  },
  {
    "city": "hindsboro",
    "state_code": "IL",
    "placeMasterId": "P02500000FsoF4LVz9cPW2z5YSmgjShZAteSjVyR",
    "placeName": "hindsboro",
    "state": "IL"
  },
  {
    "city": "gillespie",
    "state_code": "IL",
    "placeMasterId": "P02500000FsoF3m84k26NIa6rFXJ3ok4QEsxEw9Z",
    "placeName": "gillespie",
    "state": "IL"
  },
  {
    "city": "witt",
    "state_code": "IL",
    "placeMasterId": "P02500000FsoF8ubGSIse2Cv8Alk6cNQCFGBBjyF",
    "placeName": "witt",
    "state": "IL"
  },
  {
    "city": "worden",
    "state_code": "IL",
    "placeMasterId": "P02500000FsoF8ubGSIse2Cv8Alk6cNR3QUvwG9k",
    "placeName": "worden",
    "state": "IL"
  },
  {
    "city": "millstadt",
    "state_code": "IL",
    "placeMasterId": "P02500000FsoF5lylBaBMuzXIUu8uZbDPlQULieh",
    "placeName": "millstadt",
    "state": "IL"
  },
  {
    "city": "new athens",
    "state_code": "IL",
    "placeMasterId": "P02500000FsoF6CWBzluiynGouLBAJ4LVqMKe8fP",
    "placeName": "new athens",
    "state": "IL"
  },
  {
    "city": "percy",
    "state_code": "IL",
    "placeMasterId": "P02500000FsoF6lu6PMDrjCFW7aYpx1qd46GbF65",
    "placeName": "percy",
    "state": "IL"
  },
  {
    "city": "camp point",
    "state_code": "IL",
    "placeMasterId": "P02500000FsoF2Cop6fkjjyPwPbVSnLvVNEiwwXC",
    "placeName": "camp point",
    "state": "IL"
  },
  {
    "city": "assumption",
    "state_code": "IL",
    "placeMasterId": "P02500000FsoF1LjxUII1cMwtajQxKPkfJCJw2uk",
    "placeName": "assumption",
    "state": "IL"
  },
  {
    "city": "cornland",
    "state_code": "IL",
    "placeMasterId": "P02500000FsoF2dMFurU5nm9Sp2XiWp4NrKnICR7",
    "placeName": "cornland",
    "state": "IL"
  },
  {
    "city": "dawson",
    "state_code": "IL",
    "placeMasterId": "P02500000FsoF2v3D7edfAydoQfEYLnnlp60yZSJ",
    "placeName": "dawson",
    "state": "IL"
  },
  {
    "city": "meredosia",
    "state_code": "IL",
    "placeMasterId": "P02500000FsoF5lylBaBMuzXIUu8uZbDlplLwKLo",
    "placeName": "meredosia",
    "state": "IL"
  },
  {
    "city": "new berlin",
    "state_code": "IL",
    "placeMasterId": "P02500000FsoF6CWBzluiynGouLBAJ4KCmOWZ41G",
    "placeName": "new berlin",
    "state": "IL"
  },
  {
    "city": "petersburg",
    "state_code": "IL",
    "placeMasterId": "P02500000FsoF6lu6PMDrjCFW7aYpx1r2OOUdMoz",
    "placeName": "petersburg",
    "state": "IL"
  },
  {
    "city": "bluford",
    "state_code": "IL",
    "placeMasterId": "P02500000FsoF1mHOIU1NgAgQ0ATD3ssCY4iquxS",
    "placeName": "bluford",
    "state": "IL"
  },
  {
    "city": "mill shoals",
    "state_code": "IL",
    "placeMasterId": "P02500000FsoF5lylBaBMuzXIUu8uZbFNDxTNGxS",
    "placeName": "mill shoals",
    "state": "IL"
  },
  {
    "city": "norris city",
    "state_code": "IL",
    "placeMasterId": "P02500000FsoF6CWBzluiynGouLBAJ4NkYwzJKgK",
    "placeName": "norris city",
    "state": "IL"
  },
  {
    "city": "campbell hill",
    "state_code": "IL",
    "placeMasterId": "P02500000FsoF23yLVHAx3NAlbnA2srbTKE0V533",
    "placeName": "campbell hill",
    "state": "IL"
  },
  {
    "city": "dowell",
    "state_code": "IL",
    "placeMasterId": "P02500000FsoF33tgj3DRrZszETZyGIAGCCu7duC",
    "placeName": "dowell",
    "state": "IL"
  },
  {
    "city": "eddyville",
    "state_code": "IL",
    "placeMasterId": "P02500000FsoF33tgj3DRrZszETZyGIEmRa7IEiC",
    "placeName": "eddyville",
    "state": "IL"
  },
  {
    "city": "gorham",
    "state_code": "IL",
    "placeMasterId": "P02500000FsoF3uyYLQg9zBM23LeTjEPkvTcYdgp",
    "placeName": "gorham",
    "state": "IL"
  },
  {
    "city": "ballwin",
    "state_code": "MO",
    "placeMasterId": "P02500000FsoFirtaSCKXBab2dOnQDp07Paa0PyD",
    "placeName": "ballwin",
    "state": "MO"
  },
  {
    "city": "augusta",
    "state_code": "MO",
    "placeMasterId": "P02500000FsoFij36qnkkUzLrpaS0JKjWdXGnDZq",
    "placeName": "augusta",
    "state": "MO"
  },
  {
    "city": "curryville",
    "state_code": "MO",
    "placeMasterId": "P02500000FsoFjrovfyN1znJGG5DLbFmeFBRcYkI",
    "placeName": "curryville",
    "state": "MO"
  },
  {
    "city": "wellsville",
    "state_code": "MO",
    "placeMasterId": "P02500000FsoFoI3jNGGNIPtfAFvIqRCaJy12j20",
    "placeName": "wellsville",
    "state": "MO"
  },
  {
    "city": "frankford",
    "state_code": "MO",
    "placeMasterId": "P02500000FsoFka3JgxFxQnX8H8wR9hZKcerGGQW",
    "placeName": "frankford",
    "state": "MO"
  },
  {
    "city": "perry",
    "state_code": "MO",
    "placeMasterId": "P02500000FsoFn0RQwh4J70h5vwoXe1mSJFoPU11",
    "placeName": "perry",
    "state": "MO"
  },
  {
    "city": "elmer",
    "state_code": "MO",
    "placeMasterId": "P02500000FsoFk9VsslWbMznbrhuBQESysHdEyFh",
    "placeName": "elmer",
    "state": "MO"
  },
  {
    "city": "arcadia",
    "state_code": "MO",
    "placeMasterId": "P02500000FsoFirtaSCKXBab2dOnQDozsLUr5XOz",
    "placeName": "arcadia",
    "state": "MO"
  },
  {
    "city": "bloomsdale",
    "state_code": "MO",
    "placeMasterId": "P02500000FsoFj9aXezU6Yn5OF1UG2nkqmdq3W1p",
    "placeName": "bloomsdale",
    "state": "MO"
  },
  {
    "city": "centerville",
    "state_code": "MO",
    "placeMasterId": "P02500000FsoFja7yTBDScaoueSWVmGtqKBwRtwn",
    "placeName": "centerville",
    "state": "MO"
  },
  {
    "city": "cape girardeau",
    "state_code": "MO",
    "placeMasterId": "P02500000FsoFja7yTBDScaoueSWVmGsKM32kswx",
    "placeName": "cape girardeau",
    "state": "MO"
  },
  {
    "city": "caruthersville",
    "state_code": "MO",
    "placeMasterId": "P02500000FsoFja7yTBDScaoueSWVmGqZyDEaxC7",
    "placeName": "caruthersville",
    "state": "MO"
  },
  {
    "city": "parma",
    "state_code": "MO",
    "placeMasterId": "P02500000FsoFmraxLIUWQPRv88T7jXYsmEVi3yg",
    "placeName": "parma",
    "state": "MO"
  },
  {
    "city": "henrietta",
    "state_code": "MO",
    "placeMasterId": "P02500000FsoFl9RE6XZ6BCVpUOK6nf20KZMG90r",
    "placeName": "henrietta",
    "state": "MO"
  },
  {
    "city": "kansas city",
    "state_code": "MO",
    "placeMasterId": "P02500000FsoFlR8BJKifYP0B610wcdmJLAheztV",
    "placeName": "kansas city",
    "state": "MO"
  },
  {
    "city": "kansas city",
    "state_code": "MO",
    "placeMasterId": "P02500000FsoFlR8BJKifYP0B610wcdmJLAheztV",
    "placeName": "kansas city",
    "state": "MO"
  },
  {
    "city": "easton",
    "state_code": "MO",
    "placeMasterId": "P02500000FsoFkIMMUA6O3b2mfWFbKihXjxaXVxt",
    "placeName": "easton",
    "state": "MO"
  },
  {
    "city": "rock port",
    "state_code": "MO",
    "placeMasterId": "P02500000FsoFnQyrksnfAoQcLNqnNUzhqNL54BW",
    "placeName": "rock port",
    "state": "MO"
  },
  {
    "city": "bronaugh",
    "state_code": "MO",
    "placeMasterId": "P02500000FsoFjIR1GO3tFOKZ2ppfxIF0seZRleR",
    "placeName": "bronaugh",
    "state": "MO"
  },
  {
    "city": "reeds",
    "state_code": "MO",
    "placeMasterId": "P02500000FsoFnI8O9UDsUDBRXZVNT0Z1xvccLKC",
    "placeName": "reeds",
    "state": "MO"
  },
  {
    "city": "jamestown",
    "state_code": "MO",
    "placeMasterId": "P02500000FsoFlR8BJKifYP0B610wcdgUWx1gGqF",
    "placeName": "jamestown",
    "state": "MO"
  },
  {
    "city": "smithton",
    "state_code": "MO",
    "placeMasterId": "P02500000FsoFnifoxfxEY0uxx0XdCToKTYgmt6B",
    "placeName": "smithton",
    "state": "MO"
  },
  {
    "city": "rolla",
    "state_code": "MO",
    "placeMasterId": "P02500000FsoFnQyrksnfAoQcLNqnNV0tD3em0wp",
    "placeName": "rolla",
    "state": "MO"
  },
  {
    "city": "vienna",
    "state_code": "MO",
    "placeMasterId": "P02500000FsoFo9DFlrgaboeUMRZsvwolJhNSLx7",
    "placeName": "vienna",
    "state": "MO"
  },
  {
    "city": "buffalo",
    "state_code": "MO",
    "placeMasterId": "P02500000FsoFjRHUrmdfvzZjqeB5rmXOSGG163W",
    "placeName": "buffalo",
    "state": "MO"
  },
  {
    "city": "exeter",
    "state_code": "MO",
    "placeMasterId": "P02500000FsoFkIMMUA6O3b2mfWFbKilJJIdjfwS",
    "placeName": "exeter",
    "state": "MO"
  },
  {
    "city": "wasola",
    "state_code": "MO",
    "placeMasterId": "P02500000FsoFoI3jNGGNIPtfAFvIqR7soulsqjE",
    "placeName": "wasola",
    "state": "MO"
  },
  {
    "city": "springfield",
    "state_code": "MO",
    "placeMasterId": "P02500000FsoFnifoxfxEY0uxx0XdCTlHDhP1BxY",
    "placeName": "springfield",
    "state": "MO"
  },
  {
    "city": "edgerton",
    "state_code": "KS",
    "placeMasterId": "P02500000FsoFK2cVVDttd40iq6ghgaNW3Gl4eF8",
    "placeName": "edgerton",
    "state": "KS"
  },
  {
    "city": "louisburg",
    "state_code": "KS",
    "placeMasterId": "P02500000FsoFL2XqizwORGiwSn6d412KTbgLvZ7",
    "placeName": "louisburg",
    "state": "KS"
  },
  {
    "city": "lenexa",
    "state_code": "KS",
    "placeMasterId": "P02500000FsoFL2XqizwORGiwSn6d40yh5PPI6HP",
    "placeName": "lenexa",
    "state": "KS"
  },
  {
    "city": "denison",
    "state_code": "KS",
    "placeMasterId": "P02500000FsoFJtm1tpK6wSlY2ILHm61KZpi4Yml",
    "placeName": "denison",
    "state": "KS"
  },
  {
    "city": "west mineral",
    "state_code": "KS",
    "placeMasterId": "P02500000FsoFMkhZxkrogTf26XFdztQiosecQge",
    "placeName": "west mineral",
    "state": "KS"
  },
  {
    "city": "elmdale",
    "state_code": "KS",
    "placeMasterId": "P02500000FsoFKBSz6cTgJfFtdv27b4jFHUNKbN4",
    "placeName": "elmdale",
    "state": "KS"
  },
  {
    "city": "peabody",
    "state_code": "KS",
    "placeMasterId": "P02500000FsoFLtciLNP6YsBzHfB8WxEgZ3fv5ez",
    "placeName": "peabody",
    "state": "KS"
  },
  {
    "city": "greenleaf",
    "state_code": "KS",
    "placeMasterId": "P02500000FsoFKT9wJPdFgrkFFXixQ3Vsa0bJTeD",
    "placeName": "greenleaf",
    "state": "KS"
  },
  {
    "city": "mankato",
    "state_code": "KS",
    "placeMasterId": "P02500000FsoFLKEnvn5xoTDI4PnSszkOASS60Th",
    "placeName": "mankato",
    "state": "KS"
  },
  {
    "city": "hazelton",
    "state_code": "KS",
    "placeMasterId": "P02500000FsoFKT9wJPdFgrkFFXixQ3X5XKTqn03",
    "placeName": "hazelton",
    "state": "KS"
  },
  {
    "city": "wichita",
    "state_code": "KS",
    "placeMasterId": "P02500000FsoFMtY3Z9RbN4uCuLb3uNnBOyNlFLT",
    "placeName": "wichita",
    "state": "KS"
  },
  {
    "city": "oswego",
    "state_code": "KS",
    "placeMasterId": "P02500000FsoFLtciLNP6YsBzHfB8WxB0M4Qr1WZ",
    "placeName": "oswego",
    "state": "KS"
  },
  {
    "city": "glasco",
    "state_code": "KS",
    "placeMasterId": "P02500000FsoFKKJSi13T0GV4RjNXVZ8tkpWnfX9",
    "placeName": "glasco",
    "state": "KS"
  },
  {
    "city": "wakefield",
    "state_code": "KS",
    "placeMasterId": "P02500000FsoFMkhZxkrogTf26XFdztPaYzoTx6o",
    "placeName": "wakefield",
    "state": "KS"
  },
  {
    "city": "offerle",
    "state_code": "KS",
    "placeMasterId": "P02500000FsoFLkmEjypJsGwoTqpicSozeE4TmmZ",
    "placeName": "offerle",
    "state": "KS"
  },
  {
    "city": "partridge",
    "state_code": "KS",
    "placeMasterId": "P02500000FsoFLtciLNP6YsBzHfB8WxCkmM0mzag",
    "placeName": "partridge",
    "state": "KS"
  },
  {
    "city": "gaylord",
    "state_code": "KS",
    "placeMasterId": "P02500000FsoFKKJSi13T0GV4RjNXVZ87RvifRdQ",
    "placeName": "gaylord",
    "state": "KS"
  },
  {
    "city": "glade",
    "state_code": "KS",
    "placeMasterId": "P02500000FsoFKKJSi13T0GV4RjNXVZ9LeGZ9Lze",
    "placeName": "glade",
    "state": "KS"
  },
  {
    "city": "minneola",
    "state_code": "KS",
    "placeMasterId": "P02500000FsoFLT5HXBfkV4SSsE8snU9antlvw5y",
    "placeName": "minneola",
    "state": "KS"
  },
  {
    "city": "abie",
    "state_code": "NE",
    "placeMasterId": "P02500000FsoFqrIKEOeVfEIncs8pFFqerYYnwXA",
    "placeName": "abie",
    "state": "NE"
  },
  {
    "city": "bruno",
    "state_code": "NE",
    "placeMasterId": "P02500000FsoFrHpl2aNrj22K2JB4yiz90SbJyx4",
    "placeName": "bruno",
    "state": "NE"
  },
  {
    "city": "homer",
    "state_code": "NE",
    "placeMasterId": "P02500000FsoFsHl6GMQMXEkXezb0M9XaPy0F5r1",
    "placeName": "homer",
    "state": "NE"
  },
  {
    "city": "winnebago",
    "state_code": "NE",
    "placeMasterId": "P02500000FsoFu8lJ6VvZT2vo6Y5RCWJBf7jkJfk",
    "placeName": "winnebago",
    "state": "NE"
  },
  {
    "city": "omaha",
    "state_code": "NE",
    "placeMasterId": "P02500000FsoFszzUHLJHyEyPg3K5ubV6FuzuT2T",
    "placeName": "omaha",
    "state": "NE"
  },
  {
    "city": "omaha",
    "state_code": "NE",
    "placeMasterId": "P02500000FsoFszzUHLJHyEyPg3K5ubV6FuzuT2T",
    "placeName": "omaha",
    "state": "NE"
  },
  {
    "city": "rulo",
    "state_code": "NE",
    "placeMasterId": "P02500000FsoFtQWv5X2e22hw5UMLe4V0Spyd6Ib",
    "placeName": "rulo",
    "state": "NE"
  },
  {
    "city": "creston",
    "state_code": "NE",
    "placeMasterId": "P02500000FsoFrZWiFNXR6EWfdvrunhgAvC4Pynr",
    "placeName": "creston",
    "state": "NE"
  },
  {
    "city": "royal",
    "state_code": "NE",
    "placeMasterId": "P02500000FsoFtHgRU8SrLRSlHg0vjaFJ1G9l94d",
    "placeName": "royal",
    "state": "NE"
  },
  {
    "city": "west point",
    "state_code": "NE",
    "placeMasterId": "P02500000FsoFtzupV7LmmRgdIjk1I28vvm7BqXc",
    "placeName": "west point",
    "state": "NE"
  },
  {
    "city": "aurora",
    "state_code": "NE",
    "placeMasterId": "P02500000FsoFr08npnEILpXyQgUF9kCNhBoNcoA",
    "placeName": "aurora",
    "state": "NE"
  },
  {
    "city": "comstock",
    "state_code": "NE",
    "placeMasterId": "P02500000FsoFrZWiFNXR6EWfdvrunhdjZKirv4e",
    "placeName": "comstock",
    "state": "NE"
  },
  {
    "city": "merna",
    "state_code": "NE",
    "placeMasterId": "P02500000FsoFsr90fwjVHdjEsEyg072QqGYROQe",
    "placeName": "merna",
    "state": "NE"
  },
  {
    "city": "clay center",
    "state_code": "NE",
    "placeMasterId": "P02500000FsoFrQgEdyxePdHUq7WUtDPIGFBLtJG",
    "placeName": "clay center",
    "state": "NE"
  },
  {
    "city": "superior",
    "state_code": "NE",
    "placeMasterId": "P02500000FsoFtiDsIKCDPFCHh73BT3EmoGUPx4W",
    "placeName": "superior",
    "state": "NE"
  },
  {
    "city": "champion",
    "state_code": "NE",
    "placeMasterId": "P02500000FsoFrQgEdyxePdHUq7WUtDIlN17Vklh",
    "placeName": "champion",
    "state": "NE"
  },
  {
    "city": "chappell",
    "state_code": "NE",
    "placeMasterId": "P02500000FsoFrQgEdyxePdHUq7WUtDKww6hs77P",
    "placeName": "chappell",
    "state": "NE"
  },
  {
    "city": "halsey",
    "state_code": "NE",
    "placeMasterId": "P02500000FsoFs8ucexqZqdVMrBFaRfEDfDzZ4WV",
    "placeName": "halsey",
    "state": "NE"
  },
  {
    "city": "wood lake",
    "state_code": "NE",
    "placeMasterId": "P02500000FsoFtzupV7LmmRgdIjk1I23wAmJqvr5",
    "placeName": "wood lake",
    "state": "NE"
  },
  {
    "city": "chalmette",
    "state_code": "LA",
    "placeMasterId": "P02500000FsoFQbYTFSS1EhGjnSZvb7UFDwzsHce",
    "placeName": "chalmette",
    "state": "LA"
  },
  {
    "city": "new orleans",
    "state_code": "LA",
    "placeMasterId": "P02500000FsoFS21FHQDs6hiTpa26i1JVz94sOtB",
    "placeName": "new orleans",
    "state": "LA"
  },
  {
    "city": "amelia",
    "state_code": "LA",
    "placeMasterId": "P02500000FsoFQB12RGifAtXDO1XfreUbMrhrhHR",
    "placeName": "amelia",
    "state": "LA"
  },
  {
    "city": "donaldsonville",
    "state_code": "LA",
    "placeMasterId": "P02500000FsoFQkOwqr1nvIVubGvLVc6mzswgJUk",
    "placeName": "donaldsonville",
    "state": "LA"
  },
  {
    "city": "houma",
    "state_code": "LA",
    "placeMasterId": "P02500000FsoFRJmrGRKwfhUboWJ19ZSX6AdN76w",
    "placeName": "houma",
    "state": "LA"
  },
  {
    "city": "folsom",
    "state_code": "LA",
    "placeMasterId": "P02500000FsoFR25u3eBNIV0GCtcBKaeUYrJBVCI",
    "placeName": "folsom",
    "state": "LA"
  },
  {
    "city": "kentwood",
    "state_code": "LA",
    "placeMasterId": "P02500000FsoFRbToTEUW2tyxQ8zqyY7xn4nfXvD",
    "placeName": "kentwood",
    "state": "LA"
  },
  {
    "city": "breaux bridge",
    "state_code": "LA",
    "placeMasterId": "P02500000FsoFQShze3sEY61YzeEVgd9JAqoIY21",
    "placeName": "breaux bridge",
    "state": "LA"
  },
  {
    "city": "loreauville",
    "state_code": "LA",
    "placeMasterId": "P02500000FsoFRkKI4d4IjVE8DxLGt2Wh4vp5slr",
    "placeName": "loreauville",
    "state": "LA"
  },
  {
    "city": "new iberia",
    "state_code": "LA",
    "placeMasterId": "P02500000FsoFS21FHQDs6hiTpa26i1Hx0urENCY",
    "placeName": "new iberia",
    "state": "LA"
  },
  {
    "city": "youngsville",
    "state_code": "LA",
    "placeMasterId": "P02500000FsoFT1waVCGMuuQhSGS25Rn5upVTV28",
    "placeName": "youngsville",
    "state": "LA"
  },
  {
    "city": "denham springs",
    "state_code": "LA",
    "placeMasterId": "P02500000FsoFQkOwqr1nvIVubGvLVc8IuP16JT3",
    "placeName": "denham springs",
    "state": "LA"
  },
  {
    "city": "krotz springs",
    "state_code": "LA",
    "placeMasterId": "P02500000FsoFRbToTEUW2tyxQ8zqyY3fK2hrSAZ",
    "placeName": "krotz springs",
    "state": "LA"
  },
  {
    "city": "baton rouge",
    "state_code": "LA",
    "placeMasterId": "P02500000FsoFQJrW2fIRrUmOBpt5m8hbG1ZgRcE",
    "placeName": "baton rouge",
    "state": "LA"
  },
  {
    "city": "minden",
    "state_code": "LA",
    "placeMasterId": "P02500000FsoFS21FHQDs6hiTpa26i19EUoENXa6",
    "placeName": "minden",
    "state": "LA"
  },
  {
    "city": "pleasant hill",
    "state_code": "LA",
    "placeMasterId": "P02500000FsoFSArisonenIxedONWcVjP1KBOXS2",
    "placeName": "pleasant hill",
    "state": "LA"
  },
  {
    "city": "eros",
    "state_code": "LA",
    "placeMasterId": "P02500000FsoFR25u3eBNIV0GCtcBKagP7EhZdiB",
    "placeName": "eros",
    "state": "LA"
  },
  {
    "city": "tallulah",
    "state_code": "LA",
    "placeMasterId": "P02500000FsoFSkFdIP6nXhwLqdlCGT5K841hSNH",
    "placeName": "tallulah",
    "state": "LA"
  },
  {
    "city": "columbia",
    "state_code": "LA",
    "placeMasterId": "P02500000FsoFQkOwqr1nvIVubGvLVbt3BZPdHLW",
    "placeName": "columbia",
    "state": "LA"
  },
  {
    "city": "grayson",
    "state_code": "LA",
    "placeMasterId": "P02500000FsoFRAwNf2l9z6FR0hxbF56VPd6Gz6X",
    "placeName": "grayson",
    "state": "LA"
  },
  {
    "city": "pine bluff",
    "state_code": "AR",
    "placeMasterId": "P02500000FsoEco9pk70xR2qvP414c9qKeItgtuc",
    "placeName": "pine bluff",
    "state": "AR"
  },
  {
    "city": "wilmar",
    "state_code": "AR",
    "placeMasterId": "P02500000FsoEdWODl5tss34nQ7kAAbjSt2VSAeu",
    "placeName": "wilmar",
    "state": "AR"
  },
  {
    "city": "winchester",
    "state_code": "AR",
    "placeMasterId": "P02500000FsoEdWODl5tss34nQ7kAAbhWVxwzRy6",
    "placeName": "winchester",
    "state": "AR"
  },
  {
    "city": "mena",
    "state_code": "AR",
    "placeMasterId": "P02500000FsoEcNcOvvHbNF7OzcyosgkPJS8Jm7L",
    "placeName": "mena",
    "state": "AR"
  },
  {
    "city": "beedeville",
    "state_code": "AR",
    "placeMasterId": "P02500000FsoEafSfhAMB82BJLspnwoK4zlxpDby",
    "placeName": "beedeville",
    "state": "AR"
  },
  {
    "city": "houston",
    "state_code": "AR",
    "placeMasterId": "P02500000FsoEboEUWKyScq8hmNb9EjJsI33tGcM",
    "placeName": "houston",
    "state": "AR"
  },
  {
    "city": "lonsdale",
    "state_code": "AR",
    "placeMasterId": "P02500000FsoEcElvKWhogdsEBodOyCM5s5JAiop",
    "placeName": "lonsdale",
    "state": "AR"
  },
  {
    "city": "north little rock",
    "state_code": "AR",
    "placeMasterId": "P02500000FsoEcfJM8iRAkRbkbFfehfRubWgs65k",
    "placeName": "north little rock",
    "state": "AR"
  },
  {
    "city": "corning",
    "state_code": "AR",
    "placeMasterId": "P02500000FsoEb606VM5XBpuplJs3gHMnXmsfCw3",
    "placeName": "corning",
    "state": "AR"
  },
  {
    "city": "mountain view",
    "state_code": "AR",
    "placeMasterId": "P02500000FsoEcNcOvvHbNF7OzcyosgmPWLSItSy",
    "placeName": "mountain view",
    "state": "AR"
  },
  {
    "city": "jasper",
    "state_code": "AR",
    "placeMasterId": "P02500000FsoEbx4y7jYFJRNsaBwZ9DcvBvezSkP",
    "placeName": "jasper",
    "state": "AR"
  },
  {
    "city": "fort smith",
    "state_code": "AR",
    "placeMasterId": "P02500000FsoEbNh3i9F6Z2PBMwYtVG9FSSbjGea",
    "placeName": "fort smith",
    "state": "AR"
  },
  {
    "city": "lookeba",
    "state_code": "OK",
    "placeMasterId": "P02500000FsoGM6etKD3U8mtxZhnLmXHpPO8a0pa",
    "placeName": "lookeba",
    "state": "OK"
  },
  {
    "city": "perry",
    "state_code": "OK",
    "placeMasterId": "P02500000FsoGMotHLBwPZn7palWRKyz7twZa9PN",
    "placeName": "perry",
    "state": "OK"
  },
  {
    "city": "oklahoma city",
    "state_code": "OK",
    "placeMasterId": "P02500000FsoGMg2njnMctBsemxB1QUgVkw3g3BI",
    "placeName": "oklahoma city",
    "state": "OK"
  },
  {
    "city": "bessie",
    "state_code": "OK",
    "placeMasterId": "P02500000FsoGK6oCseyUWNTWKKxV1fvdt5NPRR4",
    "placeName": "bessie",
    "state": "OK"
  },
  {
    "city": "burns flat",
    "state_code": "OK",
    "placeMasterId": "P02500000FsoGKOVA5S83tZxrvxeKqejQH5e5HcN",
    "placeName": "burns flat",
    "state": "OK"
  },
  {
    "city": "canute",
    "state_code": "OK",
    "placeMasterId": "P02500000FsoGKOVA5S83tZxrvxeKqernzClhENo",
    "placeName": "canute",
    "state": "OK"
  },
  {
    "city": "sentinel",
    "state_code": "OK",
    "placeMasterId": "P02500000FsoGNFQi9NfldarM0CYh4SBkPNwP1ex",
    "placeName": "sentinel",
    "state": "OK"
  },
  {
    "city": "ringwood",
    "state_code": "OK",
    "placeMasterId": "P02500000FsoGN6aEXz5ywzcBCODH9xiXXWseJhl",
    "placeName": "ringwood",
    "state": "OK"
  },
  {
    "city": "gage",
    "state_code": "OK",
    "placeMasterId": "P02500000FsoGLOQVJEAYhmg5Ye4GE5LvYpkMv6Q",
    "placeName": "gage",
    "state": "OK"
  },
  {
    "city": "vici",
    "state_code": "OK",
    "placeMasterId": "P02500000FsoGNoocYxyuNzq3DRwMiPntOhZS3dn",
    "placeName": "vici",
    "state": "OK"
  },
  {
    "city": "turpin",
    "state_code": "OK",
    "placeMasterId": "P02500000FsoGNfy8xZP7hOasPdawnvPVIg7N9X2",
    "placeName": "turpin",
    "state": "OK"
  },
  {
    "city": "barnsdall",
    "state_code": "OK",
    "placeMasterId": "P02500000FsoGK6oCseyUWNTWKKxV1fw3Oeo7SZz",
    "placeName": "barnsdall",
    "state": "OK"
  },
  {
    "city": "cushing",
    "state_code": "OK",
    "placeMasterId": "P02500000FsoGKgC7IFHdGmSDXaLAfddeVI0HGkw",
    "placeName": "cushing",
    "state": "OK"
  },
  {
    "city": "sand springs",
    "state_code": "OK",
    "placeMasterId": "P02500000FsoGNFQi9NfldarM0CYh4S8A31m3V7p",
    "placeName": "sand springs",
    "state": "OK"
  },
  {
    "city": "tulsa",
    "state_code": "OK",
    "placeMasterId": "P02500000FsoGNfy8xZP7hOasPdawnvKembwKfLR",
    "placeName": "tulsa",
    "state": "OK"
  },
  {
    "city": "tulsa",
    "state_code": "OK",
    "placeMasterId": "P02500000FsoGNfy8xZP7hOasPdawnvKembwKfLR",
    "placeName": "tulsa",
    "state": "OK"
  },
  {
    "city": "chouteau",
    "state_code": "OK",
    "placeMasterId": "P02500000FsoGKgC7IFHdGmSDXaLAfdPGijm4oCK",
    "placeName": "chouteau",
    "state": "OK"
  },
  {
    "city": "north miami",
    "state_code": "OK",
    "placeMasterId": "P02500000FsoGMg2njnMctBsemxB1QUevjBxvIEi",
    "placeName": "north miami",
    "state": "OK"
  },
  {
    "city": "antlers",
    "state_code": "OK",
    "placeMasterId": "P02500000FsoGJp7Ffrov9AzAiiGfChLG1IjANl5",
    "placeName": "antlers",
    "state": "OK"
  },
  {
    "city": "red rock",
    "state_code": "OK",
    "placeMasterId": "P02500000FsoGN6aEXz5ywzcBCODH9xmgAS9yiGj",
    "placeName": "red rock",
    "state": "OK"
  },
  {
    "city": "lancaster",
    "state_code": "TX",
    "placeMasterId": "P02500000FsoGnDTbvWiggvP4DzQktbjMUvZHAP1",
    "placeName": "lancaster",
    "state": "TX"
  },
  {
    "city": "dallas",
    "state_code": "TX",
    "placeMasterId": "P02500000FsoGkMY3rbAywuVa9kWOfoNE7vnQ9N4",
    "placeName": "dallas",
    "state": "TX"
  },
  {
    "city": "dallas",
    "state_code": "TX",
    "placeMasterId": "P02500000FsoGkMY3rbAywuVa9kWOfoNE7vnQ9N4",
    "placeName": "dallas",
    "state": "TX"
  },
  {
    "city": "honey grove",
    "state_code": "TX",
    "placeMasterId": "P02500000FsoGmDYGhkgBsigqbJ0pWBDAQlIGPP9",
    "placeName": "honey grove",
    "state": "TX"
  },
  {
    "city": "howe",
    "state_code": "TX",
    "placeMasterId": "P02500000FsoGmMOkJ9FyZJw1P7MFQfSyADJMhjp",
    "placeName": "howe",
    "state": "TX"
  },
  {
    "city": "paris",
    "state_code": "TX",
    "placeMasterId": "P02500000FsoGp4TolgDtcjaKfXvBjyUvko2SLc0",
    "placeName": "paris",
    "state": "TX"
  },
  {
    "city": "arp",
    "state_code": "TX",
    "placeMasterId": "P02500000FsoGiVXr1Rfm16KJiC1xpRby7sjYq2E",
    "placeName": "arp",
    "state": "TX"
  },
  {
    "city": "frankston",
    "state_code": "TX",
    "placeMasterId": "P02500000FsoGlMTP5NDTl7DnmQwK3EuafpVrawr",
    "placeName": "frankston",
    "state": "TX"
  },
  {
    "city": "midway",
    "state_code": "TX",
    "placeMasterId": "P02500000FsoGoDOx9IlBV87HqfqgH2LtCLVZlF2",
    "placeName": "midway",
    "state": "TX"
  },
  {
    "city": "newton",
    "state_code": "TX",
    "placeMasterId": "P02500000FsoGodwNxUUXYvqoG6sw0VTfx94Qb22",
    "placeName": "newton",
    "state": "TX"
  },
  {
    "city": "pineland",
    "state_code": "TX",
    "placeMasterId": "P02500000FsoGpDKIN4ngJKpVTMGbeT8P41FzdXB",
    "placeName": "pineland",
    "state": "TX"
  },
  {
    "city": "bedford",
    "state_code": "TX",
    "placeMasterId": "P02500000FsoGinEoEEpLOIofJoineQPsWmJKSfc",
    "placeName": "bedford",
    "state": "TX"
  },
  {
    "city": "colleyville",
    "state_code": "TX",
    "placeMasterId": "P02500000FsoGjw0d3PRct6m3kJU8wLJ7OU7sMyH",
    "placeName": "colleyville",
    "state": "TX"
  },
  {
    "city": "grapevine",
    "state_code": "TX",
    "placeMasterId": "P02500000FsoGleAMIAN38Ji9O3d9sDksSSYfURr",
    "placeName": "grapevine",
    "state": "TX"
  },
  {
    "city": "fort worth",
    "state_code": "TX",
    "placeMasterId": "P02500000FsoGlMTP5NDTl7DnmQwK3EqQnKzuFlE",
    "placeName": "fort worth",
    "state": "TX"
  },
  {
    "city": "fort worth",
    "state_code": "TX",
    "placeMasterId": "P02500000FsoGlMTP5NDTl7DnmQwK3EqQnKzuFlE",
    "placeName": "fort worth",
    "state": "TX"
  },
  {
    "city": "roanoke",
    "state_code": "TX",
    "placeMasterId": "P02500000FsoGpvYgO3gbkL3NUPzhCukppfjwE7i",
    "placeName": "roanoke",
    "state": "TX"
  },
  {
    "city": "vernon",
    "state_code": "TX",
    "placeMasterId": "P02500000FsoGrdiPcoc1zXzT8A8i8nBtj0fMmv1",
    "placeName": "vernon",
    "state": "TX"
  },
  {
    "city": "chico",
    "state_code": "TX",
    "placeMasterId": "P02500000FsoGjnA9S0rqCVWswV8j1qtnwFXvUpE",
    "placeName": "chico",
    "state": "TX"
  },
  {
    "city": "cisco",
    "state_code": "TX",
    "placeMasterId": "P02500000FsoGjw0d3PRct6m3kJU8wLC4GTl2Y7S",
    "placeName": "cisco",
    "state": "TX"
  },
  {
    "city": "ranger",
    "state_code": "TX",
    "placeMasterId": "P02500000FsoGpdrjBGX2N8Z1snIrNw6em6DbXOa",
    "placeName": "ranger",
    "state": "TX"
  },
  {
    "city": "gatesville",
    "state_code": "TX",
    "placeMasterId": "P02500000FsoGlVJsglnGRiSyaFHjxjDGUp84XUX",
    "placeName": "gatesville",
    "state": "TX"
  },
  {
    "city": "dawson",
    "state_code": "TX",
    "placeMasterId": "P02500000FsoGkMY3rbAywuVa9kWOfoR7rmL9F7W",
    "placeName": "dawson",
    "state": "TX"
  },
  {
    "city": "tehuacana",
    "state_code": "TX",
    "placeMasterId": "P02500000FsoGr4KVDEItF90luul2UptYOe9uRVa",
    "placeName": "tehuacana",
    "state": "TX"
  },
  {
    "city": "houston",
    "state_code": "TX",
    "placeMasterId": "P02500000FsoGmDYGhkgBsigqbJ0pWBK8GcFdEcU",
    "placeName": "houston",
    "state": "TX"
  },
  {
    "city": "houston",
    "state_code": "TX",
    "placeMasterId": "P02500000FsoGmDYGhkgBsigqbJ0pWBK8GcFdEcU",
    "placeName": "houston",
    "state": "TX"
  },
  {
    "city": "houston",
    "state_code": "TX",
    "placeMasterId": "P02500000FsoGmDYGhkgBsigqbJ0pWBK8GcFdEcU",
    "placeName": "houston",
    "state": "TX"
  },
  {
    "city": "houston",
    "state_code": "TX",
    "placeMasterId": "P02500000FsoGmDYGhkgBsigqbJ0pWBK8GcFdEcU",
    "placeName": "houston",
    "state": "TX"
  },
  {
    "city": "bellville",
    "state_code": "TX",
    "placeMasterId": "P02500000FsoGinEoEEpLOIofJoineQKu5RKVijG",
    "placeName": "bellville",
    "state": "TX"
  },
  {
    "city": "katy",
    "state_code": "TX",
    "placeMasterId": "P02500000FsoGmVFDuXplFvBCCvhfLA35ihKd2wQ",
    "placeName": "katy",
    "state": "TX"
  },
  {
    "city": "pasadena",
    "state_code": "TX",
    "placeMasterId": "P02500000FsoGp4TolgDtcjaKfXvBjyUjswu6ier",
    "placeName": "pasadena",
    "state": "TX"
  },
  {
    "city": "clute",
    "state_code": "TX",
    "placeMasterId": "P02500000FsoGjw0d3PRct6m3kJU8wLEkDaDMI26",
    "placeName": "clute",
    "state": "TX"
  },
  {
    "city": "liberty",
    "state_code": "TX",
    "placeMasterId": "P02500000FsoGnMK5WvITNWeF1nmAo6J1X4Ao1kR",
    "placeName": "liberty",
    "state": "TX"
  },
  {
    "city": "south houston",
    "state_code": "TX",
    "placeMasterId": "P02500000FsoGqmdY0R9JrwWQJI4Cfr4FpNWlmpc",
    "placeName": "south houston",
    "state": "TX"
  },
  {
    "city": "groves",
    "state_code": "TX",
    "placeMasterId": "P02500000FsoGleAMIAN38Ji9O3d9sDp689Lwxo8",
    "placeName": "groves",
    "state": "TX"
  },
  {
    "city": "nederland",
    "state_code": "TX",
    "placeMasterId": "P02500000FsoGoMFQkhKyBjMSeUC6BWsqPiUzxhV",
    "placeName": "nederland",
    "state": "TX"
  },
  {
    "city": "beaumont",
    "state_code": "TX",
    "placeMasterId": "P02500000FsoGinEoEEpLOIofJoineQDrbqYiyGU",
    "placeName": "beaumont",
    "state": "TX"
  },
  {
    "city": "bryan",
    "state_code": "TX",
    "placeMasterId": "P02500000FsoGjDmF2QYhS6YBjFl3NtQgH5uAyKI",
    "placeName": "bryan",
    "state": "TX"
  },
  {
    "city": "hearne",
    "state_code": "TX",
    "placeMasterId": "P02500000FsoGlvrJUxWcVWCUzgJzhCPj7qeG4t6",
    "placeName": "hearne",
    "state": "TX"
  },
  {
    "city": "moulton",
    "state_code": "TX",
    "placeMasterId": "P02500000FsoGoMFQkhKyBjMSeUC6BWeZT95UWFR",
    "placeName": "moulton",
    "state": "TX"
  },
  {
    "city": "bandera",
    "state_code": "TX",
    "placeMasterId": "P02500000FsoGieOKcqFYhhZUW0NNjvtSoEQjRcB",
    "placeName": "bandera",
    "state": "TX"
  },
  {
    "city": "lytle",
    "state_code": "TX",
    "placeMasterId": "P02500000FsoGnmrWL71pRKNlREoQXZHOs2Hk6V3",
    "placeName": "lytle",
    "state": "TX"
  },
  {
    "city": "nordheim",
    "state_code": "TX",
    "placeMasterId": "P02500000FsoGodwNxUUXYvqoG6sw0VPBxWJPhBn",
    "placeName": "nordheim",
    "state": "TX"
  },
  {
    "city": "normanna",
    "state_code": "TX",
    "placeMasterId": "P02500000FsoGodwNxUUXYvqoG6sw0Vdqg7XMo49",
    "placeName": "normanna",
    "state": "TX"
  },
  {
    "city": "san antonio",
    "state_code": "TX",
    "placeMasterId": "P02500000FsoGqM67CFPxo8mttr1wwNqfYQdpCPu",
    "placeName": "san antonio",
    "state": "TX"
  },
  {
    "city": "bruni",
    "state_code": "TX",
    "placeMasterId": "P02500000FsoGjMcidp8U8hnMX46TINhaVyo1zYR",
    "placeName": "bruni",
    "state": "TX"
  },
  {
    "city": "oilton",
    "state_code": "TX",
    "placeMasterId": "P02500000FsoGommrYt4KFX5z3vELuzpTWh7nh2X",
    "placeName": "oilton",
    "state": "TX"
  },
  {
    "city": "mission",
    "state_code": "TX",
    "placeMasterId": "P02500000FsoGoDOx9IlBV87HqfqgH2OshU3ZxXh",
    "placeName": "mission",
    "state": "TX"
  },
  {
    "city": "round rock",
    "state_code": "TX",
    "placeMasterId": "P02500000FsoGq4P9zSGOQwIYIEL77P7exMHoawb",
    "placeName": "round rock",
    "state": "TX"
  },
  {
    "city": "austin",
    "state_code": "TX",
    "placeMasterId": "P02500000FsoGieOKcqFYhhZUW0NNjvrbzzBh3wR",
    "placeName": "austin",
    "state": "TX"
  },
  {
    "city": "batesville",
    "state_code": "TX",
    "placeMasterId": "P02500000FsoGinEoEEpLOIofJoineQHNzNlC41i",
    "placeName": "batesville",
    "state": "TX"
  },
  {
    "city": "edmonson",
    "state_code": "TX",
    "placeMasterId": "P02500000FsoGkn5UfmuL0iF6ZBYePHVhcCImakc",
    "placeName": "edmonson",
    "state": "TX"
  },
  {
    "city": "olton",
    "state_code": "TX",
    "placeMasterId": "P02500000FsoGovdLAHe6w8L9rjZlpUBHXfh4g2w",
    "placeName": "olton",
    "state": "TX"
  },
  {
    "city": "lubbock",
    "state_code": "TX",
    "placeMasterId": "P02500000FsoGne12jiS2kj8adQT0d50AbRrldL6",
    "placeName": "lubbock",
    "state": "TX"
  },
  {
    "city": "lubbock",
    "state_code": "TX",
    "placeMasterId": "P02500000FsoGne12jiS2kj8adQT0d50AbRrldL6",
    "placeName": "lubbock",
    "state": "TX"
  },
  {
    "city": "lubbock",
    "state_code": "TX",
    "placeMasterId": "P02500000FsoGne12jiS2kj8adQT0d50AbRrldL6",
    "placeName": "lubbock",
    "state": "TX"
  },
  {
    "city": "winters",
    "state_code": "TX",
    "placeMasterId": "P02500000FsoGsD6K2OvAjwyALPWNmkhpD2lrVjY",
    "placeName": "winters",
    "state": "TX"
  },
  {
    "city": "fort hancock",
    "state_code": "TX",
    "placeMasterId": "P02500000FsoGlDcvTydh4Vycycau8kak8hTcfck",
    "placeName": "fort hancock",
    "state": "TX"
  },
  {
    "city": "sanderson",
    "state_code": "TX",
    "placeMasterId": "P02500000FsoGqDFdaqqB7XXj62gX1tZIKH7k6sR",
    "placeName": "sanderson",
    "state": "TX"
  },
  {
    "city": "wheat ridge",
    "state_code": "CO",
    "placeMasterId": "P02500000FsoEow6Q0o4hq6ejh5Nb3nQ8vVqHW2S",
    "placeName": "wheat ridge",
    "state": "CO"
  },
  {
    "city": "englewood",
    "state_code": "CO",
    "placeMasterId": "P02500000FsoEnDwgm39Hatie3LEa7uzwOVvOryu",
    "placeName": "englewood",
    "state": "CO"
  },
  {
    "city": "parker",
    "state_code": "CO",
    "placeMasterId": "P02500000FsoEoDs1zpBmP6Qrg1eVVLYmN8MvcMn",
    "placeName": "parker",
    "state": "CO"
  }
]