[
  {
    "city": "chambersburg",
    "state_code": "IL",
    "placeMasterId": "P02500000FsoHISqB1L7fAU0EAp5HQt5wKfRqR57",
    "placeName": "chambersburg",
    "state": "IL"
  },
  {
    "city": "hutsonville",
    "state_code": "IL",
    "placeMasterId": "P02500000FsoF4UMSl0zIjaKjGb29NBuJK68zelo",
    "placeName": "hutsonville",
    "state": "IL"
  },
  {
    "city": "buffalo",
    "state_code": "IL",
    "placeMasterId": "P02500000FsoF23yLVHAx3NAlbnA2srZ2tdHHGSc",
    "placeName": "buffalo",
    "state": "IL"
  },
  {
    "city": "forsyth",
    "state_code": "IL",
    "placeMasterId": "P02500000FsoF3UR7XEwnvNcVducDzlJaLKsgQi4",
    "placeName": "forsyth",
    "state": "IL"
  },
  {
    "city": "girard",
    "state_code": "IL",
    "placeMasterId": "P02500000FsoF3m84k26NIa6rFXJ3ok5UVWmQhvd",
    "placeName": "girard",
    "state": "IL"
  },
  {
    "city": "woodson",
    "state_code": "IL",
    "placeMasterId": "P02500000FsoF8ubGSIse2Cv8Alk6cNRH8cfCTBy",
    "placeName": "woodson",
    "state": "IL"
  },
  {
    "city": "springfield",
    "state_code": "IL",
    "placeMasterId": "P02500000FsoF7ufvEWq9E0CuY5KBEwn2MTYuixB",
    "placeName": "springfield",
    "state": "IL"
  },
  {
    "city": "opdyke",
    "state_code": "IL",
    "placeMasterId": "P02500000FsoF6UD9CZ4ILzlAVxs08394yxxcozX",
    "placeName": "opdyke",
    "state": "IL"
  },
  {
    "city": "anna",
    "state_code": "IL",
    "placeMasterId": "P02500000FsoF1LjxUII1cMwtajQxKPkERi7IxV2",
    "placeName": "anna",
    "state": "IL"
  },
  {
    "city": "junction",
    "state_code": "IL",
    "placeMasterId": "P02500000FsoF4m3Pxo8s6mp4sDizCAdb7MkLPon",
    "placeName": "junction",
    "state": "IL"
  },
  {
    "city": "new burnside",
    "state_code": "IL",
    "placeMasterId": "P02500000FsoF6CWBzluiynGouLBAJ4MWqX8qrg0",
    "placeName": "new burnside",
    "state": "IL"
  },
  {
    "city": "eureka",
    "state_code": "MO",
    "placeMasterId": "P02500000FsoFkIMMUA6O3b2mfWFbKiq8lnAhNYg",
    "placeName": "eureka",
    "state": "MO"
  },
  {
    "city": "festus",
    "state_code": "MO",
    "placeMasterId": "P02500000FsoFka3JgxFxQnX8H8wR9hQTgRXRBKK",
    "placeName": "festus",
    "state": "MO"
  },
  {
    "city": "imperial",
    "state_code": "MO",
    "placeMasterId": "P02500000FsoFlIHhhw8srnl0ICfWi9QDGXmXZEw",
    "placeName": "imperial",
    "state": "MO"
  },
  {
    "city": "high hill",
    "state_code": "MO",
    "placeMasterId": "P02500000FsoFl9RE6XZ6BCVpUOK6neuZLgWLhxL",
    "placeName": "high hill",
    "state": "MO"
  },
  {
    "city": "la grange",
    "state_code": "MO",
    "placeMasterId": "P02500000FsoFlZyeujISF0FLtpMMX89ggW4y8Cy",
    "placeName": "la grange",
    "state": "MO"
  },
  {
    "city": "shelbina",
    "state_code": "MO",
    "placeMasterId": "P02500000FsoFnifoxfxEY0uxx0XdCTfxcz19PMu",
    "placeName": "shelbina",
    "state": "MO"
  },
  {
    "city": "queen city",
    "state_code": "MO",
    "placeMasterId": "P02500000FsoFnI8O9UDsUDBRXZVNT0Vx1KoBIVT",
    "placeName": "queen city",
    "state": "MO"
  },
  {
    "city": "ironton",
    "state_code": "MO",
    "placeMasterId": "P02500000FsoFlR8BJKifYP0B610wcdgeFcPFJRP",
    "placeName": "ironton",
    "state": "MO"
  },
  {
    "city": "vanduser",
    "state_code": "MO",
    "placeMasterId": "P02500000FsoFo9DFlrgaboeUMRZsvwlYnCZMgZ0",
    "placeName": "vanduser",
    "state": "MO"
  },
  {
    "city": "lilbourn",
    "state_code": "MO",
    "placeMasterId": "P02500000FsoFm0W5iv1oInysJGOcGb9pFyu5OAn",
    "placeName": "lilbourn",
    "state": "MO"
  },
  {
    "city": "doniphan",
    "state_code": "MO",
    "placeMasterId": "P02500000FsoFk9VsslWbMznbrhuBQEKlfuxOZ4I",
    "placeName": "doniphan",
    "state": "MO"
  },
  {
    "city": "camden",
    "state_code": "MO",
    "placeMasterId": "P02500000FsoFjRHUrmdfvzZjqeB5rmYhuNeI1V7",
    "placeName": "camden",
    "state": "MO"
  },
  {
    "city": "albany",
    "state_code": "MO",
    "placeMasterId": "P02500000FsoFiaCdFPAxoO6h1m6aOqLHBq1cMC4",
    "placeName": "albany",
    "state": "MO"
  },
  {
    "city": "amity",
    "state_code": "MO",
    "placeMasterId": "P02500000FsoFiaCdFPAxoO6h1m6aOqOKRYH5NFu",
    "placeName": "amity",
    "state": "MO"
  },
  {
    "city": "stewartsville",
    "state_code": "MO",
    "placeMasterId": "P02500000FsoFnrWIZ4X1EcA8kot36y6kpz5OxDT",
    "placeName": "stewartsville",
    "state": "MO"
  },
  {
    "city": "trimble",
    "state_code": "MO",
    "placeMasterId": "P02500000FsoFo0MmAT6nvDPJYdET1SSGg7o6q2b",
    "placeName": "trimble",
    "state": "MO"
  },
  {
    "city": "chillicothe",
    "state_code": "MO",
    "placeMasterId": "P02500000FsoFjiyS4ZnFJC45SGrvglH3T3geSGf",
    "placeName": "chillicothe",
    "state": "MO"
  },
  {
    "city": "laclede",
    "state_code": "MO",
    "placeMasterId": "P02500000FsoFlZyeujISF0FLtpMMX87ToI3ZDnk",
    "placeName": "laclede",
    "state": "MO"
  },
  {
    "city": "wheeling",
    "state_code": "MO",
    "placeMasterId": "P02500000FsoFoQuCyeq9z18py4Gikvci799QXOG",
    "placeName": "wheeling",
    "state": "MO"
  },
  {
    "city": "leeton",
    "state_code": "MO",
    "placeMasterId": "P02500000FsoFlrfc7WS1cCjhVS3CM6uXLNOBi0v",
    "placeName": "leeton",
    "state": "MO"
  },
  {
    "city": "russellville",
    "state_code": "MO",
    "placeMasterId": "P02500000FsoFnQyrksnfAoQcLNqnNV4bPX88a0I",
    "placeName": "russellville",
    "state": "MO"
  },
  {
    "city": "columbia",
    "state_code": "MO",
    "placeMasterId": "P02500000FsoFjrovfyN1znJGG5DLbFdjkPEVpI9",
    "placeName": "columbia",
    "state": "MO"
  },
  {
    "city": "sedalia",
    "state_code": "MO",
    "placeMasterId": "P02500000FsoFnifoxfxEY0uxx0XdCTecjuxBprG",
    "placeName": "sedalia",
    "state": "MO"
  },
  {
    "city": "miami",
    "state_code": "MO",
    "placeMasterId": "P02500000FsoFmID2viBNg0TDut5S5ZvRreo1lc1",
    "placeName": "miami",
    "state": "MO"
  },
  {
    "city": "slater",
    "state_code": "MO",
    "placeMasterId": "P02500000FsoFnifoxfxEY0uxx0XdCTnps5qJeyL",
    "placeName": "slater",
    "state": "MO"
  },
  {
    "city": "blue eye",
    "state_code": "MO",
    "placeMasterId": "P02500000FsoFj9aXezU6Yn5OF1UG2npSJHnGKNS",
    "placeName": "blue eye",
    "state": "MO"
  },
  {
    "city": "fair grove",
    "state_code": "MO",
    "placeMasterId": "P02500000FsoFkRCq5YgAkCHxTKb1FDBH9tuCypD",
    "placeName": "fair grove",
    "state": "MO"
  },
  {
    "city": "golden",
    "state_code": "MO",
    "placeMasterId": "P02500000FsoFkrkGtkPWo01TsldGygAkAhzoCuc",
    "placeName": "golden",
    "state": "MO"
  },
  {
    "city": "de soto",
    "state_code": "KS",
    "placeMasterId": "P02500000FsoFJtm1tpK6wSlY2ILHm604Itxdoyh",
    "placeName": "de soto",
    "state": "KS"
  },
  {
    "city": "spring hill",
    "state_code": "KS",
    "placeMasterId": "P02500000FsoFMT0ckxiFJHAgUuYoAujDfd4Qypw",
    "placeName": "spring hill",
    "state": "KS"
  },
  {
    "city": "maple hill",
    "state_code": "KS",
    "placeMasterId": "P02500000FsoFLKEnvn5xoTDI4PnSszhlqhpz0oc",
    "placeName": "maple hill",
    "state": "KS"
  },
  {
    "city": "meriden",
    "state_code": "KS",
    "placeMasterId": "P02500000FsoFLKEnvn5xoTDI4PnSszlhHN8nn57",
    "placeName": "meriden",
    "state": "KS"
  },
  {
    "city": "topeka",
    "state_code": "KS",
    "placeMasterId": "P02500000FsoFMbr6MMI1zsPrIiuE5P2hY2Q28N9",
    "placeName": "topeka",
    "state": "KS"
  },
  {
    "city": "cuba",
    "state_code": "KS",
    "placeMasterId": "P02500000FsoFJtm1tpK6wSlY2ILHm605wNDaz8v",
    "placeName": "cuba",
    "state": "KS"
  },
  {
    "city": "el dorado",
    "state_code": "KS",
    "placeMasterId": "P02500000FsoFK2cVVDttd40iq6ghgaM6itvrw90",
    "placeName": "el dorado",
    "state": "KS"
  },
  {
    "city": "mayfield",
    "state_code": "KS",
    "placeMasterId": "P02500000FsoFLT5HXBfkV4SSsE8snU5VRY4L2gf",
    "placeName": "mayfield",
    "state": "KS"
  },
  {
    "city": "severy",
    "state_code": "KS",
    "placeMasterId": "P02500000FsoFMKA99Z8ScfvVh6DOGQLRlhnHeBz",
    "placeName": "severy",
    "state": "KS"
  },
  {
    "city": "walton",
    "state_code": "KS",
    "placeMasterId": "P02500000FsoFMkhZxkrogTf26XFdztPT5gdEixe",
    "placeName": "walton",
    "state": "KS"
  },
  {
    "city": "wichita",
    "state_code": "KS",
    "placeMasterId": "P02500000FsoFMtY3Z9RbN4uCuLb3uNnBOyNlFLT",
    "placeName": "wichita",
    "state": "KS"
  },
  {
    "city": "mound valley",
    "state_code": "KS",
    "placeMasterId": "P02500000FsoFLbvl8aFXBfhdg2UIhySkefcjkLw",
    "placeName": "mound valley",
    "state": "KS"
  },
  {
    "city": "salina",
    "state_code": "KS",
    "placeMasterId": "P02500000FsoFMKA99Z8ScfvVh6DOGQKOdReJ65u",
    "placeName": "salina",
    "state": "KS"
  },
  {
    "city": "chapman",
    "state_code": "KS",
    "placeMasterId": "P02500000FsoFJc54h2AXZGHCQfeRx7HuObwRghR",
    "placeName": "chapman",
    "state": "KS"
  },
  {
    "city": "glen elder",
    "state_code": "KS",
    "placeMasterId": "P02500000FsoFKKJSi13T0GV4RjNXVZ7mgiXmBsi",
    "placeName": "glen elder",
    "state": "KS"
  },
  {
    "city": "little river",
    "state_code": "KS",
    "placeMasterId": "P02500000FsoFLBOKKOWB7ry7GbS2yVKxHZl7gKJ",
    "placeName": "little river",
    "state": "KS"
  },
  {
    "city": "wilson",
    "state_code": "KS",
    "placeMasterId": "P02500000FsoFMtY3Z9RbN4uCuLb3uNoAsbAQLWg",
    "placeName": "wilson",
    "state": "KS"
  },
  {
    "city": "hutchinson",
    "state_code": "KS",
    "placeMasterId": "P02500000FsoFKkqtWCmp44EarAPnF2Gb1tddFxR",
    "placeName": "hutchinson",
    "state": "KS"
  },
  {
    "city": "alden",
    "state_code": "KS",
    "placeMasterId": "P02500000FsoFJ2hAHRrOorIVDQGmJ9ntqZHoAD7",
    "placeName": "alden",
    "state": "KS"
  },
  {
    "city": "larned",
    "state_code": "KS",
    "placeMasterId": "P02500000FsoFL2XqizwORGiwSn6d40xhVi9ak1e",
    "placeName": "larned",
    "state": "KS"
  },
  {
    "city": "ransom",
    "state_code": "KS",
    "placeMasterId": "P02500000FsoFMBJfYAYfw4gKtHryLvvOmmt7AGr",
    "placeName": "ransom",
    "state": "KS"
  },
  {
    "city": "logan",
    "state_code": "KS",
    "placeMasterId": "P02500000FsoFL2XqizwORGiwSn6d41171haNDEb",
    "placeName": "logan",
    "state": "KS"
  },
  {
    "city": "lucas",
    "state_code": "KS",
    "placeMasterId": "P02500000FsoFLKEnvn5xoTDI4PnSszhSArBo3Du",
    "placeName": "lucas",
    "state": "KS"
  },
  {
    "city": "norcatur",
    "state_code": "KS",
    "placeMasterId": "P02500000FsoFLbvl8aFXBfhdg2UIhyVHCgMJ29g",
    "placeName": "norcatur",
    "state": "KS"
  },
  {
    "city": "russell",
    "state_code": "KS",
    "placeMasterId": "P02500000FsoFMKA99Z8ScfvVh6DOGQLTgN1yAGS",
    "placeName": "russell",
    "state": "KS"
  },
  {
    "city": "spearville",
    "state_code": "KS",
    "placeMasterId": "P02500000FsoFMT0ckxiFJHAgUuYoAuhJ4YPdfJ7",
    "placeName": "spearville",
    "state": "KS"
  },
  {
    "city": "omaha",
    "state_code": "NE",
    "placeMasterId": "P02500000FsoFszzUHLJHyEyPg3K5ubV6FuzuT2T",
    "placeName": "omaha",
    "state": "NE"
  },
  {
    "city": "alvo",
    "state_code": "NE",
    "placeMasterId": "P02500000FsoFqrIKEOeVfEIncs8pFFvQYsrbyi4",
    "placeName": "alvo",
    "state": "NE"
  },
  {
    "city": "bennet",
    "state_code": "NE",
    "placeMasterId": "P02500000FsoFr8zHRBo52Qn9EUpf4EZdGadsOm9",
    "placeName": "bennet",
    "state": "NE"
  },
  {
    "city": "brock",
    "state_code": "NE",
    "placeMasterId": "P02500000FsoFrHpl2aNrj22K2JB4yiu92RtboUo",
    "placeName": "brock",
    "state": "NE"
  },
  {
    "city": "exeter",
    "state_code": "NE",
    "placeMasterId": "P02500000FsoFrrDfSAh0TR11FYYkcgWIMZ0yBmV",
    "placeName": "exeter",
    "state": "NE"
  },
  {
    "city": "belgrade",
    "state_code": "NE",
    "placeMasterId": "P02500000FsoFr8zHRBo52Qn9EUpf4Eaa425NiLz",
    "placeName": "belgrade",
    "state": "NE"
  },
  {
    "city": "primrose",
    "state_code": "NE",
    "placeMasterId": "P02500000FsoFtHgRU8SrLRSlHg0vja6GIqlZK2C",
    "placeName": "primrose",
    "state": "NE"
  },
  {
    "city": "bassett",
    "state_code": "NE",
    "placeMasterId": "P02500000FsoFr08npnEILpXyQgUF9k8dC0iy07d",
    "placeName": "bassett",
    "state": "NE"
  },
  {
    "city": "inman",
    "state_code": "NE",
    "placeMasterId": "P02500000FsoFsQbZrl09DpziSnwQGdsIgreSV9D",
    "placeName": "inman",
    "state": "NE"
  },
  {
    "city": "tilden",
    "state_code": "NE",
    "placeMasterId": "P02500000FsoFtr4Ltim05qRSUvObNXZyAkomNm9",
    "placeName": "tilden",
    "state": "NE"
  },
  {
    "city": "amherst",
    "state_code": "NE",
    "placeMasterId": "P02500000FsoFqrIKEOeVfEIncs8pFFuNmzBlLhh",
    "placeName": "amherst",
    "state": "NE"
  },
  {
    "city": "brewster",
    "state_code": "NE",
    "placeMasterId": "P02500000FsoFrHpl2aNrj22K2JB4yitLmmYI295",
    "placeName": "brewster",
    "state": "NE"
  },
  {
    "city": "chapman",
    "state_code": "NE",
    "placeMasterId": "P02500000FsoFrQgEdyxePdHUq7WUtDJKGDRNYeA",
    "placeName": "chapman",
    "state": "NE"
  },
  {
    "city": "doniphan",
    "state_code": "NE",
    "placeMasterId": "P02500000FsoFriNBqm7DmplqRkDKiC4jkoCpAk4",
    "placeName": "doniphan",
    "state": "NE"
  },
  {
    "city": "marquette",
    "state_code": "NE",
    "placeMasterId": "P02500000FsoFsiIX4Y9ib2U44QdG5ceYNUiW51D",
    "placeName": "marquette",
    "state": "NE"
  },
  {
    "city": "westerville",
    "state_code": "NE",
    "placeMasterId": "P02500000FsoFtzupV7LmmRgdIjk1I28Xl6cxbxV",
    "placeName": "westerville",
    "state": "NE"
  },
  {
    "city": "bladen",
    "state_code": "NE",
    "placeMasterId": "P02500000FsoFr8zHRBo52Qn9EUpf4Ed4YtnZ4wS",
    "placeName": "bladen",
    "state": "NE"
  },
  {
    "city": "hildreth",
    "state_code": "NE",
    "placeMasterId": "P02500000FsoFs8ucexqZqdVMrBFaRfK3faRe8ja",
    "placeName": "hildreth",
    "state": "NE"
  },
  {
    "city": "naponee",
    "state_code": "NE",
    "placeMasterId": "P02500000FsoFsr90fwjVHdjEsEyg076yqJFqO9y",
    "placeName": "naponee",
    "state": "NE"
  },
  {
    "city": "stockville",
    "state_code": "NE",
    "placeMasterId": "P02500000FsoFtiDsIKCDPFCHh73BT3HxfCIOPTa",
    "placeName": "stockville",
    "state": "NE"
  },
  {
    "city": "cozad",
    "state_code": "NE",
    "placeMasterId": "P02500000FsoFrQgEdyxePdHUq7WUtDWFtbRTHHB",
    "placeName": "cozad",
    "state": "NE"
  },
  {
    "city": "elsie",
    "state_code": "NE",
    "placeMasterId": "P02500000FsoFriNBqm7DmplqRkDKiCAlSIV5Ok1",
    "placeName": "elsie",
    "state": "NE"
  },
  {
    "city": "gothenburg",
    "state_code": "NE",
    "placeMasterId": "P02500000FsoFs0493ZGnA2GC3MuAXApCVmgssH2",
    "placeName": "gothenburg",
    "state": "NE"
  },
  {
    "city": "seneca",
    "state_code": "NE",
    "placeMasterId": "P02500000FsoFtQWv5X2e22hw5UMLe4brk5x8Fc8",
    "placeName": "seneca",
    "state": "NE"
  },
  {
    "city": "hyannis",
    "state_code": "NE",
    "placeMasterId": "P02500000FsoFsQbZrl09DpziSnwQGdwVNEVR5Tx",
    "placeName": "hyannis",
    "state": "NE"
  },
  {
    "city": "des allemands",
    "state_code": "LA",
    "placeMasterId": "P02500000FsoFQkOwqr1nvIVubGvLVc2xua9yY9A",
    "placeName": "des allemands",
    "state": "LA"
  },
  {
    "city": "gretna",
    "state_code": "LA",
    "placeMasterId": "P02500000FsoFRAwNf2l9z6FR0hxbF5Ay9v0lXBT",
    "placeName": "gretna",
    "state": "LA"
  },
  {
    "city": "lafitte",
    "state_code": "LA",
    "placeMasterId": "P02500000FsoFRbToTEUW2tyxQ8zqyYGVF6sQoyv",
    "placeName": "lafitte",
    "state": "LA"
  },
  {
    "city": "venice",
    "state_code": "LA",
    "placeMasterId": "P02500000FsoFSt66tngaEJBWeS6cAxRzFY1aqXf",
    "placeName": "venice",
    "state": "LA"
  },
  {
    "city": "new orleans",
    "state_code": "LA",
    "placeMasterId": "P02500000FsoFS21FHQDs6hiTpa26i1JVz94sOtB",
    "placeName": "new orleans",
    "state": "LA"
  },
  {
    "city": "lafayette",
    "state_code": "LA",
    "placeMasterId": "P02500000FsoFRbToTEUW2tyxQ8zqyYEuk4f11St",
    "placeName": "lafayette",
    "state": "LA"
  },
  {
    "city": "baldwin",
    "state_code": "LA",
    "placeMasterId": "P02500000FsoFQJrW2fIRrUmOBpt5m8p62mvkwGg",
    "placeName": "baldwin",
    "state": "LA"
  },
  {
    "city": "estherwood",
    "state_code": "LA",
    "placeMasterId": "P02500000FsoFQtFQSFbabtl5P5GlQ6P1FAmIyFD",
    "placeName": "estherwood",
    "state": "LA"
  },
  {
    "city": "denham springs",
    "state_code": "LA",
    "placeMasterId": "P02500000FsoFQkOwqr1nvIVubGvLVc8IuP16JT3",
    "placeName": "denham springs",
    "state": "LA"
  },
  {
    "city": "bienville",
    "state_code": "LA",
    "placeMasterId": "P02500000FsoFQJrW2fIRrUmOBpt5m8v0q7J6GYu",
    "placeName": "bienville",
    "state": "LA"
  },
  {
    "city": "gibsland",
    "state_code": "LA",
    "placeMasterId": "P02500000FsoFRAwNf2l9z6FR0hxbF4zdG9LH4p1",
    "placeName": "gibsland",
    "state": "LA"
  },
  {
    "city": "grand cane",
    "state_code": "LA",
    "placeMasterId": "P02500000FsoFRAwNf2l9z6FR0hxbF579WcoZmsX",
    "placeName": "grand cane",
    "state": "LA"
  },
  {
    "city": "oil city",
    "state_code": "LA",
    "placeMasterId": "P02500000FsoFSArisonenIxedONWcVd5vCiP6lu",
    "placeName": "oil city",
    "state": "LA"
  },
  {
    "city": "lake providence",
    "state_code": "LA",
    "placeMasterId": "P02500000FsoFRbToTEUW2tyxQ8zqyYCynLED4S9",
    "placeName": "lake providence",
    "state": "LA"
  },
  {
    "city": "west monroe",
    "state_code": "LA",
    "placeMasterId": "P02500000FsoFSt66tngaEJBWeS6cAxUtEj5Y0kI",
    "placeName": "west monroe",
    "state": "LA"
  },
  {
    "city": "waterproof",
    "state_code": "LA",
    "placeMasterId": "P02500000FsoFSt66tngaEJBWeS6cAxSFPifcQyC",
    "placeName": "waterproof",
    "state": "LA"
  },
  {
    "city": "glenmora",
    "state_code": "LA",
    "placeMasterId": "P02500000FsoFRJmrGRKwfhUboWJ19ZJhbqCp74Y",
    "placeName": "glenmora",
    "state": "LA"
  },
  {
    "city": "fulton",
    "state_code": "AR",
    "placeMasterId": "P02500000FsoEbWXXJXotFdeMAkuJPkUpOksnZUu",
    "placeName": "fulton",
    "state": "AR"
  },
  {
    "city": "bauxite",
    "state_code": "AR",
    "placeMasterId": "P02500000FsoEafSfhAMB82BJLspnwoGEI8pJ9WC",
    "placeName": "bauxite",
    "state": "AR"
  },
  {
    "city": "judsonia",
    "state_code": "AR",
    "placeMasterId": "P02500000FsoEbx4y7jYFJRNsaBwZ9Denn6tHWxC",
    "placeName": "judsonia",
    "state": "AR"
  },
  {
    "city": "sherrill",
    "state_code": "AR",
    "placeMasterId": "P02500000FsoEd5qmwuAWoFLH0ghuR8YqgKTi7lO",
    "placeName": "sherrill",
    "state": "AR"
  },
  {
    "city": "ward",
    "state_code": "AR",
    "placeMasterId": "P02500000FsoEdNXk9hK6BRpccJOkG7NFk9uywCY",
    "placeName": "ward",
    "state": "AR"
  },
  {
    "city": "little rock",
    "state_code": "AR",
    "placeMasterId": "P02500000FsoEcElvKWhogdsEBodOyCMRN7NDM4y",
    "placeName": "little rock",
    "state": "AR"
  },
  {
    "city": "parkin",
    "state_code": "AR",
    "placeMasterId": "P02500000FsoEcfJM8iRAkRbkbFfehfUNMYC3AyY",
    "placeName": "parkin",
    "state": "AR"
  },
  {
    "city": "cave city",
    "state_code": "AR",
    "placeMasterId": "P02500000FsoEb606VM5XBpuplJs3gHMufeJ1aMm",
    "placeName": "cave city",
    "state": "AR"
  },
  {
    "city": "mammoth spring",
    "state_code": "AR",
    "placeMasterId": "P02500000FsoEcNcOvvHbNF7OzcyosgjaMEJ7X0I",
    "placeName": "mammoth spring",
    "state": "AR"
  },
  {
    "city": "pleasant plains",
    "state_code": "AR",
    "placeMasterId": "P02500000FsoEco9pk70xR2qvP414c9pxHCN7sRP",
    "placeName": "pleasant plains",
    "state": "AR"
  },
  {
    "city": "tumbling shoals",
    "state_code": "AR",
    "placeMasterId": "P02500000FsoEdEhGYIkJUqaRoV3KLczmox9GyXl",
    "placeName": "tumbling shoals",
    "state": "AR"
  },
  {
    "city": "viola",
    "state_code": "AR",
    "placeMasterId": "P02500000FsoEdNXk9hK6BRpccJOkG7LbYkJILcW",
    "placeName": "viola",
    "state": "AR"
  },
  {
    "city": "midway",
    "state_code": "AR",
    "placeMasterId": "P02500000FsoEcNcOvvHbNF7Ozcyosgmex4Kvdyn",
    "placeName": "midway",
    "state": "AR"
  },
  {
    "city": "mountain home",
    "state_code": "AR",
    "placeMasterId": "P02500000FsoEcNcOvvHbNF7OzcyosglTTSEzUcA",
    "placeName": "mountain home",
    "state": "AR"
  },
  {
    "city": "atkins",
    "state_code": "AR",
    "placeMasterId": "P02500000FsoEafSfhAMB82BJLspnwoGYzAlQtQs",
    "placeName": "atkins",
    "state": "AR"
  },
  {
    "city": "plainview",
    "state_code": "AR",
    "placeMasterId": "P02500000FsoEco9pk70xR2qvP414c9seR7k338Q",
    "placeName": "plainview",
    "state": "AR"
  },
  {
    "city": "subiaco",
    "state_code": "AR",
    "placeMasterId": "P02500000FsoEdEhGYIkJUqaRoV3KLcwp5M55wBD",
    "placeName": "subiaco",
    "state": "AR"
  },
  {
    "city": "fort smith",
    "state_code": "AR",
    "placeMasterId": "P02500000FsoEbNh3i9F6Z2PBMwYtVG9FSSbjGea",
    "placeName": "fort smith",
    "state": "AR"
  },
  {
    "city": "fort smith",
    "state_code": "AR",
    "placeMasterId": "P02500000FsoEbNh3i9F6Z2PBMwYtVG9FSSbjGea",
    "placeName": "fort smith",
    "state": "AR"
  },
  {
    "city": "van buren",
    "state_code": "AR",
    "placeMasterId": "P02500000FsoEdNXk9hK6BRpccJOkG7KjyeUFXXO",
    "placeName": "van buren",
    "state": "AR"
  },
  {
    "city": "oklahoma city",
    "state_code": "OK",
    "placeMasterId": "P02500000FsoGMg2njnMctBsemxB1QUgVkw3g3BI",
    "placeName": "oklahoma city",
    "state": "OK"
  },
  {
    "city": "oklahoma city",
    "state_code": "OK",
    "placeMasterId": "P02500000FsoGMg2njnMctBsemxB1QUgVkw3g3BI",
    "placeName": "oklahoma city",
    "state": "OK"
  },
  {
    "city": "ratliff city",
    "state_code": "OK",
    "placeMasterId": "P02500000FsoGMxjkwaWCGON0OZrrFTUVcHhsn7v",
    "placeName": "ratliff city",
    "state": "OK"
  },
  {
    "city": "grandfield",
    "state_code": "OK",
    "placeMasterId": "P02500000FsoGLOQVJEAYhmg5Ye4GE5Gr8XuIEmF",
    "placeName": "grandfield",
    "state": "OK"
  },
  {
    "city": "hobart",
    "state_code": "OK",
    "placeMasterId": "P02500000FsoGLXGyuckLONvGMSPg8ZlvsQDHXjh",
    "placeName": "hobart",
    "state": "OK"
  },
  {
    "city": "dover",
    "state_code": "OK",
    "placeMasterId": "P02500000FsoGKxt4V2RCdywZ9D20UcGwa5MyfzI",
    "placeName": "dover",
    "state": "OK"
  },
  {
    "city": "loyal",
    "state_code": "OK",
    "placeMasterId": "P02500000FsoGM6etKD3U8mtxZhnLmXAIne0zBUj",
    "placeName": "loyal",
    "state": "OK"
  },
  {
    "city": "sharon",
    "state_code": "OK",
    "placeMasterId": "P02500000FsoGNOHBkmFYKC6Wo0u6ywVqzF2C36f",
    "placeName": "sharon",
    "state": "OK"
  },
  {
    "city": "oakhurst",
    "state_code": "OK",
    "placeMasterId": "P02500000FsoGMXCK8OmqCadTz8pbW0Nc75WDuLV",
    "placeName": "oakhurst",
    "state": "OK"
  },
  {
    "city": "talala",
    "state_code": "OK",
    "placeMasterId": "P02500000FsoGNfy8xZP7hOasPdawnvFwWSl690Y",
    "placeName": "talala",
    "state": "OK"
  },
  {
    "city": "wynona",
    "state_code": "OK",
    "placeMasterId": "P02500000FsoGO6VZll8TlCKOp4dCXOVwP2NK9Pd",
    "placeName": "wynona",
    "state": "OK"
  },
  {
    "city": "commerce",
    "state_code": "OK",
    "placeMasterId": "P02500000FsoGKgC7IFHdGmSDXaLAfdUb1pefEoF",
    "placeName": "commerce",
    "state": "OK"
  },
  {
    "city": "boswell",
    "state_code": "OK",
    "placeMasterId": "P02500000FsoGK6oCseyUWNTWKKxV1g0Rza5CVf7",
    "placeName": "boswell",
    "state": "OK"
  },
  {
    "city": "shawnee",
    "state_code": "OK",
    "placeMasterId": "P02500000FsoGNFQi9NfldarM0CYh4SHhdcfRfox",
    "placeName": "shawnee",
    "state": "OK"
  },
  {
    "city": "allen",
    "state_code": "TX",
    "placeMasterId": "P02500000FsoGiMhNQ35zKV58uNgXuxBhSzjEifu",
    "placeName": "allen",
    "state": "TX"
  },
  {
    "city": "garland",
    "state_code": "TX",
    "placeMasterId": "P02500000FsoGlMTP5NDTl7DnmQwK3F4Um6WEIeJ",
    "placeName": "garland",
    "state": "TX"
  },
  {
    "city": "greenville",
    "state_code": "TX",
    "placeMasterId": "P02500000FsoGln0ptYwpouxKBryZmi3sNsE0cRi",
    "placeName": "greenville",
    "state": "TX"
  },
  {
    "city": "celeste",
    "state_code": "TX",
    "placeMasterId": "P02500000FsoGjeJfqcI3VuHi8gnJ7MXdscZZly8",
    "placeName": "celeste",
    "state": "TX"
  },
  {
    "city": "como",
    "state_code": "TX",
    "placeMasterId": "P02500000FsoGk4r6eo1PZi1EY7pYqpep6fSZjdb",
    "placeName": "como",
    "state": "TX"
  },
  {
    "city": "mount vernon",
    "state_code": "TX",
    "placeMasterId": "P02500000FsoGoMFQkhKyBjMSeUC6BWrdzWGXjYX",
    "placeName": "mount vernon",
    "state": "TX"
  },
  {
    "city": "lindale",
    "state_code": "TX",
    "placeMasterId": "P02500000FsoGnMK5WvITNWeF1nmAo6Dar06GlhW",
    "placeName": "lindale",
    "state": "TX"
  },
  {
    "city": "nacogdoches",
    "state_code": "TX",
    "placeMasterId": "P02500000FsoGoV5uM5uksKbdSIXW617IZrIt52Q",
    "placeName": "nacogdoches",
    "state": "TX"
  },
  {
    "city": "midlothian",
    "state_code": "TX",
    "placeMasterId": "P02500000FsoGo4YTXuBOoWs72rVGMY3TqkEKdzL",
    "placeName": "midlothian",
    "state": "TX"
  },
  {
    "city": "venus",
    "state_code": "TX",
    "placeMasterId": "P02500000FsoGrdiPcoc1zXzT8A8i8nLHXZaC6cY",
    "placeName": "venus",
    "state": "TX"
  },
  {
    "city": "justin",
    "state_code": "TX",
    "placeMasterId": "P02500000FsoGme5hVwPXwWQN0k35FeEdOA6Vjfb",
    "placeName": "justin",
    "state": "TX"
  },
  {
    "city": "ponder",
    "state_code": "TX",
    "placeMasterId": "P02500000FsoGpMAlyTNSzw4gHAc1YxOUzSWak42",
    "placeName": "ponder",
    "state": "TX"
  },
  {
    "city": "scotland",
    "state_code": "TX",
    "placeMasterId": "P02500000FsoGqM67CFPxo8mttr1wwO5BXvj5Uhe",
    "placeName": "scotland",
    "state": "TX"
  },
  {
    "city": "valley mills",
    "state_code": "TX",
    "placeMasterId": "P02500000FsoGrdiPcoc1zXzT8A8i8nIixcMRnCT",
    "placeName": "valley mills",
    "state": "TX"
  },
  {
    "city": "whitney",
    "state_code": "TX",
    "placeMasterId": "P02500000FsoGs4FqR0LO3LizXbAxsGPCkUsa6DX",
    "placeName": "whitney",
    "state": "TX"
  },
  {
    "city": "waco",
    "state_code": "TX",
    "placeMasterId": "P02500000FsoGrdiPcoc1zXzT8A8i8nMQbSmxQI8",
    "placeName": "waco",
    "state": "TX"
  },
  {
    "city": "houston",
    "state_code": "TX",
    "placeMasterId": "P02500000FsoGmDYGhkgBsigqbJ0pWBK8GcFdEcU",
    "placeName": "houston",
    "state": "TX"
  },
  {
    "city": "houston",
    "state_code": "TX",
    "placeMasterId": "P02500000FsoGmDYGhkgBsigqbJ0pWBK8GcFdEcU",
    "placeName": "houston",
    "state": "TX"
  },
  {
    "city": "willis",
    "state_code": "TX",
    "placeMasterId": "P02500000FsoGs4FqR0LO3LizXbAxsGRm2f58XjZ",
    "placeName": "willis",
    "state": "TX"
  },
  {
    "city": "shepherd",
    "state_code": "TX",
    "placeMasterId": "P02500000FsoGqdn4P2ZXBLHFVTimlMjsfnBz3Fl",
    "placeName": "shepherd",
    "state": "TX"
  },
  {
    "city": "spring",
    "state_code": "TX",
    "placeMasterId": "P02500000FsoGqvU1bpj6YXlb76PcaLLSx3ByJ8h",
    "placeName": "spring",
    "state": "TX"
  },
  {
    "city": "el campo",
    "state_code": "TX",
    "placeMasterId": "P02500000FsoGkn5UfmuL0iF6ZBYePHSNC3zxclu",
    "placeName": "el campo",
    "state": "TX"
  },
  {
    "city": "missouri city",
    "state_code": "TX",
    "placeMasterId": "P02500000FsoGoDOx9IlBV87HqfqgH2TBj96WSmH",
    "placeName": "missouri city",
    "state": "TX"
  },
  {
    "city": "simonton",
    "state_code": "TX",
    "placeMasterId": "P02500000FsoGqmdY0R9JrwWQJI4Cfqxzgt4C51J",
    "placeName": "simonton",
    "state": "TX"
  },
  {
    "city": "dilley",
    "state_code": "TX",
    "placeMasterId": "P02500000FsoGkVOXSzkldVkkxYroaIgqdz8XnRh",
    "placeName": "dilley",
    "state": "TX"
  },
  {
    "city": "george west",
    "state_code": "TX",
    "placeMasterId": "P02500000FsoGlVJsglnGRiSyaFHjxjOc9ScJRP6",
    "placeName": "george west",
    "state": "TX"
  },
  {
    "city": "marion",
    "state_code": "TX",
    "placeMasterId": "P02500000FsoGnvhzwVbc7vcwF39qS3bKVJhYoO7",
    "placeName": "marion",
    "state": "TX"
  },
  {
    "city": "seguin",
    "state_code": "TX",
    "placeMasterId": "P02500000FsoGqUwandzkUk24hfNMqsH3Y84egpr",
    "placeName": "seguin",
    "state": "TX"
  },
  {
    "city": "san antonio",
    "state_code": "TX",
    "placeMasterId": "P02500000FsoGqM67CFPxo8mttr1wwNqfYQdpCPu",
    "placeName": "san antonio",
    "state": "TX"
  },
  {
    "city": "san antonio",
    "state_code": "TX",
    "placeMasterId": "P02500000FsoGqM67CFPxo8mttr1wwNqfYQdpCPu",
    "placeName": "san antonio",
    "state": "TX"
  },
  {
    "city": "san antonio",
    "state_code": "TX",
    "placeMasterId": "P02500000FsoGqM67CFPxo8mttr1wwNqfYQdpCPu",
    "placeName": "san antonio",
    "state": "TX"
  },
  {
    "city": "alice",
    "state_code": "TX",
    "placeMasterId": "P02500000FsoGiMhNQ35zKV58uNgXux6TPQYRPrN",
    "placeName": "alice",
    "state": "TX"
  },
  {
    "city": "skidmore",
    "state_code": "TX",
    "placeMasterId": "P02500000FsoGqdn4P2ZXBLHFVTimlMqczBAdpO7",
    "placeName": "skidmore",
    "state": "TX"
  },
  {
    "city": "elsa",
    "state_code": "TX",
    "placeMasterId": "P02500000FsoGkvvyHBU7hJUHMzu4JlpFzTn5NXS",
    "placeName": "elsa",
    "state": "TX"
  },
  {
    "city": "la villa",
    "state_code": "TX",
    "placeMasterId": "P02500000FsoGnMK5WvITNWeF1nmAo64qRM9gh0t",
    "placeName": "la villa",
    "state": "TX"
  },
  {
    "city": "austin",
    "state_code": "TX",
    "placeMasterId": "P02500000FsoGieOKcqFYhhZUW0NNjvrbzzBh3wR",
    "placeName": "austin",
    "state": "TX"
  },
  {
    "city": "austin",
    "state_code": "TX",
    "placeMasterId": "P02500000FsoGieOKcqFYhhZUW0NNjvrbzzBh3wR",
    "placeName": "austin",
    "state": "TX"
  },
  {
    "city": "cactus",
    "state_code": "TX",
    "placeMasterId": "P02500000FsoGjMcidp8U8hnMX46TINoJW4rxzwF",
    "placeName": "cactus",
    "state": "TX"
  },
  {
    "city": "claude",
    "state_code": "TX",
    "placeMasterId": "P02500000FsoGjnA9S0rqCVWswV8j1r1nJoUOjYQ",
    "placeName": "claude",
    "state": "TX"
  },
  {
    "city": "shamrock",
    "state_code": "TX",
    "placeMasterId": "P02500000FsoGqdn4P2ZXBLHFVTimlMo6uKdV4Xv",
    "placeName": "shamrock",
    "state": "TX"
  },
  {
    "city": "amarillo",
    "state_code": "TX",
    "placeMasterId": "P02500000FsoGiMhNQ35zKV58uNgXuxIaAeFmU4D",
    "placeName": "amarillo",
    "state": "TX"
  },
  {
    "city": "idalou",
    "state_code": "TX",
    "placeMasterId": "P02500000FsoGmMOkJ9FyZJw1P7MFQfbLHgCKLgm",
    "placeName": "idalou",
    "state": "TX"
  },
  {
    "city": "spur",
    "state_code": "TX",
    "placeMasterId": "P02500000FsoGqvU1bpj6YXlb76PcaLYW4xe7lgP",
    "placeName": "spur",
    "state": "TX"
  },
  {
    "city": "abilene",
    "state_code": "TX",
    "placeMasterId": "P02500000FsoGiDqtoeWCdtpy6ZL80SrkQQVB2g4",
    "placeName": "abilene",
    "state": "TX"
  },
  {
    "city": "midland",
    "state_code": "TX",
    "placeMasterId": "P02500000FsoGo4YTXuBOoWs72rVGMY10s9Q1EL7",
    "placeName": "midland",
    "state": "TX"
  },
  {
    "city": "alpine",
    "state_code": "TX",
    "placeMasterId": "P02500000FsoGiMhNQ35zKV58uNgXuxEOchKfiaa",
    "placeName": "alpine",
    "state": "TX"
  },
  {
    "city": "sierra blanca",
    "state_code": "TX",
    "placeMasterId": "P02500000FsoGqdn4P2ZXBLHFVTimlMjWaPKVJgh",
    "placeName": "sierra blanca",
    "state": "TX"
  },
  {
    "city": "el paso",
    "state_code": "TX",
    "placeMasterId": "P02500000FsoGkn5UfmuL0iF6ZBYePHb6XkiWYkD",
    "placeName": "el paso",
    "state": "TX"
  },
  {
    "city": "aurora",
    "state_code": "CO",
    "placeMasterId": "P02500000FsoEmViIl4GM9tUm2HVUZT8wZbsyrI4",
    "placeName": "aurora",
    "state": "CO"
  },
  {
    "city": "broomfield",
    "state_code": "CO",
    "placeMasterId": "P02500000FsoEmeYmMSq8qUjwq5quTxVo6TkMWU7",
    "placeName": "broomfield",
    "state": "CO"
  },
  {
    "city": "byers",
    "state_code": "CO",
    "placeMasterId": "P02500000FsoEmeYmMSq8qUjwq5quTxVtasJRbgJ",
    "placeName": "byers",
    "state": "CO"
  },
  {
    "city": "englewood",
    "state_code": "CO",
    "placeMasterId": "P02500000FsoEnDwgm39Hatie3LEa7uzwOVvOryu",
    "placeName": "englewood",
    "state": "CO"
  },
  {
    "city": "franktown",
    "state_code": "CO",
    "placeMasterId": "P02500000FsoEnMnANRj4HUxor9a02PKapJGJG0i",
    "placeName": "franktown",
    "state": "CO"
  },
  {
    "city": "denver",
    "state_code": "CO",
    "placeMasterId": "P02500000FsoEmwFjZFziDhEIRiXkIwGQWtD2cc9",
    "placeName": "denver",
    "state": "CO"
  },
  {
    "city": "denver",
    "state_code": "CO",
    "placeMasterId": "P02500000FsoEmwFjZFziDhEIRiXkIwGQWtD2cc9",
    "placeName": "denver",
    "state": "CO"
  },
  {
    "city": "denver",
    "state_code": "CO",
    "placeMasterId": "P02500000FsoEmwFjZFziDhEIRiXkIwGQWtD2cc9",
    "placeName": "denver",
    "state": "CO"
  },
  {
    "city": "greeley",
    "state_code": "CO",
    "placeMasterId": "P02500000FsoEnVddyqIqy6CzexvPwtiRo4KLbHy",
    "placeName": "greeley",
    "state": "CO"
  },
  {
    "city": "flagler",
    "state_code": "CO",
    "placeMasterId": "P02500000FsoEnDwgm39Hatie3LEa7v0GI6E8pmv",
    "placeName": "flagler",
    "state": "CO"
  },
  {
    "city": "limon",
    "state_code": "CO",
    "placeMasterId": "P02500000FsoEnwB4n22D1twW4OxfgMo1xSyvVxA",
    "placeName": "limon",
    "state": "CO"
  },
  {
    "city": "colorado springs",
    "state_code": "CO",
    "placeMasterId": "P02500000FsoEmwFjZFziDhEIRiXkIwGl9Aki2Up",
    "placeName": "colorado springs",
    "state": "CO"
  },
  {
    "city": "moffat",
    "state_code": "CO",
    "placeMasterId": "P02500000FsoEo51YOQbziVBgsDJ5arBVosKY0sI",
    "placeName": "moffat",
    "state": "CO"
  },
  {
    "city": "south fork",
    "state_code": "CO",
    "placeMasterId": "P02500000FsoEonFwPPUv9VPYtH2B9J2UB6uBfPl",
    "placeName": "south fork",
    "state": "CO"
  },
  {
    "city": "coal creek",
    "state_code": "CO",
    "placeMasterId": "P02500000FsoEmwFjZFziDhEIRiXkIwCfeeIkzf0",
    "placeName": "coal creek",
    "state": "CO"
  },
  {
    "city": "howard",
    "state_code": "CO",
    "placeMasterId": "P02500000FsoEnVddyqIqy6CzexvPwtj4yPlUNc4",
    "placeName": "howard",
    "state": "CO"
  },
  {
    "city": "grand junction",
    "state_code": "CO",
    "placeMasterId": "P02500000FsoEnMnANRj4HUxor9a02PMjaevUqpr",
    "placeName": "grand junction",
    "state": "CO"
  },
  {
    "city": "centennial",
    "state_code": "WY",
    "placeMasterId": "P02500000FsoH8u8BbmS38EbYLPwHO4BWPlToJUY",
    "placeName": "centennial",
    "state": "WY"
  },
  {
    "city": "baggs",
    "state_code": "WY",
    "placeMasterId": "P02500000FsoH8lHi0NsGRdMNXbarTZno7LvSRx9",
    "placeName": "baggs",
    "state": "WY"
  },
  {
    "city": "encampment",
    "state_code": "WY",
    "placeMasterId": "P02500000FsoH92yfDB1popqj9EHhIYYpJdfDp83",
    "placeName": "encampment",
    "state": "WY"
  },
  {
    "city": "douglas",
    "state_code": "WY",
    "placeMasterId": "P02500000FsoH8u8BbmS38EbYLPwHO4K3vBFLqLA",
    "placeName": "douglas",
    "state": "WY"
  },
  {
    "city": "moorcroft",
    "state_code": "WY",
    "placeMasterId": "P02500000FsoH9TW61MlBsdaFYfJx21dMuNEHlk1",
    "placeName": "moorcroft",
    "state": "WY"
  },
  {
    "city": "lyman",
    "state_code": "WY",
    "placeMasterId": "P02500000FsoH9KfcPyBPC2L4kqyX7XKVstzcyX8",
    "placeName": "lyman",
    "state": "WY"
  },
  {
    "city": "mountain view",
    "state_code": "WY",
    "placeMasterId": "P02500000FsoH9KfcPyBPC2L4kqyX7XPEA2umLPp",
    "placeName": "mountain view",
    "state": "WY"
  },
  {
    "city": "alpine",
    "state_code": "WY",
    "placeMasterId": "P02500000FsoH8cREOzITl27CjnFRZ5ROTFiogn3",
    "placeName": "alpine",
    "state": "WY"
  },
  {
    "city": "fort hall",
    "state_code": "ID",
    "placeMasterId": "P02500000FsoF0Cy8f7fk7YzVAEfc2UkLcSbvSMa",
    "placeName": "fort hall",
    "state": "ID"
  },
  {
    "city": "rockland",
    "state_code": "ID",
    "placeMasterId": "P02500000FsoF0vCWg6YfYZDNBIOhawehLXAm0yY",
    "placeName": "rockland",
    "state": "ID"
  },
  {
    "city": "albion",
    "state_code": "ID",
    "placeMasterId": "P02500000FsoEzvHBSKWAkMV9YbymDW0OPDQQaSS",
    "placeName": "albion",
    "state": "ID"
  },
  {
    "city": "driggs",
    "state_code": "ID",
    "placeMasterId": "P02500000FsoF047f3j5xQxkKMQKC80SJbmDB70u",
    "placeName": "driggs",
    "state": "ID"
  },
  {
    "city": "swan valley",
    "state_code": "ID",
    "placeMasterId": "P02500000FsoF0vCWg6YfYZDNBIOhawdg94GiIur",
    "placeName": "swan valley",
    "state": "ID"
  },
  {
    "city": "nezperce",
    "state_code": "ID",
    "placeMasterId": "P02500000FsoF0mM34hysrxyCNU3HgSFZdCuFV9b",
    "placeName": "nezperce",
    "state": "ID"
  },
  {
    "city": "pierce",
    "state_code": "ID",
    "placeMasterId": "P02500000FsoF0mM34hysrxyCNU3HgSEUqUjpHkt",
    "placeName": "pierce",
    "state": "ID"
  },
  {
    "city": "midvale",
    "state_code": "ID",
    "placeMasterId": "P02500000FsoF0dVZTJP6BMj1ZfhrlxrQGvcGBer",
    "placeName": "midvale",
    "state": "ID"
  },
  {
    "city": "new plymouth",
    "state_code": "ID",
    "placeMasterId": "P02500000FsoF0dVZTJP6BMj1Zfhrlxsin89962R",
    "placeName": "new plymouth",
    "state": "ID"
  },
  {
    "city": "boise",
    "state_code": "ID",
    "placeMasterId": "P02500000FsoEzvHBSKWAkMV9YbymDW1T6oUkWas",
    "placeName": "boise",
    "state": "ID"
  },
  {
    "city": "kootenai",
    "state_code": "ID",
    "placeMasterId": "P02500000FsoF0Uf5rupJUlTqlrMRrTWg6paes5n",
    "placeName": "kootenai",
    "state": "ID"
  },
  {
    "city": "henefer",
    "state_code": "UT",
    "placeMasterId": "P02500000FsoGsvKi3No6AxC2MTFTLCheWmz8lGF",
    "placeName": "henefer",
    "state": "UT"
  },
  {
    "city": "herriman",
    "state_code": "UT",
    "placeMasterId": "P02500000FsoGsvKi3No6AxC2MTFTLCmA56W39MX",
    "placeName": "herriman",
    "state": "UT"
  },
  {
    "city": "west valley city",
    "state_code": "UT",
    "placeMasterId": "P02500000FsoGuCx0Tx0AMMObamMEXbwNGOaEQa1",
    "placeName": "west valley city",
    "state": "UT"
  },
  {
    "city": "garland",
    "state_code": "UT",
    "placeMasterId": "P02500000FsoGsvKi3No6AxC2MTFTLCWz5U4B3es",
    "placeName": "garland",
    "state": "UT"
  },
  {
    "city": "richmond",
    "state_code": "UT",
    "placeMasterId": "P02500000FsoGtdZ64Mh1bxPuNWyYteSx4Y0rMbp",
    "placeName": "richmond",
    "state": "UT"
  },
  {
    "city": "wellsville",
    "state_code": "UT",
    "placeMasterId": "P02500000FsoGu46WsYQNfl9Qmy0od7fSbnkA2QT",
    "placeName": "wellsville",
    "state": "UT"
  },
  {
    "city": "blanding",
    "state_code": "UT",
    "placeMasterId": "P02500000FsoGsUnHFC4k79SVx2DDbjVB1aAWNm5",
    "placeName": "blanding",
    "state": "UT"
  },
  {
    "city": "fayette",
    "state_code": "UT",
    "placeMasterId": "P02500000FsoGsmUERzEJULwrYeu3QiIbcHxqv7K",
    "placeName": "fayette",
    "state": "UT"
  },
  {
    "city": "kanarraville",
    "state_code": "UT",
    "placeMasterId": "P02500000FsoGt4BBemNsrYRDAHatFgzsng1IDBE",
    "placeName": "kanarraville",
    "state": "UT"
  },
  {
    "city": "dammeron valley",
    "state_code": "UT",
    "placeMasterId": "P02500000FsoGsddkqaeWnkhgkqYdWDmGQI5JpIE",
    "placeName": "dammeron valley",
    "state": "UT"
  },
  {
    "city": "phoenix",
    "state_code": "AZ",
    "placeMasterId": "P02500000FsoEZWgqrzjtdEDuvO4SetJca76kZR3",
    "placeName": "phoenix",
    "state": "AZ"
  },
  {
    "city": "phoenix",
    "state_code": "AZ",
    "placeMasterId": "P02500000FsoEZWgqrzjtdEDuvO4SetJca76kZR3",
    "placeName": "phoenix",
    "state": "AZ"
  },
  {
    "city": "phoenix",
    "state_code": "AZ",
    "placeMasterId": "P02500000FsoEZWgqrzjtdEDuvO4SetJca76kZR3",
    "placeName": "phoenix",
    "state": "AZ"
  },
  {
    "city": "phoenix",
    "state_code": "AZ",
    "placeMasterId": "P02500000FsoEZWgqrzjtdEDuvO4SetJca76kZR3",
    "placeName": "phoenix",
    "state": "AZ"
  },
  {
    "city": "gold canyon",
    "state_code": "AZ",
    "placeMasterId": "P02500000FsoEYxIwSPQkspFDi8gn0vnpTREaM1y",
    "placeName": "gold canyon",
    "state": "AZ"
  },
  {
    "city": "apache junction",
    "state_code": "AZ",
    "placeMasterId": "P02500000FsoEY6E4q1y2lDmAtGcHXzZ66N7mFgA",
    "placeName": "apache junction",
    "state": "AZ"
  },
  {
    "city": "casa grande",
    "state_code": "AZ",
    "placeMasterId": "P02500000FsoEYNv22p7c8QGWUtJ7MyJCD5wMdly",
    "placeName": "casa grande",
    "state": "AZ"
  },
  {
    "city": "maricopa",
    "state_code": "AZ",
    "placeMasterId": "P02500000FsoEZ69Q3o0XZQUOVx2CvQFj5a03UcQ",
    "placeName": "maricopa",
    "state": "AZ"
  },
  {
    "city": "casa grande",
    "state_code": "AZ",
    "placeMasterId": "P02500000FsoEYNv22p7c8QGWUtJ7MyJCD5wMdly",
    "placeName": "casa grande",
    "state": "AZ"
  },
  {
    "city": "peoria",
    "state_code": "AZ",
    "placeMasterId": "P02500000FsoEZNqNGbA6wcyk7Zj2kOyAoqXDou0",
    "placeName": "peoria",
    "state": "AZ"
  },
  {
    "city": "surprise",
    "state_code": "AZ",
    "placeMasterId": "P02500000FsoEZxEHgBTFh1xRKp6iOMSORrjKMSL",
    "placeName": "surprise",
    "state": "AZ"
  },
  {
    "city": "tucson",
    "state_code": "AZ",
    "placeMasterId": "P02500000FsoEa64lHa32NdCc8dS8IqpdZHyNtyf",
    "placeName": "tucson",
    "state": "AZ"
  },
  {
    "city": "tucson",
    "state_code": "AZ",
    "placeMasterId": "P02500000FsoEa64lHa32NdCc8dS8IqpdZHyNtyf",
    "placeName": "tucson",
    "state": "AZ"
  },
  {
    "city": "cibecue",
    "state_code": "AZ",
    "placeMasterId": "P02500000FsoEYNv22p7c8QGWUtJ7MyJxD0MbZMz",
    "placeName": "cibecue",
    "state": "AZ"
  },
  {
    "city": "kykotsmovi village",
    "state_code": "AZ",
    "placeMasterId": "P02500000FsoEZ69Q3o0XZQUOVx2CvQCHvqW0SNA",
    "placeName": "kykotsmovi village",
    "state": "AZ"
  },
  {
    "city": "lukachukai",
    "state_code": "AZ",
    "placeMasterId": "P02500000FsoEZEztfCaKG1jZJlNcpuZ1Xn7QLvp",
    "placeName": "lukachukai",
    "state": "AZ"
  },
  {
    "city": "albuquerque",
    "state_code": "NM",
    "placeMasterId": "P02500000FsoFyHJ9b0fLOT1rP66Ycj5SoodoNbU",
    "placeName": "albuquerque",
    "state": "NM"
  },
  {
    "city": "albuquerque",
    "state_code": "NM",
    "placeMasterId": "P02500000FsoFyHJ9b0fLOT1rP66Ycj5SoodoNbU",
    "placeName": "albuquerque",
    "state": "NM"
  },
  {
    "city": "tohatchi",
    "state_code": "NM",
    "placeMasterId": "P02500000FsoG0YqnFLtuO4weG5dFCZ4sAbnRPLO",
    "placeName": "tohatchi",
    "state": "NM"
  },
  {
    "city": "questa",
    "state_code": "NM",
    "placeMasterId": "P02500000FsoG08JMRAAYKHD7qeazT5uVnhUUB9D",
    "placeName": "questa",
    "state": "NM"
  },
  {
    "city": "caballo",
    "state_code": "NM",
    "placeMasterId": "P02500000FsoFyQ9dCPF854H2CuRyXDSaoQHUS4R",
    "placeName": "caballo",
    "state": "NM"
  },
  {
    "city": "malaga",
    "state_code": "NM",
    "placeMasterId": "P02500000FsoFzYvS1ZrPZsEQdPDJp8aWiirpiCL",
    "placeName": "malaga",
    "state": "NM"
  },
  {
    "city": "panaca",
    "state_code": "NV",
    "placeMasterId": "P02500000FsoFuZIjuhevWqfKVz7gvzeEQCDHdTi",
    "placeName": "panaca",
    "state": "NV"
  },
  {
    "city": "lincoln park",
    "state_code": "NJ",
    "placeMasterId": "P02500000FsoFwZ9QMFjv9G5llLxXgqjRITidRw7",
    "placeName": "lincoln park",
    "state": "NJ"
  },
  {
    "city": "mountain lakes",
    "state_code": "NJ",
    "placeMasterId": "P02500000FsoFwqqNZ2tUWSa7MyeNVpQnFWZLrOf",
    "placeName": "mountain lakes",
    "state": "NJ"
  },
  {
    "city": "newark",
    "state_code": "NJ",
    "placeMasterId": "P02500000FsoFwqqNZ2tUWSa7MyeNVpQgYNosLBh",
    "placeName": "newark",
    "state": "NJ"
  },
  {
    "city": "newark",
    "state_code": "NJ",
    "placeMasterId": "P02500000FsoFwqqNZ2tUWSa7MyeNVpQgYNosLBh",
    "placeName": "newark",
    "state": "NJ"
  },
  {
    "city": "allentown",
    "state_code": "NJ",
    "placeMasterId": "P02500000FsoFv8geKHy4HFe1jEVMZx0IeZICQvR",
    "placeName": "allentown",
    "state": "NJ"
  },
  {
    "city": "los angeles",
    "state_code": "CA",
    "placeMasterId": "P02500000FsoEiEJyfAwnXs9Xvv8xEm0Sp2kcekK",
    "placeName": "los angeles",
    "state": "CA"
  },
  {
    "city": "los angeles",
    "state_code": "CA",
    "placeMasterId": "P02500000FsoEiEJyfAwnXs9Xvv8xEm0Sp2kcekK",
    "placeName": "los angeles",
    "state": "CA"
  },
  {
    "city": "west hollywood",
    "state_code": "CA",
    "placeMasterId": "P02500000FsoEmE1LYH6mmh0QQeoekULeZPS7KrZ",
    "placeName": "west hollywood",
    "state": "CA"
  },
  {
    "city": "rancho palos verdes",
    "state_code": "CA",
    "placeMasterId": "P02500000FsoEk5KBVKS0TgKoNTdO58nXbKy4PGo",
    "placeName": "rancho palos verdes",
    "state": "CA"
  },
  {
    "city": "whittier",
    "state_code": "CA",
    "placeMasterId": "P02500000FsoEm5ArwsX065lFcqTEq03Op0nFoD0",
    "placeName": "whittier",
    "state": "CA"
  },
  {
    "city": "carson",
    "state_code": "CA",
    "placeMasterId": "P02500000FsoEeo0WBf5x3SHMeQqvN12hRH4gxFu",
    "placeName": "carson",
    "state": "CA"
  },
  {
    "city": "south pasadena",
    "state_code": "CA",
    "placeMasterId": "P02500000FsoEl5FWj6UVHt320A3JSZPI5nXKj71",
    "placeName": "south pasadena",
    "state": "CA"
  },
  {
    "city": "ontario",
    "state_code": "CA",
    "placeMasterId": "P02500000FsoEjN5nULZ52g6wMPuIWgz46b1txqD",
    "placeName": "ontario",
    "state": "CA"
  },
  {
    "city": "jacumba",
    "state_code": "CA",
    "placeMasterId": "P02500000FsoEhNF72nU5QGgV734Rlphihy6Ut0A",
    "placeName": "jacumba",
    "state": "CA"
  },
  {
    "city": "mount laguna",
    "state_code": "CA",
    "placeMasterId": "P02500000FsoEiwYMg9piysNPwys2nDqFfMcBFcp",
    "placeName": "mount laguna",
    "state": "CA"
  },
  {
    "city": "vista",
    "state_code": "CA",
    "placeMasterId": "P02500000FsoElwKOLTxDPUW4p27ovVabwmlSnWL",
    "placeName": "vista",
    "state": "CA"
  },
  {
    "city": "san diego",
    "state_code": "CA",
    "placeMasterId": "P02500000FsoEkVrcJWBMXU4KmufdobvSE82FU0j",
    "placeName": "san diego",
    "state": "CA"
  },
  {
    "city": "beaumont",
    "state_code": "CA",
    "placeMasterId": "P02500000FsoEe5m8AgD1cS3UdN7poZCQqs6NCrJ",
    "placeName": "beaumont",
    "state": "CA"
  },
  {
    "city": "calexico",
    "state_code": "CA",
    "placeMasterId": "P02500000FsoEefA2aGWAMr2BqcVVSWeejrNWBYh",
    "placeName": "calexico",
    "state": "CA"
  },
  {
    "city": "palo verde",
    "state_code": "CA",
    "placeMasterId": "P02500000FsoEjVwH5k8rjHM7AEFiRBJKrugfeyN",
    "placeName": "palo verde",
    "state": "CA"
  },
  {
    "city": "rialto",
    "state_code": "CA",
    "placeMasterId": "P02500000FsoEkEAf6j1nAHZzBHynzd8gKZbmXFT",
    "placeName": "rialto",
    "state": "CA"
  },
  {
    "city": "victorville",
    "state_code": "CA",
    "placeMasterId": "P02500000FsoElwKOLTxDPUW4p27ovVawCcmnjVm",
    "placeName": "victorville",
    "state": "CA"
  },
  {
    "city": "wrightwood",
    "state_code": "CA",
    "placeMasterId": "P02500000FsoEmMrp9fgZTIFbETA4eyhsUOTxim9",
    "placeName": "wrightwood",
    "state": "CA"
  },
  {
    "city": "moreno valley",
    "state_code": "CA",
    "placeMasterId": "P02500000FsoEiwYMg9piysNPwys2nDnm1HWZG0r",
    "placeName": "moreno valley",
    "state": "CA"
  },
  {
    "city": "wildomar",
    "state_code": "CA",
    "placeMasterId": "P02500000FsoEmE1LYH6mmh0QQeoekUPFvJZwNic",
    "placeName": "wildomar",
    "state": "CA"
  },
  {
    "city": "irvine",
    "state_code": "CA",
    "placeMasterId": "P02500000FsoEhNF72nU5QGgV734RlpjosMp0ILe",
    "placeName": "irvine",
    "state": "CA"
  },
  {
    "city": "irvine",
    "state_code": "CA",
    "placeMasterId": "P02500000FsoEhNF72nU5QGgV734RlpjosMp0ILe",
    "placeName": "irvine",
    "state": "CA"
  },
  {
    "city": "newport beach",
    "state_code": "CA",
    "placeMasterId": "P02500000FsoEj5OqHYPVfTcaknDShiE7R91eGoi",
    "placeName": "newport beach",
    "state": "CA"
  },
  {
    "city": "santa ana",
    "state_code": "CA",
    "placeMasterId": "P02500000FsoEknYZWJKvugYgOXMTdafl2UpxjW2",
    "placeName": "santa ana",
    "state": "CA"
  },
  {
    "city": "anaheim",
    "state_code": "CA",
    "placeMasterId": "P02500000FsoEdo5Axt3SFFZ91kQzzaRbZXxINei",
    "placeName": "anaheim",
    "state": "CA"
  },
  {
    "city": "simi valley",
    "state_code": "CA",
    "placeMasterId": "P02500000FsoEl5FWj6UVHt320A3JSZQazW4GFOd",
    "placeName": "simi valley",
    "state": "CA"
  },
  {
    "city": "santa barbara",
    "state_code": "CA",
    "placeMasterId": "P02500000FsoEkei5uul9E5JVaj13j6J6FwOz9kT",
    "placeName": "santa barbara",
    "state": "CA"
  },
  {
    "city": "alpaugh",
    "state_code": "CA",
    "placeMasterId": "P02500000FsoEdfEhMUTfYeJyDw5a567KKUrnZ6H",
    "placeName": "alpaugh",
    "state": "CA"
  },
  {
    "city": "frazier park",
    "state_code": "CA",
    "placeMasterId": "P02500000FsoEgWAFQQ1NIfDSIAzwItVMnizuMNA",
    "placeName": "frazier park",
    "state": "CA"
  },
  {
    "city": "hanford",
    "state_code": "CA",
    "placeMasterId": "P02500000FsoEgwhgEbkjMSwyhc2C2MbxasyBecM",
    "placeName": "hanford",
    "state": "CA"
  },
  {
    "city": "onyx",
    "state_code": "CA",
    "placeMasterId": "P02500000FsoEjN5nULZ52g6wMPuIWgwsnqdZyZE",
    "placeName": "onyx",
    "state": "CA"
  },
  {
    "city": "bakersfield",
    "state_code": "CA",
    "placeMasterId": "P02500000FsoEdwveZHdEvqoJpYmPu4r7PsLmxxn",
    "placeName": "bakersfield",
    "state": "CA"
  },
  {
    "city": "bakersfield",
    "state_code": "CA",
    "placeMasterId": "P02500000FsoEdwveZHdEvqoJpYmPu4r7PsLmxxn",
    "placeName": "bakersfield",
    "state": "CA"
  },
  {
    "city": "auberry",
    "state_code": "CA",
    "placeMasterId": "P02500000FsoEdwveZHdEvqoJpYmPu4oY0jpWLVp",
    "placeName": "auberry",
    "state": "CA"
  },
  {
    "city": "chowchilla",
    "state_code": "CA",
    "placeMasterId": "P02500000FsoEf5hTOSFWQeliG3XlBzmxYBvH7Zo",
    "placeName": "chowchilla",
    "state": "CA"
  },
  {
    "city": "clovis",
    "state_code": "CA",
    "placeMasterId": "P02500000FsoEfEXwzqpJ7G0t3rtB6U95xQOV1RM",
    "placeName": "clovis",
    "state": "CA"
  },
  {
    "city": "tranquillity",
    "state_code": "CA",
    "placeMasterId": "P02500000FsoEledR8gne2I1jDPQz6WreL6qT6Ba",
    "placeName": "tranquillity",
    "state": "CA"
  },
  {
    "city": "fresno",
    "state_code": "CA",
    "placeMasterId": "P02500000FsoEgf0j1ob9zGSd5zLMDNqyCZUrC3I",
    "placeName": "fresno",
    "state": "CA"
  },
  {
    "city": "burlingame",
    "state_code": "CA",
    "placeMasterId": "P02500000FsoEeWJYyrwNgFn12oA5Y2K6bXRjnbC",
    "placeName": "burlingame",
    "state": "CA"
  },
  {
    "city": "south san francisco",
    "state_code": "CA",
    "placeMasterId": "P02500000FsoElE60KV4HyUICnyOjN3jJwDjkrxc",
    "placeName": "south san francisco",
    "state": "CA"
  },
  {
    "city": "sunnyvale",
    "state_code": "CA",
    "placeMasterId": "P02500000FsoElMwTvte4f5XNbmk9HY85cDelRDT",
    "placeName": "sunnyvale",
    "state": "CA"
  },
  {
    "city": "san francisco",
    "state_code": "CA",
    "placeMasterId": "P02500000FsoEkVrcJWBMXU4KmufdobtfKVREvsP",
    "placeName": "san francisco",
    "state": "CA"
  },
  {
    "city": "fairfield",
    "state_code": "CA",
    "placeMasterId": "P02500000FsoEgETIDcrnvSj6gYJ6Tukj4XMb19E",
    "placeName": "fairfield",
    "state": "CA"
  },
  {
    "city": "rio vista",
    "state_code": "CA",
    "placeMasterId": "P02500000FsoEkEAf6j1nAHZzBHynzdCnf1px4zZ",
    "placeName": "rio vista",
    "state": "CA"
  },
  {
    "city": "tomales",
    "state_code": "CA",
    "placeMasterId": "P02500000FsoElVmxXIDrLgmYPb5ZC2amlCXjvSr",
    "placeName": "tomales",
    "state": "CA"
  },
  {
    "city": "capitola",
    "state_code": "CA",
    "placeMasterId": "P02500000FsoEeo0WBf5x3SHMeQqvN11swrnonnK",
    "placeName": "capitola",
    "state": "CA"
  },
  {
    "city": "hollister",
    "state_code": "CA",
    "placeMasterId": "P02500000FsoEh5Y9q0KW34C9VQNbwr0SzJU7iiL",
    "placeName": "hollister",
    "state": "CA"
  },
  {
    "city": "santa cruz",
    "state_code": "CA",
    "placeMasterId": "P02500000FsoEknYZWJKvugYgOXMTdacPG1pxRmS",
    "placeName": "santa cruz",
    "state": "CA"
  },
  {
    "city": "ripon",
    "state_code": "CA",
    "placeMasterId": "P02500000FsoEkEAf6j1nAHZzBHynzdCqRWj7Ovg",
    "placeName": "ripon",
    "state": "CA"
  },
  {
    "city": "waterford",
    "state_code": "CA",
    "placeMasterId": "P02500000FsoEm5ArwsX065lFcqTEpzyk7bVr4ij",
    "placeName": "waterford",
    "state": "CA"
  },
  {
    "city": "guerneville",
    "state_code": "CA",
    "placeMasterId": "P02500000FsoEgwhgEbkjMSwyhc2C2Mceav4VDpW",
    "placeName": "guerneville",
    "state": "CA"
  },
  {
    "city": "lakeport",
    "state_code": "CA",
    "placeMasterId": "P02500000FsoEhnmXqzDRU4Q1WU6hVIs48DUCBrt",
    "placeName": "lakeport",
    "state": "CA"
  },
  {
    "city": "eureka",
    "state_code": "CA",
    "placeMasterId": "P02500000FsoEgETIDcrnvSj6gYJ6TumIB6FHerr",
    "placeName": "eureka",
    "state": "CA"
  },
  {
    "city": "willow creek",
    "state_code": "CA",
    "placeMasterId": "P02500000FsoEmE1LYH6mmh0QQeoekUN2njPl6ht",
    "placeName": "willow creek",
    "state": "CA"
  },
  {
    "city": "newcastle",
    "state_code": "CA",
    "placeMasterId": "P02500000FsoEj5OqHYPVfTcaknDShiCBsL1Iry4",
    "placeName": "newcastle",
    "state": "CA"
  },
  {
    "city": "granite bay",
    "state_code": "CA",
    "placeMasterId": "P02500000FsoEgf0j1ob9zGSd5zLMDNwjKTWCExp",
    "placeName": "granite bay",
    "state": "CA"
  },
  {
    "city": "sacramento",
    "state_code": "CA",
    "placeMasterId": "P02500000FsoEkVrcJWBMXU4KmufdobsP4JCiDgI",
    "placeName": "sacramento",
    "state": "CA"
  },
  {
    "city": "sacramento",
    "state_code": "CA",
    "placeMasterId": "P02500000FsoEkVrcJWBMXU4KmufdobsP4JCiDgI",
    "placeName": "sacramento",
    "state": "CA"
  },
  {
    "city": "goodyears bar",
    "state_code": "CA",
    "placeMasterId": "P02500000FsoEgf0j1ob9zGSd5zLMDNtp1689wdI",
    "placeName": "goodyears bar",
    "state": "CA"
  },
  {
    "city": "hamilton city",
    "state_code": "CA",
    "placeMasterId": "P02500000FsoEgwhgEbkjMSwyhc2C2MdHkord8NW",
    "placeName": "hamilton city",
    "state": "CA"
  },
  {
    "city": "magalia",
    "state_code": "CA",
    "placeMasterId": "P02500000FsoEiNASGZWaETOijjUN9GN1Xhcw4ih",
    "placeName": "magalia",
    "state": "CA"
  },
  {
    "city": "paradise",
    "state_code": "CA",
    "placeMasterId": "P02500000FsoEjVwH5k8rjHM7AEFiRBK7gYkbCy6",
    "placeName": "paradise",
    "state": "CA"
  },
  {
    "city": "anderson",
    "state_code": "CA",
    "placeMasterId": "P02500000FsoEdo5Axt3SFFZ91kQzzaRjXWmE0Xm",
    "placeName": "anderson",
    "state": "CA"
  },
  {
    "city": "douglas city",
    "state_code": "CA",
    "placeMasterId": "P02500000FsoEfnvrPR8RrezaH7GqkRgjjiHXgKZ",
    "placeName": "douglas city",
    "state": "CA"
  },
  {
    "city": "trinity center",
    "state_code": "CA",
    "placeMasterId": "P02500000FsoElnTuk5NQitGu1DmP11Ev7I9GiWh",
    "placeName": "trinity center",
    "state": "CA"
  },
  {
    "city": "kaumakani",
    "state_code": "HI",
    "placeMasterId": "P02500000FsoEzLtH2kD1zxWSLMb6ZYXDFDgFUyG",
    "placeName": "kaumakani",
    "state": "HI"
  },
  {
    "city": "koloa",
    "state_code": "HI",
    "placeMasterId": "P02500000FsoEzLtH2kD1zxWSLMb6ZYX2FJhPjb4",
    "placeName": "koloa",
    "state": "HI"
  },
  {
    "city": "honolulu",
    "state_code": "HI",
    "placeMasterId": "P02500000FsoEzdaEFXMbNA0nwzHwOXKc1cb4u6p",
    "placeName": "honolulu",
    "state": "HI"
  },
  {
    "city": "banks",
    "state_code": "OR",
    "placeMasterId": "P02500000FsoGOFM3N9iGRnZZcsycRsrucKGk57w",
    "placeName": "banks",
    "state": "OR"
  },
  {
    "city": "portland",
    "state_code": "OR",
    "placeMasterId": "P02500000FsoGPfopP7U7Jo1Jf0QnYmTaqhg2Hwh",
    "placeName": "portland",
    "state": "OR"
  },
  {
    "city": "portland",
    "state_code": "OR",
    "placeMasterId": "P02500000FsoGPfopP7U7Jo1Jf0QnYmTaqhg2Hwh",
    "placeName": "portland",
    "state": "OR"
  },
  {
    "city": "veneta",
    "state_code": "OR",
    "placeMasterId": "P02500000FsoGQFCjohnG4D00sFoTCjy0zTZLi5s",
    "placeName": "veneta",
    "state": "OR"
  },
  {
    "city": "eagle point",
    "state_code": "OR",
    "placeMasterId": "P02500000FsoGOojxmk1PCCYGq8MI5qIgYk8JCPL",
    "placeName": "eagle point",
    "state": "OR"
  },
  {
    "city": "grants pass",
    "state_code": "OR",
    "placeMasterId": "P02500000FsoGOxaRO8bBsnnRdwhi0KdDwWiZxbh",
    "placeName": "grants pass",
    "state": "OR"
  },
  {
    "city": "kerby",
    "state_code": "OR",
    "placeMasterId": "P02500000FsoGP6QuzXAyZP2cRl37up6wNX1nZFt",
    "placeName": "kerby",
    "state": "OR"
  },
  {
    "city": "adams",
    "state_code": "OR",
    "placeMasterId": "P02500000FsoGO6VZll8TlCKOp4dCXOaeCqvvVcs",
    "placeName": "adams",
    "state": "OR"
  },
  {
    "city": "issaquah",
    "state_code": "WA",
    "placeMasterId": "P02500000FsoGzd79P0w0TBhE7dU7AE1Y0w1r1b5",
    "placeName": "issaquah",
    "state": "WA"
  },
  {
    "city": "maple valley",
    "state_code": "WA",
    "placeMasterId": "P02500000FsoH03eaDCfMWzQkX4WMthJ37NrDehn",
    "placeName": "maple valley",
    "state": "WA"
  },
  {
    "city": "renton",
    "state_code": "WA",
    "placeMasterId": "P02500000FsoH0ujRpa84eatnLwasMdUmishnjiO",
    "placeName": "renton",
    "state": "WA"
  },
  {
    "city": "seattle",
    "state_code": "WA",
    "placeMasterId": "P02500000FsoH13ZvQyhrLC8y9kwIH7vOQ9mB44J",
    "placeName": "seattle",
    "state": "WA"
  },
  {
    "city": "tacoma",
    "state_code": "WA",
    "placeMasterId": "P02500000FsoH1LGsdlrQiOdJlNd866Yu1WjXF5B",
    "placeName": "tacoma",
    "state": "WA"
  },
  {
    "city": "tenino",
    "state_code": "WA",
    "placeMasterId": "P02500000FsoH1U7MFARDOzsUZByY0asPCNb0Vkn",
    "placeName": "tenino",
    "state": "WA"
  },
  {
    "city": "toledo",
    "state_code": "WA",
    "placeMasterId": "P02500000FsoH1U7MFARDOzsUZByY0aqXb3d6pXx",
    "placeName": "toledo",
    "state": "WA"
  },
  {
    "city": "ephrata",
    "state_code": "WA",
    "placeMasterId": "P02500000FsoGz3jEzQcrimiWuO6RWGjv3hbSh9D",
    "placeName": "ephrata",
    "state": "WA"
  },
  {
    "city": "mabton",
    "state_code": "WA",
    "placeMasterId": "P02500000FsoH03eaDCfMWzQkX4WMth8HD5xtBHv",
    "placeName": "mabton",
    "state": "WA"
  },
  {
    "city": "south cle elum",
    "state_code": "WA",
    "placeMasterId": "P02500000FsoH1CQP2NHe1nO8xZHiBcBfMopwsyQ",
    "placeName": "south cle elum",
    "state": "WA"
  },
  {
    "city": "white swan",
    "state_code": "WA",
    "placeMasterId": "P02500000FsoH1loJRxammCMqAofNpZXotd96jqO",
    "placeName": "white swan",
    "state": "WA"
  },
  {
    "city": "liberty lake",
    "state_code": "WA",
    "placeMasterId": "P02500000FsoGzuo6bo5ZqOBZjGAwzCtknE8wzPM",
    "placeName": "liberty lake",
    "state": "WA"
  },
  {
    "city": "spokane",
    "state_code": "WA",
    "placeMasterId": "P02500000FsoH1CQP2NHe1nO8xZHiBcLVG93v2e9",
    "placeName": "spokane",
    "state": "WA"
  },
  {
    "city": "lind",
    "state_code": "WA",
    "placeMasterId": "P02500000FsoH03eaDCfMWzQkX4WMth6eH6HJGbZ",
    "placeName": "lind",
    "state": "WA"
  },
  {
    "city": "aniak",
    "state_code": "AK",
    "placeMasterId": "P02500000FsoEVxWun5JGSD6Yq5R0se3Dzhaw7QV",
    "placeName": "aniak",
    "state": "AK"
  },
  {
    "city": "false pass",
    "state_code": "AK",
    "placeMasterId": "P02500000FsoEWWupCfcPCc5G3KogWbVxMYAvcYT",
    "placeName": "false pass",
    "state": "AK"
  },
  {
    "city": "whittier",
    "state_code": "AK",
    "placeMasterId": "P02500000FsoEXxNbEdOG4cX05SGrdVEQrK8JI0K",
    "placeName": "whittier",
    "state": "AK"
  },
  {
    "city": "prudhoe bay",
    "state_code": "AK",
    "placeMasterId": "P02500000FsoEXWqAQReu0onTg1Ebu25Ibeyabl6",
    "placeName": "prudhoe bay",
    "state": "AK"
  },
  {
    "city": "kivalina",
    "state_code": "AK",
    "placeMasterId": "P02500000FsoEWobmPSlyZoZbexVWLaHR7PCvmCb",
    "placeName": "kivalina",
    "state": "AK"
  },
  {
    "city": "stevens village",
    "state_code": "AK",
    "placeMasterId": "P02500000FsoEXfge1qEghQ2eTpa1oWWQLGPZKI7",
    "placeName": "stevens village",
    "state": "AK"
  },
  {
    "city": "tanana",
    "state_code": "AK",
    "placeMasterId": "P02500000FsoEXfge1qEghQ2eTpa1oWUifOlrc55",
    "placeName": "tanana",
    "state": "AK"
  },
  {
    "city": "livingston",
    "state_code": "NJ",
    "placeMasterId": "P02500000FsoICy1FsJgdGMvEKNsmEsCSnhCSOBV",
    "placeName": "livingston",
    "state": "NJ"
  },
  {
    "city": "nutley",
    "state_code": "NJ",
    "placeMasterId": "P02500000FsoID6rjTiGPwyAP8CEC9Mau1CUIhbp",
    "placeName": "nutley",
    "state": "NJ"
  },
  {
    "city": "jersey city",
    "state_code": "NJ",
    "placeMasterId": "P02500000FsoFwQIwkrA8SeqaxXc7mMMNxqPJn2t",
    "placeName": "jersey city",
    "state": "NJ"
  },
  {
    "city": "highland lakes",
    "state_code": "NJ",
    "placeMasterId": "P02500000FsoFwHST9SaLm3bQ9jGhrrz10EQVivG",
    "placeName": "highland lakes",
    "state": "NJ"
  },
  {
    "city": "westwood",
    "state_code": "NJ",
    "placeMasterId": "P02500000FsoFxzcCODVm1GXVnTPinkQN5fIVdxO",
    "placeName": "westwood",
    "state": "NJ"
  },
  {
    "city": "florence",
    "state_code": "NJ",
    "placeMasterId": "P02500000FsoICgKIfWX3tAQsilBwPtO7DYF7z0H",
    "placeName": "florence",
    "state": "NJ"
  },
  {
    "city": "trenton",
    "state_code": "NJ",
    "placeMasterId": "P02500000FsoFxqlimovzKfIKzf4ItG76ZSi5TQc",
    "placeName": "trenton",
    "state": "NJ"
  },
  {
    "city": "new york",
    "state_code": "NY",
    "placeMasterId": "P02500000FsoG3hTIW4bBVIKTvxERFLPbpMNP8u9",
    "placeName": "new york",
    "state": "NY"
  },
  {
    "city": "new york",
    "state_code": "NY",
    "placeMasterId": "P02500000FsoG3hTIW4bBVIKTvxERFLPbpMNP8u9",
    "placeName": "new york",
    "state": "NY"
  },
  {
    "city": "new york",
    "state_code": "NY",
    "placeMasterId": "P02500000FsoG3hTIW4bBVIKTvxERFLPbpMNP8u9",
    "placeName": "new york",
    "state": "NY"
  },
  {
    "city": "new york",
    "state_code": "NY",
    "placeMasterId": "P02500000FsoG3hTIW4bBVIKTvxERFLPbpMNP8u9",
    "placeName": "new york",
    "state": "NY"
  },
  {
    "city": "new york",
    "state_code": "NY",
    "placeMasterId": "P02500000FsoG3hTIW4bBVIKTvxERFLPbpMNP8u9",
    "placeName": "new york",
    "state": "NY"
  },
  {
    "city": "staten island",
    "state_code": "NY",
    "placeMasterId": "P02500000FsoHDBWVhflbkFwmRmIoilOWW8CMZ4T",
    "placeName": "staten island",
    "state": "NY"
  },
  {
    "city": "cold spring",
    "state_code": "NY",
    "placeMasterId": "P02500000FsoG1Ym8T7wPCHersm3AZzciCnwwGHx",
    "placeName": "cold spring",
    "state": "NY"
  },
  {
    "city": "montrose",
    "state_code": "NY",
    "placeMasterId": "P02500000FsoG3Ycoug1Ooh5J88t1KqvPTG3aB3Y",
    "placeName": "montrose",
    "state": "NY"
  },
  {
    "city": "scarsdale",
    "state_code": "NY",
    "placeMasterId": "P02500000FsoHDc3wVrUxo3gIrDL4SEZxHXGOZav",
    "placeName": "scarsdale",
    "state": "NY"
  },
  {
    "city": "valhalla",
    "state_code": "NY",
    "placeMasterId": "P02500000FsoG5Pd1kpWbkVGZZhNSBDoHLmFTaVd",
    "placeName": "valhalla",
    "state": "NY"
  },
  {
    "city": "yonkers",
    "state_code": "NY",
    "placeMasterId": "P02500000FsoG5qASZ1FxoJ05z8Phugz8ElJISm3",
    "placeName": "yonkers",
    "state": "NY"
  },
  {
    "city": "haverstraw",
    "state_code": "NY",
    "placeMasterId": "P02500000FsoHD2g26HBp3ehbdxxOoH7oiQLWkc9",
    "placeName": "haverstraw",
    "state": "NY"
  },
  {
    "city": "brooklyn",
    "state_code": "NY",
    "placeMasterId": "P02500000FsoHCc8bI5SSzqy5EWv94nnzJKQNSS5",
    "placeName": "brooklyn",
    "state": "NY"
  },
  {
    "city": "brooklyn",
    "state_code": "NY",
    "placeMasterId": "P02500000FsoHCc8bI5SSzqy5EWv94nnzJKQNSS5",
    "placeName": "brooklyn",
    "state": "NY"
  },
  {
    "city": "brooklyn",
    "state_code": "NY",
    "placeMasterId": "P02500000FsoHCc8bI5SSzqy5EWv94nnzJKQNSS5",
    "placeName": "brooklyn",
    "state": "NY"
  },
  {
    "city": "greenvale",
    "state_code": "NY",
    "placeMasterId": "P02500000FsoG2YhTgtyu0UN5VST5xQKDBaqmHk7",
    "placeName": "greenvale",
    "state": "NY"
  },
  {
    "city": "merrick",
    "state_code": "NY",
    "placeMasterId": "P02500000FsoG3PmLJHRc85q8KKXbQMgqT1by707",
    "placeName": "merrick",
    "state": "NY"
  },
  {
    "city": "centerport",
    "state_code": "NY",
    "placeMasterId": "P02500000FsoG1PverjMcVgPh4xhkfVSTZQ4e0m5",
    "placeName": "centerport",
    "state": "NY"
  },
  {
    "city": "melville",
    "state_code": "NY",
    "placeMasterId": "P02500000FsoG3PmLJHRc85q8KKXbQMdQudRytXS",
    "placeName": "melville",
    "state": "NY"
  },
  {
    "city": "wantagh",
    "state_code": "NY",
    "placeMasterId": "P02500000FsoG5YTVME6OR6VkNVis5i7H3Ck69cV",
    "placeName": "wantagh",
    "state": "NY"
  },
  {
    "city": "stony brook",
    "state_code": "NY",
    "placeMasterId": "P02500000FsoG57w4Y2N2NImDy4gcMF8ig2PgiUs",
    "placeName": "stony brook",
    "state": "NY"
  },
  {
    "city": "west sayville",
    "state_code": "NY",
    "placeMasterId": "P02500000FsoG5hJyxcgB7hkvBK4I0CV3IjqN1ox",
    "placeName": "west sayville",
    "state": "NY"
  },
  {
    "city": "orient",
    "state_code": "NY",
    "placeMasterId": "P02500000FsoG480jKGKXZ640LOGgyoWjsR4imRR",
    "placeName": "orient",
    "state": "NY"
  },
  {
    "city": "water mill",
    "state_code": "NY",
    "placeMasterId": "P02500000FsoG5YTVME6OR6VkNVis5i631SdWxaO",
    "placeName": "water mill",
    "state": "NY"
  },
  {
    "city": "berne",
    "state_code": "NY",
    "placeMasterId": "P02500000FsoIDp67Uh9LNyOH9FxHhoROFxMp3xp",
    "placeName": "berne",
    "state": "NY"
  },
  {
    "city": "fort johnson",
    "state_code": "NY",
    "placeMasterId": "P02500000FsoG2H0WU6pKdHsjtpmG8RZuWaguzwr",
    "placeName": "fort johnson",
    "state": "NY"
  },
  {
    "city": "rensselaer",
    "state_code": "NY",
    "placeMasterId": "P02500000FsoG4PhgX3U6wIYLx0xWnnDiZeBmXfO",
    "placeName": "rensselaer",
    "state": "NY"
  },
  {
    "city": "waterford",
    "state_code": "NY",
    "placeMasterId": "P02500000FsoHDBWVhflbkFwmRmIoilOs7td4roI",
    "placeName": "waterford",
    "state": "NY"
  },
  {
    "city": "albany",
    "state_code": "NY",
    "placeMasterId": "P02500000FsoG0qXkS93TlHQzriK51XlWeUkwFLA",
    "placeName": "albany",
    "state": "NY"
  },
  {
    "city": "albany",
    "state_code": "NY",
    "placeMasterId": "P02500000FsoG0qXkS93TlHQzriK51XlWeUkwFLA",
    "placeName": "albany",
    "state": "NY"
  },
  {
    "city": "windham",
    "state_code": "NY",
    "placeMasterId": "P02500000FsoHCTI7ggsgJFiuQiZjAJZXcTFq8PD",
    "placeName": "windham",
    "state": "NY"
  },
  {
    "city": "millerton",
    "state_code": "NY",
    "placeMasterId": "P02500000FsoG3Ycoug1Ooh5J88t1Kr5LqrnzBrQ",
    "placeName": "millerton",
    "state": "NY"
  },
  {
    "city": "wallkill",
    "state_code": "NY",
    "placeMasterId": "P02500000FsoHD2g26HBp3ehbdxxOoGzPEFHEe0T",
    "placeName": "wallkill",
    "state": "NY"
  },
  {
    "city": "neversink",
    "state_code": "NY",
    "placeMasterId": "P02500000FsoIFownwFEL0NoiOcn8SfZJfzfiCGg",
    "placeName": "neversink",
    "state": "NY"
  },
  {
    "city": "constable",
    "state_code": "NY",
    "placeMasterId": "P02500000FsoIEOU1uHSU8NMyMVKxLluFdCyx7LJ",
    "placeName": "constable",
    "state": "NY"
  },
  {
    "city": "moriah",
    "state_code": "NY",
    "placeMasterId": "P02500000FsoIFg6KKqeYJmZXaoRiYBJdqKGZU2x",
    "placeName": "moriah",
    "state": "NY"
  },
  {
    "city": "west chazy",
    "state_code": "NY",
    "placeMasterId": "P02500000FsoG5hJyxcgB7hkvBK4I0CR2eZCjmWx",
    "placeName": "west chazy",
    "state": "NY"
  },
  {
    "city": "wilmington",
    "state_code": "NY",
    "placeMasterId": "P02500000FsoIHOG3ZbZyYzVdEYajU3gZegcv5Fd",
    "placeName": "wilmington",
    "state": "NY"
  },
  {
    "city": "cato",
    "state_code": "NY",
    "placeMasterId": "P02500000FsoHC2kgsV9KFRzO1HXTQqKnqM5jkyf",
    "placeName": "cato",
    "state": "NY"
  },
  {
    "city": "evans mills",
    "state_code": "NY",
    "placeMasterId": "P02500000FsoG1zJZHJflG5OOID5QJT1MNY1bDck",
    "placeName": "evans mills",
    "state": "NY"
  },
  {
    "city": "madrid",
    "state_code": "NY",
    "placeMasterId": "P02500000FsoIFXFqjS4ldBKMn06IdgsaAarpblZ",
    "placeName": "madrid",
    "state": "NY"
  },
  {
    "city": "candor",
    "state_code": "NY",
    "placeMasterId": "P02500000FsoHDTDSuSvB7SR83OzeXjzutNsfEB3",
    "placeName": "candor",
    "state": "NY"
  },
  {
    "city": "davenport center",
    "state_code": "NY",
    "placeMasterId": "P02500000FsoG1qT5fv5yZU9DUOk0OyMzD189Gsi",
    "placeName": "davenport center",
    "state": "NY"
  },
  {
    "city": "guilford",
    "state_code": "NY",
    "placeMasterId": "P02500000FsoIExrwJrlcsmLfZkiczjKNrNf3uDc",
    "placeName": "guilford",
    "state": "NY"
  },
  {
    "city": "buffalo",
    "state_code": "NY",
    "placeMasterId": "P02500000FsoG1H5BGKmpp5AWH9MKl12AT3E2vOM",
    "placeName": "buffalo",
    "state": "NY"
  },
  {
    "city": "niagara falls",
    "state_code": "NY",
    "placeMasterId": "P02500000FsoG3qJm7TAyBtZejlZr9poKSoSQyCo",
    "placeName": "niagara falls",
    "state": "NY"
  },
  {
    "city": "port gibson",
    "state_code": "NY",
    "placeMasterId": "P02500000FsoG4GrCveuKFhJB9Cc6tIrnQNFugAa",
    "placeName": "port gibson",
    "state": "NY"
  },
  {
    "city": "rochester",
    "state_code": "NY",
    "placeMasterId": "P02500000FsoG4YYA8S3tctnWkpIwiHXc7FWLpT6",
    "placeName": "rochester",
    "state": "NY"
  },
  {
    "city": "cherry creek",
    "state_code": "NY",
    "placeMasterId": "P02500000FsoHC2kgsV9KFRzO1HXTQqLrfelaHMt",
    "placeName": "cherry creek",
    "state": "NY"
  },
  {
    "city": "interlaken",
    "state_code": "NY",
    "placeMasterId": "P02500000FsoG2zEuV5iG4I6butVLgtLiVRT7A5x",
    "placeName": "interlaken",
    "state": "NY"
  },
  {
    "city": "gibsonia",
    "state_code": "PA",
    "placeMasterId": "P02500000FsoGToMftcDtFE7MxYRuyzCxxhGayUZ",
    "placeName": "gibsonia",
    "state": "PA"
  },
  {
    "city": "harwick",
    "state_code": "PA",
    "placeMasterId": "P02500000FsoGU63d6PNScQbiZB8kny7caPbb8nS",
    "placeName": "harwick",
    "state": "PA"
  },
  {
    "city": "pittsburgh",
    "state_code": "PA",
    "placeMasterId": "P02500000FsoGXfDZBJo5nRj4eTmCaDENhHWAB15",
    "placeName": "pittsburgh",
    "state": "PA"
  },
  {
    "city": "canonsburg",
    "state_code": "PA",
    "placeMasterId": "P02500000FsoGRffVqfZ6wDRkuNGeJddYXR2EHzc",
    "placeName": "canonsburg",
    "state": "PA"
  },
  {
    "city": "hopwood",
    "state_code": "PA",
    "placeMasterId": "P02500000FsoGUWb3ub6ogELEycB0XR3tIoQKkWH",
    "placeName": "hopwood",
    "state": "PA"
  },
  {
    "city": "boswell",
    "state_code": "PA",
    "placeMasterId": "P02500000FsoGRF852TpksPiEUwEOaAgFer2j0U1",
    "placeName": "boswell",
    "state": "PA"
  },
  {
    "city": "adamsburg",
    "state_code": "PA",
    "placeMasterId": "P02500000FsoGQO3DQ6N2koFBg49t7ESuSwBzrVB",
    "placeName": "adamsburg",
    "state": "PA"
  },
  {
    "city": "glen campbell",
    "state_code": "PA",
    "placeMasterId": "P02500000FsoGToMftcDtFE7MxYRuyzHXXtpieTW",
    "placeName": "glen campbell",
    "state": "PA"
  },
  {
    "city": "heilwood",
    "state_code": "PA",
    "placeMasterId": "P02500000FsoGUEu6hnxFJ1qtMzUAiSQ3cwvBUeC",
    "placeName": "heilwood",
    "state": "PA"
  },
  {
    "city": "falls creek",
    "state_code": "PA",
    "placeMasterId": "P02500000FsoGTEylU1ukUp8fkJ4FL1nL9Extw5L",
    "placeName": "falls creek",
    "state": "PA"
  },
  {
    "city": "new bedford",
    "state_code": "PA",
    "placeMasterId": "P02500000FsoGWfIDxXlazF0r1nMHCmoEqyt5ECu",
    "placeName": "new bedford",
    "state": "PA"
  },
  {
    "city": "smicksburg",
    "state_code": "PA",
    "placeMasterId": "P02500000FsoGYwprbt09yqvdsmsxmckW0bILUtU",
    "placeName": "smicksburg",
    "state": "PA"
  },
  {
    "city": "erie",
    "state_code": "PA",
    "placeMasterId": "P02500000FsoGT68HsdKxoDtUwUipQXb9IbBAKWB",
    "placeName": "erie",
    "state": "PA"
  },
  {
    "city": "sandy ridge",
    "state_code": "PA",
    "placeMasterId": "P02500000FsoGYWIQnhGnv3C7TLqi39UxLC9AZBi",
    "placeName": "sandy ridge",
    "state": "PA"
  },
  {
    "city": "blanchard",
    "state_code": "PA",
    "placeMasterId": "P02500000FsoGRF852TpksPiEUwEOaAgAA4b1WYT",
    "placeName": "blanchard",
    "state": "PA"
  },
  {
    "city": "hyde",
    "state_code": "PA",
    "placeMasterId": "P02500000FsoGUfRXVzgbMpaPmQWQRvVKXouhOWC",
    "placeName": "hyde",
    "state": "PA"
  },
  {
    "city": "annville",
    "state_code": "PA",
    "placeMasterId": "P02500000FsoGQWth1UwpRPUMTsVJ1iuhsOlROWy",
    "placeName": "annville",
    "state": "PA"
  },
  {
    "city": "schaefferstown",
    "state_code": "PA",
    "placeMasterId": "P02500000FsoGYf8uP5qabeRIHAC7xdqw4VwMFMi",
    "placeName": "schaefferstown",
    "state": "PA"
  },
  {
    "city": "harrisburg",
    "state_code": "PA",
    "placeMasterId": "P02500000FsoGU63d6PNScQbiZB8kny65f71GTm1",
    "placeName": "harrisburg",
    "state": "PA"
  },
  {
    "city": "waynesboro",
    "state_code": "PA",
    "placeMasterId": "P02500000FsoGaESA2SCEAG8D75ziz268VQRBkaf",
    "placeName": "waynesboro",
    "state": "PA"
  },
  {
    "city": "mount wolf",
    "state_code": "PA",
    "placeMasterId": "P02500000FsoGWWRkM9BoIdlgDz0rIITKFy5BHU8",
    "placeName": "mount wolf",
    "state": "PA"
  },
  {
    "city": "new oxford",
    "state_code": "PA",
    "placeMasterId": "P02500000FsoGWo8hYwLNfqG1pbhh7HFPf1ZGLTF",
    "placeName": "new oxford",
    "state": "PA"
  },
  {
    "city": "marietta",
    "state_code": "PA",
    "placeMasterId": "P02500000FsoGVx3pwYsfYEmz0jdBeKlFlVA2Qtr",
    "placeName": "marietta",
    "state": "PA"
  },
  {
    "city": "turbotville",
    "state_code": "PA",
    "placeMasterId": "P02500000FsoGZnujEGSs6SOghexTFYvS3putCb4",
    "placeName": "turbotville",
    "state": "PA"
  },
  {
    "city": "beaver springs",
    "state_code": "PA",
    "placeMasterId": "P02500000FsoGQxR7pggBVDDstJXYlBq0kwOYCfA",
    "placeName": "beaver springs",
    "state": "PA"
  },
  {
    "city": "mifflinburg",
    "state_code": "PA",
    "placeMasterId": "P02500000FsoGW5uJXxSSEq29oXybYpDSQ91dAbq",
    "placeName": "mifflinburg",
    "state": "PA"
  },
  {
    "city": "gilberton",
    "state_code": "PA",
    "placeMasterId": "P02500000FsoGToMftcDtFE7MxYRuyzLgfzAp3A4",
    "placeName": "gilberton",
    "state": "PA"
  },
  {
    "city": "minersville",
    "state_code": "PA",
    "placeMasterId": "P02500000FsoGWEkn9M2EvRHKcMK1TJc0R4Wf312",
    "placeName": "minersville",
    "state": "PA"
  },
  {
    "city": "alburtis",
    "state_code": "PA",
    "placeMasterId": "P02500000FsoGQWth1UwpRPUMTsVJ1ihQzkTRQ4E",
    "placeName": "alburtis",
    "state": "PA"
  },
  {
    "city": "cherryville",
    "state_code": "PA",
    "placeMasterId": "P02500000FsoGRxMT3SigJPw6VzxU8cM85SXkkEN",
    "placeName": "cherryville",
    "state": "PA"
  },
  {
    "city": "hereford",
    "state_code": "PA",
    "placeMasterId": "P02500000FsoGUNkaJCX1zd64AnpacwnNCOZCYbC",
    "placeName": "hereford",
    "state": "PA"
  },
  {
    "city": "gouldsboro",
    "state_code": "PA",
    "placeMasterId": "P02500000FsoGTxD9V0nfvpMXlMnKtTYVzvTTka5",
    "placeName": "gouldsboro",
    "state": "PA"
  },
  {
    "city": "philadelphia",
    "state_code": "PA",
    "placeMasterId": "P02500000FsoGXWN5ZvEJ6qTtqfQmfiyVODy6MPW",
    "placeName": "philadelphia",
    "state": "PA"
  },
  {
    "city": "philadelphia",
    "state_code": "PA",
    "placeMasterId": "P02500000FsoGXWN5ZvEJ6qTtqfQmfiyVODy6MPW",
    "placeName": "philadelphia",
    "state": "PA"
  },
  {
    "city": "bridgeport",
    "state_code": "PA",
    "placeMasterId": "P02500000FsoGRWp2FGzKFcCa6YvEP9E6uf9NYbz",
    "placeName": "bridgeport",
    "state": "PA"
  },
  {
    "city": "lenhartsville",
    "state_code": "PA",
    "placeMasterId": "P02500000FsoGVNfvWyZWnpoHnUFW0NKonCafepg",
    "placeName": "lenhartsville",
    "state": "PA"
  },
  {
    "city": "delaware city",
    "state_code": "DE",
    "placeMasterId": "P02500000FsoEpeKo1mxdH6sbi96gcFID68Ryk20",
    "placeName": "delaware city",
    "state": "DE"
  },
  {
    "city": "washington",
    "state_code": "DC",
    "placeMasterId": "P02500000FsoEq4sEpygzKuc87a8wLiQYg142PzN",
    "placeName": "washington",
    "state": "DC"
  },
  {
    "city": "washington",
    "state_code": "DC",
    "placeMasterId": "P02500000FsoEq4sEpygzKuc87a8wLiQYg142PzN",
    "placeName": "washington",
    "state": "DC"
  },
  {
    "city": "washington",
    "state_code": "DC",
    "placeMasterId": "P02500000FsoEq4sEpygzKuc87a8wLiQYg142PzN",
    "placeName": "washington",
    "state": "DC"
  },
  {
    "city": "centreville",
    "state_code": "VA",
    "placeMasterId": "P02500000FsoGv41s6KSsTxrePeQk0YJh5aPJPEg",
    "placeName": "centreville",
    "state": "VA"
  },
  {
    "city": "waldorf",
    "state_code": "MD",
    "placeMasterId": "P02500000FsoFWAZ5luxe27oX883E8DuydyscPeG",
    "placeName": "waldorf",
    "state": "MD"
  },
  {
    "city": "brandywine",
    "state_code": "MD",
    "placeMasterId": "P02500000FsoFTbKUumZVfJPOfVphjPFjz4iS0RF",
    "placeName": "brandywine",
    "state": "MD"
  },
  {
    "city": "capitol heights",
    "state_code": "MD",
    "placeMasterId": "P02500000FsoFTkAyWB9ILueZTKB7dtczJAXxU28",
    "placeName": "capitol heights",
    "state": "MD"
  },
  {
    "city": "savage",
    "state_code": "MD",
    "placeMasterId": "P02500000FsoFVss8Z7o4evKBWVMOJFFOivrfNuC",
    "placeName": "savage",
    "state": "MD"
  },
  {
    "city": "hyattsville",
    "state_code": "MD",
    "placeMasterId": "P02500000FsoFUk6JjxBnA7Mn60b31KN4Wj0BAWZ",
    "placeName": "hyattsville",
    "state": "MD"
  },
  {
    "city": "derwood",
    "state_code": "MD",
    "placeMasterId": "P02500000FsoFU1rviyIrj78v4wrxSsZfurlVDcG",
    "placeName": "derwood",
    "state": "MD"
  },
  {
    "city": "silver spring",
    "state_code": "MD",
    "placeMasterId": "P02500000FsoFVk1exjEHyK50ih0yOl85Zhht6fO",
    "placeName": "silver spring",
    "state": "MD"
  },
  {
    "city": "reisterstown",
    "state_code": "MD",
    "placeMasterId": "P02500000FsoFVbBBMKeVHippusfYUGd1feFnQxQ",
    "placeName": "reisterstown",
    "state": "MD"
  },
  {
    "city": "riva",
    "state_code": "MD",
    "placeMasterId": "P02500000FsoFVbBBMKeVHippusfYUGe2cizkSPz",
    "placeName": "riva",
    "state": "MD"
  },
  {
    "city": "baltimore",
    "state_code": "MD",
    "placeMasterId": "P02500000FsoFTSU1JNziyiADrhUHous91WaBH4V",
    "placeName": "baltimore",
    "state": "MD"
  },
  {
    "city": "annapolis",
    "state_code": "MD",
    "placeMasterId": "P02500000FsoFTJdXhzPwI6v33t8ruQbBn6PWpnz",
    "placeName": "annapolis",
    "state": "MD"
  },
  {
    "city": "bloomington",
    "state_code": "MD",
    "placeMasterId": "P02500000FsoFTSU1JNziyiADrhUHov0HIbDUQMP",
    "placeName": "bloomington",
    "state": "MD"
  },
  {
    "city": "friendsville",
    "state_code": "MD",
    "placeMasterId": "P02500000FsoFUJYsvlSR6JdGgZYnHrFCU7NHgO0",
    "placeName": "friendsville",
    "state": "MD"
  },
  {
    "city": "fishing creek",
    "state_code": "MD",
    "placeMasterId": "P02500000FsoFUJYsvlSR6JdGgZYnHrAmRddiO1N",
    "placeName": "fishing creek",
    "state": "MD"
  },
  {
    "city": "preston",
    "state_code": "MD",
    "placeMasterId": "P02500000FsoFVbBBMKeVHippusfYUGSKsRHApdi",
    "placeName": "preston",
    "state": "MD"
  },
  {
    "city": "hancock",
    "state_code": "MD",
    "placeMasterId": "P02500000FsoFUbFq8Yc0TW7cICFd6q0q0k4QfGL",
    "placeName": "hancock",
    "state": "MD"
  },
  {
    "city": "walkersville",
    "state_code": "MD",
    "placeMasterId": "P02500000FsoFWAZ5luxe27oX883E8Dw0SibJ31T",
    "placeName": "walkersville",
    "state": "MD"
  },
  {
    "city": "falls church",
    "state_code": "VA",
    "placeMasterId": "P02500000FsoGvdPmVum1EMqLctoPeVdbLS2fQWW",
    "placeName": "falls church",
    "state": "VA"
  },
  {
    "city": "arlington",
    "state_code": "VA",
    "placeMasterId": "P02500000FsoGudURI8jWQA880DOUH59WbK2sySL",
    "placeName": "arlington",
    "state": "VA"
  },
  {
    "city": "alexandria",
    "state_code": "VA",
    "placeMasterId": "P02500000FsoGuUdxgk9jjYsxCP34MaiKDaDtr2h",
    "placeName": "alexandria",
    "state": "VA"
  },
  {
    "city": "basye",
    "state_code": "VA",
    "placeMasterId": "P02500000FsoGumKutXJJ6lNIo1juBZNNysJEdlJ",
    "placeName": "basye",
    "state": "VA"
  },
  {
    "city": "charlottesville",
    "state_code": "VA",
    "placeMasterId": "P02500000FsoGv41s6KSsTxrePeQk0YL6leSie9b",
    "placeName": "charlottesville",
    "state": "VA"
  },
  {
    "city": "charlottesville",
    "state_code": "VA",
    "placeMasterId": "P02500000FsoGv41s6KSsTxrePeQk0YL6leSie9b",
    "placeName": "charlottesville",
    "state": "VA"
  },
  {
    "city": "accomac",
    "state_code": "VA",
    "placeMasterId": "P02500000FsoGuUdxgk9jjYsxCP34Mahj1JvB9EW",
    "placeName": "accomac",
    "state": "VA"
  },
  {
    "city": "carrsville",
    "state_code": "VA",
    "placeMasterId": "P02500000FsoGv41s6KSsTxrePeQk0YDCNYNkLX5",
    "placeName": "carrsville",
    "state": "VA"
  },
  {
    "city": "oak hall",
    "state_code": "VA",
    "placeMasterId": "P02500000FsoGx3sYXsXs6NI5f1GalPKcbKMoRcg",
    "placeName": "oak hall",
    "state": "VA"
  },
  {
    "city": "norfolk",
    "state_code": "VA",
    "placeMasterId": "P02500000FsoGx3sYXsXs6NI5f1GalPIXzep0Ccf",
    "placeName": "norfolk",
    "state": "VA"
  },
  {
    "city": "norfolk",
    "state_code": "VA",
    "placeMasterId": "P02500000FsoGx3sYXsXs6NI5f1GalPIXzep0Ccf",
    "placeName": "norfolk",
    "state": "VA"
  },
  {
    "city": "newport news",
    "state_code": "VA",
    "placeMasterId": "P02500000FsoGwmBbL5OIjAnk3OZkwQlvDbncqYB",
    "placeName": "newport news",
    "state": "VA"
  },
  {
    "city": "hampton",
    "state_code": "VA",
    "placeMasterId": "P02500000FsoGvv6jihvabZKhEWVFTUVmU86xved",
    "placeName": "hampton",
    "state": "VA"
  },
  {
    "city": "surry",
    "state_code": "VA",
    "placeMasterId": "P02500000FsoGxm6wYrQnXNVxg4zgJrCnTZUMspg",
    "placeName": "surry",
    "state": "VA"
  },
  {
    "city": "baskerville",
    "state_code": "VA",
    "placeMasterId": "P02500000FsoGudURI8jWQA880DOUH5DeqhECOiz",
    "placeName": "baskerville",
    "state": "VA"
  },
  {
    "city": "chase city",
    "state_code": "VA",
    "placeMasterId": "P02500000FsoGv41s6KSsTxrePeQk0Y9WKkzFqcw",
    "placeName": "chase city",
    "state": "VA"
  },
  {
    "city": "crewe",
    "state_code": "VA",
    "placeMasterId": "P02500000FsoGvLipJ7cRrAM01H7ZpWvHhyYUYPv",
    "placeName": "crewe",
    "state": "VA"
  },
  {
    "city": "victoria",
    "state_code": "VA",
    "placeMasterId": "P02500000FsoGxuxQAG0aDyl8TtL6ELe7jj6Dcll",
    "placeName": "victoria",
    "state": "VA"
  },
  {
    "city": "bristol",
    "state_code": "VA",
    "placeMasterId": "P02500000FsoGumKutXJJ6lNIo1juBZZWuMwUZNX",
    "placeName": "bristol",
    "state": "VA"
  },
  {
    "city": "galax",
    "state_code": "VA",
    "placeMasterId": "P02500000FsoGvmGG7JLnuy5WQi9pZ0A2bbGeZzQ",
    "placeName": "galax",
    "state": "VA"
  },
  {
    "city": "south boston",
    "state_code": "VA",
    "placeMasterId": "P02500000FsoGxdGSxSr0qmGmsGeGPMps3DX7S95",
    "placeName": "south boston",
    "state": "VA"
  },
  {
    "city": "bartow",
    "state_code": "WV",
    "placeMasterId": "P02500000FsoH1uen3MAZSnc0yd0nk44tfi7lLjv",
    "placeName": "bartow",
    "state": "WV"
  },
  {
    "city": "clay",
    "state_code": "WV",
    "placeMasterId": "P02500000FsoH2LCDrXtvWbLXO433TXFzafPK5yv",
    "placeName": "clay",
    "state": "WV"
  },
  {
    "city": "east bank",
    "state_code": "WV",
    "placeMasterId": "P02500000FsoH2U2hSwTiDCaiBsOTO1g1LqKuIYR",
    "placeName": "east bank",
    "state": "WV"
  },
  {
    "city": "west hamlin",
    "state_code": "WV",
    "placeMasterId": "P02500000FsoH43Lx6IpLloHd1oC4PPdt3E4t4e3",
    "placeName": "west hamlin",
    "state": "WV"
  },
  {
    "city": "meadow bridge",
    "state_code": "WV",
    "placeMasterId": "P02500000FsoH3L7Z5JwQKo3l0kSyqxfU3uiOyiM",
    "placeName": "meadow bridge",
    "state": "WV"
  },
  {
    "city": "benwood",
    "state_code": "WV",
    "placeMasterId": "P02500000FsoH23VGekkM9OrBmRMDeYRYZxJq550",
    "placeName": "benwood",
    "state": "WV"
  },
  {
    "city": "parkersburg",
    "state_code": "WV",
    "placeMasterId": "P02500000FsoH3Ty2giWD1PIvoYoOlSBCyqukhX1",
    "placeName": "parkersburg",
    "state": "WV"
  },
  {
    "city": "davis",
    "state_code": "WV",
    "placeMasterId": "P02500000FsoH2U2hSwTiDCaiBsOTO1XUIMr6BNC",
    "placeName": "davis",
    "state": "WV"
  },
  {
    "city": "richwood",
    "state_code": "WV",
    "placeMasterId": "P02500000FsoH3coWI75zi0Y6cN9ofwaEXFxKkW0",
    "placeName": "richwood",
    "state": "WV"
  },
  {
    "city": "mill creek",
    "state_code": "WV",
    "placeMasterId": "P02500000FsoH3CH5TvMdeCoaCw7YwTW3Jh9NMhO",
    "placeName": "mill creek",
    "state": "WV"
  },
  {
    "city": "glenville",
    "state_code": "WV",
    "placeMasterId": "P02500000FsoH2ljefjdHaP53nV5JD0MFQc9khfW",
    "placeName": "glenville",
    "state": "WV"
  },
  {
    "city": "pennsboro",
    "state_code": "WV",
    "placeMasterId": "P02500000FsoH3Ty2giWD1PIvoYoOlSAlfqovw9t",
    "placeName": "pennsboro",
    "state": "WV"
  },
  {
    "city": "barrackville",
    "state_code": "WV",
    "placeMasterId": "P02500000FsoH1uen3MAZSnc0yd0nk48h06KXsgU",
    "placeName": "barrackville",
    "state": "WV"
  },
  {
    "city": "rachel",
    "state_code": "WV",
    "placeMasterId": "P02500000FsoH3coWI75zi0Y6cN9ofwU2uJHAA3X",
    "placeName": "rachel",
    "state": "WV"
  },
  {
    "city": "flatwoods",
    "state_code": "WV",
    "placeMasterId": "P02500000FsoH2ctB4L3UtnpszgjtIVwZyfenxnE",
    "placeName": "flatwoods",
    "state": "WV"
  },
  {
    "city": "nettie",
    "state_code": "WV",
    "placeMasterId": "P02500000FsoH3L7Z5JwQKo3l0kSyqxnOwjWOgMg",
    "placeName": "nettie",
    "state": "WV"
  },
  {
    "city": "staley",
    "state_code": "NC",
    "placeMasterId": "P02500000FsoG9YAsFKGNfvMcsFOZbQWgTK5UsmU",
    "placeName": "staley",
    "state": "NC"
  },
  {
    "city": "broadway",
    "state_code": "NC",
    "placeMasterId": "P02500000FsoG6GhtNCzJs6jcOZRxeA65rU66khH",
    "placeName": "broadway",
    "state": "NC"
  },
  {
    "city": "henderson",
    "state_code": "NC",
    "placeMasterId": "P02500000FsoG7YKBnmBO3VwBcsYiqZGLB24c3Aq",
    "placeName": "henderson",
    "state": "NC"
  },
  {
    "city": "zebulon",
    "state_code": "NC",
    "placeMasterId": "P02500000FsoGA7YmeuZWQKLK5UmFFO5CnvlLxUA",
    "placeName": "zebulon",
    "state": "NC"
  },
  {
    "city": "durham",
    "state_code": "NC",
    "placeMasterId": "P02500000FsoG6q5nmnIScViJbopdI7bFzX5TYCc",
    "placeName": "durham",
    "state": "NC"
  },
  {
    "city": "greenville",
    "state_code": "NC",
    "placeMasterId": "P02500000FsoG7PTiCNbbMuh0p4DIw4z5xIHTHIh",
    "placeName": "greenville",
    "state": "NC"
  },
  {
    "city": "nashville",
    "state_code": "NC",
    "placeMasterId": "P02500000FsoG8YFX1YDsriePFYyeDzuRkrNkOAt",
    "placeName": "nashville",
    "state": "NC"
  },
  {
    "city": "sims",
    "state_code": "NC",
    "placeMasterId": "P02500000FsoG9PKOdvgazK7S4R39gw3JTe0WCcW",
    "placeName": "sims",
    "state": "NC"
  },
  {
    "city": "mineral springs",
    "state_code": "NC",
    "placeMasterId": "P02500000FsoG8GYZol4JUWA3dwHoP1CyqFDpxui",
    "placeName": "mineral springs",
    "state": "NC"
  },
  {
    "city": "new london",
    "state_code": "NC",
    "placeMasterId": "P02500000FsoG8YFX1YDsriePFYyeDzxtJ45LxSJ",
    "placeName": "new london",
    "state": "NC"
  },
  {
    "city": "spencer",
    "state_code": "NC",
    "placeMasterId": "P02500000FsoG9PKOdvgazK7S4R39gwFKrOSHzOV",
    "placeName": "spencer",
    "state": "NC"
  },
  {
    "city": "stanfield",
    "state_code": "NC",
    "placeMasterId": "P02500000FsoG9YAsFKGNfvMcsFOZbQW71BLcRjP",
    "placeName": "stanfield",
    "state": "NC"
  },
  {
    "city": "fayetteville",
    "state_code": "NC",
    "placeMasterId": "P02500000FsoG77mkzaS1ziCfDRWT76CllOZaZAj",
    "placeName": "fayetteville",
    "state": "NC"
  },
  {
    "city": "vass",
    "state_code": "NC",
    "placeMasterId": "P02500000FsoG9prpS7Px37qyTs5PQPGmbcvChZP",
    "placeName": "vass",
    "state": "NC"
  },
  {
    "city": "evergreen",
    "state_code": "NC",
    "placeMasterId": "P02500000FsoG6ywHOBsFJ6xUPdB3Cc0RimxOiPj",
    "placeName": "evergreen",
    "state": "NC"
  },
  {
    "city": "black mountain",
    "state_code": "NC",
    "placeMasterId": "P02500000FsoG6GhtNCzJs6jcOZRxe9z8bXXE5P6",
    "placeName": "black mountain",
    "state": "NC"
  },
  {
    "city": "clyde",
    "state_code": "NC",
    "placeMasterId": "P02500000FsoG6hFKBOifvuT8o0UDNd4dlNKfcJZ",
    "placeName": "clyde",
    "state": "NC"
  },
  {
    "city": "franklin",
    "state_code": "NC",
    "placeMasterId": "P02500000FsoG77mkzaS1ziCfDRWT76PdgWS7udL",
    "placeName": "franklin",
    "state": "NC"
  },
  {
    "city": "alcolu",
    "state_code": "SC",
    "placeMasterId": "P02500000FsoGb5X1epewHrbFvy4ERyL2853du8C",
    "placeName": "alcolu",
    "state": "SC"
  },
  {
    "city": "chesnee",
    "state_code": "SC",
    "placeMasterId": "P02500000FsoGbNDyrcoVf45bXal4Gx0SIAMsTCy",
    "placeName": "chesnee",
    "state": "SC"
  },
  {
    "city": "cross anchor",
    "state_code": "SC",
    "placeMasterId": "P02500000FsoGbW4ST1OILfKmLP6UBRPapOgEbrv",
    "placeName": "cross anchor",
    "state": "SC"
  },
  {
    "city": "lockhart",
    "state_code": "SC",
    "placeMasterId": "P02500000FsoGcEIqU0HDmfYeMSpZjtHMQEvjcnI",
    "placeName": "lockhart",
    "state": "SC"
  },
  {
    "city": "isle of palms",
    "state_code": "SC",
    "placeMasterId": "P02500000FsoGc5SMsbhR64JTYeU9pOkBVdLzfOj",
    "placeName": "isle of palms",
    "state": "SC"
  },
  {
    "city": "ladson",
    "state_code": "SC",
    "placeMasterId": "P02500000FsoGc5SMsbhR64JTYeU9pOtmKoaEsoA",
    "placeName": "ladson",
    "state": "SC"
  },
  {
    "city": "summerville",
    "state_code": "SC",
    "placeMasterId": "P02500000FsoGdEEBhmJiasGrz9FV7JkZqUQP5eW",
    "placeName": "summerville",
    "state": "SC"
  },
  {
    "city": "charleston",
    "state_code": "SC",
    "placeMasterId": "P02500000FsoGbNDyrcoVf45bXal4Gx4gp6ShtVb",
    "placeName": "charleston",
    "state": "SC"
  },
  {
    "city": "scranton",
    "state_code": "SC",
    "placeMasterId": "P02500000FsoGcwXEUzA9DfmWNWYfIL0vqIqPhuf",
    "placeName": "scranton",
    "state": "SC"
  },
  {
    "city": "greenville",
    "state_code": "SC",
    "placeMasterId": "P02500000FsoGbwbtHD7ePT4Ikq8juuKkVY6QuEs",
    "placeName": "greenville",
    "state": "SC"
  },
  {
    "city": "barnwell",
    "state_code": "SC",
    "placeMasterId": "P02500000FsoGbENVGEEiySqQjmPeMSb02I3JrZW",
    "placeName": "barnwell",
    "state": "SC"
  },
  {
    "city": "windsor",
    "state_code": "SC",
    "placeMasterId": "P02500000FsoGdVv8uZTHy4lDalwKwIRkQgtg9b7",
    "placeName": "windsor",
    "state": "SC"
  },
  {
    "city": "rome",
    "state_code": "GA",
    "placeMasterId": "P02500000FsoEyD7SDZakV9Z3urplHda5fOLAdnq",
    "placeName": "rome",
    "state": "GA"
  },
  {
    "city": "grantville",
    "state_code": "GA",
    "placeMasterId": "P02500000FsoEwmegBbotd97JskNaAjteNSau9Qv",
    "placeName": "grantville",
    "state": "GA"
  },
  {
    "city": "griffin",
    "state_code": "GA",
    "placeMasterId": "P02500000FsoEwvV9n0OgJkMUgYj05EC1RbEbUFd",
    "placeName": "griffin",
    "state": "GA"
  },
  {
    "city": "milner",
    "state_code": "GA",
    "placeMasterId": "P02500000FsoExdjXnzHbkkaMhcS5dg52WL4CEYc",
    "placeName": "milner",
    "state": "GA"
  },
  {
    "city": "molena",
    "state_code": "GA",
    "placeMasterId": "P02500000FsoExdjXnzHbkkaMhcS5dg2oNq1yCGn",
    "placeName": "molena",
    "state": "GA"
  },
  {
    "city": "sharpsburg",
    "state_code": "GA",
    "placeMasterId": "P02500000FsoEyLxvoyAXBkoEigBBC7wAvk41ym3",
    "placeName": "sharpsburg",
    "state": "GA"
  },
  {
    "city": "atlanta",
    "state_code": "GA",
    "placeMasterId": "P02500000FsoEvV2Nl2cpRjukeRGoyKXsQZ9lvPs",
    "placeName": "atlanta",
    "state": "GA"
  },
  {
    "city": "atlanta",
    "state_code": "GA",
    "placeMasterId": "P02500000FsoEvV2Nl2cpRjukeRGoyKXsQZ9lvPs",
    "placeName": "atlanta",
    "state": "GA"
  },
  {
    "city": "twin city",
    "state_code": "GA",
    "placeMasterId": "P02500000FsoEymVMd9ttFYXl87DQvb2zlqpVedl",
    "placeName": "twin city",
    "state": "GA"
  },
  {
    "city": "athens",
    "state_code": "GA",
    "placeMasterId": "P02500000FsoEvV2Nl2cpRjukeRGoyKWN5rm3A7X",
    "placeName": "athens",
    "state": "GA"
  },
  {
    "city": "madison",
    "state_code": "GA",
    "placeMasterId": "P02500000FsoExUt4Cahp49LBto6fjBfX2hoRtgr",
    "placeName": "madison",
    "state": "GA"
  },
  {
    "city": "monroe",
    "state_code": "GA",
    "placeMasterId": "P02500000FsoExdjXnzHbkkaMhcS5dg2vdN8Wd9W",
    "placeName": "monroe",
    "state": "GA"
  },
  {
    "city": "calhoun",
    "state_code": "GA",
    "placeMasterId": "P02500000FsoEvmjKxpmOowP6G3xenJFucoLM1QU",
    "placeName": "calhoun",
    "state": "GA"
  },
  {
    "city": "augusta",
    "state_code": "GA",
    "placeMasterId": "P02500000FsoEvV2Nl2cpRjukeRGoyKWGC8vWncN",
    "placeName": "augusta",
    "state": "GA"
  },
  {
    "city": "belchertown",
    "state_code": "MA",
    "placeMasterId": "P02500000FsoHAtys3KX2ke1zamm88vYI3YrG0ZM",
    "placeName": "belchertown",
    "state": "MA"
  },
  {
    "city": "monson",
    "state_code": "MA",
    "placeMasterId": "P02500000FsoHe9Ukhar1bnCiIFanvLSVkjuRc0I",
    "placeName": "monson",
    "state": "MA"
  },
  {
    "city": "springfield",
    "state_code": "MA",
    "placeMasterId": "P02500000FsoFWsnTmtqZT82P9BmJgfxQ61bP7CW",
    "placeName": "springfield",
    "state": "MA"
  },
  {
    "city": "charlemont",
    "state_code": "MA",
    "placeMasterId": "P02500000FsoHdRGMgby6AmyqHBriMtkZOyPaVKb",
    "placeName": "charlemont",
    "state": "MA"
  },
  {
    "city": "northfield",
    "state_code": "MA",
    "placeMasterId": "P02500000FsoHB2pLej6pRFHAOb7Y3PhN7oFuKiK",
    "placeName": "northfield",
    "state": "MA"
  },
  {
    "city": "royalston",
    "state_code": "MA",
    "placeMasterId": "P02500000FsoHe9Ukhar1bnCiIFanvLeNJID001z",
    "placeName": "royalston",
    "state": "MA"
  },
  {
    "city": "hubbardston",
    "state_code": "MA",
    "placeMasterId": "P02500000FsoHdrnnUnhSEaiMgcty6MuLEPdaBZF",
    "placeName": "hubbardston",
    "state": "MA"
  },
  {
    "city": "marlborough",
    "state_code": "MA",
    "placeMasterId": "P02500000FsoFWSG2yi7DPKIsjkk3xCthdtxfmXR",
    "placeName": "marlborough",
    "state": "MA"
  },
  {
    "city": "gloucester",
    "state_code": "MA",
    "placeMasterId": "P02500000FsoFWSG2yi7DPKIsjkk3xCvlbUcr8yq",
    "placeName": "gloucester",
    "state": "MA"
  },
  {
    "city": "cohasset",
    "state_code": "MA",
    "placeMasterId": "P02500000FsoHda6qI0XsrOE150D8HO8J0clEGgd",
    "placeName": "cohasset",
    "state": "MA"
  },
  {
    "city": "melrose",
    "state_code": "MA",
    "placeMasterId": "P02500000FsoFWb6Wa6h05vY3XZ5Trh7gB04p6lA",
    "placeName": "melrose",
    "state": "MA"
  },
  {
    "city": "brockton",
    "state_code": "MA",
    "placeMasterId": "P02500000FsoFWJPZNJXQij3hvwOe2iZLIP0ui3x",
    "placeName": "brockton",
    "state": "MA"
  },
  {
    "city": "halifax",
    "state_code": "MA",
    "placeMasterId": "P02500000FsoHdrnnUnhSEaiMgcty6MlpHjujh2x",
    "placeName": "halifax",
    "state": "MA"
  },
  {
    "city": "eastham",
    "state_code": "MA",
    "placeMasterId": "P02500000FsoHdixJtP7fXzTBsoYYBsSsqa3TYFq",
    "placeName": "eastham",
    "state": "MA"
  },
  {
    "city": "harwich port",
    "state_code": "MA",
    "placeMasterId": "P02500000FsoFWb6Wa6h05vY3XZ5Trh4kWvSUyno",
    "placeName": "harwich port",
    "state": "MA"
  },
  {
    "city": "ashaway",
    "state_code": "RI",
    "placeMasterId": "P02500000FsoGanq4S2VMuf6uKLNOczYcxjaQ0fB",
    "placeName": "ashaway",
    "state": "RI"
  },
  {
    "city": "chester",
    "state_code": "NH",
    "placeMasterId": "P02500000FsoIBXYTqLumOMTUIGQb7yNrm6cB6Zh",
    "placeName": "chester",
    "state": "NH"
  },
  {
    "city": "campton",
    "state_code": "NH",
    "placeMasterId": "P02500000FsoIBOi0ExKzhlEJUS5BDU32QFz7GiY",
    "placeName": "campton",
    "state": "NH"
  },
  {
    "city": "bow",
    "state_code": "NH",
    "placeMasterId": "P02500000FsoIBFrWdYlD19z8gdjlIzlhDpIyXWe",
    "placeName": "bow",
    "state": "NH"
  },
  {
    "city": "alstead",
    "state_code": "NH",
    "placeMasterId": "P02500000FsoIBFrWdYlD19z8gdjlIzji1ENn5R0",
    "placeName": "alstead",
    "state": "NH"
  },
  {
    "city": "monroe",
    "state_code": "NH",
    "placeMasterId": "P02500000FsoIBpFR394LlYxptt7QwxGGXYL31ln",
    "placeName": "monroe",
    "state": "NH"
  },
  {
    "city": "newport",
    "state_code": "NH",
    "placeMasterId": "P02500000FsoHBcDG4JPyBeFrbqVDhNS6k4ZO23k",
    "placeName": "newport",
    "state": "NH"
  },
  {
    "city": "strafford",
    "state_code": "NH",
    "placeMasterId": "P02500000FsoIC6wOFwDv8lSBVVoGlvxW7w7F1p1",
    "placeName": "strafford",
    "state": "NH"
  },
  {
    "city": "lebanon",
    "state_code": "ME",
    "placeMasterId": "P02500000FsoHfio0KxCfAOtd8BOOwjfHMTNK4M8",
    "placeName": "lebanon",
    "state": "ME"
  },
  {
    "city": "scarborough",
    "state_code": "ME",
    "placeMasterId": "P02500000FsoHAKaxdkDu0F3INXOSUxxeJ1cep1Z",
    "placeName": "scarborough",
    "state": "ME"
  },
  {
    "city": "standish",
    "state_code": "ME",
    "placeMasterId": "P02500000FsoHgR2OLw5abP7V9F7UVBSPHAYgcFQ",
    "placeName": "standish",
    "state": "ME"
  },
  {
    "city": "south paris",
    "state_code": "ME",
    "placeMasterId": "P02500000FsoFTAn46aq9bVfsG4nRzwJGbu1smmo",
    "placeName": "south paris",
    "state": "ME"
  },
  {
    "city": "winthrop",
    "state_code": "ME",
    "placeMasterId": "P02500000FsoHAKaxdkDu0F3INXOSUy5EZKN81qS",
    "placeName": "winthrop",
    "state": "ME"
  },
  {
    "city": "brewer",
    "state_code": "ME",
    "placeMasterId": "P02500000FsoFT1waVCGMuuQhSGS25RvQBhA306h",
    "placeName": "brewer",
    "state": "ME"
  },
  {
    "city": "bristol",
    "state_code": "ME",
    "placeMasterId": "P02500000FsoHerj8iZjx2nQaJJJtTnNLBq6R6qL",
    "placeName": "bristol",
    "state": "ME"
  },
  {
    "city": "wiscasset",
    "state_code": "ME",
    "placeMasterId": "P02500000FsoHATRRF8nggqITBLjsPSPfnKsd8ZC",
    "placeName": "wiscasset",
    "state": "ME"
  },
  {
    "city": "dennysville",
    "state_code": "ME",
    "placeMasterId": "P02500000FsoHf9Q5vMtWPzuvuw0jIm8Km3N2Pcp",
    "placeName": "dennysville",
    "state": "ME"
  },
  {
    "city": "hancock",
    "state_code": "ME",
    "placeMasterId": "P02500000FsoHfZxWjYcsTneSKN2z2F9zfHPQL9a",
    "placeName": "hancock",
    "state": "ME"
  },
  {
    "city": "frenchville",
    "state_code": "ME",
    "placeMasterId": "P02500000FsoHfIGZWlTJ6bA6ikM9DGbE95gCDD4",
    "placeName": "frenchville",
    "state": "ME"
  },
  {
    "city": "grand isle",
    "state_code": "ME",
    "placeMasterId": "P02500000FsoHfR738A35nCPHWYhZ7koR4NaR2JZ",
    "placeName": "grand isle",
    "state": "ME"
  },
  {
    "city": "detroit",
    "state_code": "ME",
    "placeMasterId": "P02500000FsoHf9Q5vMtWPzuvuw0jImFONsHtuQp",
    "placeName": "detroit",
    "state": "ME"
  },
  {
    "city": "garland",
    "state_code": "ME",
    "placeMasterId": "P02500000FsoHfR738A35nCPHWYhZ7knJeeGvszo",
    "placeName": "garland",
    "state": "ME"
  },
  {
    "city": "smithfield",
    "state_code": "ME",
    "placeMasterId": "P02500000FsoHgIBukXVnunsKLQm4ahDC19WmgOu",
    "placeName": "smithfield",
    "state": "ME"
  },
  {
    "city": "troy",
    "state_code": "ME",
    "placeMasterId": "P02500000FsoHgZsrxKfNI0Mfx3SuPfos0p2hSGu",
    "placeName": "troy",
    "state": "ME"
  },
  {
    "city": "fairfax",
    "state_code": "VT",
    "placeMasterId": "P02500000FsoIeVNPHp5BsJ9rO6YR5PoTe5EEYt5",
    "placeName": "fairfax",
    "state": "VT"
  },
  {
    "city": "underhill",
    "state_code": "VT",
    "placeMasterId": "P02500000FsoIfMSGuCXtzucuCycwYLzkm9aTqfD",
    "placeName": "underhill",
    "state": "VT"
  },
  {
    "city": "northfield",
    "state_code": "VT",
    "placeMasterId": "P02500000FsoHEBRqvRo6YSf04Sik6BvINN4qYut",
    "placeName": "northfield",
    "state": "VT"
  },
  {
    "city": "barton",
    "state_code": "VT",
    "placeMasterId": "P02500000FsoHE2bNK3EJrrPpGeNKBhWHICEfzxK",
    "placeName": "barton",
    "state": "VT"
  },
  {
    "city": "enfield",
    "state_code": "CT",
    "placeMasterId": "P02500000FsoHGSzUZn2fY4ZmvSFQg1yTRPZAxm9",
    "placeName": "enfield",
    "state": "CT"
  },
  {
    "city": "west hartford",
    "state_code": "CT",
    "placeMasterId": "P02500000FsoEpeKo1mxdH6sbi96gcFFUCHGLcEM",
    "placeName": "west hartford",
    "state": "CT"
  },
  {
    "city": "brooklyn",
    "state_code": "CT",
    "placeMasterId": "P02500000FsoHGK90yOSsrTKc7du0lXTzBAwwFlC",
    "placeName": "brooklyn",
    "state": "CT"
  },
  {
    "city": "stonington",
    "state_code": "CT",
    "placeMasterId": "P02500000FsoHA2u0Qx4Kd2Ywluhcfz92lVL3tUw",
    "placeName": "stonington",
    "state": "CT"
  },
  {
    "city": "waterford",
    "state_code": "CT",
    "placeMasterId": "P02500000FsoHGtWvNym1bsJJKtHgPUygsx4pXe2",
    "placeName": "waterford",
    "state": "CT"
  },
  {
    "city": "meriden",
    "state_code": "CT",
    "placeMasterId": "P02500000FsoEpDnNDbEHDJ95Ii4Qsm9xc2j6MWq",
    "placeName": "meriden",
    "state": "CT"
  },
  {
    "city": "old saybrook",
    "state_code": "CT",
    "placeMasterId": "P02500000FsoHGbpyBBcSEfoxjGaqaWJVeqXkjsb",
    "placeName": "old saybrook",
    "state": "CT"
  },
  {
    "city": "westbrook",
    "state_code": "CT",
    "placeMasterId": "P02500000FsoHGtWvNym1bsJJKtHgPV16Uw2719a",
    "placeName": "westbrook",
    "state": "CT"
  },
  {
    "city": "stamford",
    "state_code": "CT",
    "placeMasterId": "P02500000FsoEpMdqozo3tuOG6WPqnGa7UQ8WG36",
    "placeName": "stamford",
    "state": "CT"
  },
  {
    "city": "avenel",
    "state_code": "NJ",
    "placeMasterId": "P02500000FsoFv8geKHy4HFe1jEVMZx7gFaqFlei",
    "placeName": "avenel",
    "state": "NJ"
  },
  {
    "city": "butler",
    "state_code": "NJ",
    "placeMasterId": "P02500000FsoFvZE58ThQL3NY8fXcJQAubxd4GmK",
    "placeName": "butler",
    "state": "NJ"
  },
  {
    "city": "randolph",
    "state_code": "NJ",
    "placeMasterId": "P02500000FsoIDOYggVPzKAekjov1yLFbvYFPsIz",
    "placeName": "randolph",
    "state": "NJ"
  },
  {
    "city": "berlin",
    "state_code": "NJ",
    "placeMasterId": "P02500000FsoICFmrrKnhpMhMJK9ggQNZe0d4rFE",
    "placeName": "berlin",
    "state": "NJ"
  },
  {
    "city": "glassboro",
    "state_code": "NJ",
    "placeMasterId": "P02500000FsoFw8bzY40Z5SMFLuvHxNY2Kq7PhJ0",
    "placeName": "glassboro",
    "state": "NJ"
  },
  {
    "city": "sea isle city",
    "state_code": "NJ",
    "placeMasterId": "P02500000FsoFxZ4la1mPxSnzO2NT4HQxImqJUvR",
    "placeName": "sea isle city",
    "state": "NJ"
  },
  {
    "city": "manasquan",
    "state_code": "NJ",
    "placeMasterId": "P02500000FsoFwhztxeJhprKwZAIxbL1ixghpUrH",
    "placeName": "manasquan",
    "state": "NJ"
  },
  {
    "city": "wibaux",
    "state_code": "MT",
    "placeMasterId": "P02500000FsoFqZbN1bUwI1oS1FRzQHDEJ6EErND",
    "placeName": "wibaux",
    "state": "MT"
  },
  {
    "city": "dutton",
    "state_code": "MT",
    "placeMasterId": "P02500000FsoFpHz4b2Is6cbsmwLEDriCbiCm7mH",
    "placeName": "dutton",
    "state": "MT"
  },
  {
    "city": "sand coulee",
    "state_code": "MT",
    "placeMasterId": "P02500000FsoFqQktQCv9bQZHDR6ZVmheMp25wzP",
    "placeName": "sand coulee",
    "state": "MT"
  },
  {
    "city": "chester",
    "state_code": "MT",
    "placeMasterId": "P02500000FsoFp0I7OF9IjQ7XBJeOOt1OsdHYncK",
    "placeName": "chester",
    "state": "MT"
  },
  {
    "city": "clinton",
    "state_code": "MT",
    "placeMasterId": "P02500000FsoFp0I7OF9IjQ7XBJeOOt0jYDV9riW",
    "placeName": "clinton",
    "state": "MT"
  },
  {
    "city": "marion",
    "state_code": "MT",
    "placeMasterId": "P02500000FsoFprMz0cc0r1aa0BitrpC3afpN3O2",
    "placeName": "marion",
    "state": "MT"
  },
  {
    "city": "grayslake",
    "state_code": "IL",
    "placeMasterId": "P02500000FsoF3uyYLQg9zBM23LeTjEPrEEppys7",
    "placeName": "grayslake",
    "state": "IL"
  },
  {
    "city": "gurnee",
    "state_code": "IL",
    "placeMasterId": "P02500000FsoF43p1wpFwfmbCr9ztdimp9DqjJ58",
    "placeName": "gurnee",
    "state": "IL"
  },
  {
    "city": "hebron",
    "state_code": "IL",
    "placeMasterId": "P02500000FsoF4CfVYDpjMNqNeyLJYDAtr5bhUmu",
    "placeName": "hebron",
    "state": "IL"
  },
  {
    "city": "wauconda",
    "state_code": "IL",
    "placeMasterId": "P02500000FsoF8U3pe79HyPBblKhqsuJrSBi1aQb",
    "placeName": "wauconda",
    "state": "IL"
  },
  {
    "city": "oak forest",
    "state_code": "IL",
    "placeMasterId": "P02500000FsoF6LMfbAUVfOVzi9WaDYkxYiBiVxC",
    "placeName": "oak forest",
    "state": "IL"
  },
  {
    "city": "oswego",
    "state_code": "IL",
    "placeMasterId": "P02500000FsoF6d3cnxe52b0LJmDQ2XTVJhbvqD9",
    "placeName": "oswego",
    "state": "IL"
  },
  {
    "city": "sheridan",
    "state_code": "IL",
    "placeMasterId": "P02500000FsoF7lpRd8GMXOxjkGylKSQkXJf8OdJ",
    "placeName": "sheridan",
    "state": "IL"
  },
  {
    "city": "steward",
    "state_code": "IL",
    "placeMasterId": "P02500000FsoF7ufvEWq9E0CuY5KBEwpBUyRMBYW",
    "placeName": "steward",
    "state": "IL"
  },
  {
    "city": "chicago",
    "state_code": "IL",
    "placeMasterId": "P02500000FsoF2LfIi4KWQZf7DPqshqNB04VNil1",
    "placeName": "chicago",
    "state": "IL"
  },
  {
    "city": "chicago",
    "state_code": "IL",
    "placeMasterId": "P02500000FsoF2LfIi4KWQZf7DPqshqNB04VNil1",
    "placeName": "chicago",
    "state": "IL"
  },
  {
    "city": "chicago",
    "state_code": "IL",
    "placeMasterId": "P02500000FsoF2LfIi4KWQZf7DPqshqNB04VNil1",
    "placeName": "chicago",
    "state": "IL"
  },
  {
    "city": "bonfield",
    "state_code": "IL",
    "placeMasterId": "P02500000FsoF1v7rtsbAMlvanyocyNDBtR5o7Ge",
    "placeName": "bonfield",
    "state": "IL"
  },
  {
    "city": "buckley",
    "state_code": "IL",
    "placeMasterId": "P02500000FsoF1v7rtsbAMlvanyocyNDwa4x6Lsv",
    "placeName": "buckley",
    "state": "IL"
  },
  {
    "city": "kent",
    "state_code": "IL",
    "placeMasterId": "P02500000FsoHKtEIH4w0qhABpcxNvDZAfynLpeL",
    "placeName": "kent",
    "state": "IL"
  },
  {
    "city": "mount morris",
    "state_code": "IL",
    "placeMasterId": "P02500000FsoF63fiONKwIC1e6WpkOZxL68N2AiM",
    "placeName": "mount morris",
    "state": "IL"
  },
  {
    "city": "albany",
    "state_code": "IL",
    "placeMasterId": "P02500000FsoF1CtTstiEvlhimv5XPvO07TIjsMJ",
    "placeName": "albany",
    "state": "IL"
  },
  {
    "city": "hampton",
    "state_code": "IL",
    "placeMasterId": "P02500000FsoF43p1wpFwfmbCr9ztdimo5DtHc9j",
    "placeName": "hampton",
    "state": "IL"
  },
  {
    "city": "malden",
    "state_code": "IL",
    "placeMasterId": "P02500000FsoF5UHnyn1nXn2wtHS4kcWs3mp3mbx",
    "placeName": "malden",
    "state": "IL"
  },
  {
    "city": "marseilles",
    "state_code": "IL",
    "placeMasterId": "P02500000FsoF5d8HaBbaEOI7h5nUf6sHhYsJgJv",
    "placeName": "marseilles",
    "state": "IL"
  },
  {
    "city": "east galesburg",
    "state_code": "IL",
    "placeMasterId": "P02500000FsoF33tgj3DRrZszETZyGIBctT5lgwF",
    "placeName": "east galesburg",
    "state": "IL"
  },
  {
    "city": "la harpe",
    "state_code": "IL",
    "placeMasterId": "P02500000FsoF4m3Pxo8s6mp4sDizCAi18dBSDuX",
    "placeName": "la harpe",
    "state": "IL"
  },
  {
    "city": "wyoming",
    "state_code": "IL",
    "placeMasterId": "P02500000FsoF8ubGSIse2Cv8Alk6cNQ4YzHaTQ2",
    "placeName": "wyoming",
    "state": "IL"
  },
  {
    "city": "norris",
    "state_code": "IL",
    "placeMasterId": "P02500000FsoF6LMfbAUVfOVzi9WaDYhQVeJ8AdR",
    "placeName": "norris",
    "state": "IL"
  },
  {
    "city": "peoria",
    "state_code": "IL",
    "placeMasterId": "P02500000FsoF6lu6PMDrjCFW7aYpx1p1lcvPgcL",
    "placeName": "peoria",
    "state": "IL"
  },
  {
    "city": "bloomington",
    "state_code": "IL",
    "placeMasterId": "P02500000FsoF1v7rtsbAMlvanyocyNBnxxFGPjX",
    "placeName": "bloomington",
    "state": "IL"
  },
  {
    "city": "wapella",
    "state_code": "IL",
    "placeMasterId": "P02500000FsoF8U3pe79HyPBblKhqsuJaSAo3IU7",
    "placeName": "wapella",
    "state": "IL"
  },
  {
    "city": "seymour",
    "state_code": "IL",
    "placeMasterId": "P02500000FsoF7cyy1jgZqniYwSdLPy3RggWWAXU",
    "placeName": "seymour",
    "state": "IL"
  },
  {
    "city": "atwood",
    "state_code": "IL",
    "placeMasterId": "P02500000FsoF1UaR5groIyC4OXmNEu5V2P3f16c",
    "placeName": "atwood",
    "state": "IL"
  },
  {
    "city": "oakland",
    "state_code": "IL",
    "placeMasterId": "P02500000FsoF6LMfbAUVfOVzi9WaDYjvl4Aifua",
    "placeName": "oakland",
    "state": "IL"
  },
  {
    "city": "paris",
    "state_code": "IL",
    "placeMasterId": "P02500000FsoF6d3cnxe52b0LJmDQ2XSh9Gm8Tfj",
    "placeName": "paris",
    "state": "IL"
  },
  {
    "city": "eagarville",
    "state_code": "IL",
    "placeMasterId": "P02500000FsoF33tgj3DRrZszETZyGIBPuFohiws",
    "placeName": "eagarville",
    "state": "IL"
  },
  {
    "city": "east alton",
    "state_code": "IL",
    "placeMasterId": "P02500000FsoF33tgj3DRrZszETZyGIDGtUXr7FV",
    "placeName": "east alton",
    "state": "IL"
  },
  {
    "city": "glen carbon",
    "state_code": "IL",
    "placeMasterId": "P02500000FsoF3uyYLQg9zBM23LeTjEO5C7TaFY4",
    "placeName": "glen carbon",
    "state": "IL"
  },
  {
    "city": "nokomis",
    "state_code": "IL",
    "placeMasterId": "P02500000FsoF6CWBzluiynGouLBAJ4OZOZ9PBGK",
    "placeName": "nokomis",
    "state": "IL"
  },
  {
    "city": "ellis grove",
    "state_code": "IL",
    "placeMasterId": "P02500000FsoF3CkAKRnEYB8A2HvOAmbOQJgxHPB",
    "placeName": "ellis grove",
    "state": "IL"
  },
  {
    "city": "fults",
    "state_code": "IL",
    "placeMasterId": "P02500000FsoF3dHb8dWabyrgRixduFgavh2P0Xl",
    "placeName": "fults",
    "state": "IL"
  },
  {
    "city": "nebo",
    "state_code": "IL",
    "placeMasterId": "P02500000FsoF6CWBzluiynGouLBAJ4LIb7xjr0r",
    "placeName": "nebo",
    "state": "IL"
  },
  {
    "city": "claremont",
    "state_code": "IL",
    "placeMasterId": "P02500000FsoF2dMFurU5nm9Sp2XiWp2VmnM3tCN",
    "placeName": "claremont",
    "state": "IL"
  },
  {
    "city": "olney",
    "state_code": "IL",
    "placeMasterId": "P02500000FsoF6UD9CZ4ILzlAVxs0837J42S6Q30",
    "placeName": "olney",
    "state": "IL"
  },
  {
    "city": "boody",
    "state_code": "IL",
    "placeMasterId": "P02500000FsoF1v7rtsbAMlvanyocyNDTsJ1OYf4",
    "placeName": "boody",
    "state": "IL"
  },
  {
    "city": "tovey",
    "state_code": "IL",
    "placeMasterId": "P02500000FsoF8LDM2iZVHnwQxWMQyPuUeIGyGaD",
    "placeName": "tovey",
    "state": "IL"
  },
  {
    "city": "dix",
    "state_code": "IL",
    "placeMasterId": "P02500000FsoF33tgj3DRrZszETZyGI9wdyn52LD",
    "placeName": "dix",
    "state": "IL"
  },
  {
    "city": "mount vernon",
    "state_code": "IL",
    "placeMasterId": "P02500000FsoF63fiONKwIC1e6WpkOZx9mHYKCh0",
    "placeName": "mount vernon",
    "state": "IL"
  },
  {
    "city": "wayne city",
    "state_code": "IL",
    "placeMasterId": "P02500000FsoF8cuJFVj4f0QmZ93GnOgR8TKeyZO",
    "placeName": "wayne city",
    "state": "IL"
  },
  {
    "city": "carrier mills",
    "state_code": "IL",
    "placeMasterId": "P02500000FsoF2Cop6fkjjyPwPbVSnLytOjiNUr7",
    "placeName": "carrier mills",
    "state": "IL"
  },
  {
    "city": "thebes",
    "state_code": "IL",
    "placeMasterId": "P02500000FsoF83WOpvPvubS5Ltfb9RELGGu9c0u",
    "placeName": "thebes",
    "state": "IL"
  },
  {
    "city": "willisville",
    "state_code": "IL",
    "placeMasterId": "P02500000FsoF8lkmquIrLbfxMxOght3BFIluliV",
    "placeName": "willisville",
    "state": "IL"
  },
  {
    "city": "chesterfield",
    "state_code": "MO",
    "placeMasterId": "P02500000FsoFja7yTBDScaoueSWVmH1vwiPuc8U",
    "placeName": "chesterfield",
    "state": "MO"
  },
  {
    "city": "florissant",
    "state_code": "MO",
    "placeMasterId": "P02500000FsoFka3JgxFxQnX8H8wR9hSzzannq42",
    "placeName": "florissant",
    "state": "MO"
  },
  {
    "city": "new haven",
    "state_code": "MO",
    "placeMasterId": "P02500000FsoFmZu08VKx3CxZWVmHuYl4KH594Tb",
    "placeName": "new haven",
    "state": "MO"
  },
  {
    "city": "sullivan",
    "state_code": "MO",
    "placeMasterId": "P02500000FsoFnrWIZ4X1EcA8kot36y2fdWclnRT",
    "placeName": "sullivan",
    "state": "MO"
  },
  {
    "city": "foristell",
    "state_code": "MO",
    "placeMasterId": "P02500000FsoFka3JgxFxQnX8H8wR9hUi3xYVTan",
    "placeName": "foristell",
    "state": "MO"
  },
  {
    "city": "o'fallon",
    "state_code": "MO",
    "placeMasterId": "P02500000FsoFmikTjtujjoCkKK7hp39rQSxAeFI",
    "placeName": "o'fallon",
    "state": "MO"
  },
  {
    "city": "hunnewell",
    "state_code": "MO",
    "placeMasterId": "P02500000FsoFlIHhhw8srnl0ICfWi9QjQZDBvcr",
    "placeName": "hunnewell",
    "state": "MO"
  },
  {
    "city": "la belle",
    "state_code": "MO",
    "placeMasterId": "P02500000FsoFlZyeujISF0FLtpMMX88LJNTdYQh",
    "placeName": "la belle",
    "state": "MO"
  },
  {
    "city": "callao",
    "state_code": "MO",
    "placeMasterId": "P02500000FsoFjRHUrmdfvzZjqeB5rmVhcVqLBbm",
    "placeName": "callao",
    "state": "MO"
  },
  {
    "city": "independence",
    "state_code": "MO",
    "placeMasterId": "P02500000FsoFlIHhhw8srnl0ICfWi9RhRk5k6hJ",
    "placeName": "independence",
    "state": "MO"
  },
  {
    "city": "odessa",
    "state_code": "MO",
    "placeMasterId": "P02500000FsoFmikTjtujjoCkKK7hp30omCcC4NG",
    "placeName": "odessa",
    "state": "MO"
  },
  {
    "city": "kansas city",
    "state_code": "MO",
    "placeMasterId": "P02500000FsoFlR8BJKifYP0B610wcdmJLAheztV",
    "placeName": "kansas city",
    "state": "MO"
  },
  {
    "city": "kansas city",
    "state_code": "MO",
    "placeMasterId": "P02500000FsoFlR8BJKifYP0B610wcdmJLAheztV",
    "placeName": "kansas city",
    "state": "MO"
  },
  {
    "city": "edgerton",
    "state_code": "MO",
    "placeMasterId": "P02500000FsoFk9VsslWbMznbrhuBQETOpSJEt94",
    "placeName": "edgerton",
    "state": "MO"
  },
  {
    "city": "rea",
    "state_code": "MO",
    "placeMasterId": "P02500000FsoFn9HuY5e5nbwGjl9xYWFhDJsPJYY",
    "placeName": "rea",
    "state": "MO"
  },
  {
    "city": "laredo",
    "state_code": "MO",
    "placeMasterId": "P02500000FsoFlrfc7WS1cCjhVS3CM6lw9lFA0Zy",
    "placeName": "laredo",
    "state": "MO"
  },
  {
    "city": "el dorado springs",
    "state_code": "MO",
    "placeMasterId": "P02500000FsoFkIMMUA6O3b2mfWFbKikbGcFjtLs",
    "placeName": "el dorado springs",
    "state": "MO"
  },
  {
    "city": "fairview",
    "state_code": "MO",
    "placeMasterId": "P02500000FsoFkIMMUA6O3b2mfWFbKiq47UsRqGv",
    "placeName": "fairview",
    "state": "MO"
  },
  {
    "city": "osage beach",
    "state_code": "MO",
    "placeMasterId": "P02500000FsoFmraxLIUWQPRv88T7jXRKMiiH3Wy",
    "placeName": "osage beach",
    "state": "MO"
  },
  {
    "city": "auxvasse",
    "state_code": "MO",
    "placeMasterId": "P02500000FsoFirtaSCKXBab2dOnQDp7kAddkR1r",
    "placeName": "auxvasse",
    "state": "MO"
  },
  {
    "city": "fayette",
    "state_code": "MO",
    "placeMasterId": "P02500000FsoFkIMMUA6O3b2mfWFbKirRu5QJSKH",
    "placeName": "fayette",
    "state": "MO"
  },
  {
    "city": "bakersfield",
    "state_code": "MO",
    "placeMasterId": "P02500000FsoFirtaSCKXBab2dOnQDp9JACuGb8c",
    "placeName": "bakersfield",
    "state": "MO"
  },
  {
    "city": "eagle rock",
    "state_code": "MO",
    "placeMasterId": "P02500000FsoFk9VsslWbMznbrhuBQELoYnC1XDj",
    "placeName": "eagle rock",
    "state": "MO"
  },
  {
    "city": "springfield",
    "state_code": "MO",
    "placeMasterId": "P02500000FsoFnifoxfxEY0uxx0XdCTlHDhP1BxY",
    "placeName": "springfield",
    "state": "MO"
  },
  {
    "city": "westphalia",
    "state_code": "KS",
    "placeMasterId": "P02500000FsoFMtY3Z9RbN4uCuLb3uNor4mkJbzQ",
    "placeName": "westphalia",
    "state": "KS"
  },
  {
    "city": "leawood",
    "state_code": "KS",
    "placeMasterId": "P02500000FsoFL2XqizwORGiwSn6d40xsLRnGUVa",
    "placeName": "leawood",
    "state": "KS"
  },
  {
    "city": "overland park",
    "state_code": "KS",
    "placeMasterId": "P02500000FsoFLtciLNP6YsBzHfB8WxB9BAanqbl",
    "placeName": "overland park",
    "state": "KS"
  },
  {
    "city": "havensville",
    "state_code": "KS",
    "placeMasterId": "P02500000FsoFKc0PuoD2NSzQ3M4NKXrrBdTzJzj",
    "placeName": "havensville",
    "state": "KS"
  },
  {
    "city": "lyndon",
    "state_code": "KS",
    "placeMasterId": "P02500000FsoFLBOKKOWB7ry7GbS2yVLs6ntFvCw",
    "placeName": "lyndon",
    "state": "KS"
  },
  {
    "city": "milford",
    "state_code": "KS",
    "placeMasterId": "P02500000FsoFLT5HXBfkV4SSsE8snU8RkMYB9Y1",
    "placeName": "milford",
    "state": "KS"
  },
  {
    "city": "oketo",
    "state_code": "KS",
    "placeMasterId": "P02500000FsoFLkmEjypJsGwoTqpicSoSoXbBigm",
    "placeName": "oketo",
    "state": "KS"
  },
  {
    "city": "paxico",
    "state_code": "KS",
    "placeMasterId": "P02500000FsoFM2TBwlytFTRA5TWYRRZ5eqn3H9E",
    "placeName": "paxico",
    "state": "KS"
  },
  {
    "city": "seneca",
    "state_code": "KS",
    "placeMasterId": "P02500000FsoFMT0ckxiFJHAgUuYoAufkSo5Oy7s",
    "placeName": "seneca",
    "state": "KS"
  },
  {
    "city": "soldier",
    "state_code": "KS",
    "placeMasterId": "P02500000FsoFMKA99Z8ScfvVh6DOGQMis48Hb6h",
    "placeName": "soldier",
    "state": "KS"
  },
  {
    "city": "topeka",
    "state_code": "KS",
    "placeMasterId": "P02500000FsoFMbr6MMI1zsPrIiuE5P2hY2Q28N9",
    "placeName": "topeka",
    "state": "KS"
  },
  {
    "city": "humboldt",
    "state_code": "KS",
    "placeMasterId": "P02500000FsoFKkqtWCmp44EarAPnF2HN59oXbOm",
    "placeName": "humboldt",
    "state": "KS"
  },
  {
    "city": "scammon",
    "state_code": "KS",
    "placeMasterId": "P02500000FsoFMBJfYAYfw4gKtHryLvyEMnhkrf8",
    "placeName": "scammon",
    "state": "KS"
  },
  {
    "city": "gridley",
    "state_code": "KS",
    "placeMasterId": "P02500000FsoFKT9wJPdFgrkFFXixQ3UWs7dztif",
    "placeName": "gridley",
    "state": "KS"
  },
  {
    "city": "esbon",
    "state_code": "KS",
    "placeMasterId": "P02500000FsoFKBSz6cTgJfFtdv27b4jia3hh7tg",
    "placeName": "esbon",
    "state": "KS"
  },
  {
    "city": "jamestown",
    "state_code": "KS",
    "placeMasterId": "P02500000FsoFKthN7bMbkfTleylD9WbOdxoToFm",
    "placeName": "jamestown",
    "state": "KS"
  },
  {
    "city": "webber",
    "state_code": "KS",
    "placeMasterId": "P02500000FsoFMkhZxkrogTf26XFdztSstXfy94q",
    "placeName": "webber",
    "state": "KS"
  },
  {
    "city": "colwich",
    "state_code": "KS",
    "placeMasterId": "P02500000FsoFJkvYIQkKFrWNETzrrbgkilI5q5j",
    "placeName": "colwich",
    "state": "KS"
  },
  {
    "city": "derby",
    "state_code": "KS",
    "placeMasterId": "P02500000FsoFJtm1tpK6wSlY2ILHm61FDn9PHYD",
    "placeName": "derby",
    "state": "KS"
  },
  {
    "city": "iuka",
    "state_code": "KS",
    "placeMasterId": "P02500000FsoFKthN7bMbkfTleylD9WZuNX4qjq7",
    "placeName": "iuka",
    "state": "KS"
  },
  {
    "city": "nashville",
    "state_code": "KS",
    "placeMasterId": "P02500000FsoFLT5HXBfkV4SSsE8snU8FJh4oeXO",
    "placeName": "nashville",
    "state": "KS"
  },
  {
    "city": "havana",
    "state_code": "KS",
    "placeMasterId": "P02500000FsoFKT9wJPdFgrkFFXixQ3XogHDgzoI",
    "placeName": "havana",
    "state": "KS"
  },
  {
    "city": "gypsum",
    "state_code": "KS",
    "placeMasterId": "P02500000FsoFKT9wJPdFgrkFFXixQ3U0TS2BbAM",
    "placeName": "gypsum",
    "state": "KS"
  },
  {
    "city": "tescott",
    "state_code": "KS",
    "placeMasterId": "P02500000FsoFMT0ckxiFJHAgUuYoAuhZ1eJZeBg",
    "placeName": "tescott",
    "state": "KS"
  },
  {
    "city": "windom",
    "state_code": "KS",
    "placeMasterId": "P02500000FsoFMtY3Z9RbN4uCuLb3uNorUXLqpos",
    "placeName": "windom",
    "state": "KS"
  },
  {
    "city": "natoma",
    "state_code": "KS",
    "placeMasterId": "P02500000FsoFLbvl8aFXBfhdg2UIhyVddCcGdU1",
    "placeName": "natoma",
    "state": "KS"
  },
  {
    "city": "palco",
    "state_code": "KS",
    "placeMasterId": "P02500000FsoFLtciLNP6YsBzHfB8WxBA6xjjBTP",
    "placeName": "palco",
    "state": "KS"
  },
  {
    "city": "phillipsburg",
    "state_code": "KS",
    "placeMasterId": "P02500000FsoFLtciLNP6YsBzHfB8WxCuqI7VuIw",
    "placeName": "phillipsburg",
    "state": "KS"
  },
  {
    "city": "selden",
    "state_code": "KS",
    "placeMasterId": "P02500000FsoFMT0ckxiFJHAgUuYoAufGIeQZCOw",
    "placeName": "selden",
    "state": "KS"
  },
  {
    "city": "marienthal",
    "state_code": "KS",
    "placeMasterId": "P02500000FsoFLT5HXBfkV4SSsE8snU4lWGNJ8PK",
    "placeName": "marienthal",
    "state": "KS"
  },
  {
    "city": "richfield",
    "state_code": "KS",
    "placeMasterId": "P02500000FsoFMBJfYAYfw4gKtHryLvvetXyNROy",
    "placeName": "richfield",
    "state": "KS"
  },
  {
    "city": "ithaca",
    "state_code": "NE",
    "placeMasterId": "P02500000FsoFsQbZrl09DpziSnwQGdvMqN6J3M6",
    "placeName": "ithaca",
    "state": "NE"
  },
  {
    "city": "valley",
    "state_code": "NE",
    "placeMasterId": "P02500000FsoFtr4Ltim05qRSUvObNXlrZ0c1VoT",
    "placeName": "valley",
    "state": "NE"
  },
  {
    "city": "winslow",
    "state_code": "NE",
    "placeMasterId": "P02500000FsoFtzupV7LmmRgdIjk1I26oGgaLnEj",
    "placeName": "winslow",
    "state": "NE"
  },
  {
    "city": "omaha",
    "state_code": "NE",
    "placeMasterId": "P02500000FsoFszzUHLJHyEyPg3K5ubV6FuzuT2T",
    "placeName": "omaha",
    "state": "NE"
  },
  {
    "city": "blue springs",
    "state_code": "NE",
    "placeMasterId": "P02500000FsoFr8zHRBo52Qn9EUpf4EX4oeocQ3i",
    "placeName": "blue springs",
    "state": "NE"
  },
  {
    "city": "clatonia",
    "state_code": "NE",
    "placeMasterId": "P02500000FsoFrQgEdyxePdHUq7WUtDUdnQqR08S",
    "placeName": "clatonia",
    "state": "NE"
  },
  {
    "city": "cook",
    "state_code": "NE",
    "placeMasterId": "P02500000FsoFrZWiFNXR6EWfdvrunhdyewqPfdk",
    "placeName": "cook",
    "state": "NE"
  },
  {
    "city": "dawson",
    "state_code": "NE",
    "placeMasterId": "P02500000FsoFrZWiFNXR6EWfdvrunhqGMNjCD9w",
    "placeName": "dawson",
    "state": "NE"
  },
  {
    "city": "eagle",
    "state_code": "NE",
    "placeMasterId": "P02500000FsoFriNBqm7DmplqRkDKiC8eDexaf3H",
    "placeName": "eagle",
    "state": "NE"
  },
  {
    "city": "greenwood",
    "state_code": "NE",
    "placeMasterId": "P02500000FsoFs8ucexqZqdVMrBFaRf7XoKe36yE",
    "placeName": "greenwood",
    "state": "NE"
  },
  {
    "city": "ohiowa",
    "state_code": "NE",
    "placeMasterId": "P02500000FsoFszzUHLJHyEyPg3K5ubVdJvGgeJw",
    "placeName": "ohiowa",
    "state": "NE"
  },
  {
    "city": "otoe",
    "state_code": "NE",
    "placeMasterId": "P02500000FsoFt8pxsjt4eqDaTrfVp5nDmxha2eW",
    "placeName": "otoe",
    "state": "NE"
  },
  {
    "city": "pleasant dale",
    "state_code": "NE",
    "placeMasterId": "P02500000FsoFt8pxsjt4eqDaTrfVp5sVyuiu4Jn",
    "placeName": "pleasant dale",
    "state": "NE"
  },
  {
    "city": "staplehurst",
    "state_code": "NE",
    "placeMasterId": "P02500000FsoFtiDsIKCDPFCHh73BT3E2pW1SFj5",
    "placeName": "staplehurst",
    "state": "NE"
  },
  {
    "city": "table rock",
    "state_code": "NE",
    "placeMasterId": "P02500000FsoFtiDsIKCDPFCHh73BT3PmHq4TsGX",
    "placeName": "table rock",
    "state": "NE"
  },
  {
    "city": "stuart",
    "state_code": "NE",
    "placeMasterId": "P02500000FsoFtiDsIKCDPFCHh73BT3LQMJdrhXB",
    "placeName": "stuart",
    "state": "NE"
  },
  {
    "city": "shelton",
    "state_code": "NE",
    "placeMasterId": "P02500000FsoFtZNOgvcQidx6tIhlYYtkO3ol2fH",
    "placeName": "shelton",
    "state": "NE"
  },
  {
    "city": "arapahoe",
    "state_code": "NE",
    "placeMasterId": "P02500000FsoFqrIKEOeVfEIncs8pFFrLWVIZKcv",
    "placeName": "arapahoe",
    "state": "NE"
  },
  {
    "city": "bertrand",
    "state_code": "NE",
    "placeMasterId": "P02500000FsoFr08npnEILpXyQgUF9kKTAEvW0NC",
    "placeName": "bertrand",
    "state": "NE"
  },
  {
    "city": "slidell",
    "state_code": "LA",
    "placeMasterId": "P02500000FsoFSbP9h0X0r6hB2pPmLyrBkBqtHfA",
    "placeName": "slidell",
    "state": "LA"
  },
  {
    "city": "church point",
    "state_code": "LA",
    "placeMasterId": "P02500000FsoFQbYTFSS1EhGjnSZvb7gGAgdynmz",
    "placeName": "church point",
    "state": "LA"
  },
  {
    "city": "delcambre",
    "state_code": "LA",
    "placeMasterId": "P02500000FsoFQtFQSFbabtl5P5GlQ6CIlGx8zUM",
    "placeName": "delcambre",
    "state": "LA"
  },
  {
    "city": "ville platte",
    "state_code": "LA",
    "placeMasterId": "P02500000FsoFSt66tngaEJBWeS6cAxUXepOcA4A",
    "placeName": "ville platte",
    "state": "LA"
  },
  {
    "city": "cameron",
    "state_code": "LA",
    "placeMasterId": "P02500000FsoFQShze3sEY61YzeEVgdF1QzZ6lxL",
    "placeName": "cameron",
    "state": "LA"
  },
  {
    "city": "hayes",
    "state_code": "LA",
    "placeMasterId": "P02500000FsoFRJmrGRKwfhUboWJ19ZNzFVIf4hO",
    "placeName": "hayes",
    "state": "LA"
  },
  {
    "city": "new roads",
    "state_code": "LA",
    "placeMasterId": "P02500000FsoFS21FHQDs6hiTpa26i1MuhkWM1HE",
    "placeName": "new roads",
    "state": "LA"
  },
  {
    "city": "shreveport",
    "state_code": "LA",
    "placeMasterId": "P02500000FsoFSbP9h0X0r6hB2pPmLynLJaoEkpz",
    "placeName": "shreveport",
    "state": "LA"
  },
  {
    "city": "bonita",
    "state_code": "LA",
    "placeMasterId": "P02500000FsoFQShze3sEY61YzeEVgd8BHj7GNiY",
    "placeName": "bonita",
    "state": "LA"
  },
  {
    "city": "delta",
    "state_code": "LA",
    "placeMasterId": "P02500000FsoFQkOwqr1nvIVubGvLVbzO9EBLyB3",
    "placeName": "delta",
    "state": "LA"
  },
  {
    "city": "ruston",
    "state_code": "LA",
    "placeMasterId": "P02500000FsoFSSYg5bxEAVS0F14MRUKT6pqAX8z",
    "placeName": "ruston",
    "state": "LA"
  },
  {
    "city": "anacoco",
    "state_code": "LA",
    "placeMasterId": "P02500000FsoFQB12RGifAtXDO1XfreViAXrlz2O",
    "placeName": "anacoco",
    "state": "LA"
  },
  {
    "city": "boyce",
    "state_code": "LA",
    "placeMasterId": "P02500000FsoFQShze3sEY61YzeEVgdBskl3SXI0",
    "placeName": "boyce",
    "state": "LA"
  },
  {
    "city": "hornbeck",
    "state_code": "LA",
    "placeMasterId": "P02500000FsoFRSdKrpujMIjmcKeR43kZY8suFf3",
    "placeName": "hornbeck",
    "state": "LA"
  },
  {
    "city": "white hall",
    "state_code": "AR",
    "placeMasterId": "P02500000FsoEdNXk9hK6BRpccJOkG7MmgNBKxKa",
    "placeName": "white hall",
    "state": "AR"
  },
  {
    "city": "emerson",
    "state_code": "AR",
    "placeMasterId": "P02500000FsoEbNh3i9F6Z2PBMwYtVG8voEGaMsk",
    "placeName": "emerson",
    "state": "AR"
  },
  {
    "city": "harrell",
    "state_code": "AR",
    "placeMasterId": "P02500000FsoEboEUWKyScq8hmNb9EjF9fCJf1jB",
    "placeName": "harrell",
    "state": "AR"
  },
  {
    "city": "rosston",
    "state_code": "AR",
    "placeMasterId": "P02500000FsoEcx0JLVak7e66CsMUWeDBAadxPRN",
    "placeName": "rosston",
    "state": "AR"
  },
  {
    "city": "cove",
    "state_code": "AR",
    "placeMasterId": "P02500000FsoEb606VM5XBpuplJs3gHRSE1yD6os",
    "placeName": "cove",
    "state": "AR"
  },
  {
    "city": "arkadelphia",
    "state_code": "AR",
    "placeMasterId": "P02500000FsoEafSfhAMB82BJLspnwoGk7NDPMiB",
    "placeName": "arkadelphia",
    "state": "AR"
  },
  {
    "city": "tupelo",
    "state_code": "AR",
    "placeMasterId": "P02500000FsoEdEhGYIkJUqaRoV3KLd0TLdapZqi",
    "placeName": "tupelo",
    "state": "AR"
  },
  {
    "city": "caldwell",
    "state_code": "AR",
    "placeMasterId": "P02500000FsoEaoJ9IYvxodQU9hBDrIhO9RseXUl",
    "placeName": "caldwell",
    "state": "AR"
  },
  {
    "city": "black rock",
    "state_code": "AR",
    "placeMasterId": "P02500000FsoEafSfhAMB82BJLspnwoK73k7f9MW",
    "placeName": "black rock",
    "state": "AR"
  },
  {
    "city": "bono",
    "state_code": "AR",
    "placeMasterId": "P02500000FsoEaoJ9IYvxodQU9hBDrIdtkKbynIA",
    "placeName": "bono",
    "state": "AR"
  },
  {
    "city": "fisher",
    "state_code": "AR",
    "placeMasterId": "P02500000FsoEbWXXJXotFdeMAkuJPkVUl21GN2K",
    "placeName": "fisher",
    "state": "AR"
  },
  {
    "city": "lake city",
    "state_code": "AR",
    "placeMasterId": "P02500000FsoEc5vRj88202d3O0Hz3hzFNWnYMZm",
    "placeName": "lake city",
    "state": "AR"
  },
  {
    "city": "evening shade",
    "state_code": "AR",
    "placeMasterId": "P02500000FsoEbNh3i9F6Z2PBMwYtVG8Th12WCZF",
    "placeName": "evening shade",
    "state": "AR"
  },
  {
    "city": "bella vista",
    "state_code": "AR",
    "placeMasterId": "P02500000FsoEafSfhAMB82BJLspnwoJfdILTMtV",
    "placeName": "bella vista",
    "state": "AR"
  },
  {
    "city": "hindsville",
    "state_code": "AR",
    "placeMasterId": "P02500000FsoEboEUWKyScq8hmNb9EjGIEcUfHGT",
    "placeName": "hindsville",
    "state": "AR"
  },
  {
    "city": "rogers",
    "state_code": "AR",
    "placeMasterId": "P02500000FsoEco9pk70xR2qvP414c9rQgCn4hbf",
    "placeName": "rogers",
    "state": "AR"
  },
  {
    "city": "russellville",
    "state_code": "AR",
    "placeMasterId": "P02500000FsoEd5qmwuAWoFLH0ghuR8ZSZ23vNjr",
    "placeName": "russellville",
    "state": "AR"
  },
  {
    "city": "magazine",
    "state_code": "AR",
    "placeMasterId": "P02500000FsoEcElvKWhogdsEBodOyCMnOwe3FVT",
    "placeName": "magazine",
    "state": "AR"
  },
  {
    "city": "carnegie",
    "state_code": "OK",
    "placeMasterId": "P02500000FsoGKXLdgqhqaBD2jlzkl94One0V8lt",
    "placeName": "carnegie",
    "state": "OK"
  },
  {
    "city": "eakly",
    "state_code": "OK",
    "placeMasterId": "P02500000FsoGKxt4V2RCdywZ9D20UcM4O4iaqRN",
    "placeName": "eakly",
    "state": "OK"
  },
  {
    "city": "gotebo",
    "state_code": "OK",
    "placeMasterId": "P02500000FsoGLOQVJEAYhmg5Ye4GE5V5qb9U1BW",
    "placeName": "gotebo",
    "state": "OK"
  },
  {
    "city": "orlando",
    "state_code": "OK",
    "placeMasterId": "P02500000FsoGMg2njnMctBsemxB1QUhLV6gxlbN",
    "placeName": "orlando",
    "state": "OK"
  },
  {
    "city": "oklahoma city",
    "state_code": "OK",
    "placeMasterId": "P02500000FsoGMg2njnMctBsemxB1QUgVkw3g3BI",
    "placeName": "oklahoma city",
    "state": "OK"
  },
  {
    "city": "oklahoma city",
    "state_code": "OK",
    "placeMasterId": "P02500000FsoGMg2njnMctBsemxB1QUgVkw3g3BI",
    "placeName": "oklahoma city",
    "state": "OK"
  },
  {
    "city": "loco",
    "state_code": "OK",
    "placeMasterId": "P02500000FsoGLxoPioThSBemltRvs2wvVcEaume",
    "placeName": "loco",
    "state": "OK"
  },
  {
    "city": "thackerville",
    "state_code": "OK",
    "placeMasterId": "P02500000FsoGNfy8xZP7hOasPdawnvD6CeERFxU",
    "placeName": "thackerville",
    "state": "OK"
  },
  {
    "city": "manitou",
    "state_code": "OK",
    "placeMasterId": "P02500000FsoGM6etKD3U8mtxZhnLmXJ1NBjtj0Y",
    "placeName": "manitou",
    "state": "OK"
  },
  {
    "city": "temple",
    "state_code": "OK",
    "placeMasterId": "P02500000FsoGNX7fMApL0nLhbpFWtQxsRMVc69m",
    "placeName": "temple",
    "state": "OK"
  },
  {
    "city": "sayre",
    "state_code": "OK",
    "placeMasterId": "P02500000FsoGNFQi9NfldarM0CYh4SEoWGWCbsc",
    "placeName": "sayre",
    "state": "OK"
  },
  {
    "city": "garber",
    "state_code": "OK",
    "placeMasterId": "P02500000FsoGLFa1hpam1BQukpiqJb3FDSf9Dau",
    "placeName": "garber",
    "state": "OK"
  },
  {
    "city": "goltry",
    "state_code": "OK",
    "placeMasterId": "P02500000FsoGLOQVJEAYhmg5Ye4GE5HHpddJEMz",
    "placeName": "goltry",
    "state": "OK"
  },
  {
    "city": "bartlesville",
    "state_code": "OK",
    "placeMasterId": "P02500000FsoGK6oCseyUWNTWKKxV1fx8EaeEA0P",
    "placeName": "bartlesville",
    "state": "OK"
  },
  {
    "city": "tulsa",
    "state_code": "OK",
    "placeMasterId": "P02500000FsoGNfy8xZP7hOasPdawnvKembwKfLR",
    "placeName": "tulsa",
    "state": "OK"
  },
  {
    "city": "salina",
    "state_code": "OK",
    "placeMasterId": "P02500000FsoGNFQi9NfldarM0CYh4S9tgyiATIa",
    "placeName": "salina",
    "state": "OK"
  },
  {
    "city": "fort gibson",
    "state_code": "OK",
    "placeMasterId": "P02500000FsoGLFa1hpam1BQukpiqJazcrLjGDOF",
    "placeName": "fort gibson",
    "state": "OK"
  },
  {
    "city": "webbers falls",
    "state_code": "OK",
    "placeMasterId": "P02500000FsoGNxf6AMYh4b5E1GHmcu4G1empJCu",
    "placeName": "webbers falls",
    "state": "OK"
  },
  {
    "city": "burbank",
    "state_code": "OK",
    "placeMasterId": "P02500000FsoGKFegU3YHCyih89IuwAUwxFV0z0p",
    "placeName": "burbank",
    "state": "OK"
  },
  {
    "city": "calera",
    "state_code": "OK",
    "placeMasterId": "P02500000FsoGKOVA5S83tZxrvxeKqelX1mE6zxd",
    "placeName": "calera",
    "state": "OK"
  },
  {
    "city": "boley",
    "state_code": "OK",
    "placeMasterId": "P02500000FsoGK6oCseyUWNTWKKxV1g78vZqImnt",
    "placeName": "boley",
    "state": "OK"
  },
  {
    "city": "chandler",
    "state_code": "OK",
    "placeMasterId": "P02500000FsoGKXLdgqhqaBD2jlzkl9F213AEO1U",
    "placeName": "chandler",
    "state": "OK"
  },
  {
    "city": "tryon",
    "state_code": "OK",
    "placeMasterId": "P02500000FsoGNfy8xZP7hOasPdawnvJdTGUjcAV",
    "placeName": "tryon",
    "state": "OK"
  },
  {
    "city": "wetumka",
    "state_code": "OK",
    "placeMasterId": "P02500000FsoGNxf6AMYh4b5E1GHmcu9mLq4YjXv",
    "placeName": "wetumka",
    "state": "OK"
  },
  {
    "city": "irving",
    "state_code": "TX",
    "placeMasterId": "P02500000FsoGmVFDuXplFvBCCvhfL9vyF5GYbVg",
    "placeName": "irving",
    "state": "TX"
  },
  {
    "city": "bardwell",
    "state_code": "TX",
    "placeMasterId": "P02500000FsoGieOKcqFYhhZUW0NNjvuQEaprBzb",
    "placeName": "bardwell",
    "state": "TX"
  },
  {
    "city": "rice",
    "state_code": "TX",
    "placeMasterId": "P02500000FsoGpmiCmf6p3joCgbeHIQYWp4Q73TZ",
    "placeName": "rice",
    "state": "TX"
  },
  {
    "city": "dallas",
    "state_code": "TX",
    "placeMasterId": "P02500000FsoGkMY3rbAywuVa9kWOfoNE7vnQ9N4",
    "placeName": "dallas",
    "state": "TX"
  },
  {
    "city": "dallas",
    "state_code": "TX",
    "placeMasterId": "P02500000FsoGkMY3rbAywuVa9kWOfoNE7vnQ9N4",
    "placeName": "dallas",
    "state": "TX"
  },
  {
    "city": "dallas",
    "state_code": "TX",
    "placeMasterId": "P02500000FsoGkMY3rbAywuVa9kWOfoNE7vnQ9N4",
    "placeName": "dallas",
    "state": "TX"
  },
  {
    "city": "bailey",
    "state_code": "TX",
    "placeMasterId": "P02500000FsoGieOKcqFYhhZUW0NNjw115cW3kAi",
    "placeName": "bailey",
    "state": "TX"
  },
  {
    "city": "longview",
    "state_code": "TX",
    "placeMasterId": "P02500000FsoGne12jiS2kj8adQT0d4nkfnqiUqY",
    "placeName": "longview",
    "state": "TX"
  },
  {
    "city": "rusk",
    "state_code": "TX",
    "placeMasterId": "P02500000FsoGq4P9zSGOQwIYIEL77PDGh9StEgL",
    "placeName": "rusk",
    "state": "TX"
  },
  {
    "city": "arlington",
    "state_code": "TX",
    "placeMasterId": "P02500000FsoGiVXr1Rfm16KJiC1xpRRvnErdMUM",
    "placeName": "arlington",
    "state": "TX"
  },
  {
    "city": "fort worth",
    "state_code": "TX",
    "placeMasterId": "P02500000FsoGlMTP5NDTl7DnmQwK3EqQnKzuFlE",
    "placeName": "fort worth",
    "state": "TX"
  },
  {
    "city": "denton",
    "state_code": "TX",
    "placeMasterId": "P02500000FsoGkVOXSzkldVkkxYroaIiDEuDBMlN",
    "placeName": "denton",
    "state": "TX"
  },
  {
    "city": "lindsay",
    "state_code": "TX",
    "placeMasterId": "P02500000FsoGnMK5WvITNWeF1nmAo6G98kuhUKi",
    "placeName": "lindsay",
    "state": "TX"
  },
  {
    "city": "byers",
    "state_code": "TX",
    "placeMasterId": "P02500000FsoGjMcidp8U8hnMX46TINq3nLqVGUg",
    "placeName": "byers",
    "state": "TX"
  },
  {
    "city": "eastland",
    "state_code": "TX",
    "placeMasterId": "P02500000FsoGkeF14OKYK6zvlNDEUnF7jkV4jvx",
    "placeName": "eastland",
    "state": "TX"
  },
  {
    "city": "palo pinto",
    "state_code": "TX",
    "placeMasterId": "P02500000FsoGovdLAHe6w8L9rjZlpUKdWYStSdO",
    "placeName": "palo pinto",
    "state": "TX"
  },
  {
    "city": "temple",
    "state_code": "TX",
    "placeMasterId": "P02500000FsoGr4KVDEItF90luul2Upufw1rdfm6",
    "placeName": "temple",
    "state": "TX"
  },
  {
    "city": "killeen",
    "state_code": "TX",
    "placeMasterId": "P02500000FsoGmmwB7KzKd7fXoYOVA8fb8UwhbkY",
    "placeName": "killeen",
    "state": "TX"
  },
  {
    "city": "killeen",
    "state_code": "TX",
    "placeMasterId": "P02500000FsoGmmwB7KzKd7fXoYOVA8fb8UwhbkY",
    "placeName": "killeen",
    "state": "TX"
  },
  {
    "city": "killeen",
    "state_code": "TX",
    "placeMasterId": "P02500000FsoGmmwB7KzKd7fXoYOVA8fb8UwhbkY",
    "placeName": "killeen",
    "state": "TX"
  },
  {
    "city": "salado",
    "state_code": "TX",
    "placeMasterId": "P02500000FsoGqDFdaqqB7XXj62gX1tdDQCxYZNR",
    "placeName": "salado",
    "state": "TX"
  },
  {
    "city": "aquilla",
    "state_code": "TX",
    "placeMasterId": "P02500000FsoGiVXr1Rfm16KJiC1xpRWEcymMIuq",
    "placeName": "aquilla",
    "state": "TX"
  },
  {
    "city": "houston",
    "state_code": "TX",
    "placeMasterId": "P02500000FsoGmDYGhkgBsigqbJ0pWBK8GcFdEcU",
    "placeName": "houston",
    "state": "TX"
  },
  {
    "city": "houston",
    "state_code": "TX",
    "placeMasterId": "P02500000FsoGmDYGhkgBsigqbJ0pWBK8GcFdEcU",
    "placeName": "houston",
    "state": "TX"
  },
  {
    "city": "houston",
    "state_code": "TX",
    "placeMasterId": "P02500000FsoGmDYGhkgBsigqbJ0pWBK8GcFdEcU",
    "placeName": "houston",
    "state": "TX"
  },
  {
    "city": "houston",
    "state_code": "TX",
    "placeMasterId": "P02500000FsoGmDYGhkgBsigqbJ0pWBK8GcFdEcU",
    "placeName": "houston",
    "state": "TX"
  },
  {
    "city": "houston",
    "state_code": "TX",
    "placeMasterId": "P02500000FsoGmDYGhkgBsigqbJ0pWBK8GcFdEcU",
    "placeName": "houston",
    "state": "TX"
  },
  {
    "city": "houston",
    "state_code": "TX",
    "placeMasterId": "P02500000FsoGmDYGhkgBsigqbJ0pWBK8GcFdEcU",
    "placeName": "houston",
    "state": "TX"
  },
  {
    "city": "sugar land",
    "state_code": "TX",
    "placeMasterId": "P02500000FsoGr4KVDEItF90luul2UpoULpBKzGF",
    "placeName": "sugar land",
    "state": "TX"
  },
  {
    "city": "galveston",
    "state_code": "TX",
    "placeMasterId": "P02500000FsoGlMTP5NDTl7DnmQwK3F0hv8nmEqV",
    "placeName": "galveston",
    "state": "TX"
  },
  {
    "city": "evadale",
    "state_code": "TX",
    "placeMasterId": "P02500000FsoGl4mRsa3uNujSAoFUEG723yMmeko",
    "placeName": "evadale",
    "state": "TX"
  },
  {
    "city": "stowell",
    "state_code": "TX",
    "placeMasterId": "P02500000FsoGqvU1bpj6YXlb76PcaLbQTW5NmNp",
    "placeName": "stowell",
    "state": "TX"
  },
  {
    "city": "marquez",
    "state_code": "TX",
    "placeMasterId": "P02500000FsoGnvhzwVbc7vcwF39qS3XUgKqoq8l",
    "placeName": "marquez",
    "state": "TX"
  },
  {
    "city": "port o'connor",
    "state_code": "TX",
    "placeMasterId": "P02500000FsoGpV1FZrxFgXJr4yxRTRe68GcXaJ4",
    "placeName": "port o'connor",
    "state": "TX"
  },
  {
    "city": "seadrift",
    "state_code": "TX",
    "placeMasterId": "P02500000FsoGqUwandzkUk24hfNMqsOBeQllPs3",
    "placeName": "seadrift",
    "state": "TX"
  },
  {
    "city": "san antonio",
    "state_code": "TX",
    "placeMasterId": "P02500000FsoGqM67CFPxo8mttr1wwNqfYQdpCPu",
    "placeName": "san antonio",
    "state": "TX"
  },
  {
    "city": "woodsboro",
    "state_code": "TX",
    "placeMasterId": "P02500000FsoGsD6K2OvAjwyALPWNmkl8nxRwDex",
    "placeName": "woodsboro",
    "state": "TX"
  },
  {
    "city": "corpus christi",
    "state_code": "TX",
    "placeMasterId": "P02500000FsoGkDhaGCbCGJGPLwAylJumHp42lmi",
    "placeName": "corpus christi",
    "state": "TX"
  },
  {
    "city": "lyford",
    "state_code": "TX",
    "placeMasterId": "P02500000FsoGnmrWL71pRKNlREoQXZGTByr5Aiv",
    "placeName": "lyford",
    "state": "TX"
  },
  {
    "city": "san benito",
    "state_code": "TX",
    "placeMasterId": "P02500000FsoGqDFdaqqB7XXj62gX1tXrgpvydMk",
    "placeName": "san benito",
    "state": "TX"
  },
  {
    "city": "santa rosa",
    "state_code": "TX",
    "placeMasterId": "P02500000FsoGqM67CFPxo8mttr1wwNxiVaZri6A",
    "placeName": "santa rosa",
    "state": "TX"
  },
  {
    "city": "bastrop",
    "state_code": "TX",
    "placeMasterId": "P02500000FsoGieOKcqFYhhZUW0NNjw0K26lGm62",
    "placeName": "bastrop",
    "state": "TX"
  },
  {
    "city": "georgetown",
    "state_code": "TX",
    "placeMasterId": "P02500000FsoGlVJsglnGRiSyaFHjxjL4riowMVX",
    "placeName": "georgetown",
    "state": "TX"
  },
  {
    "city": "kyle",
    "state_code": "TX",
    "placeMasterId": "P02500000FsoGmmwB7KzKd7fXoYOVA8oQaoINkk3",
    "placeName": "kyle",
    "state": "TX"
  },
  {
    "city": "wimberley",
    "state_code": "TX",
    "placeMasterId": "P02500000FsoGs4FqR0LO3LizXbAxsGTd5jE1oKP",
    "placeName": "wimberley",
    "state": "TX"
  },
  {
    "city": "austin",
    "state_code": "TX",
    "placeMasterId": "P02500000FsoGieOKcqFYhhZUW0NNjvrbzzBh3wR",
    "placeName": "austin",
    "state": "TX"
  },
  {
    "city": "austin",
    "state_code": "TX",
    "placeMasterId": "P02500000FsoGieOKcqFYhhZUW0NNjvrbzzBh3wR",
    "placeName": "austin",
    "state": "TX"
  },
  {
    "city": "laughlin afb",
    "state_code": "TX",
    "placeMasterId": "P02500000FsoGnDTbvWiggvP4DzQktbpiiXUUPs2",
    "placeName": "laughlin afb",
    "state": "TX"
  },
  {
    "city": "flatonia",
    "state_code": "TX",
    "placeMasterId": "P02500000FsoGlDcvTydh4Vycycau8kbVWFdGHvC",
    "placeName": "flatonia",
    "state": "TX"
  },
  {
    "city": "canyon",
    "state_code": "TX",
    "placeMasterId": "P02500000FsoGjVTCFDiGpJ2XKsRtCsBh4SqZp9J",
    "placeName": "canyon",
    "state": "TX"
  },
  {
    "city": "amarillo",
    "state_code": "TX",
    "placeMasterId": "P02500000FsoGiMhNQ35zKV58uNgXuxIaAeFmU4D",
    "placeName": "amarillo",
    "state": "TX"
  },
  {
    "city": "dickens",
    "state_code": "TX",
    "placeMasterId": "P02500000FsoGkeF14OKYK6zvlNDEUmzDmzadndZ",
    "placeName": "dickens",
    "state": "TX"
  },
  {
    "city": "farwell",
    "state_code": "TX",
    "placeMasterId": "P02500000FsoGlDcvTydh4Vycycau8kW7x1Olwkw",
    "placeName": "farwell",
    "state": "TX"
  },
  {
    "city": "plains",
    "state_code": "TX",
    "placeMasterId": "P02500000FsoGpDKIN4ngJKpVTMGbeT5UOfTPFd1",
    "placeName": "plains",
    "state": "TX"
  },
  {
    "city": "ralls",
    "state_code": "TX",
    "placeMasterId": "P02500000FsoGpdrjBGX2N8Z1snIrNvzJbM8SWpO",
    "placeName": "ralls",
    "state": "TX"
  },
  {
    "city": "ransom canyon",
    "state_code": "TX",
    "placeMasterId": "P02500000FsoGpdrjBGX2N8Z1snIrNw8yk9D6Ib0",
    "placeName": "ransom canyon",
    "state": "TX"
  },
  {
    "city": "odessa",
    "state_code": "TX",
    "placeMasterId": "P02500000FsoGommrYt4KFX5z3vELuzmdASlNucj",
    "placeName": "odessa",
    "state": "TX"
  },
  {
    "city": "aurora",
    "state_code": "CO",
    "placeMasterId": "P02500000FsoEmViIl4GM9tUm2HVUZT8wZbsyrI4",
    "placeName": "aurora",
    "state": "CO"
  },
  {
    "city": "denver",
    "state_code": "CO",
    "placeMasterId": "P02500000FsoEmwFjZFziDhEIRiXkIwGQWtD2cc9",
    "placeName": "denver",
    "state": "CO"
  },
  {
    "city": "denver",
    "state_code": "CO",
    "placeMasterId": "P02500000FsoEmwFjZFziDhEIRiXkIwGQWtD2cc9",
    "placeName": "denver",
    "state": "CO"
  },
  {
    "city": "longmont",
    "state_code": "CO",
    "placeMasterId": "P02500000FsoEnwB4n22D1twW4OxfgMopfGW0eOD",
    "placeName": "longmont",
    "state": "CO"
  },
  {
    "city": "loveland",
    "state_code": "CO",
    "placeMasterId": "P02500000FsoEnwB4n22D1twW4OxfgMpuUR19VkX",
    "placeName": "loveland",
    "state": "CO"
  },
  {
    "city": "fort lupton",
    "state_code": "CO",
    "placeMasterId": "P02500000FsoEnMnANRj4HUxor9a02PKJxdgNAE2",
    "placeName": "fort lupton",
    "state": "CO"
  },
  {
    "city": "hudson",
    "state_code": "CO",
    "placeMasterId": "P02500000FsoEnVddyqIqy6CzexvPwtkDcQiMYFl",
    "placeName": "hudson",
    "state": "CO"
  },
  {
    "city": "eckley",
    "state_code": "CO",
    "placeMasterId": "P02500000FsoEnDwgm39Hatie3LEa7uwr1zm2JfZ",
    "placeName": "eckley",
    "state": "CO"
  },
  {
    "city": "fleming",
    "state_code": "CO",
    "placeMasterId": "P02500000FsoEnDwgm39Hatie3LEa7v04SP9I5Gk",
    "placeName": "fleming",
    "state": "CO"
  },
  {
    "city": "bethune",
    "state_code": "CO",
    "placeMasterId": "P02500000FsoEmeYmMSq8qUjwq5quTxTUEU0tUYO",
    "placeName": "bethune",
    "state": "CO"
  },
  {
    "city": "seibert",
    "state_code": "CO",
    "placeMasterId": "P02500000FsoEoVYzCcLLmIvDHeLLKKJz0UK8O5n",
    "placeName": "seibert",
    "state": "CO"
  },
  {
    "city": "colorado springs",
    "state_code": "CO",
    "placeMasterId": "P02500000FsoEmwFjZFziDhEIRiXkIwGl9Aki2Up",
    "placeName": "colorado springs",
    "state": "CO"
  },
  {
    "city": "pueblo",
    "state_code": "CO",
    "placeMasterId": "P02500000FsoEoMiVbDlZ5hg2TpzvPpwAiu1FV6U",
    "placeName": "pueblo",
    "state": "CO"
  },
  {
    "city": "lamar",
    "state_code": "CO",
    "placeMasterId": "P02500000FsoEnnKbBdSQLIhLGacFlsRIEMNl2Oa",
    "placeName": "lamar",
    "state": "CO"
  },
  {
    "city": "springfield",
    "state_code": "CO",
    "placeMasterId": "P02500000FsoEoePSo0v8SuAO5SglEog5hxvncA2",
    "placeName": "springfield",
    "state": "CO"
  },
  {
    "city": "canon city",
    "state_code": "CO",
    "placeMasterId": "P02500000FsoEmeYmMSq8qUjwq5quTxWZzfdyPHh",
    "placeName": "canon city",
    "state": "CO"
  },
  {
    "city": "dinosaur",
    "state_code": "CO",
    "placeMasterId": "P02500000FsoEmwFjZFziDhEIRiXkIwJ0GBDxze1",
    "placeName": "dinosaur",
    "state": "CO"
  },
  {
    "city": "lingle",
    "state_code": "WY",
    "placeMasterId": "P02500000FsoH9KfcPyBPC2L4kqyX7XFfA3ZVh14",
    "placeName": "lingle",
    "state": "WY"
  },
  {
    "city": "pavillion",
    "state_code": "WY",
    "placeMasterId": "P02500000FsoH9TW61MlBsdaFYfJx21maYEz0N9T",
    "placeName": "pavillion",
    "state": "WY"
  },
  {
    "city": "declo",
    "state_code": "ID",
    "placeMasterId": "P02500000FsoF047f3j5xQxkKMQKC80QKhKy4z6e",
    "placeName": "declo",
    "state": "ID"
  },
  {
    "city": "hagerman",
    "state_code": "ID",
    "placeMasterId": "P02500000FsoF0LocGWFWoAEfy311wz6GC7r4lAp",
    "placeName": "hagerman",
    "state": "ID"
  },
  {
    "city": "idaho falls",
    "state_code": "ID",
    "placeMasterId": "P02500000FsoF0LocGWFWoAEfy311wz9dIeyRUSt",
    "placeName": "idaho falls",
    "state": "ID"
  },
  {
    "city": "grangeville",
    "state_code": "ID",
    "placeMasterId": "P02500000FsoF0LocGWFWoAEfy311wz66rWd0yBS",
    "placeName": "grangeville",
    "state": "ID"
  },
  {
    "city": "yellow pine",
    "state_code": "ID",
    "placeMasterId": "P02500000FsoF1CtTstiEvlhimv5XPvLiFVSNKqa",
    "placeName": "yellow pine",
    "state": "ID"
  },
  {
    "city": "boise",
    "state_code": "ID",
    "placeMasterId": "P02500000FsoEzvHBSKWAkMV9YbymDW1T6oUkWas",
    "placeName": "boise",
    "state": "ID"
  },
  {
    "city": "boise",
    "state_code": "ID",
    "placeMasterId": "P02500000FsoEzvHBSKWAkMV9YbymDW1T6oUkWas",
    "placeName": "boise",
    "state": "ID"
  },
  {
    "city": "laketown",
    "state_code": "UT",
    "placeMasterId": "P02500000FsoGt4BBemNsrYRDAHatFh7GaBx75VN",
    "placeName": "laketown",
    "state": "UT"
  },
  {
    "city": "layton",
    "state_code": "UT",
    "placeMasterId": "P02500000FsoGt4BBemNsrYRDAHatFh6NGKcuFMO",
    "placeName": "layton",
    "state": "UT"
  },
  {
    "city": "randolph",
    "state_code": "UT",
    "placeMasterId": "P02500000FsoGtdZ64Mh1bxPuNWyYteVbPX0TBwm",
    "placeName": "randolph",
    "state": "UT"
  },
  {
    "city": "woods cross",
    "state_code": "UT",
    "placeMasterId": "P02500000FsoGuCx0Tx0AMMObamMEXbv3ZJFu9bm",
    "placeName": "woods cross",
    "state": "UT"
  },
  {
    "city": "salt lake city",
    "state_code": "UT",
    "placeMasterId": "P02500000FsoGtmPZflGoIYf5BLJyo8m8TJqdpCK",
    "placeName": "salt lake city",
    "state": "UT"
  },
  {
    "city": "ogden",
    "state_code": "UT",
    "placeMasterId": "P02500000FsoGtUicSy7EvMAjZid8zAAtcfI8iZF",
    "placeName": "ogden",
    "state": "UT"
  },
  {
    "city": "elsinore",
    "state_code": "UT",
    "placeMasterId": "P02500000FsoGsddkqaeWnkhgkqYdWDxdT9T3ywD",
    "placeName": "elsinore",
    "state": "UT"
  },
  {
    "city": "minersville",
    "state_code": "UT",
    "placeMasterId": "P02500000FsoGtLs8rZXSEkvYluHj4fgMZPRah3Y",
    "placeName": "minersville",
    "state": "UT"
  },
  {
    "city": "phoenix",
    "state_code": "AZ",
    "placeMasterId": "P02500000FsoEZWgqrzjtdEDuvO4SetJca76kZR3",
    "placeName": "phoenix",
    "state": "AZ"
  },
  {
    "city": "scottsdale",
    "state_code": "AZ",
    "placeMasterId": "P02500000FsoEZoNo4mtT0QiGX0lITs2v218sukG",
    "placeName": "scottsdale",
    "state": "AZ"
  },
  {
    "city": "glendale",
    "state_code": "AZ",
    "placeMasterId": "P02500000FsoEYoSSr0qyCE02uKLN6RQeREgGOxx",
    "placeName": "glendale",
    "state": "AZ"
  },
  {
    "city": "avondale",
    "state_code": "AZ",
    "placeMasterId": "P02500000FsoEY6E4q1y2lDmAtGcHXzZWgAkKGIG",
    "placeName": "avondale",
    "state": "AZ"
  },
  {
    "city": "tonopah",
    "state_code": "AZ",
    "placeMasterId": "P02500000FsoEa64lHa32NdCc8dS8IqnZgMO6iyV",
    "placeName": "tonopah",
    "state": "AZ"
  },
  {
    "city": "yarnell",
    "state_code": "AZ",
    "placeMasterId": "P02500000FsoEaWcC5lmORQw8Y4UO2JtFsBh0xLJ",
    "placeName": "yarnell",
    "state": "AZ"
  },
  {
    "city": "sun city",
    "state_code": "AZ",
    "placeMasterId": "P02500000FsoEZxEHgBTFh1xRKp6iOMQscChaTSB",
    "placeName": "sun city",
    "state": "AZ"
  },
  {
    "city": "wickenburg",
    "state_code": "AZ",
    "placeMasterId": "P02500000FsoEaNliUNCbkpgxkG8y7pWS5DNJoys",
    "placeName": "wickenburg",
    "state": "AZ"
  },
  {
    "city": "payson",
    "state_code": "AZ",
    "placeMasterId": "P02500000FsoEZNqNGbA6wcyk7Zj2kOytRKLtXAf",
    "placeName": "payson",
    "state": "AZ"
  },
  {
    "city": "huachuca city",
    "state_code": "AZ",
    "placeMasterId": "P02500000FsoEYxIwSPQkspFDi8gn0vqdAWJIWzx",
    "placeName": "huachuca city",
    "state": "AZ"
  },
  {
    "city": "tucson",
    "state_code": "AZ",
    "placeMasterId": "P02500000FsoEa64lHa32NdCc8dS8IqpdZHyNtyf",
    "placeName": "tucson",
    "state": "AZ"
  },
  {
    "city": "ash fork",
    "state_code": "AZ",
    "placeMasterId": "P02500000FsoEY6E4q1y2lDmAtGcHXzbp9QKAeB2",
    "placeName": "ash fork",
    "state": "AZ"
  },
  {
    "city": "paulden",
    "state_code": "AZ",
    "placeMasterId": "P02500000FsoEZNqNGbA6wcyk7Zj2kOyQqC8nYuq",
    "placeName": "paulden",
    "state": "AZ"
  },
  {
    "city": "lake havasu city",
    "state_code": "AZ",
    "placeMasterId": "P02500000FsoEZ69Q3o0XZQUOVx2CvQEbcLwIlbq",
    "placeName": "lake havasu city",
    "state": "AZ"
  },
  {
    "city": "albuquerque",
    "state_code": "NM",
    "placeMasterId": "P02500000FsoFyHJ9b0fLOT1rP66Ycj5SoodoNbU",
    "placeName": "albuquerque",
    "state": "NM"
  },
  {
    "city": "pinehill",
    "state_code": "NM",
    "placeMasterId": "P02500000FsoFzzSsplaldfxx2qFZYbYEaJj1ANz",
    "placeName": "pinehill",
    "state": "NM"
  },
  {
    "city": "santa teresa",
    "state_code": "NM",
    "placeMasterId": "P02500000FsoG0H9q2YkL0sSIeSwPNaSyhH1LDBG",
    "placeName": "santa teresa",
    "state": "NM"
  },
  {
    "city": "hobbs",
    "state_code": "NM",
    "placeMasterId": "P02500000FsoFyzXXbzYGpTFjQ9peBBAETdrr1I3",
    "placeName": "hobbs",
    "state": "NM"
  },
  {
    "city": "alamo",
    "state_code": "NV",
    "placeMasterId": "P02500000FsoFu8lJ6VvZT2vo6Y5RCWL2fmlgB6O",
    "placeName": "alamo",
    "state": "NV"
  },
  {
    "city": "henderson",
    "state_code": "NV",
    "placeMasterId": "P02500000FsoFuQSGJJ58qFQ9iAmH1VFxDxgAeEI",
    "placeName": "henderson",
    "state": "NV"
  },
  {
    "city": "baker",
    "state_code": "NV",
    "placeMasterId": "P02500000FsoFu8lJ6VvZT2vo6Y5RCWQBGneCAlJ",
    "placeName": "baker",
    "state": "NV"
  },
  {
    "city": "hawthorne",
    "state_code": "NV",
    "placeMasterId": "P02500000FsoFuQSGJJ58qFQ9iAmH1V3bioSba81",
    "placeName": "hawthorne",
    "state": "NV"
  },
  {
    "city": "minden",
    "state_code": "NV",
    "placeMasterId": "P02500000FsoFuQSGJJ58qFQ9iAmH1VMTmRZusCC",
    "placeName": "minden",
    "state": "NV"
  },
  {
    "city": "nixon",
    "state_code": "NV",
    "placeMasterId": "P02500000FsoFuZIjuhevWqfKVz7gvzaD899bYCW",
    "placeName": "nixon",
    "state": "NV"
  },
  {
    "city": "reno",
    "state_code": "NV",
    "placeMasterId": "P02500000FsoFuZIjuhevWqfKVz7gvzemDKMzraO",
    "placeName": "reno",
    "state": "NV"
  },
  {
    "city": "owyhee",
    "state_code": "NV",
    "placeMasterId": "P02500000FsoFui9DW6EiDRuVJnT6qTqDhCAsqGM",
    "placeName": "owyhee",
    "state": "NV"
  },
  {
    "city": "hawkinsville",
    "state_code": "GA",
    "placeMasterId": "P02500000FsoEwvV9n0OgJkMUgYj05EFU0CGBjfD",
    "placeName": "hawkinsville",
    "state": "GA"
  },
  {
    "city": "lilly",
    "state_code": "GA",
    "placeMasterId": "P02500000FsoExDC6znYFgwqqIBPpuD1RMNGe0Q5",
    "placeName": "lilly",
    "state": "GA"
  },
  {
    "city": "milan",
    "state_code": "GA",
    "placeMasterId": "P02500000FsoExdjXnzHbkkaMhcS5dg2jPcd6kp8",
    "placeName": "milan",
    "state": "GA"
  },
  {
    "city": "reynolds",
    "state_code": "GA",
    "placeMasterId": "P02500000FsoEyD7SDZakV9Z3urplHdXZq7eu3iX",
    "placeName": "reynolds",
    "state": "GA"
  },
  {
    "city": "ambrose",
    "state_code": "GA",
    "placeMasterId": "P02500000FsoEvV2Nl2cpRjukeRGoyKUuFVaWV6F",
    "placeName": "ambrose",
    "state": "GA"
  },
  {
    "city": "baxley",
    "state_code": "GA",
    "placeMasterId": "P02500000FsoEvdsrMRCc8L9vSFcEsorhMIB7O8Z",
    "placeName": "baxley",
    "state": "GA"
  },
  {
    "city": "woodbine",
    "state_code": "GA",
    "placeMasterId": "P02500000FsoEyvLqEYTfw9mvvvYqq5QUhWC1C8c",
    "placeName": "woodbine",
    "state": "GA"
  },
  {
    "city": "cecil",
    "state_code": "GA",
    "placeMasterId": "P02500000FsoEvvZoZEMBVXeH3sJ4hnaux4JVyvk",
    "placeName": "cecil",
    "state": "GA"
  },
  {
    "city": "coolidge",
    "state_code": "GA",
    "placeMasterId": "P02500000FsoEwDGlm1Vksk8cfUzuWmLGmIr9mZk",
    "placeName": "coolidge",
    "state": "GA"
  },
  {
    "city": "plains",
    "state_code": "GA",
    "placeMasterId": "P02500000FsoExvQV0mRB7x4iJF8vSepuHDyRYLx",
    "placeName": "plains",
    "state": "GA"
  },
  {
    "city": "middleburg",
    "state_code": "FL",
    "placeMasterId": "P02500000FsoEsvnmtuEh4vVcBp3IZVqA7bAGIUA",
    "placeName": "middleburg",
    "state": "FL"
  },
  {
    "city": "bunnell",
    "state_code": "FL",
    "placeMasterId": "P02500000FsoEqeG9FZ085JapKpWbzfqMJOfZMYJ",
    "placeName": "bunnell",
    "state": "FL"
  },
  {
    "city": "ormond beach",
    "state_code": "FL",
    "placeMasterId": "P02500000FsoEtMLDi5y38jF8bG5YIyyN2Pk1bUU",
    "placeName": "ormond beach",
    "state": "FL"
  },
  {
    "city": "jacksonville",
    "state_code": "FL",
    "placeMasterId": "P02500000FsoEs4ivHWlyxK2ZMwyn6Zc9nJdRTGT",
    "placeName": "jacksonville",
    "state": "FL"
  },
  {
    "city": "alford",
    "state_code": "FL",
    "placeMasterId": "P02500000FsoEq4sEpygzKuc87a8wLiR4WtNmWcy",
    "placeName": "alford",
    "state": "FL"
  },
  {
    "city": "bonifay",
    "state_code": "FL",
    "placeMasterId": "P02500000FsoEqVPfeAQLOiLeX1BC5BTXYUeR7iF",
    "placeName": "bonifay",
    "state": "FL"
  },
  {
    "city": "marianna",
    "state_code": "FL",
    "placeMasterId": "P02500000FsoEsmxJIVeuOKGRO0hsf1R2buR2sXa",
    "placeName": "marianna",
    "state": "FL"
  },
  {
    "city": "gainesville",
    "state_code": "FL",
    "placeMasterId": "P02500000FsoErVL0rwSqCv3s9hb7Sc6QcwCAknl",
    "placeName": "gainesville",
    "state": "FL"
  },
  {
    "city": "geneva",
    "state_code": "FL",
    "placeMasterId": "P02500000FsoErVL0rwSqCv3s9hb7Sc65KqnpzLc",
    "placeName": "geneva",
    "state": "FL"
  },
  {
    "city": "tavares",
    "state_code": "FL",
    "placeMasterId": "P02500000FsoEudxW8fA7K8RhpZCJVOH30BTa7cV",
    "placeName": "tavares",
    "state": "FL"
  },
  {
    "city": "orlando",
    "state_code": "FL",
    "placeMasterId": "P02500000FsoEtVBhJUXppKUJP4QyDTHMDbz9uFq",
    "placeName": "orlando",
    "state": "FL"
  },
  {
    "city": "orlando",
    "state_code": "FL",
    "placeMasterId": "P02500000FsoEtVBhJUXppKUJP4QyDTHMDbz9uFq",
    "placeName": "orlando",
    "state": "FL"
  },
  {
    "city": "orlando",
    "state_code": "FL",
    "placeMasterId": "P02500000FsoEtVBhJUXppKUJP4QyDTHMDbz9uFq",
    "placeName": "orlando",
    "state": "FL"
  },
  {
    "city": "melbourne",
    "state_code": "FL",
    "placeMasterId": "P02500000FsoEsvnmtuEh4vVcBp3IZVpfHG8GKti",
    "placeName": "melbourne",
    "state": "FL"
  },
  {
    "city": "hialeah",
    "state_code": "FL",
    "placeMasterId": "P02500000FsoErvsRg8CCGinOZ8dNC5CWcpArNmA",
    "placeName": "hialeah",
    "state": "FL"
  },
  {
    "city": "hialeah",
    "state_code": "FL",
    "placeMasterId": "P02500000FsoErvsRg8CCGinOZ8dNC5CWcpArNmA",
    "placeName": "hialeah",
    "state": "FL"
  },
  {
    "city": "big pine key",
    "state_code": "FL",
    "placeMasterId": "P02500000FsoEqMZC2lqYi76TjCpmAh87LtBNOMS",
    "placeName": "big pine key",
    "state": "FL"
  },
  {
    "city": "miami",
    "state_code": "FL",
    "placeMasterId": "P02500000FsoEsvnmtuEh4vVcBp3IZVnnnRh03zn",
    "placeName": "miami",
    "state": "FL"
  },
  {
    "city": "miami",
    "state_code": "FL",
    "placeMasterId": "P02500000FsoEsvnmtuEh4vVcBp3IZVnnnRh03zn",
    "placeName": "miami",
    "state": "FL"
  },
  {
    "city": "fort lauderdale",
    "state_code": "FL",
    "placeMasterId": "P02500000FsoErVL0rwSqCv3s9hb7Sc4XvAWhbEe",
    "placeName": "fort lauderdale",
    "state": "FL"
  },
  {
    "city": "fort lauderdale",
    "state_code": "FL",
    "placeMasterId": "P02500000FsoErVL0rwSqCv3s9hb7Sc4XvAWhbEe",
    "placeName": "fort lauderdale",
    "state": "FL"
  },
  {
    "city": "tampa",
    "state_code": "FL",
    "placeMasterId": "P02500000FsoEudxW8fA7K8RhpZCJVOG5RK5OQjD",
    "placeName": "tampa",
    "state": "FL"
  },
  {
    "city": "tampa",
    "state_code": "FL",
    "placeMasterId": "P02500000FsoEudxW8fA7K8RhpZCJVOG5RK5OQjD",
    "placeName": "tampa",
    "state": "FL"
  },
  {
    "city": "auburndale",
    "state_code": "FL",
    "placeMasterId": "P02500000FsoEqDiiRNGm1VrIvOUMGCkALYPGP6I",
    "placeName": "auburndale",
    "state": "FL"
  },
  {
    "city": "mulberry",
    "state_code": "FL",
    "placeMasterId": "P02500000FsoEtDUk6hOGS7zxnRk8OUYmJf5EPok",
    "placeName": "mulberry",
    "state": "FL"
  },
  {
    "city": "fort myers",
    "state_code": "FL",
    "placeMasterId": "P02500000FsoErMUXGXt3WJohLtFhY7lIEW7YWt0",
    "placeName": "fort myers",
    "state": "FL"
  },
  {
    "city": "naples",
    "state_code": "FL",
    "placeMasterId": "P02500000FsoEtDUk6hOGS7zxnRk8OUWxbxM86aZ",
    "placeName": "naples",
    "state": "FL"
  },
  {
    "city": "dunnellon",
    "state_code": "FL",
    "placeMasterId": "P02500000FsoErDe3f9JGpiZWY4uHddKPqWQhb7V",
    "placeName": "dunnellon",
    "state": "FL"
  },
  {
    "city": "kissimmee",
    "state_code": "FL",
    "placeMasterId": "P02500000FsoEsDZOsvLldvHkAlKD13zx5ZMuxgh",
    "placeName": "kissimmee",
    "state": "FL"
  },
  {
    "city": "stuart",
    "state_code": "FL",
    "placeMasterId": "P02500000FsoEuV72XGaKdXCX1kqtatufPPVnWYG",
    "placeName": "stuart",
    "state": "FL"
  },
  {
    "city": "hayden",
    "state_code": "AL",
    "placeMasterId": "P02500000FsoETxgELXEGpng7aibA7mqapOoy8pV",
    "placeName": "hayden",
    "state": "AL"
  },
  {
    "city": "gainesville",
    "state_code": "AL",
    "placeMasterId": "P02500000FsoETfzH8k4hSbBlz5uKIo6CowCYc00",
    "placeName": "gainesville",
    "state": "AL"
  },
  {
    "city": "jasper",
    "state_code": "AL",
    "placeMasterId": "P02500000FsoEU6Whwvo3WOvIOWwa2HF0FLxVixU",
    "placeName": "jasper",
    "state": "AL"
  },
  {
    "city": "hackleburg",
    "state_code": "AL",
    "placeMasterId": "P02500000FsoETopkk8eU9CQwmuFkDITvPgrjoY1",
    "placeName": "hackleburg",
    "state": "AL"
  },
  {
    "city": "meridianville",
    "state_code": "AL",
    "placeMasterId": "P02500000FsoEUX48l7XPaCeonxyplkHJXhkqkZ5",
    "placeName": "meridianville",
    "state": "AL"
  },
  {
    "city": "pisgah",
    "state_code": "AL",
    "placeMasterId": "P02500000FsoEV6S3AhqYKbdW1DMVPhme8oELMsd",
    "placeName": "pisgah",
    "state": "AL"
  },
  {
    "city": "boaz",
    "state_code": "AL",
    "placeMasterId": "P02500000FsoESouPWMbzKzijADpoprtts5LLERw",
    "placeName": "boaz",
    "state": "AL"
  },
  {
    "city": "crossville",
    "state_code": "AL",
    "placeMasterId": "P02500000FsoETFRqKYLLOnSFZes4ZKyPJJacjxa",
    "placeName": "crossville",
    "state": "AL"
  },
  {
    "city": "coosada",
    "state_code": "AL",
    "placeMasterId": "P02500000FsoETFRqKYLLOnSFZes4ZKwkCX85t8n",
    "placeName": "coosada",
    "state": "AL"
  },
  {
    "city": "troy",
    "state_code": "AL",
    "placeMasterId": "P02500000FsoEVfpxaI9h50cDESkB3fH3vcX754f",
    "placeName": "troy",
    "state": "AL"
  },
  {
    "city": "daviston",
    "state_code": "AL",
    "placeMasterId": "P02500000FsoETOIJvwv85OhQNTDUTpJudywpz0c",
    "placeName": "daviston",
    "state": "AL"
  },
  {
    "city": "cottonwood",
    "state_code": "AL",
    "placeMasterId": "P02500000FsoETFRqKYLLOnSFZes4ZKyGClLX1PU",
    "placeName": "cottonwood",
    "state": "AL"
  },
  {
    "city": "andalusia",
    "state_code": "AL",
    "placeMasterId": "P02500000FsoESg3vuy2CeOTYMPUOvNU3AkEI8HH",
    "placeName": "andalusia",
    "state": "AL"
  },
  {
    "city": "beatrice",
    "state_code": "AL",
    "placeMasterId": "P02500000FsoESouPWMbzKzijADpoprqiLFGpa3b",
    "placeName": "beatrice",
    "state": "AL"
  },
  {
    "city": "castleberry",
    "state_code": "AL",
    "placeMasterId": "P02500000FsoESxkt7lBm1axty2BEkMGOSiThYpZ",
    "placeName": "castleberry",
    "state": "AL"
  },
  {
    "city": "kinston",
    "state_code": "AL",
    "placeMasterId": "P02500000FsoEUFNBYKNqD0ATCLHzwlYPUxxDXvZ",
    "placeName": "kinston",
    "state": "AL"
  },
  {
    "city": "uriah",
    "state_code": "AL",
    "placeMasterId": "P02500000FsoEVfpxaI9h50cDESkB3fIl3gTyL69",
    "placeName": "uriah",
    "state": "AL"
  },
  {
    "city": "fruitdale",
    "state_code": "AL",
    "placeMasterId": "P02500000FsoETfzH8k4hSbBlz5uKIo566dKfVcS",
    "placeName": "fruitdale",
    "state": "AL"
  },
  {
    "city": "mobile",
    "state_code": "AL",
    "placeMasterId": "P02500000FsoEUX48l7XPaCeonxyplkKNMXCzpeH",
    "placeName": "mobile",
    "state": "AL"
  },
  {
    "city": "selma",
    "state_code": "AL",
    "placeMasterId": "P02500000FsoEVO90NV07ho7rcq3LEgYZ6HqzUah",
    "placeName": "selma",
    "state": "AL"
  },
  {
    "city": "marion",
    "state_code": "AL",
    "placeMasterId": "P02500000FsoEUODf9ixctbPe09dPrFzBE1NRmh9",
    "placeName": "marion",
    "state": "AL"
  },
  {
    "city": "pine apple",
    "state_code": "AL",
    "placeMasterId": "P02500000FsoEUxbZZJGle0OLDP15VDQeEJqpDeA",
    "placeName": "pine apple",
    "state": "AL"
  },
  {
    "city": "loachapoka",
    "state_code": "AL",
    "placeMasterId": "P02500000FsoEUODf9ixctbPe09dPrFwxjWohrG2",
    "placeName": "loachapoka",
    "state": "AL"
  },
  {
    "city": "castalian springs",
    "state_code": "TN",
    "placeMasterId": "P02500000FsoGg59jlhrQKtAM3O9rL7CUR6i5y5L",
    "placeName": "castalian springs",
    "state": "TN"
  },
  {
    "city": "cumberland city",
    "state_code": "TN",
    "placeMasterId": "P02500000FsoGgE0DN6RD1UPWrCVHFbi7TR2SpMb",
    "placeName": "cumberland city",
    "state": "TN"
  },
  {
    "city": "la vergne",
    "state_code": "TN",
    "placeMasterId": "P02500000FsoGgwEbO5K8SUdOsGEMo3QtkP42uUZ",
    "placeName": "la vergne",
    "state": "TN"
  },
  {
    "city": "mcminnville",
    "state_code": "TN",
    "placeMasterId": "P02500000FsoGh554zTtv95sZg4ZmiXv73sBj2sF",
    "placeName": "mcminnville",
    "state": "TN"
  },
  {
    "city": "nashville",
    "state_code": "TN",
    "placeMasterId": "P02500000FsoGhMm2CH3UWIMvHhGcXWZ0CJVUMa1",
    "placeName": "nashville",
    "state": "TN"
  },
  {
    "city": "huntsville",
    "state_code": "TN",
    "placeMasterId": "P02500000FsoGgnO7mgkLltOE4RswtZDS5B2B1nu",
    "placeName": "huntsville",
    "state": "TN"
  },
  {
    "city": "morristown",
    "state_code": "TN",
    "placeMasterId": "P02500000FsoGhDvYasThph7kTsvCd2HzlmhS90b",
    "placeName": "morristown",
    "state": "TN"
  },
  {
    "city": "robbins",
    "state_code": "TN",
    "placeMasterId": "P02500000FsoGheSzP4D3tUrGtJxSMVMsgWGCznr",
    "placeName": "robbins",
    "state": "TN"
  },
  {
    "city": "rogersville",
    "state_code": "TN",
    "placeMasterId": "P02500000FsoGheSzP4D3tUrGtJxSMVIirZgVsuR",
    "placeName": "rogersville",
    "state": "TN"
  },
  {
    "city": "atoka",
    "state_code": "TN",
    "placeMasterId": "P02500000FsoGfnSmYuhqxgg0RlT1W8Z8EDaVNsB",
    "placeName": "atoka",
    "state": "TN"
  },
  {
    "city": "oakland",
    "state_code": "TN",
    "placeMasterId": "P02500000FsoGhVcVnfdHCtc65Vc2S0qn9GrN2Eg",
    "placeName": "oakland",
    "state": "TN"
  },
  {
    "city": "stanton",
    "state_code": "TN",
    "placeMasterId": "P02500000FsoGhw9wbrMdGhLcUweIBTvEopet6ND",
    "placeName": "stanton",
    "state": "TN"
  },
  {
    "city": "memphis",
    "state_code": "TN",
    "placeMasterId": "P02500000FsoGh554zTtv95sZg4ZmiXoGr41AEmS",
    "placeName": "memphis",
    "state": "TN"
  },
  {
    "city": "memphis",
    "state_code": "TN",
    "placeMasterId": "P02500000FsoGh554zTtv95sZg4ZmiXoGr41AEmS",
    "placeName": "memphis",
    "state": "TN"
  },
  {
    "city": "monterey",
    "state_code": "TN",
    "placeMasterId": "P02500000FsoGhDvYasThph7kTsvCd2DZD1DzoSn",
    "placeName": "monterey",
    "state": "TN"
  },
  {
    "city": "holly springs",
    "state_code": "MS",
    "placeMasterId": "P02500000FsoFhIaKopytcyu7nSzpCR5R6AUPxNn",
    "placeName": "holly springs",
    "state": "MS"
  },
  {
    "city": "amory",
    "state_code": "MS",
    "placeMasterId": "P02500000FsoFgaLwnr5yBygFmPGjdz3BZhJ9sJJ",
    "placeName": "amory",
    "state": "MS"
  },
  {
    "city": "guntown",
    "state_code": "MS",
    "placeMasterId": "P02500000FsoFhIaKopytcyu7nSzpCQz1w9BY6Cq",
    "placeName": "guntown",
    "state": "MS"
  },
  {
    "city": "saltillo",
    "state_code": "MS",
    "placeMasterId": "P02500000FsoFi9fCRDRbkaNAcL4KfN71BqEQKfE",
    "placeName": "saltillo",
    "state": "MS"
  },
  {
    "city": "smithville",
    "state_code": "MS",
    "placeMasterId": "P02500000FsoFiIVg2c1ORBcLQ9PkZrcTm0vfaCa",
    "placeName": "smithville",
    "state": "MS"
  },
  {
    "city": "cresbard",
    "state_code": "SD",
    "placeMasterId": "P02500000FsoGdwSZilCe1sUk0Cyaflb2SUMiXH2",
    "placeName": "cresbard",
    "state": "SD"
  },
  {
    "city": "onida",
    "state_code": "SD",
    "placeMasterId": "P02500000FsoGewNuwXF8q5CxctOW3CGqLjt1j1m",
    "placeName": "onida",
    "state": "SD"
  },
  {
    "city": "hot springs",
    "state_code": "SD",
    "placeMasterId": "P02500000FsoGeN00Www05gEGPe0qPEpQfEZsSPN",
    "placeName": "hot springs",
    "state": "SD"
  },
  {
    "city": "spearfish",
    "state_code": "SD",
    "placeMasterId": "P02500000FsoGfE4s9KOiDHhJEW5LsB4UxAfoJGz",
    "placeName": "spearfish",
    "state": "SD"
  },
  {
    "city": "wounded knee",
    "state_code": "SD",
    "placeMasterId": "P02500000FsoGfecIxW84H5Qpdx7bbe78gSNHiYx",
    "placeName": "wounded knee",
    "state": "SD"
  },
  {
    "city": "barney",
    "state_code": "ND",
    "placeMasterId": "P02500000FsoGAGPGGJ9J6vaUtJ7f9sPaxPmLsFU",
    "placeName": "barney",
    "state": "ND"
  },
  {
    "city": "wahpeton",
    "state_code": "ND",
    "placeMasterId": "P02500000FsoGCP6QJFo5PwG6wUIvpE3bLmZMVWU",
    "placeName": "wahpeton",
    "state": "ND"
  },
  {
    "city": "churchs ferry",
    "state_code": "ND",
    "placeMasterId": "P02500000FsoGAY6DT6IsU84qUvoUyrE3b9DV8VM",
    "placeName": "churchs ferry",
    "state": "ND"
  },
  {
    "city": "lakota",
    "state_code": "ND",
    "placeMasterId": "P02500000FsoGBGKbU5Bnv8IiVzXaXJ4jTWl461j",
    "placeName": "lakota",
    "state": "ND"
  },
  {
    "city": "pingree",
    "state_code": "ND",
    "placeMasterId": "P02500000FsoGByYzV44jM8WaX3Gg5kkn8CyvjEo",
    "placeName": "pingree",
    "state": "ND"
  },
  {
    "city": "new leipzig",
    "state_code": "ND",
    "placeMasterId": "P02500000FsoGBpiVtfUwfXHPjEvGBGNkEUvUjuY",
    "placeName": "new leipzig",
    "state": "ND"
  },
  {
    "city": "verona",
    "state_code": "MS",
    "placeMasterId": "P02500000FsoFiRM9e0bB7mrWDxlAULunElpuExM",
    "placeName": "verona",
    "state": "MS"
  },
  {
    "city": "florence",
    "state_code": "MS",
    "placeMasterId": "P02500000FsoFh9jrDRP6wNewzeePHwZ7bMUQZvW",
    "placeName": "florence",
    "state": "MS"
  },
  {
    "city": "magee",
    "state_code": "MS",
    "placeMasterId": "P02500000FsoFhaHI1d8T0BOTP5gf1Pl5xeG5N6k",
    "placeName": "magee",
    "state": "MS"
  },
  {
    "city": "wesson",
    "state_code": "MS",
    "placeMasterId": "P02500000FsoFiaCdFPAxoO6h1m6aOqJutZgiwgN",
    "placeName": "wesson",
    "state": "MS"
  },
  {
    "city": "jackson",
    "state_code": "MS",
    "placeMasterId": "P02500000FsoFhRQoQEYgJa9IbHLF6vGkcb3WK7F",
    "placeName": "jackson",
    "state": "MS"
  },
  {
    "city": "flowood",
    "state_code": "MS",
    "placeMasterId": "P02500000FsoFh9jrDRP6wNewzeePHwfhAGGuFDv",
    "placeName": "flowood",
    "state": "MS"
  },
  {
    "city": "union",
    "state_code": "MS",
    "placeMasterId": "P02500000FsoFiRM9e0bB7mrWDxlAULs4CboAEZn",
    "placeName": "union",
    "state": "MS"
  },
  {
    "city": "mclain",
    "state_code": "MS",
    "placeMasterId": "P02500000FsoFhaHI1d8T0BOTP5gf1Pj0eyBkd7Q",
    "placeName": "mclain",
    "state": "MS"
  },
  {
    "city": "meadville",
    "state_code": "MS",
    "placeMasterId": "P02500000FsoFhj7ld1iFgmdeCu24vu31XOcIb9P",
    "placeName": "meadville",
    "state": "MS"
  },
  {
    "city": "sturgis",
    "state_code": "MS",
    "placeMasterId": "P02500000FsoFiIVg2c1ORBcLQ9PkZrb0hw3oWkP",
    "placeName": "sturgis",
    "state": "MS"
  },
  {
    "city": "bluffton",
    "state_code": "GA",
    "placeMasterId": "P02500000FsoEvmjKxpmOowP6G3xenJDjBpUCKeo",
    "placeName": "bluffton",
    "state": "GA"
  },
  {
    "city": "fort gaines",
    "state_code": "GA",
    "placeMasterId": "P02500000FsoEwmegBbotd97JskNaAjpMnuci86r",
    "placeName": "fort gaines",
    "state": "GA"
  },
  {
    "city": "eminence",
    "state_code": "KY",
    "placeMasterId": "P02500000FsoFNtTOmvU6BHcQX20zHoRAUhBJCOt",
    "placeName": "eminence",
    "state": "KY"
  },
  {
    "city": "burgin",
    "state_code": "KY",
    "placeMasterId": "P02500000FsoFNK5UNLAxQsdjJmdJdqxV3trrsOi",
    "placeName": "burgin",
    "state": "KY"
  },
  {
    "city": "loyall",
    "state_code": "KY",
    "placeMasterId": "P02500000FsoFOkYGPIwoIt5TLu5UkkkQ4LNBBx5",
    "placeName": "loyall",
    "state": "KY"
  },
  {
    "city": "pineville",
    "state_code": "KY",
    "placeMasterId": "P02500000FsoFPJwAotFx3I4AZ9TAOi7yXRL1RWF",
    "placeName": "pineville",
    "state": "KY"
  },
  {
    "city": "florence",
    "state_code": "KY",
    "placeMasterId": "P02500000FsoFO2JsOK3srsrbKqMPCIkgSLFhdGA",
    "placeName": "florence",
    "state": "KY"
  },
  {
    "city": "warsaw",
    "state_code": "KY",
    "placeMasterId": "P02500000FsoFPtK5ETZ5nh2rmOqq2ffC1aLIFJF",
    "placeName": "warsaw",
    "state": "KY"
  },
  {
    "city": "olive hill",
    "state_code": "KY",
    "placeMasterId": "P02500000FsoFP2FDc66Ng5ZoxWmKZjZG6QobjlL",
    "placeName": "olive hill",
    "state": "KY"
  },
  {
    "city": "prestonsburg",
    "state_code": "KY",
    "placeMasterId": "P02500000FsoFPJwAotFx3I4AZ9TAOiFokf5qNbT",
    "placeName": "prestonsburg",
    "state": "KY"
  },
  {
    "city": "fordsville",
    "state_code": "KY",
    "placeMasterId": "P02500000FsoFNtTOmvU6BHcQX20zHoc2D8palp0",
    "placeName": "fordsville",
    "state": "KY"
  },
  {
    "city": "sacramento",
    "state_code": "KY",
    "placeMasterId": "P02500000FsoFPSmeQHpjjtJLMxoaJCVWGVUHGq0",
    "placeName": "sacramento",
    "state": "KY"
  },
  {
    "city": "sturgis",
    "state_code": "KY",
    "placeMasterId": "P02500000FsoFPkTbd4zJ75ngyaVQ8BS2nBZrJ75",
    "placeName": "sturgis",
    "state": "KY"
  },
  {
    "city": "liberty",
    "state_code": "KY",
    "placeMasterId": "P02500000FsoFOkYGPIwoIt5TLu5UkkblpfpbdmW",
    "placeName": "liberty",
    "state": "KY"
  },
  {
    "city": "bonnieville",
    "state_code": "KY",
    "placeMasterId": "P02500000FsoFNK5UNLAxQsdjJmdJdqtkg15OGnq",
    "placeName": "bonnieville",
    "state": "KY"
  },
  {
    "city": "granville",
    "state_code": "OH",
    "placeMasterId": "P02500000FsoGEyL1AOCDmkfFP6WSE2b8RZtMACH",
    "placeName": "granville",
    "state": "OH"
  },
  {
    "city": "bremen",
    "state_code": "OH",
    "placeMasterId": "P02500000FsoGDP1lX1qaE8yKZAirCeSgIOeN8lk",
    "placeName": "bremen",
    "state": "OH"
  },
  {
    "city": "clyde",
    "state_code": "OH",
    "placeMasterId": "P02500000FsoGDpZCLDZwHwhqybl6w7lqvYveu5D",
    "placeName": "clyde",
    "state": "OH"
  },
  {
    "city": "harbor view",
    "state_code": "OH",
    "placeMasterId": "P02500000FsoGF7BUlmm0TLuQCurs8Wzg5OSzesE",
    "placeName": "harbor view",
    "state": "OH"
  },
  {
    "city": "grand rapids",
    "state_code": "OH",
    "placeMasterId": "P02500000FsoGEyL1AOCDmkfFP6WSE2YiNLVXrfL",
    "placeName": "grand rapids",
    "state": "OH"
  },
  {
    "city": "lyons",
    "state_code": "OH",
    "placeMasterId": "P02500000FsoGG76pzYoVHYcdpbHnVxfqyYHmPnX",
    "placeName": "lyons",
    "state": "OH"
  },
  {
    "city": "montpelier",
    "state_code": "OH",
    "placeMasterId": "P02500000FsoGGgUkP97e1xbL2qfT9vFIZhesLcd",
    "placeName": "montpelier",
    "state": "OH"
  },
  {
    "city": "neapolis",
    "state_code": "OH",
    "placeMasterId": "P02500000FsoGGpLE0XhQiYqVqf0t4PVGZ8PYCD3",
    "placeName": "neapolis",
    "state": "OH"
  },
  {
    "city": "toledo",
    "state_code": "OH",
    "placeMasterId": "P02500000FsoGIpBuS5mQKyGx61qjpGheGoHOM1s",
    "placeName": "toledo",
    "state": "OH"
  },
  {
    "city": "dillonvale",
    "state_code": "OH",
    "placeMasterId": "P02500000FsoGEG6d9PJILkRNO2nMfag6hZhFM86",
    "placeName": "dillonvale",
    "state": "OH"
  },
  {
    "city": "lafferty",
    "state_code": "OH",
    "placeMasterId": "P02500000FsoGFgZPBN59Dkt7QAFXmUWHO4PRv8w",
    "placeName": "lafferty",
    "state": "OH"
  },
  {
    "city": "cleveland",
    "state_code": "OH",
    "placeMasterId": "P02500000FsoGDpZCLDZwHwhqybl6w7hFiW8c2lu",
    "placeName": "cleveland",
    "state": "OH"
  },
  {
    "city": "cleveland",
    "state_code": "OH",
    "placeMasterId": "P02500000FsoGDpZCLDZwHwhqybl6w7hFiW8c2lu",
    "placeName": "cleveland",
    "state": "OH"
  },
  {
    "city": "north royalton",
    "state_code": "OH",
    "placeMasterId": "P02500000FsoGHFseojQmmMa2G638nsbwG3FUOpd",
    "placeName": "north royalton",
    "state": "OH"
  },
  {
    "city": "lakemore",
    "state_code": "OH",
    "placeMasterId": "P02500000FsoGFpPsmlevuM8IDyaxgynRPsC7BNm",
    "placeName": "lakemore",
    "state": "OH"
  },
  {
    "city": "westfield center",
    "state_code": "OH",
    "placeMasterId": "P02500000FsoGJOZorg5Z5NFeJHEPTE62nU0CH3Y",
    "placeName": "westfield center",
    "state": "OH"
  },
  {
    "city": "wadsworth",
    "state_code": "OH",
    "placeMasterId": "P02500000FsoGJ6sresvziAlIheXZeFPsNPoxZq0",
    "placeName": "wadsworth",
    "state": "OH"
  },
  {
    "city": "akron",
    "state_code": "OH",
    "placeMasterId": "P02500000FsoGCXwtueNs6XVHkIeLjiMh8uljxTa",
    "placeName": "akron",
    "state": "OH"
  },
  {
    "city": "negley",
    "state_code": "OH",
    "placeMasterId": "P02500000FsoGGpLE0XhQiYqVqf0t4PcZt1sGi10",
    "placeName": "negley",
    "state": "OH"
  },
  {
    "city": "youngstown",
    "state_code": "OH",
    "placeMasterId": "P02500000FsoGJgGm4TF8SZjzutvFICtONAHpkmb",
    "placeName": "youngstown",
    "state": "OH"
  },
  {
    "city": "mineral city",
    "state_code": "OH",
    "placeMasterId": "P02500000FsoGGXeGnkXrLMMAF2K3FQpQxP0ur0k",
    "placeName": "mineral city",
    "state": "OH"
  },
  {
    "city": "canton",
    "state_code": "OH",
    "placeMasterId": "P02500000FsoGDXsF8QQMukDVMz4H790las5R4Gr",
    "placeName": "canton",
    "state": "OH"
  },
  {
    "city": "bellevue",
    "state_code": "OH",
    "placeMasterId": "P02500000FsoGD7KoKEh0qwTyxY21NfkR5003PZe",
    "placeName": "bellevue",
    "state": "OH"
  },
  {
    "city": "bellville",
    "state_code": "OH",
    "placeMasterId": "P02500000FsoGD7KoKEh0qwTyxY21NfmYiOI7aKe",
    "placeName": "bellville",
    "state": "OH"
  },
  {
    "city": "castalia",
    "state_code": "OH",
    "placeMasterId": "P02500000FsoGDgiijp09bLSgAnPh1dGNwA3oXxw",
    "placeName": "castalia",
    "state": "OH"
  },
  {
    "city": "savannah",
    "state_code": "OH",
    "placeMasterId": "P02500000FsoGIFo02VTHaZIFsmT4BJLmYPFiWNT",
    "placeName": "savannah",
    "state": "OH"
  },
  {
    "city": "somerville",
    "state_code": "OH",
    "placeMasterId": "P02500000FsoGIOeTdu34HAXQgaoU5ngsCYJxYu9",
    "placeName": "somerville",
    "state": "OH"
  },
  {
    "city": "midland",
    "state_code": "OH",
    "placeMasterId": "P02500000FsoGGXeGnkXrLMMAF2K3FQkG3Fcyffe",
    "placeName": "midland",
    "state": "OH"
  },
  {
    "city": "cincinnati",
    "state_code": "OH",
    "placeMasterId": "P02500000FsoGDpZCLDZwHwhqybl6w7e8Lps6H4x",
    "placeName": "cincinnati",
    "state": "OH"
  },
  {
    "city": "dayton",
    "state_code": "OH",
    "placeMasterId": "P02500000FsoGE7G9Y0jVf9CCaERwl6OdIDcWstb",
    "placeName": "dayton",
    "state": "OH"
  },
  {
    "city": "dayton",
    "state_code": "OH",
    "placeMasterId": "P02500000FsoGE7G9Y0jVf9CCaERwl6OdIDcWstb",
    "placeName": "dayton",
    "state": "OH"
  },
  {
    "city": "kingston",
    "state_code": "OH",
    "placeMasterId": "P02500000FsoGFgZPBN59Dkt7QAFXmUdvXjoMaHQ",
    "placeName": "kingston",
    "state": "OH"
  },
  {
    "city": "bluffton",
    "state_code": "OH",
    "placeMasterId": "P02500000FsoGDGBHvdGnXXj9lMNRIA4mYYMXC3r",
    "placeName": "bluffton",
    "state": "OH"
  },
  {
    "city": "minster",
    "state_code": "OH",
    "placeMasterId": "P02500000FsoGGgUkP97e1xbL2qfT9v7L5fE0Ube",
    "placeName": "minster",
    "state": "OH"
  },
  {
    "city": "ohio city",
    "state_code": "OH",
    "placeMasterId": "P02500000FsoGHOj8Q80ZSxpD3uOYiMx2RDEl9cV",
    "placeName": "ohio city",
    "state": "OH"
  },
  {
    "city": "rawson",
    "state_code": "OH",
    "placeMasterId": "P02500000FsoGHpGZEJjvWlYjTLQoRqDliZPyhnW",
    "placeName": "rawson",
    "state": "OH"
  },
  {
    "city": "spencerville",
    "state_code": "OH",
    "placeMasterId": "P02500000FsoGIgLQqhCdeN1mIDVJumCjDA0sMZa",
    "placeName": "spencerville",
    "state": "OH"
  },
  {
    "city": "forest",
    "state_code": "IN",
    "placeMasterId": "P02500000FsoHRJJmPuuLljB1zAVBvG5stURd5XL",
    "placeName": "forest",
    "state": "IN"
  },
  {
    "city": "sheridan",
    "state_code": "IN",
    "placeMasterId": "P02500000FsoFCC4FKQ9hq1Y8eRgiZdyjTQa6xQ7",
    "placeName": "sheridan",
    "state": "IN"
  },
  {
    "city": "north salem",
    "state_code": "IN",
    "placeMasterId": "P02500000FsoFBTprJRGmP1KGdNxd1C7bQr6D9mE",
    "placeName": "north salem",
    "state": "IN"
  },
  {
    "city": "indianapolis",
    "state_code": "IN",
    "placeMasterId": "P02500000FsoFAckzh3o4HPrDoVt7YFuCi8MjR1V",
    "placeName": "indianapolis",
    "state": "IN"
  },
  {
    "city": "south bend",
    "state_code": "IN",
    "placeMasterId": "P02500000FsoFCC4FKQ9hq1Y8eRgiZdyg3XsySz8",
    "placeName": "south bend",
    "state": "IN"
  },
  {
    "city": "lagrange",
    "state_code": "IN",
    "placeMasterId": "P02500000FsoFAlbTISNqy16OcKEXSkH49Le6q9t",
    "placeName": "lagrange",
    "state": "IN"
  },
  {
    "city": "burlington",
    "state_code": "IN",
    "placeMasterId": "P02500000FsoF9TzArtBmmbtpO17mGKsoxO7Yq9U",
    "placeName": "burlington",
    "state": "IN"
  },
  {
    "city": "swayzee",
    "state_code": "IN",
    "placeMasterId": "P02500000FsoFCKuivojUWcnJSG28U8MGscGG5Y5",
    "placeName": "swayzee",
    "state": "IN"
  },
  {
    "city": "wabash",
    "state_code": "IN",
    "placeMasterId": "P02500000FsoFCcbg8bt3tpHf3siyJ72zRhp4YPI",
    "placeName": "wabash",
    "state": "IN"
  },
  {
    "city": "dillsboro",
    "state_code": "IN",
    "placeMasterId": "P02500000FsoF9lg84gLM9oOAzdoc5JgbuA7CTt9",
    "placeName": "dillsboro",
    "state": "IN"
  },
  {
    "city": "sellersburg",
    "state_code": "IN",
    "placeMasterId": "P02500000FsoFC3Dlj1Zv9QIxqdLIf9ccACSlC5c",
    "placeName": "sellersburg",
    "state": "IN"
  },
  {
    "city": "hope",
    "state_code": "IN",
    "placeMasterId": "P02500000FsoFATuW5fEHaoc30hXhdlXNv8nZJG2",
    "placeName": "hope",
    "state": "IN"
  },
  {
    "city": "jonesville",
    "state_code": "IN",
    "placeMasterId": "P02500000FsoFAckzh3o4HPrDoVt7YFszPTlmDR6",
    "placeName": "jonesville",
    "state": "IN"
  },
  {
    "city": "vallonia",
    "state_code": "IN",
    "placeMasterId": "P02500000FsoFCcbg8bt3tpHf3siyJ753w045zAk",
    "placeName": "vallonia",
    "state": "IN"
  },
  {
    "city": "ridgeville",
    "state_code": "IN",
    "placeMasterId": "P02500000FsoFBuNI7d08Sp3n2ozskfFFik3BD1o",
    "placeName": "ridgeville",
    "state": "IN"
  },
  {
    "city": "winchester",
    "state_code": "IN",
    "placeMasterId": "P02500000FsoFCuIdLP2dH1m0fVPo85ofB1NXonL",
    "placeName": "winchester",
    "state": "IN"
  },
  {
    "city": "bloomington",
    "state_code": "IN",
    "placeMasterId": "P02500000FsoF9CIDf62DPPPTmOQwRMAEdPDRnqu",
    "placeName": "bloomington",
    "state": "IN"
  },
  {
    "city": "gosport",
    "state_code": "IN",
    "placeMasterId": "P02500000FsoFAL42UGeUuDMsCtCHjH8JfKxWed9",
    "placeName": "gosport",
    "state": "IN"
  },
  {
    "city": "newberry",
    "state_code": "IN",
    "placeMasterId": "P02500000FsoFBKzNi2gziQ55pZcD6hlE0EcjmNp",
    "placeName": "newberry",
    "state": "IN"
  },
  {
    "city": "oolitic",
    "state_code": "IN",
    "placeMasterId": "P02500000FsoFBlWoWEQLmDocF0eSqAoDrArHW8p",
    "placeName": "oolitic",
    "state": "IN"
  },
  {
    "city": "washington",
    "state_code": "IN",
    "placeMasterId": "P02500000FsoFClS9k0SqaQWprh4ODbQIrSBuvm8",
    "placeName": "washington",
    "state": "IN"
  },
  {
    "city": "winslow",
    "state_code": "IN",
    "placeMasterId": "P02500000FsoFCuIdLP2dH1m0fVPo85pDwqG4Qx8",
    "placeName": "winslow",
    "state": "IN"
  },
  {
    "city": "poseyville",
    "state_code": "IN",
    "placeMasterId": "P02500000FsoFBuNI7d08Sp3n2ozskfDQjDFUqYU",
    "placeName": "poseyville",
    "state": "IN"
  },
  {
    "city": "evansville",
    "state_code": "IN",
    "placeMasterId": "P02500000FsoF9uWbg4v8qPdLnSA1zo2zspGZniW",
    "placeName": "evansville",
    "state": "IN"
  },
  {
    "city": "montezuma",
    "state_code": "IN",
    "placeMasterId": "P02500000FsoFBKzNi2gziQ55pZcD6hjMUnKhA2A",
    "placeName": "montezuma",
    "state": "IN"
  },
  {
    "city": "covington",
    "state_code": "IN",
    "placeMasterId": "P02500000FsoF9cpeTHlZTD90BpTCApJUZyfcBz6",
    "placeName": "covington",
    "state": "IN"
  },
  {
    "city": "earl park",
    "state_code": "IN",
    "placeMasterId": "P02500000FsoF9uWbg4v8qPdLnSA1zo1OA7uzBx5",
    "placeName": "earl park",
    "state": "IN"
  },
  {
    "city": "oxford",
    "state_code": "IN",
    "placeMasterId": "P02500000FsoFBcgKupqZ5cZRRCJ2vgUmFr1mO3m",
    "placeName": "oxford",
    "state": "IN"
  },
  {
    "city": "west lebanon",
    "state_code": "IN",
    "placeMasterId": "P02500000FsoFClS9k0SqaQWprh4ODbSiM2Cq23x",
    "placeName": "west lebanon",
    "state": "IN"
  },
  {
    "city": "garden city",
    "state_code": "MI",
    "placeMasterId": "P02500000FsoFYS6jQGCD1jjJz7Zui432yLQZMbI",
    "placeName": "garden city",
    "state": "MI"
  },
  {
    "city": "milan",
    "state_code": "MI",
    "placeMasterId": "P02500000FsoFZasYFQoUWXgiPcLFzz5Yspc9bWA",
    "placeName": "milan",
    "state": "MI"
  },
  {
    "city": "rockwood",
    "state_code": "MI",
    "placeMasterId": "P02500000FsoFaJ6wGPhPxXuaQg4LYQr1BEUE9tx",
    "placeName": "rockwood",
    "state": "MI"
  },
  {
    "city": "detroit",
    "state_code": "MI",
    "placeMasterId": "P02500000FsoFY1ZIc4SqxvznZgXeyauoH5nCTkI",
    "placeName": "detroit",
    "state": "MI"
  },
  {
    "city": "keego harbor",
    "state_code": "MI",
    "placeMasterId": "P02500000FsoFZ1UdpqVLm8i1CMxaM1MehvBlo8N",
    "placeName": "keego harbor",
    "state": "MI"
  },
  {
    "city": "flint",
    "state_code": "MI",
    "placeMasterId": "P02500000FsoFYJGForcQL8U9BJEUnZe6ic6ZYjH",
    "placeName": "flint",
    "state": "MI"
  },
  {
    "city": "flint",
    "state_code": "MI",
    "placeMasterId": "P02500000FsoFYJGForcQL8U9BJEUnZe6ic6ZYjH",
    "placeName": "flint",
    "state": "MI"
  },
  {
    "city": "saginaw",
    "state_code": "MI",
    "placeMasterId": "P02500000FsoFaRxProHCe99lEUPlSv76nEZg8RV",
    "placeName": "saginaw",
    "state": "MI"
  },
  {
    "city": "pigeon",
    "state_code": "MI",
    "placeMasterId": "P02500000FsoFa1Pz3cXqaLQEp3NVjS6o6uPjlhx",
    "placeName": "pigeon",
    "state": "MI"
  },
  {
    "city": "fowlerville",
    "state_code": "MI",
    "placeMasterId": "P02500000FsoFYS6jQGCD1jjJz7Zui3sk7eU9IA4",
    "placeName": "fowlerville",
    "state": "MI"
  },
  {
    "city": "dowagiac",
    "state_code": "MI",
    "placeMasterId": "P02500000FsoFY1ZIc4SqxvznZgXeyawahv8mVaC",
    "placeName": "dowagiac",
    "state": "MI"
  },
  {
    "city": "watervliet",
    "state_code": "MI",
    "placeMasterId": "P02500000FsoFb1LKHOaLOY8SRjnR6sYoypgfkBL",
    "placeName": "watervliet",
    "state": "MI"
  },
  {
    "city": "white cloud",
    "state_code": "MI",
    "placeMasterId": "P02500000FsoFb1LKHOaLOY8SRjnR6sadoXTJJCd",
    "placeName": "white cloud",
    "state": "MI"
  },
  {
    "city": "luther",
    "state_code": "MI",
    "placeMasterId": "P02500000FsoFZJBb2dev9LCMnzeQB0ILocwZWqm",
    "placeName": "luther",
    "state": "MI"
  },
  {
    "city": "reed city",
    "state_code": "MI",
    "placeMasterId": "P02500000FsoFaAGSf17dGwfPcrivdwXr4PiTecb",
    "placeName": "reed city",
    "state": "MI"
  },
  {
    "city": "baraga",
    "state_code": "MI",
    "placeMasterId": "P02500000FsoFXJKub5ZvWvlvYcoZQ8ty51IcsZ5",
    "placeName": "baraga",
    "state": "MI"
  },
  {
    "city": "van meter",
    "state_code": "IA",
    "placeMasterId": "P02500000FsoFIc9jTG82l3YynzEWZgeBp7i9GVC",
    "placeName": "van meter",
    "state": "IA"
  },
  {
    "city": "des moines",
    "state_code": "IA",
    "placeMasterId": "P02500000FsoFETbsylOGpdSvVRDP9Ttytdspgxt",
    "placeName": "des moines",
    "state": "IA"
  },
  {
    "city": "goodell",
    "state_code": "IA",
    "placeMasterId": "P02500000FsoFF2znOLhPa2Rcigb4nRRPlMlFTDU",
    "placeName": "goodell",
    "state": "IA"
  },
  {
    "city": "latimer",
    "state_code": "IA",
    "placeMasterId": "P02500000FsoFFu4f0jA7hdufXYfaGNdxCAWli9D",
    "placeName": "latimer",
    "state": "IA"
  },
  {
    "city": "meservey",
    "state_code": "IA",
    "placeMasterId": "P02500000FsoFGcJ31i338e8XYcOfopRjewZcaQC",
    "placeName": "meservey",
    "state": "IA"
  },
  {
    "city": "badger",
    "state_code": "IA",
    "placeMasterId": "P02500000FsoFDKq49alzKpVX4wS3rYvhqqUZdQX",
    "placeName": "badger",
    "state": "IA"
  },
  {
    "city": "cylinder",
    "state_code": "IA",
    "placeMasterId": "P02500000FsoFEKlPNMoU92DkhcrzEzW9U82MW2Y",
    "placeName": "cylinder",
    "state": "IA"
  },
  {
    "city": "dayton",
    "state_code": "IA",
    "placeMasterId": "P02500000FsoFEKlPNMoU92DkhcrzEzVMwYlsR6t",
    "placeName": "dayton",
    "state": "IA"
  },
  {
    "city": "varina",
    "state_code": "IA",
    "placeMasterId": "P02500000FsoFIc9jTG82l3YynzEWZge1S2NMh3L",
    "placeName": "varina",
    "state": "IA"
  },
  {
    "city": "clarksville",
    "state_code": "IA",
    "placeMasterId": "P02500000FsoFDuDyZB585EUEIBpjVWQl1bJLGGn",
    "placeName": "clarksville",
    "state": "IA"
  },
  {
    "city": "sumner",
    "state_code": "IA",
    "placeMasterId": "P02500000FsoFIKSmGSyTNr4dCMXgkhvZTRalzuE",
    "placeName": "sumner",
    "state": "IA"
  },
  {
    "city": "bronson",
    "state_code": "IA",
    "placeMasterId": "P02500000FsoFDcX1MNvYi1zsgZ8tgXfByLjbq6S",
    "placeName": "bronson",
    "state": "IA"
  },
  {
    "city": "cushing",
    "state_code": "IA",
    "placeMasterId": "P02500000FsoFEKlPNMoU92DkhcrzEzUusQODpal",
    "placeName": "cushing",
    "state": "IA"
  },
  {
    "city": "hawarden",
    "state_code": "IA",
    "placeMasterId": "P02500000FsoFFKgkb8qyxEvyKJHucQ8gwHHFbAt",
    "placeName": "hawarden",
    "state": "IA"
  },
  {
    "city": "linn grove",
    "state_code": "IA",
    "placeMasterId": "P02500000FsoFGBlcDWJh4qP19BMQ5MN2tQ4ed08",
    "placeName": "linn grove",
    "state": "IA"
  },
  {
    "city": "sergeant bluff",
    "state_code": "IA",
    "placeMasterId": "P02500000FsoFI2lp3fou0eaHajqqvjAkKz45Gkq",
    "placeName": "sergeant bluff",
    "state": "IA"
  },
  {
    "city": "dickens",
    "state_code": "IA",
    "placeMasterId": "P02500000FsoFEKlPNMoU92DkhcrzEzZeqfrV4T6",
    "placeName": "dickens",
    "state": "IA"
  },
  {
    "city": "charter oak",
    "state_code": "IA",
    "placeMasterId": "P02500000FsoFDuDyZB585EUEIBpjVWNw30JXIAg",
    "placeName": "charter oak",
    "state": "IA"
  },
  {
    "city": "griswold",
    "state_code": "IA",
    "placeMasterId": "P02500000FsoFFBqGzkHCGdgnWUwUhvkOGMEacqG",
    "placeName": "griswold",
    "state": "IA"
  },
  {
    "city": "henderson",
    "state_code": "IA",
    "placeMasterId": "P02500000FsoFFTXECXQldqB987dKWuW5Ea3D0uv",
    "placeName": "henderson",
    "state": "IA"
  },
  {
    "city": "lewis",
    "state_code": "IA",
    "placeMasterId": "P02500000FsoFGBlcDWJh4qP19BMQ5MKCTovDLQZ",
    "placeName": "lewis",
    "state": "IA"
  },
  {
    "city": "mcclelland",
    "state_code": "IA",
    "placeMasterId": "P02500000FsoFGBlcDWJh4qP19BMQ5MPbvjf81rQ",
    "placeName": "mcclelland",
    "state": "IA"
  },
  {
    "city": "neola",
    "state_code": "IA",
    "placeMasterId": "P02500000FsoFGl9Wd6cppFNiMQk5jJryxQQY7eS",
    "placeName": "neola",
    "state": "IA"
  },
  {
    "city": "underwood",
    "state_code": "IA",
    "placeMasterId": "P02500000FsoFITJFrrYG4SJo0At6fCKEExORrqj",
    "placeName": "underwood",
    "state": "IA"
  },
  {
    "city": "braddyville",
    "state_code": "IA",
    "placeMasterId": "P02500000FsoFDTgXkzLm1QkhsknTm3KqlSojklP",
    "placeName": "braddyville",
    "state": "IA"
  },
  {
    "city": "center junction",
    "state_code": "IA",
    "placeMasterId": "P02500000FsoFDuDyZB585EUEIBpjVWQu1JXUo9M",
    "placeName": "center junction",
    "state": "IA"
  },
  {
    "city": "middle amana",
    "state_code": "IA",
    "placeMasterId": "P02500000FsoFGcJ31i338e8XYcOfopSoqiMtjjg",
    "placeName": "middle amana",
    "state": "IA"
  },
  {
    "city": "cedar rapids",
    "state_code": "IA",
    "placeMasterId": "P02500000FsoFDuDyZB585EUEIBpjVWPCEPVewtT",
    "placeName": "cedar rapids",
    "state": "IA"
  },
  {
    "city": "west burlington",
    "state_code": "IA",
    "placeMasterId": "P02500000FsoFIl0D4ehpReo9bnZwUB7YhDgQeao",
    "placeName": "west burlington",
    "state": "IA"
  },
  {
    "city": "blue grass",
    "state_code": "IA",
    "placeMasterId": "P02500000FsoFDTgXkzLm1QkhsknTm3J0j4BiSsn",
    "placeName": "blue grass",
    "state": "IA"
  },
  {
    "city": "butler",
    "state_code": "WI",
    "placeMasterId": "P02500000FsoHEKIKWqNtF3uAsH4A0gNPEWo4z8D",
    "placeName": "butler",
    "state": "WI"
  },
  {
    "city": "delafield",
    "state_code": "WI",
    "placeMasterId": "P02500000FsoH5KyFWs1PxDUCG7IpbovdzFQ6hyb",
    "placeName": "delafield",
    "state": "WI"
  },
  {
    "city": "mequon",
    "state_code": "WI",
    "placeMasterId": "P02500000FsoH6lR1YpnGpDvwIEl0iicQ8WYu2ZY",
    "placeName": "mequon",
    "state": "WI"
  },
  {
    "city": "wilmot",
    "state_code": "WI",
    "placeMasterId": "P02500000FsoH8Taknaih4Qs1vyu1eb6q3MFbzDg",
    "placeName": "wilmot",
    "state": "WI"
  },
  {
    "city": "milwaukee",
    "state_code": "WI",
    "placeMasterId": "P02500000FsoH6lR1YpnGpDvwIEl0iig1pZrPtxd",
    "placeName": "milwaukee",
    "state": "WI"
  },
  {
    "city": "black earth",
    "state_code": "WI",
    "placeMasterId": "P02500000FsoHEbzHjdXScGOWTtkzpf2h8lsgidN",
    "placeName": "black earth",
    "state": "WI"
  },
  {
    "city": "evansville",
    "state_code": "WI",
    "placeMasterId": "P02500000FsoH5Toj8GbCdojN3veFWJQHF03YuV2",
    "placeName": "evansville",
    "state": "WI"
  }
]