[
  {
    "city": "winchester",
    "state_code": "KY",
    "placeMasterId": "P02500000FsoFQ2AYps8sUII2aDCFxA7arb8KdZS",
    "placeName": "winchester",
    "state": "KY"
  },
  {
    "city": "london",
    "state_code": "KY",
    "placeMasterId": "P02500000FsoFObhmnuN1cHqIY5k4qGT1UsvMI2D",
    "placeName": "london",
    "state": "KY"
  },
  {
    "city": "crittenden",
    "state_code": "KY",
    "placeMasterId": "P02500000FsoFNbmRa8KWo584vPK9SpjdLCfCldN",
    "placeName": "crittenden",
    "state": "KY"
  },
  {
    "city": "cynthiana",
    "state_code": "KY",
    "placeMasterId": "P02500000FsoFNkcvBWuJUgNFjDfZNK1gPsHafP1",
    "placeName": "cynthiana",
    "state": "KY"
  },
  {
    "city": "pikeville",
    "state_code": "KY",
    "placeMasterId": "P02500000FsoFPB5hDUgAMgozlL7kUDsaDgkSNkq",
    "placeName": "pikeville",
    "state": "KY"
  },
  {
    "city": "salem",
    "state_code": "KY",
    "placeMasterId": "P02500000FsoFPSmeQHpjjtJLMxoaJChXXoFd0rw",
    "placeName": "salem",
    "state": "KY"
  },
  {
    "city": "wickliffe",
    "state_code": "KY",
    "placeMasterId": "P02500000FsoFQ2AYps8sUII2aDCFxA04NlGZE45",
    "placeName": "wickliffe",
    "state": "KY"
  },
  {
    "city": "bowling green",
    "state_code": "KY",
    "placeMasterId": "P02500000FsoFNK5UNLAxQsdjJmdJdqvjbCdesEP",
    "placeName": "bowling green",
    "state": "KY"
  },
  {
    "city": "auburn",
    "state_code": "KY",
    "placeMasterId": "P02500000FsoFN2OXAY1O3g9Ni9wTosCyHnoiLKm",
    "placeName": "auburn",
    "state": "KY"
  },
  {
    "city": "hawesville",
    "state_code": "KY",
    "placeMasterId": "P02500000FsoFOK0pb7DSF5LwwT3F1HZPckE5GcB",
    "placeName": "hawesville",
    "state": "KY"
  },
  {
    "city": "powderly",
    "state_code": "KY",
    "placeMasterId": "P02500000FsoFPJwAotFx3I4AZ9TAOiEWOnYXBMZ",
    "placeName": "powderly",
    "state": "KY"
  },
  {
    "city": "new albany",
    "state_code": "OH",
    "placeMasterId": "P02500000FsoGGpLE0XhQiYqVqf0t4Pa6KpU5yFi",
    "placeName": "new albany",
    "state": "OH"
  },
  {
    "city": "unionville center",
    "state_code": "OH",
    "placeMasterId": "P02500000FsoGJ6sresvziAlIheXZeFNOeomtnMV",
    "placeName": "unionville center",
    "state": "OH"
  },
  {
    "city": "bloomingburg",
    "state_code": "OH",
    "placeMasterId": "P02500000FsoGD7KoKEh0qwTyxY21Nfrz6Dr1Ixj",
    "placeName": "bloomingburg",
    "state": "OH"
  },
  {
    "city": "south solon",
    "state_code": "OH",
    "placeMasterId": "P02500000FsoGIgLQqhCdeN1mIDVJumEwkdBiWYk",
    "placeName": "south solon",
    "state": "OH"
  },
  {
    "city": "williamsport",
    "state_code": "OH",
    "placeMasterId": "P02500000FsoGJXQIT4fLlyUp75ZpNidNZJShFH2",
    "placeName": "williamsport",
    "state": "OH"
  },
  {
    "city": "chesterville",
    "state_code": "OH",
    "placeMasterId": "P02500000FsoGDgiijp09bLSgAnPh1dR8hCBGJZO",
    "placeName": "chesterville",
    "state": "OH"
  },
  {
    "city": "wharton",
    "state_code": "OH",
    "placeMasterId": "P02500000FsoGJOZorg5Z5NFeJHEPTEH2shqZtN0",
    "placeName": "wharton",
    "state": "OH"
  },
  {
    "city": "toledo",
    "state_code": "OH",
    "placeMasterId": "P02500000FsoGIpBuS5mQKyGx61qjpGheGoHOM1s",
    "placeName": "toledo",
    "state": "OH"
  },
  {
    "city": "toledo",
    "state_code": "OH",
    "placeMasterId": "P02500000FsoGIpBuS5mQKyGx61qjpGheGoHOM1s",
    "placeName": "toledo",
    "state": "OH"
  },
  {
    "city": "toledo",
    "state_code": "OH",
    "placeMasterId": "P02500000FsoGIpBuS5mQKyGx61qjpGheGoHOM1s",
    "placeName": "toledo",
    "state": "OH"
  },
  {
    "city": "toledo",
    "state_code": "OH",
    "placeMasterId": "P02500000FsoGIpBuS5mQKyGx61qjpGheGoHOM1s",
    "placeName": "toledo",
    "state": "OH"
  },
  {
    "city": "coshocton",
    "state_code": "OH",
    "placeMasterId": "P02500000FsoGDyPfwc9iyXx1mQ6Wqc9Y3VjZsd2",
    "placeName": "coshocton",
    "state": "OH"
  },
  {
    "city": "salineville",
    "state_code": "OH",
    "placeMasterId": "P02500000FsoGIFo02VTHaZIFsmT4BJJbHlD6trk",
    "placeName": "salineville",
    "state": "OH"
  },
  {
    "city": "harrisville",
    "state_code": "OH",
    "placeMasterId": "P02500000FsoGFG1yNBLn9x9b0jDI31PO8n5GPiK",
    "placeName": "harrisville",
    "state": "OH"
  },
  {
    "city": "grand river",
    "state_code": "OH",
    "placeMasterId": "P02500000FsoGEyL1AOCDmkfFP6WSE2kBbzSzPht",
    "placeName": "grand river",
    "state": "OH"
  },
  {
    "city": "jefferson",
    "state_code": "OH",
    "placeMasterId": "P02500000FsoGFXivZyVMX9dwcLu7s0E56ZVaBdb",
    "placeName": "jefferson",
    "state": "OH"
  },
  {
    "city": "twinsburg",
    "state_code": "OH",
    "placeMasterId": "P02500000FsoGIy2O3UMD1ZW7tqC9jl8jl6g7PFE",
    "placeName": "twinsburg",
    "state": "OH"
  },
  {
    "city": "cleveland",
    "state_code": "OH",
    "placeMasterId": "P02500000FsoGDpZCLDZwHwhqybl6w7hFiW8c2lu",
    "placeName": "cleveland",
    "state": "OH"
  },
  {
    "city": "cleveland",
    "state_code": "OH",
    "placeMasterId": "P02500000FsoGDpZCLDZwHwhqybl6w7hFiW8c2lu",
    "placeName": "cleveland",
    "state": "OH"
  },
  {
    "city": "maple heights",
    "state_code": "OH",
    "placeMasterId": "P02500000FsoGGFxJaxOHy9rodPdDQS2I6tR9uPR",
    "placeName": "maple heights",
    "state": "OH"
  },
  {
    "city": "brecksville",
    "state_code": "OH",
    "placeMasterId": "P02500000FsoGDP1lX1qaE8yKZAirCeSGLkyEBPh",
    "placeName": "brecksville",
    "state": "OH"
  },
  {
    "city": "salem",
    "state_code": "OH",
    "placeMasterId": "P02500000FsoGIFo02VTHaZIFsmT4BJIW7Iy6ANK",
    "placeName": "salem",
    "state": "OH"
  },
  {
    "city": "youngstown",
    "state_code": "OH",
    "placeMasterId": "P02500000FsoGJgGm4TF8SZjzutvFICtONAHpkmb",
    "placeName": "youngstown",
    "state": "OH"
  },
  {
    "city": "alliance",
    "state_code": "OH",
    "placeMasterId": "P02500000FsoGCXwtueNs6XVHkIeLjiPG2ays88s",
    "placeName": "alliance",
    "state": "OH"
  },
  {
    "city": "greenwich",
    "state_code": "OH",
    "placeMasterId": "P02500000FsoGEyL1AOCDmkfFP6WSE2jszNX5CCx",
    "placeName": "greenwich",
    "state": "OH"
  },
  {
    "city": "mount orab",
    "state_code": "OH",
    "placeMasterId": "P02500000FsoGGpLE0XhQiYqVqf0t4PUhFzHiGpZ",
    "placeName": "mount orab",
    "state": "OH"
  },
  {
    "city": "new richmond",
    "state_code": "OH",
    "placeMasterId": "P02500000FsoGH72BDKr05lKrSHhitOMQYzkOWzm",
    "placeName": "new richmond",
    "state": "OH"
  },
  {
    "city": "russellville",
    "state_code": "OH",
    "placeMasterId": "P02500000FsoGI6xWR6tUty354y7eGov3BbHytIn",
    "placeName": "russellville",
    "state": "OH"
  },
  {
    "city": "cincinnati",
    "state_code": "OH",
    "placeMasterId": "P02500000FsoGDpZCLDZwHwhqybl6w7e8Lps6H4x",
    "placeName": "cincinnati",
    "state": "OH"
  },
  {
    "city": "fletcher",
    "state_code": "OH",
    "placeMasterId": "P02500000FsoGEXnaMCSriwvizfUCUZXfi7zhYP5",
    "placeName": "fletcher",
    "state": "OH"
  },
  {
    "city": "tremont city",
    "state_code": "OH",
    "placeMasterId": "P02500000FsoGIpBuS5mQKyGx61qjpGlJ2saybv0",
    "placeName": "tremont city",
    "state": "OH"
  },
  {
    "city": "chauncey",
    "state_code": "OH",
    "placeMasterId": "P02500000FsoGDgiijp09bLSgAnPh1dNFOMOm3T5",
    "placeName": "chauncey",
    "state": "OH"
  },
  {
    "city": "marietta",
    "state_code": "OH",
    "placeMasterId": "P02500000FsoGGOnnCLy4el6zRDydKwIfd3Od66I",
    "placeName": "marietta",
    "state": "OH"
  },
  {
    "city": "racine",
    "state_code": "OH",
    "placeMasterId": "P02500000FsoGHpGZEJjvWlYjTLQoRq9XTb4n6rl",
    "placeName": "racine",
    "state": "OH"
  },
  {
    "city": "grover hill",
    "state_code": "OH",
    "placeMasterId": "P02500000FsoGF7BUlmm0TLuQCurs8WxLTB75HRm",
    "placeName": "grover hill",
    "state": "OH"
  },
  {
    "city": "frankfort",
    "state_code": "IN",
    "placeMasterId": "P02500000FsoFA3N5HTUvX0sWbGVRuIR5GflcCc0",
    "placeName": "frankfort",
    "state": "IN"
  },
  {
    "city": "mulberry",
    "state_code": "IN",
    "placeMasterId": "P02500000FsoFBKzNi2gziQ55pZcD6hisyupTibh",
    "placeName": "mulberry",
    "state": "IN"
  },
  {
    "city": "bargersville",
    "state_code": "IN",
    "placeMasterId": "P02500000FsoF93Rk3hSQioAIya5WWrn1UZLgnZj",
    "placeName": "bargersville",
    "state": "IN"
  },
  {
    "city": "knightstown",
    "state_code": "IN",
    "placeMasterId": "P02500000FsoFAlbTISNqy16OcKEXSkEBd5etPNo",
    "placeName": "knightstown",
    "state": "IN"
  },
  {
    "city": "indianapolis",
    "state_code": "IN",
    "placeMasterId": "P02500000FsoFAckzh3o4HPrDoVt7YFuCi8MjR1V",
    "placeName": "indianapolis",
    "state": "IN"
  },
  {
    "city": "indianapolis",
    "state_code": "IN",
    "placeMasterId": "P02500000FsoFAckzh3o4HPrDoVt7YFuCi8MjR1V",
    "placeName": "indianapolis",
    "state": "IN"
  },
  {
    "city": "schererville",
    "state_code": "IN",
    "placeMasterId": "P02500000FsoFCC4FKQ9hq1Y8eRgiZdxSJSfyGP1",
    "placeName": "schererville",
    "state": "IN"
  },
  {
    "city": "whiting",
    "state_code": "IN",
    "placeMasterId": "P02500000FsoFClS9k0SqaQWprh4ODbTQsKUi7Hv",
    "placeName": "whiting",
    "state": "IN"
  },
  {
    "city": "markle",
    "state_code": "IN",
    "placeMasterId": "P02500000FsoFAuRwtqxdecLZQ8ZxNEdjRq1gSJM",
    "placeName": "markle",
    "state": "IN"
  },
  {
    "city": "roanoke",
    "state_code": "IN",
    "placeMasterId": "P02500000FsoFC3Dlj1Zv9QIxqdLIf9YOx5HKlGn",
    "placeName": "roanoke",
    "state": "IN"
  },
  {
    "city": "fort wayne",
    "state_code": "IN",
    "placeMasterId": "P02500000FsoFACDYss4iDc7hP4qromiuPZZ994H",
    "placeName": "fort wayne",
    "state": "IN"
  },
  {
    "city": "monterey",
    "state_code": "IN",
    "placeMasterId": "P02500000FsoFBC8u6e7D1opv1lGnCDPQCwXH5IF",
    "placeName": "monterey",
    "state": "IN"
  },
  {
    "city": "rochester",
    "state_code": "IN",
    "placeMasterId": "P02500000FsoFC3Dlj1Zv9QIxqdLIf9a9bkK4A9v",
    "placeName": "rochester",
    "state": "IN"
  },
  {
    "city": "winamac",
    "state_code": "IN",
    "placeMasterId": "P02500000FsoFCuIdLP2dH1m0fVPo85mRcB3oSna",
    "placeName": "winamac",
    "state": "IN"
  },
  {
    "city": "laconia",
    "state_code": "IN",
    "placeMasterId": "P02500000FsoFAlbTISNqy16OcKEXSkDJ5pzRYa3",
    "placeName": "laconia",
    "state": "IN"
  },
  {
    "city": "new castle",
    "state_code": "IN",
    "placeMasterId": "P02500000FsoFBKzNi2gziQ55pZcD6hkbM4qyXtA",
    "placeName": "new castle",
    "state": "IN"
  },
  {
    "city": "salamonia",
    "state_code": "IN",
    "placeMasterId": "P02500000FsoFC3Dlj1Zv9QIxqdLIf9ZcHQXgEjx",
    "placeName": "salamonia",
    "state": "IN"
  },
  {
    "city": "monroe city",
    "state_code": "IN",
    "placeMasterId": "P02500000FsoFBKzNi2gziQ55pZcD6hi6w3UBwq6",
    "placeName": "monroe city",
    "state": "IN"
  },
  {
    "city": "yeoman",
    "state_code": "IN",
    "placeMasterId": "P02500000FsoFCuIdLP2dH1m0fVPo85nuyQfK5uQ",
    "placeName": "yeoman",
    "state": "IN"
  },
  {
    "city": "new baltimore",
    "state_code": "MI",
    "placeMasterId": "P02500000FsoFZjj1qpOHD8vtDQgfuTD4uTiRjj1",
    "placeName": "new baltimore",
    "state": "MI"
  },
  {
    "city": "southfield",
    "state_code": "MI",
    "placeMasterId": "P02500000FsoFaantTCqzKkOw2IlBNPSI1Bod2BF",
    "placeName": "southfield",
    "state": "MI"
  },
  {
    "city": "dearborn",
    "state_code": "MI",
    "placeMasterId": "P02500000FsoFY1ZIc4SqxvznZgXeyaqr2imSlK7",
    "placeName": "dearborn",
    "state": "MI"
  },
  {
    "city": "northville",
    "state_code": "MI",
    "placeMasterId": "P02500000FsoFZsZVSDy3tkB41F25oxbuFrM1Sch",
    "placeName": "northville",
    "state": "MI"
  },
  {
    "city": "ecorse",
    "state_code": "MI",
    "placeMasterId": "P02500000FsoFYAPmDT2deXEyNUt4t5MeEvKs5Ys",
    "placeName": "ecorse",
    "state": "MI"
  },
  {
    "city": "bloomfield hills",
    "state_code": "MI",
    "placeMasterId": "P02500000FsoFXSBOCU9iDX16MR9zKdIjj5UjP4e",
    "placeName": "bloomfield hills",
    "state": "MI"
  },
  {
    "city": "utica",
    "state_code": "MI",
    "placeMasterId": "P02500000FsoFajeN4bQm1Le6q76bHu2YEjsXOtB",
    "placeName": "utica",
    "state": "MI"
  },
  {
    "city": "hartland",
    "state_code": "MI",
    "placeMasterId": "P02500000FsoHk92o2F60T1U22M6MBv5fxKswfV6",
    "placeName": "hartland",
    "state": "MI"
  },
  {
    "city": "novi",
    "state_code": "MI",
    "placeMasterId": "P02500000FsoFZjj1qpOHD8vtDQgfuTRrSsQgCcu",
    "placeName": "novi",
    "state": "MI"
  },
  {
    "city": "davison",
    "state_code": "MI",
    "placeMasterId": "P02500000FsoFY1ZIc4SqxvznZgXeyatChvKaW6E",
    "placeName": "davison",
    "state": "MI"
  },
  {
    "city": "linden",
    "state_code": "MI",
    "placeMasterId": "P02500000FsoFZJBb2dev9LCMnzeQB0CUUpckNPX",
    "placeName": "linden",
    "state": "MI"
  },
  {
    "city": "minden city",
    "state_code": "MI",
    "placeMasterId": "P02500000FsoFZasYFQoUWXgiPcLFzz0riU3YTft",
    "placeName": "minden city",
    "state": "MI"
  },
  {
    "city": "brant",
    "state_code": "MI",
    "placeMasterId": "P02500000FsoHhiegmVHemoK4NYEFhaqKJqUjFPE",
    "placeName": "brant",
    "state": "MI"
  },
  {
    "city": "prudenville",
    "state_code": "MI",
    "placeMasterId": "P02500000FsoFaAGSf17dGwfPcrivdwRGx4e7xs1",
    "placeName": "prudenville",
    "state": "MI"
  },
  {
    "city": "caseville",
    "state_code": "MI",
    "placeMasterId": "P02500000FsoFXb1rnsjUu8GHAFVPF7qATiDdqEI",
    "placeName": "caseville",
    "state": "MI"
  },
  {
    "city": "lake odessa",
    "state_code": "MI",
    "placeMasterId": "P02500000FsoFZAL7RF58SjxC0BJ0GVoSmzQ7Idf",
    "placeName": "lake odessa",
    "state": "MI"
  },
  {
    "city": "westphalia",
    "state_code": "MI",
    "placeMasterId": "P02500000FsoFb1LKHOaLOY8SRjnR6scloW9ChmG",
    "placeName": "westphalia",
    "state": "MI"
  },
  {
    "city": "mendon",
    "state_code": "MI",
    "placeMasterId": "P02500000FsoFZasYFQoUWXgiPcLFzyrr3tvvlvF",
    "placeName": "mendon",
    "state": "MI"
  },
  {
    "city": "nashville",
    "state_code": "MI",
    "placeMasterId": "P02500000FsoFZjj1qpOHD8vtDQgfuTK6Zv5dtTB",
    "placeName": "nashville",
    "state": "MI"
  },
  {
    "city": "allen",
    "state_code": "MI",
    "placeMasterId": "P02500000FsoFX1dxOIQM9jHZx07jbAIEFsb5NiE",
    "placeName": "allen",
    "state": "MI"
  },
  {
    "city": "petersburg",
    "state_code": "MI",
    "placeMasterId": "P02500000FsoFa1Pz3cXqaLQEp3NVjS8Jml71sRU",
    "placeName": "petersburg",
    "state": "MI"
  },
  {
    "city": "cedar springs",
    "state_code": "MI",
    "placeMasterId": "P02500000FsoFXjsLPHJHajVRy3qp9c81nlEvD56",
    "placeName": "cedar springs",
    "state": "MI"
  },
  {
    "city": "evart",
    "state_code": "MI",
    "placeMasterId": "P02500000FsoFYJGForcQL8U9BJEUnZZ2wccGcrO",
    "placeName": "evart",
    "state": "MI"
  },
  {
    "city": "de tour village",
    "state_code": "MI",
    "placeMasterId": "P02500000FsoFYAPmDT2deXEyNUt4t5C0hTfJ5OY",
    "placeName": "de tour village",
    "state": "MI"
  },
  {
    "city": "allouez",
    "state_code": "MI",
    "placeMasterId": "P02500000FsoHh0QIlWOjLo6CMUVA98xFtd5rVyI",
    "placeName": "allouez",
    "state": "MI"
  },
  {
    "city": "calumet",
    "state_code": "MI",
    "placeMasterId": "P02500000FsoFXjsLPHJHajVRy3qp9c0L81Jpu5d",
    "placeName": "calumet",
    "state": "MI"
  },
  {
    "city": "chassell",
    "state_code": "MI",
    "placeMasterId": "P02500000FsoHiI2bC5anXDIlanbvLYEM69xYYPb",
    "placeName": "chassell",
    "state": "MI"
  },
  {
    "city": "galt",
    "state_code": "IA",
    "placeMasterId": "P02500000FsoFEu9Jmx7ctRCRusFeswzzb0GmP8Q",
    "placeName": "galt",
    "state": "IA"
  },
  {
    "city": "lacona",
    "state_code": "IA",
    "placeMasterId": "P02500000FsoFFu4f0jA7hdufXYfaGNcDFDlNxLr",
    "placeName": "lacona",
    "state": "IA"
  },
  {
    "city": "perry",
    "state_code": "IA",
    "placeMasterId": "P02500000FsoFHKXR2gvyZeMPZg7lNHK5wG42C7n",
    "placeName": "perry",
    "state": "IA"
  },
  {
    "city": "yale",
    "state_code": "IA",
    "placeMasterId": "P02500000FsoFItqgg3Hc8G3KPbvMOfUoiPMfnqF",
    "placeName": "yale",
    "state": "IA"
  },
  {
    "city": "zearing",
    "state_code": "IA",
    "placeMasterId": "P02500000FsoFItqgg3Hc8G3KPbvMOfYgILLKtxs",
    "placeName": "zearing",
    "state": "IA"
  },
  {
    "city": "des moines",
    "state_code": "IA",
    "placeMasterId": "P02500000FsoFETbsylOGpdSvVRDP9Ttytdspgxt",
    "placeName": "des moines",
    "state": "IA"
  },
  {
    "city": "belmond",
    "state_code": "IA",
    "placeMasterId": "P02500000FsoFDKq49alzKpVX4wS3rYzOAvyXKTX",
    "placeName": "belmond",
    "state": "IA"
  },
  {
    "city": "manly",
    "state_code": "IA",
    "placeMasterId": "P02500000FsoFGTSZQJTGS2tMko3FuL4evMe3z02",
    "placeName": "manly",
    "state": "IA"
  },
  {
    "city": "titonka",
    "state_code": "IA",
    "placeMasterId": "P02500000FsoFIKSmGSyTNr4dCMXgkhxODN3X4qM",
    "placeName": "titonka",
    "state": "IA"
  },
  {
    "city": "dolliver",
    "state_code": "IA",
    "placeMasterId": "P02500000FsoFEKlPNMoU92DkhcrzEzYCRYHsa6S",
    "placeName": "dolliver",
    "state": "IA"
  },
  {
    "city": "goldfield",
    "state_code": "IA",
    "placeMasterId": "P02500000FsoFF2znOLhPa2Rcigb4nRNnWlFQMDu",
    "placeName": "goldfield",
    "state": "IA"
  },
  {
    "city": "sioux city",
    "state_code": "IA",
    "placeMasterId": "P02500000FsoFI2lp3fou0eaHajqqvjCarU2Srkt",
    "placeName": "sioux city",
    "state": "IA"
  },
  {
    "city": "oakland",
    "state_code": "IA",
    "placeMasterId": "P02500000FsoFH2qTptmPCRs3y3QvYIYqJsDsOyH",
    "placeName": "oakland",
    "state": "IA"
  },
  {
    "city": "imogene",
    "state_code": "IA",
    "placeMasterId": "P02500000FsoFFTXECXQldqB987dKWuV3YxE43lA",
    "placeName": "imogene",
    "state": "IA"
  },
  {
    "city": "dubuque",
    "state_code": "IA",
    "placeMasterId": "P02500000FsoFETbsylOGpdSvVRDP9TvdufdY75V",
    "placeName": "dubuque",
    "state": "IA"
  },
  {
    "city": "garnavillo",
    "state_code": "IA",
    "placeMasterId": "P02500000FsoFF2znOLhPa2Rcigb4nRMMUwtpPh9",
    "placeName": "garnavillo",
    "state": "IA"
  },
  {
    "city": "sherrill",
    "state_code": "IA",
    "placeMasterId": "P02500000FsoFI2lp3fou0eaHajqqvjED1lI82Hk",
    "placeName": "sherrill",
    "state": "IA"
  },
  {
    "city": "lowden",
    "state_code": "IA",
    "placeMasterId": "P02500000FsoFGBlcDWJh4qP19BMQ5MPK0EekkVG",
    "placeName": "lowden",
    "state": "IA"
  },
  {
    "city": "robins",
    "state_code": "IA",
    "placeMasterId": "P02500000FsoFHl4rqsfKdS5vz7A16kQ5NrnCwAO",
    "placeName": "robins",
    "state": "IA"
  },
  {
    "city": "hillsboro",
    "state_code": "IA",
    "placeMasterId": "P02500000FsoFFTXECXQldqB987dKWuTVOWvhYHK",
    "placeName": "hillsboro",
    "state": "IA"
  },
  {
    "city": "wayland",
    "state_code": "IA",
    "placeMasterId": "P02500000FsoFIl0D4ehpReo9bnZwUB2GaBsZhzK",
    "placeName": "wayland",
    "state": "IA"
  },
  {
    "city": "iron ridge",
    "state_code": "WI",
    "placeMasterId": "P02500000FsoH6C379FU84oxF4zNL4l7VKY7C0VB",
    "placeName": "iron ridge",
    "state": "WI"
  },
  {
    "city": "west bend",
    "state_code": "WI",
    "placeMasterId": "P02500000FsoH8KkHCC8uNpcr8AYbk6khLBKm0RL",
    "placeName": "west bend",
    "state": "WI"
  },
  {
    "city": "delavan",
    "state_code": "WI",
    "placeMasterId": "P02500000FsoH5KyFWs1PxDUCG7IpbozaYSWv426",
    "placeName": "delavan",
    "state": "WI"
  },
  {
    "city": "milwaukee",
    "state_code": "WI",
    "placeMasterId": "P02500000FsoH6lR1YpnGpDvwIEl0iig1pZrPtxd",
    "placeName": "milwaukee",
    "state": "WI"
  },
  {
    "city": "milwaukee",
    "state_code": "WI",
    "placeMasterId": "P02500000FsoH6lR1YpnGpDvwIEl0iig1pZrPtxd",
    "placeName": "milwaukee",
    "state": "WI"
  },
  {
    "city": "milwaukee",
    "state_code": "WI",
    "placeMasterId": "P02500000FsoH6lR1YpnGpDvwIEl0iig1pZrPtxd",
    "placeName": "milwaukee",
    "state": "WI"
  },
  {
    "city": "barneveld",
    "state_code": "WI",
    "placeMasterId": "P02500000FsoH4TtNuUYhpc19RFEK8sdyTidguCd",
    "placeName": "barneveld",
    "state": "WI"
  },
  {
    "city": "blue river",
    "state_code": "WI",
    "placeMasterId": "P02500000FsoH4laL7HiHCoVV2rv9xrOzG0aN2Bm",
    "placeName": "blue river",
    "state": "WI"
  },
  {
    "city": "janesville",
    "state_code": "WI",
    "placeMasterId": "P02500000FsoH6C379FU84oxF4zNL4l70x93YJgq",
    "placeName": "janesville",
    "state": "WI"
  },
  {
    "city": "wonewoc",
    "state_code": "WI",
    "placeMasterId": "P02500000FsoHF2WiXpGog482tKnFZ8KojLn1VXd",
    "placeName": "wonewoc",
    "state": "WI"
  },
  {
    "city": "roberts",
    "state_code": "WI",
    "placeMasterId": "P02500000FsoH7cVtBDFywpOz76pWBewLqfAmi6v",
    "placeName": "roberts",
    "state": "WI"
  },
  {
    "city": "dunbar",
    "state_code": "WI",
    "placeMasterId": "P02500000FsoIgmv2wAJkrv4eF657fFjR0vKA4kP",
    "placeName": "dunbar",
    "state": "WI"
  },
  {
    "city": "ephraim",
    "state_code": "WI",
    "placeMasterId": "P02500000FsoH5cfCjfAzKPyXrjzfQna3MuEKeDv",
    "placeName": "ephraim",
    "state": "WI"
  },
  {
    "city": "two rivers",
    "state_code": "WI",
    "placeMasterId": "P02500000FsoH8BtnanZ7hENgKMDBpcQXTxlkRoN",
    "placeName": "two rivers",
    "state": "WI"
  },
  {
    "city": "bowler",
    "state_code": "WI",
    "placeMasterId": "P02500000FsoH4laL7HiHCoVV2rv9xrS2yJO4TvT",
    "placeName": "bowler",
    "state": "WI"
  },
  {
    "city": "tomahawk",
    "state_code": "WI",
    "placeMasterId": "P02500000FsoH833JzOzL0d8VWXrlv877choWK8v",
    "placeName": "tomahawk",
    "state": "WI"
  },
  {
    "city": "dodge",
    "state_code": "WI",
    "placeMasterId": "P02500000FsoIgmv2wAJkrv4eF657fFi2xWimBZD",
    "placeName": "dodge",
    "state": "WI"
  },
  {
    "city": "centuria",
    "state_code": "WI",
    "placeMasterId": "P02500000FsoH53HIK4rqa0zqeUbzmq6HNTabw25",
    "placeName": "centuria",
    "state": "WI"
  },
  {
    "city": "leopolis",
    "state_code": "WI",
    "placeMasterId": "P02500000FsoH6Tk4M2dhS1Ragc4AtjqIbV1W3Ni",
    "placeName": "leopolis",
    "state": "WI"
  },
  {
    "city": "ripon",
    "state_code": "WI",
    "placeMasterId": "P02500000FsoH7TfPZogCGE9oJIU6HAcOUQ6tYXW",
    "placeName": "ripon",
    "state": "WI"
  },
  {
    "city": "waukau",
    "state_code": "WI",
    "placeMasterId": "P02500000FsoH8KkHCC8uNpcr8AYbk6lOmkizJ4K",
    "placeName": "waukau",
    "state": "WI"
  },
  {
    "city": "hector",
    "state_code": "MN",
    "placeMasterId": "P02500000FsoFdA2UKLF7hYo4UuyhmEMsHK5nVZ2",
    "placeName": "hector",
    "state": "MN"
  },
  {
    "city": "minneapolis",
    "state_code": "MN",
    "placeMasterId": "P02500000FsoFeIoJ9VrPCMlSvPk349D9alJlgNT",
    "placeName": "minneapolis",
    "state": "MN"
  },
  {
    "city": "minneapolis",
    "state_code": "MN",
    "placeMasterId": "P02500000FsoFeIoJ9VrPCMlSvPk349D9alJlgNT",
    "placeName": "minneapolis",
    "state": "MN"
  },
  {
    "city": "holyoke",
    "state_code": "MN",
    "placeMasterId": "P02500000FsoHtHDMdc2GRT9BSKD6VGqODg2zNee",
    "placeName": "holyoke",
    "state": "MN"
  },
  {
    "city": "winona",
    "state_code": "MN",
    "placeMasterId": "P02500000FsoFgIezb3wOomBuAmZtp0O9zDDE0RG",
    "placeName": "winona",
    "state": "MN"
  },
  {
    "city": "delavan",
    "state_code": "MN",
    "placeMasterId": "P02500000FsoFcIxchxmPZxL1g2uCJI1bG5ysByF",
    "placeName": "delavan",
    "state": "MN"
  },
  {
    "city": "jasper",
    "state_code": "MN",
    "placeMasterId": "P02500000FsoFdaZv8WyTlMXauM0xVhEi96IyrQz",
    "placeName": "jasper",
    "state": "MN"
  },
  {
    "city": "worthington",
    "state_code": "MN",
    "placeMasterId": "P02500000FsoFgIezb3wOomBuAmZtp0TOD3TeRZW",
    "placeName": "worthington",
    "state": "MN"
  },
  {
    "city": "greenwald",
    "state_code": "MN",
    "placeMasterId": "P02500000FsoFd1C0iwfL0xYth6dHrjtyf5HoR0b",
    "placeName": "greenwald",
    "state": "MN"
  },
  {
    "city": "new munich",
    "state_code": "MN",
    "placeMasterId": "P02500000FsoFeaVGMJ0yZZFoX2Qst7uNpoEk9e5",
    "placeName": "new munich",
    "state": "MN"
  },
  {
    "city": "parkers prairie",
    "state_code": "MN",
    "placeMasterId": "P02500000FsoFesCDZ6AXwlkA8f7ii6dVnycWm8c",
    "placeName": "parkers prairie",
    "state": "MN"
  },
  {
    "city": "brainerd",
    "state_code": "MN",
    "placeMasterId": "P02500000FsoFbjZiINTGpYMKSnWWfKRaZ8lNGIt",
    "placeName": "brainerd",
    "state": "MN"
  },
  {
    "city": "palisade",
    "state_code": "MN",
    "placeMasterId": "P02500000FsoFesCDZ6AXwlkA8f7ii6ccAozK14u",
    "placeName": "palisade",
    "state": "MN"
  },
  {
    "city": "wadena",
    "state_code": "MN",
    "placeMasterId": "P02500000FsoFg0y2OGmpRZhYZ9t401gX4rSGmi2",
    "placeName": "wadena",
    "state": "MN"
  },
  {
    "city": "beltrami",
    "state_code": "MN",
    "placeMasterId": "P02500000FsoFbJ2HUBjulkco3MUGvrWjekabIxR",
    "placeName": "beltrami",
    "state": "MN"
  },
  {
    "city": "halstad",
    "state_code": "MN",
    "placeMasterId": "P02500000FsoFdA2UKLF7hYo4UuyhmECPUtXee9L",
    "placeName": "halstad",
    "state": "MN"
  },
  {
    "city": "new york mills",
    "state_code": "MN",
    "placeMasterId": "P02500000FsoFeaVGMJ0yZZFoX2Qst7tQxbLBDyp",
    "placeName": "new york mills",
    "state": "MN"
  },
  {
    "city": "mizpah",
    "state_code": "MN",
    "placeMasterId": "P02500000FsoFeRemkuRBsy0djE5SydXkFRclRXp",
    "placeName": "mizpah",
    "state": "MN"
  },
  {
    "city": "fisher",
    "state_code": "MN",
    "placeMasterId": "P02500000FsoFcjV3W9Vldl4Y5TwS2l3xRIdYaEp",
    "placeName": "fisher",
    "state": "MN"
  },
  {
    "city": "salem",
    "state_code": "SD",
    "placeMasterId": "P02500000FsoGfE4s9KOiDHhJEW5LsB3G7SggDrl",
    "placeName": "salem",
    "state": "SD"
  },
  {
    "city": "emery",
    "state_code": "SD",
    "placeMasterId": "P02500000FsoGe5J3K9mQiTjuo1K0aG1VsCe9nb8",
    "placeName": "emery",
    "state": "SD"
  },
  {
    "city": "fort thompson",
    "state_code": "SD",
    "placeMasterId": "P02500000FsoGeE9WvYMDP4z5bpfQUkMziW7BHOV",
    "placeName": "fort thompson",
    "state": "SD"
  },
  {
    "city": "lane",
    "state_code": "SD",
    "placeMasterId": "P02500000FsoGeegxjk5ZSsic1GhgEDO4bw79d9i",
    "placeName": "lane",
    "state": "SD"
  },
  {
    "city": "wessington",
    "state_code": "SD",
    "placeMasterId": "P02500000FsoGfVlpM7YHaUBeq8mBh9mc6FmiPhL",
    "placeName": "wessington",
    "state": "SD"
  },
  {
    "city": "woonsocket",
    "state_code": "SD",
    "placeMasterId": "P02500000FsoGfecIxW84H5Qpdx7bbe9zpviff38",
    "placeName": "woonsocket",
    "state": "SD"
  },
  {
    "city": "cando",
    "state_code": "ND",
    "placeMasterId": "P02500000FsoGAPFjrhj5nWpfh7T54MpNso4oOXH",
    "placeName": "cando",
    "state": "ND"
  },
  {
    "city": "fredonia",
    "state_code": "ND",
    "placeMasterId": "P02500000FsoGAydeHI2EXvoMuMqkiKAdVKdHaxf",
    "placeName": "fredonia",
    "state": "ND"
  },
  {
    "city": "kensal",
    "state_code": "ND",
    "placeMasterId": "P02500000FsoGBGKbU5Bnv8IiVzXaXJ1sGTn7YFD",
    "placeName": "kensal",
    "state": "ND"
  },
  {
    "city": "wishek",
    "state_code": "ND",
    "placeMasterId": "P02500000FsoGCXwtueNs6XVHkIeLjiOhsqZI5fh",
    "placeName": "wishek",
    "state": "ND"
  },
  {
    "city": "kramer",
    "state_code": "ND",
    "placeMasterId": "P02500000FsoGBPB55TlabjXtJnt0RnQNiRXMD4z",
    "placeName": "kramer",
    "state": "ND"
  },
  {
    "city": "voltaire",
    "state_code": "ND",
    "placeMasterId": "P02500000FsoGCP6QJFo5PwG6wUIvpDt1Pcpi3Ge",
    "placeName": "voltaire",
    "state": "ND"
  },
  {
    "city": "wildrose",
    "state_code": "ND",
    "placeMasterId": "P02500000FsoGCXwtueNs6XVHkIeLjiGkryvIrfc",
    "placeName": "wildrose",
    "state": "ND"
  },
  {
    "city": "williston",
    "state_code": "ND",
    "placeMasterId": "P02500000FsoGCP6QJFo5PwG6wUIvpE70haXBATq",
    "placeName": "williston",
    "state": "ND"
  },
  {
    "city": "alamo",
    "state_code": "ND",
    "placeMasterId": "P02500000FsoGA7YmeuZWQKLK5UmFFO8M0mOFAx5",
    "placeName": "alamo",
    "state": "ND"
  },
  {
    "city": "bridger",
    "state_code": "MT",
    "placeMasterId": "P02500000FsoForRdmqZW2osMNVIyUOjYeC8hw8R",
    "placeName": "bridger",
    "state": "MT"
  },
  {
    "city": "laurel",
    "state_code": "MT",
    "placeMasterId": "P02500000FsoFpiWVPE2EAQLPCNNTxKzp9c2VtC8",
    "placeName": "laurel",
    "state": "MT"
  },
  {
    "city": "opheim",
    "state_code": "MT",
    "placeMasterId": "P02500000FsoFq0DSc1BnXcpko04JmJYJBTz50OP",
    "placeName": "opheim",
    "state": "MT"
  },
  {
    "city": "poplar",
    "state_code": "MT",
    "placeMasterId": "P02500000FsoFq93wDPlaEE4vboPjgnzFv1Vt4iG",
    "placeName": "poplar",
    "state": "MT"
  },
  {
    "city": "ekalaka",
    "state_code": "MT",
    "placeMasterId": "P02500000FsoFpHz4b2Is6cbsmwLEDrjE6zDYK9q",
    "placeName": "ekalaka",
    "state": "MT"
  },
  {
    "city": "cut bank",
    "state_code": "MT",
    "placeMasterId": "P02500000FsoFp0I7OF9IjQ7XBJeOOt7UWAjKCB6",
    "placeName": "cut bank",
    "state": "MT"
  },
  {
    "city": "harrison",
    "state_code": "MT",
    "placeMasterId": "P02500000FsoFpZg1npSRTp6EOZ242qTrgtuetbp",
    "placeName": "harrison",
    "state": "MT"
  },
  {
    "city": "alberton",
    "state_code": "MT",
    "placeMasterId": "P02500000FsoFoibABRzjMDdBZgxYZuF8n1BhlGH",
    "placeName": "alberton",
    "state": "MT"
  },
  {
    "city": "de borgia",
    "state_code": "MT",
    "placeMasterId": "P02500000FsoFp98azdj5Q1Mhz7zoJNSZhQplb5e",
    "placeName": "de borgia",
    "state": "MT"
  },
  {
    "city": "trego",
    "state_code": "MT",
    "placeMasterId": "P02500000FsoFqZbN1bUwI1oS1FRzQH7noFBOeMe",
    "placeName": "trego",
    "state": "MT"
  },
  {
    "city": "schiller park",
    "state_code": "IL",
    "placeMasterId": "P02500000FsoF7U8UQL6nACTO8eHvVTiV0hrKL53",
    "placeName": "schiller park",
    "state": "IL"
  },
  {
    "city": "oak park",
    "state_code": "IL",
    "placeMasterId": "P02500000FsoF6LMfbAUVfOVzi9WaDYkUbA3T87Q",
    "placeName": "oak park",
    "state": "IL"
  },
  {
    "city": "dwight",
    "state_code": "IL",
    "placeMasterId": "P02500000FsoF33tgj3DRrZszETZyGIBhU6DyCl8",
    "placeName": "dwight",
    "state": "IL"
  },
  {
    "city": "hazel crest",
    "state_code": "IL",
    "placeMasterId": "P02500000FsoF4CfVYDpjMNqNeyLJYD858Che414",
    "placeName": "hazel crest",
    "state": "IL"
  },
  {
    "city": "joliet",
    "state_code": "IL",
    "placeMasterId": "P02500000FsoF4dCwMPZ5QBZu4PNZHgH3YP7jtAo",
    "placeName": "joliet",
    "state": "IL"
  },
  {
    "city": "richton park",
    "state_code": "IL",
    "placeMasterId": "P02500000FsoF7CRXDXxDmzz2X1b5gUvv2O4SUub",
    "placeName": "richton park",
    "state": "IL"
  },
  {
    "city": "somonauk",
    "state_code": "IL",
    "placeMasterId": "P02500000FsoF7lpRd8GMXOxjkGylKSRqZbfurs9",
    "placeName": "somonauk",
    "state": "IL"
  },
  {
    "city": "chicago",
    "state_code": "IL",
    "placeMasterId": "P02500000FsoF2LfIi4KWQZf7DPqshqNB04VNil1",
    "placeName": "chicago",
    "state": "IL"
  },
  {
    "city": "chicago",
    "state_code": "IL",
    "placeMasterId": "P02500000FsoF2LfIi4KWQZf7DPqshqNB04VNil1",
    "placeName": "chicago",
    "state": "IL"
  },
  {
    "city": "chicago",
    "state_code": "IL",
    "placeMasterId": "P02500000FsoF2LfIi4KWQZf7DPqshqNB04VNil1",
    "placeName": "chicago",
    "state": "IL"
  },
  {
    "city": "chicago",
    "state_code": "IL",
    "placeMasterId": "P02500000FsoF2LfIi4KWQZf7DPqshqNB04VNil1",
    "placeName": "chicago",
    "state": "IL"
  },
  {
    "city": "bradley",
    "state_code": "IL",
    "placeMasterId": "P02500000FsoF1v7rtsbAMlvanyocyNC6eNfXsxB",
    "placeName": "bradley",
    "state": "IL"
  },
  {
    "city": "ludlow",
    "state_code": "IL",
    "placeMasterId": "P02500000FsoF5LRKNOS0rBnm5T6eq88FUz5mYtE",
    "placeName": "ludlow",
    "state": "IL"
  },
  {
    "city": "capron",
    "state_code": "IL",
    "placeMasterId": "P02500000FsoF2Cop6fkjjyPwPbVSnLxVsL9dw4j",
    "placeName": "capron",
    "state": "IL"
  },
  {
    "city": "lena",
    "state_code": "IL",
    "placeMasterId": "P02500000FsoF53kNAbIRTzJQTqPp19QGrkHvVC1",
    "placeName": "lena",
    "state": "IL"
  },
  {
    "city": "rock city",
    "state_code": "IL",
    "placeMasterId": "P02500000FsoF7CRXDXxDmzz2X1b5gUw25Ygiue5",
    "placeName": "rock city",
    "state": "IL"
  },
  {
    "city": "winnebago",
    "state_code": "IL",
    "placeMasterId": "P02500000FsoF8ubGSIse2Cv8Alk6cNNnfogAFQQ",
    "placeName": "winnebago",
    "state": "IL"
  },
  {
    "city": "erie",
    "state_code": "IL",
    "placeMasterId": "P02500000FsoF3LadvqN1EmNKq6Go5GvogBXr6zM",
    "placeName": "erie",
    "state": "IL"
  },
  {
    "city": "fulton",
    "state_code": "IL",
    "placeMasterId": "P02500000FsoF3dHb8dWabyrgRixduFiFmJa9aNr",
    "placeName": "fulton",
    "state": "IL"
  },
  {
    "city": "milan",
    "state_code": "IL",
    "placeMasterId": "P02500000FsoF5lylBaBMuzXIUu8uZbG5vz5M6IC",
    "placeName": "milan",
    "state": "IL"
  },
  {
    "city": "mendota",
    "state_code": "IL",
    "placeMasterId": "P02500000FsoF5d8HaBbaEOI7h5nUf6sH2MB1DS0",
    "placeName": "mendota",
    "state": "IL"
  },
  {
    "city": "galesburg",
    "state_code": "IL",
    "placeMasterId": "P02500000FsoF3m84k26NIa6rFXJ3ok2iIuY2sNV",
    "placeName": "galesburg",
    "state": "IL"
  },
  {
    "city": "adair",
    "state_code": "IL",
    "placeMasterId": "P02500000FsoF1CtTstiEvlhimv5XPvMD1Rr4ZoH",
    "placeName": "adair",
    "state": "IL"
  },
  {
    "city": "dunlap",
    "state_code": "IL",
    "placeMasterId": "P02500000FsoF33tgj3DRrZszETZyGICFlpzIbgC",
    "placeName": "dunlap",
    "state": "IL"
  },
  {
    "city": "washburn",
    "state_code": "IL",
    "placeMasterId": "P02500000FsoF8cuJFVj4f0QmZ93GnOeNB0TsPEF",
    "placeName": "washburn",
    "state": "IL"
  },
  {
    "city": "peoria heights",
    "state_code": "IL",
    "placeMasterId": "P02500000FsoF6lu6PMDrjCFW7aYpx1sY8iVOaSH",
    "placeName": "peoria heights",
    "state": "IL"
  },
  {
    "city": "bloomington",
    "state_code": "IL",
    "placeMasterId": "P02500000FsoF1v7rtsbAMlvanyocyNBnxxFGPjX",
    "placeName": "bloomington",
    "state": "IL"
  },
  {
    "city": "armington",
    "state_code": "IL",
    "placeMasterId": "P02500000FsoF1LjxUII1cMwtajQxKPkcohXC0Mt",
    "placeName": "armington",
    "state": "IL"
  },
  {
    "city": "clinton",
    "state_code": "IL",
    "placeMasterId": "P02500000FsoF2dMFurU5nm9Sp2XiWp37R3DhWZ8",
    "placeName": "clinton",
    "state": "IL"
  },
  {
    "city": "colfax",
    "state_code": "IL",
    "placeMasterId": "P02500000FsoF2UVmJSuJ7AuI1ECIcKkNuuAe7zP",
    "placeName": "colfax",
    "state": "IL"
  },
  {
    "city": "heyworth",
    "state_code": "IL",
    "placeMasterId": "P02500000FsoF4LVz9cPW2z5YSmgjShW7MDuVGv9",
    "placeName": "heyworth",
    "state": "IL"
  },
  {
    "city": "hudson",
    "state_code": "IL",
    "placeMasterId": "P02500000FsoF4UMSl0zIjaKjGb29NBtMGvNyWj1",
    "placeName": "hudson",
    "state": "IL"
  },
  {
    "city": "saunemin",
    "state_code": "IL",
    "placeMasterId": "P02500000FsoF7cyy1jgZqniYwSdLPy2kq9LCeeU",
    "placeName": "saunemin",
    "state": "IL"
  },
  {
    "city": "urbana",
    "state_code": "IL",
    "placeMasterId": "P02500000FsoF8CMsRJzibChG9i113vbb3v9pn7b",
    "placeName": "urbana",
    "state": "IL"
  },
  {
    "city": "indianola",
    "state_code": "IL",
    "placeMasterId": "P02500000FsoF4dCwMPZ5QBZu4PNZHgHDw2n5uyz",
    "placeName": "indianola",
    "state": "IL"
  },
  {
    "city": "edwardsville",
    "state_code": "IL",
    "placeMasterId": "P02500000FsoF3CkAKRnEYB8A2HvOAmXdouknpb7",
    "placeName": "edwardsville",
    "state": "IL"
  },
  {
    "city": "sawyerville",
    "state_code": "IL",
    "placeMasterId": "P02500000FsoF7U8UQL6nACTO8eHvVTjObxM0vVo",
    "placeName": "sawyerville",
    "state": "IL"
  },
  {
    "city": "bartelso",
    "state_code": "IL",
    "placeMasterId": "P02500000FsoF1UaR5groIyC4OXmNEu91EhQ2hJc",
    "placeName": "bartelso",
    "state": "IL"
  },
  {
    "city": "east carondelet",
    "state_code": "IL",
    "placeMasterId": "P02500000FsoF3CkAKRnEYB8A2HvOAmWiYO3urvj",
    "placeName": "east carondelet",
    "state": "IL"
  },
  {
    "city": "marissa",
    "state_code": "IL",
    "placeMasterId": "P02500000FsoF5d8HaBbaEOI7h5nUf6scDaC0BQF",
    "placeName": "marissa",
    "state": "IL"
  },
  {
    "city": "mascoutah",
    "state_code": "IL",
    "placeMasterId": "P02500000FsoF5d8HaBbaEOI7h5nUf6rbzOEaIQv",
    "placeName": "mascoutah",
    "state": "IL"
  },
  {
    "city": "oakdale",
    "state_code": "IL",
    "placeMasterId": "P02500000FsoF6LMfbAUVfOVzi9WaDYj5EF8bglB",
    "placeName": "oakdale",
    "state": "IL"
  },
  {
    "city": "lima",
    "state_code": "IL",
    "placeMasterId": "P02500000FsoF53kNAbIRTzJQTqPp19Ow7HIetuS",
    "placeName": "lima",
    "state": "IL"
  },
  {
    "city": "decatur",
    "state_code": "IL",
    "placeMasterId": "P02500000FsoF2v3D7edfAydoQfEYLnpWbMReuOD",
    "placeName": "decatur",
    "state": "IL"
  },
  {
    "city": "auburn",
    "state_code": "IL",
    "placeMasterId": "P02500000FsoF1UaR5groIyC4OXmNEu6YP2taMSD",
    "placeName": "auburn",
    "state": "IL"
  },
  {
    "city": "bath",
    "state_code": "IL",
    "placeMasterId": "P02500000FsoF1UaR5groIyC4OXmNEu6jP4q4Zw4",
    "placeName": "bath",
    "state": "IL"
  },
  {
    "city": "springfield",
    "state_code": "IL",
    "placeMasterId": "P02500000FsoF7ufvEWq9E0CuY5KBEwn2MTYuixB",
    "placeName": "springfield",
    "state": "IL"
  },
  {
    "city": "springfield",
    "state_code": "IL",
    "placeMasterId": "P02500000FsoF7ufvEWq9E0CuY5KBEwn2MTYuixB",
    "placeName": "springfield",
    "state": "IL"
  },
  {
    "city": "barnhill",
    "state_code": "IL",
    "placeMasterId": "P02500000FsoHHK4MCAVNfg2pkKJw8yJNxEA7xPi",
    "placeName": "barnhill",
    "state": "IL"
  },
  {
    "city": "dale",
    "state_code": "IL",
    "placeMasterId": "P02500000FsoHItNbpWr1EHjkaG7XAMI4z2NmQ26",
    "placeName": "dale",
    "state": "IL"
  },
  {
    "city": "macedonia",
    "state_code": "IL",
    "placeMasterId": "P02500000FsoF5LRKNOS0rBnm5T6eq885GO2BjV1",
    "placeName": "macedonia",
    "state": "IL"
  },
  {
    "city": "orient",
    "state_code": "IL",
    "placeMasterId": "P02500000FsoF6UD9CZ4ILzlAVxs083AVAevoVLd",
    "placeName": "orient",
    "state": "IL"
  },
  {
    "city": "sailor springs",
    "state_code": "IL",
    "placeMasterId": "P02500000FsoF7U8UQL6nACTO8eHvVTiPQQJuYIi",
    "placeName": "sailor springs",
    "state": "IL"
  },
  {
    "city": "cobden",
    "state_code": "IL",
    "placeMasterId": "P02500000FsoF2dMFurU5nm9Sp2XiWp4tXpxrzqH",
    "placeName": "cobden",
    "state": "IL"
  },
  {
    "city": "jonesboro",
    "state_code": "IL",
    "placeMasterId": "P02500000FsoF4dCwMPZ5QBZu4PNZHgGPwm2AOEF",
    "placeName": "jonesboro",
    "state": "IL"
  },
  {
    "city": "pittsburg",
    "state_code": "IL",
    "placeMasterId": "P02500000FsoF6uka0knePnUgvOuFrWBpDogv8H5",
    "placeName": "pittsburg",
    "state": "IL"
  },
  {
    "city": "bellflower",
    "state_code": "MO",
    "placeMasterId": "P02500000FsoFj0k43auJsBqDRD8q8JRboZz3lfR",
    "placeName": "bellflower",
    "state": "MO"
  },
  {
    "city": "clarksville",
    "state_code": "MO",
    "placeMasterId": "P02500000FsoFjiyS4ZnFJC45SGrvglHuQASme57",
    "placeName": "clarksville",
    "state": "MO"
  },
  {
    "city": "foley",
    "state_code": "MO",
    "placeMasterId": "P02500000FsoFka3JgxFxQnX8H8wR9hWeHBrC2Ut",
    "placeName": "foley",
    "state": "MO"
  },
  {
    "city": "pollock",
    "state_code": "MO",
    "placeMasterId": "P02500000FsoFn0RQwh4J70h5vwoXe1tmkzd9fhK",
    "placeName": "pollock",
    "state": "MO"
  },
  {
    "city": "whitewater",
    "state_code": "MO",
    "placeMasterId": "P02500000FsoFoZkga3PwfcO0lsc8fPsdDf2NIai",
    "placeName": "whitewater",
    "state": "MO"
  },
  {
    "city": "blodgett",
    "state_code": "MO",
    "placeMasterId": "P02500000FsoFj9aXezU6Yn5OF1UG2noPFbU56At",
    "placeName": "blodgett",
    "state": "MO"
  },
  {
    "city": "bragg city",
    "state_code": "MO",
    "placeMasterId": "P02500000FsoFj9aXezU6Yn5OF1UG2nq5MFQm418",
    "placeName": "bragg city",
    "state": "MO"
  },
  {
    "city": "blue springs",
    "state_code": "MO",
    "placeMasterId": "P02500000FsoFj9aXezU6Yn5OF1UG2nprLmCk7kt",
    "placeName": "blue springs",
    "state": "MO"
  },
  {
    "city": "camden point",
    "state_code": "MO",
    "placeMasterId": "P02500000FsoFjRHUrmdfvzZjqeB5rmaowtteiKl",
    "placeName": "camden point",
    "state": "MO"
  },
  {
    "city": "kansas city",
    "state_code": "MO",
    "placeMasterId": "P02500000FsoFlR8BJKifYP0B610wcdmJLAheztV",
    "placeName": "kansas city",
    "state": "MO"
  },
  {
    "city": "kansas city",
    "state_code": "MO",
    "placeMasterId": "P02500000FsoFlR8BJKifYP0B610wcdmJLAheztV",
    "placeName": "kansas city",
    "state": "MO"
  },
  {
    "city": "kansas city",
    "state_code": "MO",
    "placeMasterId": "P02500000FsoFlR8BJKifYP0B610wcdmJLAheztV",
    "placeName": "kansas city",
    "state": "MO"
  },
  {
    "city": "kansas city",
    "state_code": "MO",
    "placeMasterId": "P02500000FsoFlR8BJKifYP0B610wcdmJLAheztV",
    "placeName": "kansas city",
    "state": "MO"
  },
  {
    "city": "kansas city",
    "state_code": "MO",
    "placeMasterId": "P02500000FsoFlR8BJKifYP0B610wcdmJLAheztV",
    "placeName": "kansas city",
    "state": "MO"
  },
  {
    "city": "kansas city",
    "state_code": "MO",
    "placeMasterId": "P02500000FsoFlR8BJKifYP0B610wcdmJLAheztV",
    "placeName": "kansas city",
    "state": "MO"
  },
  {
    "city": "kansas city",
    "state_code": "MO",
    "placeMasterId": "P02500000FsoFlR8BJKifYP0B610wcdmJLAheztV",
    "placeName": "kansas city",
    "state": "MO"
  },
  {
    "city": "jameson",
    "state_code": "MO",
    "placeMasterId": "P02500000FsoFlR8BJKifYP0B610wcdoYmhnuOCd",
    "placeName": "jameson",
    "state": "MO"
  },
  {
    "city": "powersville",
    "state_code": "MO",
    "placeMasterId": "P02500000FsoFn9HuY5e5nbwGjl9xYW9vlvcFnbE",
    "placeName": "powersville",
    "state": "MO"
  },
  {
    "city": "jasper",
    "state_code": "MO",
    "placeMasterId": "P02500000FsoFlR8BJKifYP0B610wcdfj3FD2xF8",
    "placeName": "jasper",
    "state": "MO"
  },
  {
    "city": "rich hill",
    "state_code": "MO",
    "placeMasterId": "P02500000FsoFnI8O9UDsUDBRXZVNT0U1Pv4U5CO",
    "placeName": "rich hill",
    "state": "MO"
  },
  {
    "city": "granby",
    "state_code": "MO",
    "placeMasterId": "P02500000FsoFkrkGtkPWo01TsldGygFqCMfHVpU",
    "placeName": "granby",
    "state": "MO"
  },
  {
    "city": "stark city",
    "state_code": "MO",
    "placeMasterId": "P02500000FsoFnifoxfxEY0uxx0XdCTmdoUvrjeV",
    "placeName": "stark city",
    "state": "MO"
  },
  {
    "city": "belle",
    "state_code": "MO",
    "placeMasterId": "P02500000FsoFj0k43auJsBqDRD8q8JPWvQmHHsZ",
    "placeName": "belle",
    "state": "MO"
  },
  {
    "city": "harrisburg",
    "state_code": "MO",
    "placeMasterId": "P02500000FsoFl0akV8zJUbGegZygtAgnzx25PqA",
    "placeName": "harrisburg",
    "state": "MO"
  },
  {
    "city": "gilliam",
    "state_code": "MO",
    "placeMasterId": "P02500000FsoFkitnILpk7OmJ4xHr4BsxN2jHpKU",
    "placeName": "gilliam",
    "state": "MO"
  },
  {
    "city": "fort leonard wood",
    "state_code": "MO",
    "placeMasterId": "P02500000FsoFka3JgxFxQnX8H8wR9hVIGJyHv16",
    "placeName": "fort leonard wood",
    "state": "MO"
  },
  {
    "city": "licking",
    "state_code": "MO",
    "placeMasterId": "P02500000FsoFlrfc7WS1cCjhVS3CM6tdEm79eGo",
    "placeName": "licking",
    "state": "MO"
  },
  {
    "city": "winona",
    "state_code": "MO",
    "placeMasterId": "P02500000FsoFoZkga3PwfcO0lsc8fPrry4EdeAM",
    "placeName": "winona",
    "state": "MO"
  },
  {
    "city": "purdy",
    "state_code": "MO",
    "placeMasterId": "P02500000FsoFn9HuY5e5nbwGjl9xYWEXp3Pvv0Y",
    "placeName": "purdy",
    "state": "MO"
  },
  {
    "city": "baldwin city",
    "state_code": "KS",
    "placeMasterId": "P02500000FsoFJKO7UF0yC3mqp2xc88X4h2c5Ufa",
    "placeName": "baldwin city",
    "state": "KS"
  },
  {
    "city": "linwood",
    "state_code": "KS",
    "placeMasterId": "P02500000FsoFLBOKKOWB7ry7GbS2yVLIRCTk3bL",
    "placeName": "linwood",
    "state": "KS"
  },
  {
    "city": "ottawa",
    "state_code": "KS",
    "placeMasterId": "P02500000FsoFLkmEjypJsGwoTqpicSrSwQ5kJaC",
    "placeName": "ottawa",
    "state": "KS"
  },
  {
    "city": "pomona",
    "state_code": "KS",
    "placeMasterId": "P02500000FsoFM2TBwlytFTRA5TWYRRZF9dlvQt8",
    "placeName": "pomona",
    "state": "KS"
  },
  {
    "city": "kansas city",
    "state_code": "KS",
    "placeMasterId": "P02500000FsoFKthN7bMbkfTleylD9WcwenSSDwE",
    "placeName": "kansas city",
    "state": "KS"
  },
  {
    "city": "leawood",
    "state_code": "KS",
    "placeMasterId": "P02500000FsoFL2XqizwORGiwSn6d40xsLRnGUVa",
    "placeName": "leawood",
    "state": "KS"
  },
  {
    "city": "blue rapids",
    "state_code": "KS",
    "placeMasterId": "P02500000FsoFJKO7UF0yC3mqp2xc88cjXG7xRU5",
    "placeName": "blue rapids",
    "state": "KS"
  },
  {
    "city": "erie",
    "state_code": "KS",
    "placeMasterId": "P02500000FsoFKBSz6cTgJfFtdv27b4m8Vv799Gw",
    "placeName": "erie",
    "state": "KS"
  },
  {
    "city": "hartford",
    "state_code": "KS",
    "placeMasterId": "P02500000FsoFKc0PuoD2NSzQ3M4NKXq6ueYn64C",
    "placeName": "hartford",
    "state": "KS"
  },
  {
    "city": "clyde",
    "state_code": "KS",
    "placeMasterId": "P02500000FsoFJkvYIQkKFrWNETzrrbcWwIHJpFy",
    "placeName": "clyde",
    "state": "KS"
  },
  {
    "city": "morrowville",
    "state_code": "KS",
    "placeMasterId": "P02500000FsoFLbvl8aFXBfhdg2UIhyR7urhvoRH",
    "placeName": "morrowville",
    "state": "KS"
  },
  {
    "city": "douglass",
    "state_code": "KS",
    "placeMasterId": "P02500000FsoFK2cVVDttd40iq6ghgaLtjsge2bD",
    "placeName": "douglass",
    "state": "KS"
  },
  {
    "city": "mount hope",
    "state_code": "KS",
    "placeMasterId": "P02500000FsoFLbvl8aFXBfhdg2UIhySNNHGgxNq",
    "placeName": "mount hope",
    "state": "KS"
  },
  {
    "city": "murdock",
    "state_code": "KS",
    "placeMasterId": "P02500000FsoHaRUL1HqbkAqBP8bwEbxyVXKEwTj",
    "placeName": "murdock",
    "state": "KS"
  },
  {
    "city": "oxford",
    "state_code": "KS",
    "placeMasterId": "P02500000FsoFLkmEjypJsGwoTqpicSs1jD2HrgL",
    "placeName": "oxford",
    "state": "KS"
  },
  {
    "city": "cherryvale",
    "state_code": "KS",
    "placeMasterId": "P02500000FsoFJkvYIQkKFrWNETzrrbbubj5Wt6j",
    "placeName": "cherryvale",
    "state": "KS"
  },
  {
    "city": "howard",
    "state_code": "KS",
    "placeMasterId": "P02500000FsoFKc0PuoD2NSzQ3M4NKXt9YV1g8xB",
    "placeName": "howard",
    "state": "KS"
  },
  {
    "city": "kanopolis",
    "state_code": "KS",
    "placeMasterId": "P02500000FsoFKthN7bMbkfTleylD9WZxHm6F0w6",
    "placeName": "kanopolis",
    "state": "KS"
  },
  {
    "city": "hutchinson",
    "state_code": "KS",
    "placeMasterId": "P02500000FsoFKkqtWCmp44EarAPnF2Gb1tddFxR",
    "placeName": "hutchinson",
    "state": "KS"
  },
  {
    "city": "olmitz",
    "state_code": "KS",
    "placeMasterId": "P02500000FsoFLkmEjypJsGwoTqpicSpbFmJjdml",
    "placeName": "olmitz",
    "state": "KS"
  },
  {
    "city": "syracuse",
    "state_code": "KS",
    "placeMasterId": "P02500000FsoFMbr6MMI1zsPrIiuE5P48K4Qt6sS",
    "placeName": "syracuse",
    "state": "KS"
  },
  {
    "city": "cedar creek",
    "state_code": "NE",
    "placeMasterId": "P02500000FsoFrQgEdyxePdHUq7WUtDLu83shaPe",
    "placeName": "cedar creek",
    "state": "NE"
  },
  {
    "city": "rosalie",
    "state_code": "NE",
    "placeMasterId": "P02500000FsoFtHgRU8SrLRSlHg0vjaFBX0JdZ1s",
    "placeName": "rosalie",
    "state": "NE"
  },
  {
    "city": "thurston",
    "state_code": "NE",
    "placeMasterId": "P02500000FsoFtiDsIKCDPFCHh73BT3SbjUJlDa2",
    "placeName": "thurston",
    "state": "NE"
  },
  {
    "city": "omaha",
    "state_code": "NE",
    "placeMasterId": "P02500000FsoFszzUHLJHyEyPg3K5ubV6FuzuT2T",
    "placeName": "omaha",
    "state": "NE"
  },
  {
    "city": "omaha",
    "state_code": "NE",
    "placeMasterId": "P02500000FsoFszzUHLJHyEyPg3K5ubV6FuzuT2T",
    "placeName": "omaha",
    "state": "NE"
  },
  {
    "city": "omaha",
    "state_code": "NE",
    "placeMasterId": "P02500000FsoFszzUHLJHyEyPg3K5ubV6FuzuT2T",
    "placeName": "omaha",
    "state": "NE"
  },
  {
    "city": "belvidere",
    "state_code": "NE",
    "placeMasterId": "P02500000FsoFr8zHRBo52Qn9EUpf4EfUfXgoeTK",
    "placeName": "belvidere",
    "state": "NE"
  },
  {
    "city": "douglas",
    "state_code": "NE",
    "placeMasterId": "P02500000FsoFriNBqm7DmplqRkDKiC6DxxNSn78",
    "placeName": "douglas",
    "state": "NE"
  },
  {
    "city": "humboldt",
    "state_code": "NE",
    "placeMasterId": "P02500000FsoFsHl6GMQMXEkXezb0M9e7Sak6FDs",
    "placeName": "humboldt",
    "state": "NE"
  },
  {
    "city": "salem",
    "state_code": "NE",
    "placeMasterId": "P02500000FsoFtQWv5X2e22hw5UMLe4bH6mg2wWS",
    "placeName": "salem",
    "state": "NE"
  },
  {
    "city": "stella",
    "state_code": "NE",
    "placeMasterId": "P02500000FsoFtiDsIKCDPFCHh73BT3KeAYwptHA",
    "placeName": "stella",
    "state": "NE"
  },
  {
    "city": "lincoln",
    "state_code": "NE",
    "placeMasterId": "P02500000FsoFsZS3T9ZvuREtGcHqB8DyQVvTvuI",
    "placeName": "lincoln",
    "state": "NE"
  },
  {
    "city": "duncan",
    "state_code": "NE",
    "placeMasterId": "P02500000FsoFriNBqm7DmplqRkDKiC7veSttHUs",
    "placeName": "duncan",
    "state": "NE"
  },
  {
    "city": "allen",
    "state_code": "NE",
    "placeMasterId": "P02500000FsoFqrIKEOeVfEIncs8pFFrKSl6RdCh",
    "placeName": "allen",
    "state": "NE"
  },
  {
    "city": "emerson",
    "state_code": "NE",
    "placeMasterId": "P02500000FsoFrrDfSAh0TR11FYYkcgVH8Vs2Z5b",
    "placeName": "emerson",
    "state": "NE"
  },
  {
    "city": "edgar",
    "state_code": "NE",
    "placeMasterId": "P02500000FsoFriNBqm7DmplqRkDKiC7qDCZtqHF",
    "placeName": "edgar",
    "state": "NE"
  },
  {
    "city": "saronville",
    "state_code": "NE",
    "placeMasterId": "P02500000FsoFtZNOgvcQidx6tIhlYYqEZlPc0RC",
    "placeName": "saronville",
    "state": "NE"
  },
  {
    "city": "mccook",
    "state_code": "NE",
    "placeMasterId": "P02500000FsoFsZS3T9ZvuREtGcHqB8NAH1DFxhO",
    "placeName": "mccook",
    "state": "NE"
  },
  {
    "city": "enders",
    "state_code": "NE",
    "placeMasterId": "P02500000FsoFrrDfSAh0TR11FYYkcgSGC9B9aWO",
    "placeName": "enders",
    "state": "NE"
  },
  {
    "city": "farnam",
    "state_code": "NE",
    "placeMasterId": "P02500000FsoFrrDfSAh0TR11FYYkcgZ49TFzRms",
    "placeName": "farnam",
    "state": "NE"
  },
  {
    "city": "cody",
    "state_code": "NE",
    "placeMasterId": "P02500000FsoFrQgEdyxePdHUq7WUtDPlz5nBlec",
    "placeName": "cody",
    "state": "NE"
  },
  {
    "city": "crawford",
    "state_code": "NE",
    "placeMasterId": "P02500000FsoFrZWiFNXR6EWfdvrunhgmBfyZEqQ",
    "placeName": "crawford",
    "state": "NE"
  },
  {
    "city": "melbeta",
    "state_code": "NE",
    "placeMasterId": "P02500000FsoFsr90fwjVHdjEsEyg071ADAtTBXm",
    "placeName": "melbeta",
    "state": "NE"
  },
  {
    "city": "morrill",
    "state_code": "NE",
    "placeMasterId": "P02500000FsoFsr90fwjVHdjEsEyg072yXnktq82",
    "placeName": "morrill",
    "state": "NE"
  },
  {
    "city": "lockport",
    "state_code": "LA",
    "placeMasterId": "P02500000FsoFRbToTEUW2tyxQ8zqyYEGXM8hsmv",
    "placeName": "lockport",
    "state": "LA"
  },
  {
    "city": "napoleonville",
    "state_code": "LA",
    "placeMasterId": "P02500000FsoFS21FHQDs6hiTpa26i1FLYN6fXOP",
    "placeName": "napoleonville",
    "state": "LA"
  },
  {
    "city": "abbeville",
    "state_code": "LA",
    "placeMasterId": "P02500000FsoFQB12RGifAtXDO1XfreRt7iNkxAm",
    "placeName": "abbeville",
    "state": "LA"
  },
  {
    "city": "arnaudville",
    "state_code": "LA",
    "placeMasterId": "P02500000FsoFQB12RGifAtXDO1XfreSul3WB0sT",
    "placeName": "arnaudville",
    "state": "LA"
  },
  {
    "city": "egan",
    "state_code": "LA",
    "placeMasterId": "P02500000FsoFQtFQSFbabtl5P5GlQ6McvnF2daA",
    "placeName": "egan",
    "state": "LA"
  },
  {
    "city": "jennings",
    "state_code": "LA",
    "placeMasterId": "P02500000FsoFRSdKrpujMIjmcKeR43lTDqmT0ME",
    "placeName": "jennings",
    "state": "LA"
  },
  {
    "city": "fordoche",
    "state_code": "LA",
    "placeMasterId": "P02500000FsoFR25u3eBNIV0GCtcBKaftPFkXtyR",
    "placeName": "fordoche",
    "state": "LA"
  },
  {
    "city": "sorrento",
    "state_code": "LA",
    "placeMasterId": "P02500000FsoFSbP9h0X0r6hB2pPmLyhjw0Uoheg",
    "placeName": "sorrento",
    "state": "LA"
  },
  {
    "city": "haughton",
    "state_code": "LA",
    "placeMasterId": "P02500000FsoFRJmrGRKwfhUboWJ19ZTdEc6vnX4",
    "placeName": "haughton",
    "state": "LA"
  },
  {
    "city": "lisbon",
    "state_code": "LA",
    "placeMasterId": "P02500000FsoFRkKI4d4IjVE8DxLGt2YXfmzuY5L",
    "placeName": "lisbon",
    "state": "LA"
  },
  {
    "city": "epps",
    "state_code": "LA",
    "placeMasterId": "P02500000FsoFR25u3eBNIV0GCtcBKafwD0XoZhd",
    "placeName": "epps",
    "state": "LA"
  },
  {
    "city": "jonesville",
    "state_code": "LA",
    "placeMasterId": "P02500000FsoFRSdKrpujMIjmcKeR43p5ND4Fwxc",
    "placeName": "jonesville",
    "state": "LA"
  },
  {
    "city": "pollock",
    "state_code": "LA",
    "placeMasterId": "P02500000FsoFSJiCUDNRTuCpRCiwX022R5X9j5r",
    "placeName": "pollock",
    "state": "LA"
  },
  {
    "city": "banks",
    "state_code": "AR",
    "placeMasterId": "P02500000FsoEafSfhAMB82BJLspnwoJ9FMz8dAJ",
    "placeName": "banks",
    "state": "AR"
  },
  {
    "city": "kingsland",
    "state_code": "AR",
    "placeMasterId": "P02500000FsoEc5vRj88202d3O0Hz3i0F0xTjf03",
    "placeName": "kingsland",
    "state": "AR"
  },
  {
    "city": "portland",
    "state_code": "AR",
    "placeMasterId": "P02500000FsoEco9pk70xR2qvP414c9pqBAy5B0h",
    "placeName": "portland",
    "state": "AR"
  },
  {
    "city": "fordyce",
    "state_code": "AR",
    "placeMasterId": "P02500000FsoEbWXXJXotFdeMAkuJPkWKPg8ZUtc",
    "placeName": "fordyce",
    "state": "AR"
  },
  {
    "city": "gurdon",
    "state_code": "AR",
    "placeMasterId": "P02500000FsoEbfO0uwOfwEtWyZFjKEuDBXpoKNF",
    "placeName": "gurdon",
    "state": "AR"
  },
  {
    "city": "smackover",
    "state_code": "AR",
    "placeMasterId": "P02500000FsoEd5qmwuAWoFLH0ghuR8aqNkoaK9I",
    "placeName": "smackover",
    "state": "AR"
  },
  {
    "city": "emmet",
    "state_code": "AR",
    "placeMasterId": "P02500000FsoEbNh3i9F6Z2PBMwYtVGA6rdrrxxs",
    "placeName": "emmet",
    "state": "AR"
  },
  {
    "city": "gillham",
    "state_code": "AR",
    "placeMasterId": "P02500000FsoEbfO0uwOfwEtWyZFjKEroSaa5mp4",
    "placeName": "gillham",
    "state": "AR"
  },
  {
    "city": "conway",
    "state_code": "AR",
    "placeMasterId": "P02500000FsoEb606VM5XBpuplJs3gHPgkzgUWX7",
    "placeName": "conway",
    "state": "AR"
  },
  {
    "city": "hunter",
    "state_code": "AR",
    "placeMasterId": "P02500000FsoEboEUWKyScq8hmNb9EjGZ2SQ287r",
    "placeName": "hunter",
    "state": "AR"
  },
  {
    "city": "keo",
    "state_code": "AR",
    "placeMasterId": "P02500000FsoEc5vRj88202d3O0Hz3hy6IvUNekJ",
    "placeName": "keo",
    "state": "AR"
  },
  {
    "city": "gilmore",
    "state_code": "AR",
    "placeMasterId": "P02500000FsoEbWXXJXotFdeMAkuJPkXBW26JHZh",
    "placeName": "gilmore",
    "state": "AR"
  },
  {
    "city": "jonesboro",
    "state_code": "AR",
    "placeMasterId": "P02500000FsoEc5vRj88202d3O0Hz3hyegAOSIMn",
    "placeName": "jonesboro",
    "state": "AR"
  },
  {
    "city": "eureka springs",
    "state_code": "AR",
    "placeMasterId": "P02500000FsoEbNh3i9F6Z2PBMwYtVG9HZg287nz",
    "placeName": "eureka springs",
    "state": "AR"
  },
  {
    "city": "dover",
    "state_code": "AR",
    "placeMasterId": "P02500000FsoEbNh3i9F6Z2PBMwYtVG7KyCdLnLF",
    "placeName": "dover",
    "state": "AR"
  },
  {
    "city": "knoxville",
    "state_code": "AR",
    "placeMasterId": "P02500000FsoEbx4y7jYFJRNsaBwZ9DeEapDUoH9",
    "placeName": "knoxville",
    "state": "AR"
  },
  {
    "city": "edmond",
    "state_code": "OK",
    "placeMasterId": "P02500000FsoGL6jY6R0zKaBjx1NQP6aBd1eiWKr",
    "placeName": "edmond",
    "state": "OK"
  },
  {
    "city": "morrison",
    "state_code": "OK",
    "placeMasterId": "P02500000FsoGMOLqX0D3VzOJBKUBbW0RhtR9TtC",
    "placeName": "morrison",
    "state": "OK"
  },
  {
    "city": "purcell",
    "state_code": "OK",
    "placeMasterId": "P02500000FsoGMxjkwaWCGON0OZrrFTMtBBrZH9m",
    "placeName": "purcell",
    "state": "OK"
  },
  {
    "city": "verden",
    "state_code": "OK",
    "placeMasterId": "P02500000FsoGNoocYxyuNzq3DRwMiPpHJE7Q46K",
    "placeName": "verden",
    "state": "OK"
  },
  {
    "city": "oklahoma city",
    "state_code": "OK",
    "placeMasterId": "P02500000FsoGMg2njnMctBsemxB1QUgVkw3g3BI",
    "placeName": "oklahoma city",
    "state": "OK"
  },
  {
    "city": "oklahoma city",
    "state_code": "OK",
    "placeMasterId": "P02500000FsoGMg2njnMctBsemxB1QUgVkw3g3BI",
    "placeName": "oklahoma city",
    "state": "OK"
  },
  {
    "city": "davidson",
    "state_code": "OK",
    "placeMasterId": "P02500000FsoGKp2atdrPxNhOLOgaa7pOzYsniDG",
    "placeName": "davidson",
    "state": "OK"
  },
  {
    "city": "alva",
    "state_code": "OK",
    "placeMasterId": "P02500000FsoGJp7Ffrov9AzAiiGfChIwI1vz2dT",
    "placeName": "alva",
    "state": "OK"
  },
  {
    "city": "hitchcock",
    "state_code": "OK",
    "placeMasterId": "P02500000FsoGLg7SW1K84zARAGl6343dhzx8Tjj",
    "placeName": "hitchcock",
    "state": "OK"
  },
  {
    "city": "fort supply",
    "state_code": "OK",
    "placeMasterId": "P02500000FsoGLFa1hpam1BQukpiqJax7vXuI59K",
    "placeName": "fort supply",
    "state": "OK"
  },
  {
    "city": "glencoe",
    "state_code": "OK",
    "placeMasterId": "P02500000FsoGLOQVJEAYhmg5Ye4GE5LH9d2VOka",
    "placeName": "glencoe",
    "state": "OK"
  },
  {
    "city": "glenpool",
    "state_code": "OK",
    "placeMasterId": "P02500000FsoGLOQVJEAYhmg5Ye4GE5JpX8dzXNB",
    "placeName": "glenpool",
    "state": "OK"
  },
  {
    "city": "nowata",
    "state_code": "OK",
    "placeMasterId": "P02500000FsoGMg2njnMctBsemxB1QUhyRsx23nB",
    "placeName": "nowata",
    "state": "OK"
  },
  {
    "city": "ripley",
    "state_code": "OK",
    "placeMasterId": "P02500000FsoGN6aEXz5ywzcBCODH9xr2BhOSaMd",
    "placeName": "ripley",
    "state": "OK"
  },
  {
    "city": "tulsa",
    "state_code": "OK",
    "placeMasterId": "P02500000FsoGNfy8xZP7hOasPdawnvKembwKfLR",
    "placeName": "tulsa",
    "state": "OK"
  },
  {
    "city": "beggs",
    "state_code": "OK",
    "placeMasterId": "P02500000FsoGK6oCseyUWNTWKKxV1fxlhnzfEWB",
    "placeName": "beggs",
    "state": "OK"
  },
  {
    "city": "porum",
    "state_code": "OK",
    "placeMasterId": "P02500000FsoGMotHLBwPZn7palWRKz7LoVNRDyl",
    "placeName": "porum",
    "state": "OK"
  },
  {
    "city": "atoka",
    "state_code": "OK",
    "placeMasterId": "P02500000FsoGJxxjHGOhpmELWWc57Bc6LfC2NAJ",
    "placeName": "atoka",
    "state": "OK"
  },
  {
    "city": "dustin",
    "state_code": "OK",
    "placeMasterId": "P02500000FsoGKxt4V2RCdywZ9D20UcJsiydjusS",
    "placeName": "dustin",
    "state": "OK"
  },
  {
    "city": "seminole",
    "state_code": "OK",
    "placeMasterId": "P02500000FsoGNFQi9NfldarM0CYh4SHxQqWZay3",
    "placeName": "seminole",
    "state": "OK"
  },
  {
    "city": "stonewall",
    "state_code": "OK",
    "placeMasterId": "P02500000FsoGNX7fMApL0nLhbpFWtQpzK7nJT1p",
    "placeName": "stonewall",
    "state": "OK"
  },
  {
    "city": "wellston",
    "state_code": "OK",
    "placeMasterId": "P02500000FsoGO6VZll8TlCKOp4dCXOKrE35VTBD",
    "placeName": "wellston",
    "state": "OK"
  },
  {
    "city": "celina",
    "state_code": "TX",
    "placeMasterId": "P02500000FsoGjeJfqcI3VuHi8gnJ7MSLhx02s2Q",
    "placeName": "celina",
    "state": "TX"
  },
  {
    "city": "plano",
    "state_code": "TX",
    "placeMasterId": "P02500000FsoGpMAlyTNSzw4gHAc1YxIwpOpGjrg",
    "placeName": "plano",
    "state": "TX"
  },
  {
    "city": "waxahachie",
    "state_code": "TX",
    "placeMasterId": "P02500000FsoGrmYtEDBog9EdvyU83Hh5dTkrFXD",
    "placeName": "waxahachie",
    "state": "TX"
  },
  {
    "city": "wills point",
    "state_code": "TX",
    "placeMasterId": "P02500000FsoGs4FqR0LO3LizXbAxsGIK12qbQIV",
    "placeName": "wills point",
    "state": "TX"
  },
  {
    "city": "dallas",
    "state_code": "TX",
    "placeMasterId": "P02500000FsoGkMY3rbAywuVa9kWOfoNE7vnQ9N4",
    "placeName": "dallas",
    "state": "TX"
  },
  {
    "city": "dallas",
    "state_code": "TX",
    "placeMasterId": "P02500000FsoGkMY3rbAywuVa9kWOfoNE7vnQ9N4",
    "placeName": "dallas",
    "state": "TX"
  },
  {
    "city": "dallas",
    "state_code": "TX",
    "placeMasterId": "P02500000FsoGkMY3rbAywuVa9kWOfoNE7vnQ9N4",
    "placeName": "dallas",
    "state": "TX"
  },
  {
    "city": "longview",
    "state_code": "TX",
    "placeMasterId": "P02500000FsoGne12jiS2kj8adQT0d4nkfnqiUqY",
    "placeName": "longview",
    "state": "TX"
  },
  {
    "city": "daingerfield",
    "state_code": "TX",
    "placeMasterId": "P02500000FsoGkMY3rbAywuVa9kWOfoFHNRFSw48",
    "placeName": "daingerfield",
    "state": "TX"
  },
  {
    "city": "murchison",
    "state_code": "TX",
    "placeMasterId": "P02500000FsoGoV5uM5uksKbdSIXW612eTkbcObV",
    "placeName": "murchison",
    "state": "TX"
  },
  {
    "city": "reklaw",
    "state_code": "TX",
    "placeMasterId": "P02500000FsoGpmiCmf6p3joCgbeHIQTyCzn2Xf5",
    "placeName": "reklaw",
    "state": "TX"
  },
  {
    "city": "timpson",
    "state_code": "TX",
    "placeMasterId": "P02500000FsoGrM1SQ1SScLV7WXRsJoRek6Pomgy",
    "placeName": "timpson",
    "state": "TX"
  },
  {
    "city": "fort worth",
    "state_code": "TX",
    "placeMasterId": "P02500000FsoGlMTP5NDTl7DnmQwK3EqQnKzuFlE",
    "placeName": "fort worth",
    "state": "TX"
  },
  {
    "city": "denton",
    "state_code": "TX",
    "placeMasterId": "P02500000FsoGkVOXSzkldVkkxYroaIiDEuDBMlN",
    "placeName": "denton",
    "state": "TX"
  },
  {
    "city": "wichita falls",
    "state_code": "TX",
    "placeMasterId": "P02500000FsoGs4FqR0LO3LizXbAxsGR17JZqdwE",
    "placeName": "wichita falls",
    "state": "TX"
  },
  {
    "city": "seymour",
    "state_code": "TX",
    "placeMasterId": "P02500000FsoGqdn4P2ZXBLHFVTimlMdsZ7wH3j9",
    "placeName": "seymour",
    "state": "TX"
  },
  {
    "city": "windthorst",
    "state_code": "TX",
    "placeMasterId": "P02500000FsoGs4FqR0LO3LizXbAxsGWvtplp1rA",
    "placeName": "windthorst",
    "state": "TX"
  },
  {
    "city": "gorman",
    "state_code": "TX",
    "placeMasterId": "P02500000FsoGlVJsglnGRiSyaFHjxjQMLZ4kOL1",
    "placeName": "gorman",
    "state": "TX"
  },
  {
    "city": "blooming grove",
    "state_code": "TX",
    "placeMasterId": "P02500000FsoGj4vlR1yulVJ0vRPdTOzYqKsSjBx",
    "placeName": "blooming grove",
    "state": "TX"
  },
  {
    "city": "bynum",
    "state_code": "TX",
    "placeMasterId": "P02500000FsoGjMcidp8U8hnMX46TINpId6CZrpG",
    "placeName": "bynum",
    "state": "TX"
  },
  {
    "city": "houston",
    "state_code": "TX",
    "placeMasterId": "P02500000FsoGmDYGhkgBsigqbJ0pWBK8GcFdEcU",
    "placeName": "houston",
    "state": "TX"
  },
  {
    "city": "houston",
    "state_code": "TX",
    "placeMasterId": "P02500000FsoGmDYGhkgBsigqbJ0pWBK8GcFdEcU",
    "placeName": "houston",
    "state": "TX"
  },
  {
    "city": "houston",
    "state_code": "TX",
    "placeMasterId": "P02500000FsoGmDYGhkgBsigqbJ0pWBK8GcFdEcU",
    "placeName": "houston",
    "state": "TX"
  },
  {
    "city": "houston",
    "state_code": "TX",
    "placeMasterId": "P02500000FsoGmDYGhkgBsigqbJ0pWBK8GcFdEcU",
    "placeName": "houston",
    "state": "TX"
  },
  {
    "city": "conroe",
    "state_code": "TX",
    "placeMasterId": "P02500000FsoGk4r6eo1PZi1EY7pYqpW1YjRM0qs",
    "placeName": "conroe",
    "state": "TX"
  },
  {
    "city": "cleveland",
    "state_code": "TX",
    "placeMasterId": "P02500000FsoGjw0d3PRct6m3kJU8wLIWkOH4wj8",
    "placeName": "cleveland",
    "state": "TX"
  },
  {
    "city": "goodrich",
    "state_code": "TX",
    "placeMasterId": "P02500000FsoGleAMIAN38Ji9O3d9sDjevAk6tXO",
    "placeName": "goodrich",
    "state": "TX"
  },
  {
    "city": "hempstead",
    "state_code": "TX",
    "placeMasterId": "P02500000FsoGm4hn6M6PC7RfnUfPbglolNsCT5b",
    "placeName": "hempstead",
    "state": "TX"
  },
  {
    "city": "katy",
    "state_code": "TX",
    "placeMasterId": "P02500000FsoGmVFDuXplFvBCCvhfLA35ihKd2wQ",
    "placeName": "katy",
    "state": "TX"
  },
  {
    "city": "katy",
    "state_code": "TX",
    "placeMasterId": "P02500000FsoGmVFDuXplFvBCCvhfLA35ihKd2wQ",
    "placeName": "katy",
    "state": "TX"
  },
  {
    "city": "santa fe",
    "state_code": "TX",
    "placeMasterId": "P02500000FsoGqUwandzkUk24hfNMqsEzznrno0l",
    "placeName": "santa fe",
    "state": "TX"
  },
  {
    "city": "daisetta",
    "state_code": "TX",
    "placeMasterId": "P02500000FsoGkMY3rbAywuVa9kWOfoP8yg9Tvxi",
    "placeName": "daisetta",
    "state": "TX"
  },
  {
    "city": "beaumont",
    "state_code": "TX",
    "placeMasterId": "P02500000FsoGinEoEEpLOIofJoineQDrbqYiyGU",
    "placeName": "beaumont",
    "state": "TX"
  },
  {
    "city": "bedias",
    "state_code": "TX",
    "placeMasterId": "P02500000FsoGinEoEEpLOIofJoineQGXexD0K2f",
    "placeName": "bedias",
    "state": "TX"
  },
  {
    "city": "brenham",
    "state_code": "TX",
    "placeMasterId": "P02500000FsoGj4vlR1yulVJ0vRPdTP4DZIzi1EO",
    "placeName": "brenham",
    "state": "TX"
  },
  {
    "city": "helotes",
    "state_code": "TX",
    "placeMasterId": "P02500000FsoGlvrJUxWcVWCUzgJzhCTNHJJPx8R",
    "placeName": "helotes",
    "state": "TX"
  },
  {
    "city": "laredo",
    "state_code": "TX",
    "placeMasterId": "P02500000FsoGnDTbvWiggvP4DzQktbfh6Rv89vp",
    "placeName": "laredo",
    "state": "TX"
  },
  {
    "city": "laredo",
    "state_code": "TX",
    "placeMasterId": "P02500000FsoGnDTbvWiggvP4DzQktbfh6Rv89vp",
    "placeName": "laredo",
    "state": "TX"
  },
  {
    "city": "laredo",
    "state_code": "TX",
    "placeMasterId": "P02500000FsoGnDTbvWiggvP4DzQktbfh6Rv89vp",
    "placeName": "laredo",
    "state": "TX"
  },
  {
    "city": "moore",
    "state_code": "TX",
    "placeMasterId": "P02500000FsoGoDOx9IlBV87HqfqgH2VR5Gswvdo",
    "placeName": "moore",
    "state": "TX"
  },
  {
    "city": "somerset",
    "state_code": "TX",
    "placeMasterId": "P02500000FsoGqmdY0R9JrwWQJI4Cfr90t3LFJME",
    "placeName": "somerset",
    "state": "TX"
  },
  {
    "city": "san antonio",
    "state_code": "TX",
    "placeMasterId": "P02500000FsoGqM67CFPxo8mttr1wwNqfYQdpCPu",
    "placeName": "san antonio",
    "state": "TX"
  },
  {
    "city": "san antonio",
    "state_code": "TX",
    "placeMasterId": "P02500000FsoGqM67CFPxo8mttr1wwNqfYQdpCPu",
    "placeName": "san antonio",
    "state": "TX"
  },
  {
    "city": "corpus christi",
    "state_code": "TX",
    "placeMasterId": "P02500000FsoGkDhaGCbCGJGPLwAylJumHp42lmi",
    "placeName": "corpus christi",
    "state": "TX"
  },
  {
    "city": "alamo",
    "state_code": "TX",
    "placeMasterId": "P02500000FsoGiMhNQ35zKV58uNgXux86p1EzWJh",
    "placeName": "alamo",
    "state": "TX"
  },
  {
    "city": "la feria",
    "state_code": "TX",
    "placeMasterId": "P02500000FsoGmvmeijZ7JiuicMjv4d5PyWqlSPt",
    "placeName": "la feria",
    "state": "TX"
  },
  {
    "city": "los fresnos",
    "state_code": "TX",
    "placeMasterId": "P02500000FsoGne12jiS2kj8adQT0d4r1KVFJkYt",
    "placeName": "los fresnos",
    "state": "TX"
  },
  {
    "city": "austin",
    "state_code": "TX",
    "placeMasterId": "P02500000FsoGieOKcqFYhhZUW0NNjvrbzzBh3wR",
    "placeName": "austin",
    "state": "TX"
  },
  {
    "city": "austin",
    "state_code": "TX",
    "placeMasterId": "P02500000FsoGieOKcqFYhhZUW0NNjvrbzzBh3wR",
    "placeName": "austin",
    "state": "TX"
  },
  {
    "city": "austin",
    "state_code": "TX",
    "placeMasterId": "P02500000FsoGieOKcqFYhhZUW0NNjvrbzzBh3wR",
    "placeName": "austin",
    "state": "TX"
  },
  {
    "city": "hondo",
    "state_code": "TX",
    "placeMasterId": "P02500000FsoGmDYGhkgBsigqbJ0pWBGbtQao83R",
    "placeName": "hondo",
    "state": "TX"
  },
  {
    "city": "hale center",
    "state_code": "TX",
    "placeMasterId": "P02500000FsoGln0ptYwpouxKBryZmi4JrKCXms3",
    "placeName": "hale center",
    "state": "TX"
  },
  {
    "city": "amarillo",
    "state_code": "TX",
    "placeMasterId": "P02500000FsoGiMhNQ35zKV58uNgXuxIaAeFmU4D",
    "placeName": "amarillo",
    "state": "TX"
  },
  {
    "city": "dodson",
    "state_code": "TX",
    "placeMasterId": "P02500000FsoGkeF14OKYK6zvlNDEUn2yyKVwGVZ",
    "placeName": "dodson",
    "state": "TX"
  },
  {
    "city": "memphis",
    "state_code": "TX",
    "placeMasterId": "P02500000FsoGnvhzwVbc7vcwF39qS3jczYZGkwB",
    "placeName": "memphis",
    "state": "TX"
  },
  {
    "city": "paducah",
    "state_code": "TX",
    "placeMasterId": "P02500000FsoGovdLAHe6w8L9rjZlpUJ5GQzpf7O",
    "placeName": "paducah",
    "state": "TX"
  },
  {
    "city": "welch",
    "state_code": "TX",
    "placeMasterId": "P02500000FsoGrmYtEDBog9EdvyU83Ho2eGaNpgy",
    "placeName": "welch",
    "state": "TX"
  },
  {
    "city": "roby",
    "state_code": "TX",
    "placeMasterId": "P02500000FsoGpvYgO3gbkL3NUPzhCupXNwpmkMw",
    "placeName": "roby",
    "state": "TX"
  },
  {
    "city": "crane",
    "state_code": "TX",
    "placeMasterId": "P02500000FsoGkDhaGCbCGJGPLwAylJzECRNW9sq",
    "placeName": "crane",
    "state": "TX"
  },
  {
    "city": "el paso",
    "state_code": "TX",
    "placeMasterId": "P02500000FsoGkn5UfmuL0iF6ZBYePHb6XkiWYkD",
    "placeName": "el paso",
    "state": "TX"
  },
  {
    "city": "arvada",
    "state_code": "CO",
    "placeMasterId": "P02500000FsoEmViIl4GM9tUm2HVUZT9cbsYF4K3",
    "placeName": "arvada",
    "state": "CO"
  },
  {
    "city": "broomfield",
    "state_code": "CO",
    "placeMasterId": "P02500000FsoEmeYmMSq8qUjwq5quTxVo6TkMWU7",
    "placeName": "broomfield",
    "state": "CO"
  },
  {
    "city": "littleton",
    "state_code": "CO",
    "placeMasterId": "P02500000FsoEnwB4n22D1twW4OxfgMnLpWDqofA",
    "placeName": "littleton",
    "state": "CO"
  },
  {
    "city": "monument",
    "state_code": "CO",
    "placeMasterId": "P02500000FsoEo51YOQbziVBgsDJ5arDQr94kOY0",
    "placeName": "monument",
    "state": "CO"
  },
  {
    "city": "denver",
    "state_code": "CO",
    "placeMasterId": "P02500000FsoEmwFjZFziDhEIRiXkIwGQWtD2cc9",
    "placeName": "denver",
    "state": "CO"
  },
  {
    "city": "denver",
    "state_code": "CO",
    "placeMasterId": "P02500000FsoEmwFjZFziDhEIRiXkIwGQWtD2cc9",
    "placeName": "denver",
    "state": "CO"
  },
  {
    "city": "indian hills",
    "state_code": "CO",
    "placeMasterId": "P02500000FsoEneU7aEsdehSASmGprO559SjPmgh",
    "placeName": "indian hills",
    "state": "CO"
  },
  {
    "city": "tabernash",
    "state_code": "CO",
    "placeMasterId": "P02500000FsoEonFwPPUv9VPYtH2B9J45nCwmWRO",
    "placeName": "tabernash",
    "state": "CO"
  },
  {
    "city": "silverthorne",
    "state_code": "CO",
    "placeMasterId": "P02500000FsoEoePSo0v8SuAO5SglEoiE4QyOQed",
    "placeName": "silverthorne",
    "state": "CO"
  },
  {
    "city": "erie",
    "state_code": "CO",
    "placeMasterId": "P02500000FsoEnDwgm39Hatie3LEa7uxvOE2lpTK",
    "placeName": "erie",
    "state": "CO"
  },
  {
    "city": "fort collins",
    "state_code": "CO",
    "placeMasterId": "P02500000FsoEnDwgm39Hatie3LEa7uykf00K7tg",
    "placeName": "fort collins",
    "state": "CO"
  },
  {
    "city": "la salle",
    "state_code": "CO",
    "placeMasterId": "P02500000FsoEnnKbBdSQLIhLGacFlsTUdMocuJd",
    "placeName": "la salle",
    "state": "CO"
  },
  {
    "city": "wiggins",
    "state_code": "CO",
    "placeMasterId": "P02500000FsoEp4wtcCeUWhtuUtj0yHlo57w2FLq",
    "placeName": "wiggins",
    "state": "CO"
  },
  {
    "city": "stratton",
    "state_code": "CO",
    "placeMasterId": "P02500000FsoEoePSo0v8SuAO5SglEoh1X3snlYT",
    "placeName": "stratton",
    "state": "CO"
  },
  {
    "city": "colorado springs",
    "state_code": "CO",
    "placeMasterId": "P02500000FsoEmwFjZFziDhEIRiXkIwGl9Aki2Up",
    "placeName": "colorado springs",
    "state": "CO"
  },
  {
    "city": "pueblo",
    "state_code": "CO",
    "placeMasterId": "P02500000FsoEoMiVbDlZ5hg2TpzvPpwAiu1FV6U",
    "placeName": "pueblo",
    "state": "CO"
  },
  {
    "city": "walsh",
    "state_code": "CO",
    "placeMasterId": "P02500000FsoEow6Q0o4hq6ejh5Nb3nOWh1MFkff",
    "placeName": "walsh",
    "state": "CO"
  },
  {
    "city": "poncha springs",
    "state_code": "CO",
    "placeMasterId": "P02500000FsoEoMiVbDlZ5hg2TpzvPpuAbxSjJ24",
    "placeName": "poncha springs",
    "state": "CO"
  },
  {
    "city": "grand junction",
    "state_code": "CO",
    "placeMasterId": "P02500000FsoEnMnANRj4HUxor9a02PMjaevUqpr",
    "placeName": "grand junction",
    "state": "CO"
  },
  {
    "city": "gillette",
    "state_code": "WY",
    "placeMasterId": "P02500000FsoH92yfDB1popqj9EHhIYhyaDPf4m1",
    "placeName": "gillette",
    "state": "WY"
  },
  {
    "city": "big piney",
    "state_code": "WY",
    "placeMasterId": "P02500000FsoH8lHi0NsGRdMNXbarTZsAUg1mZXE",
    "placeName": "big piney",
    "state": "WY"
  },
  {
    "city": "blanchard",
    "state_code": "ID",
    "placeMasterId": "P02500000FsoF047f3j5xQxkKMQKC80N7EBCEe6g",
    "placeName": "blanchard",
    "state": "ID"
  },
  {
    "city": "oldtown",
    "state_code": "ID",
    "placeMasterId": "P02500000FsoF0mM34hysrxyCNU3HgSEYT2KNZDp",
    "placeName": "oldtown",
    "state": "ID"
  },
  {
    "city": "moscow",
    "state_code": "ID",
    "placeMasterId": "P02500000FsoF0Uf5rupJUlTqlrMRrTYnOcWSDmK",
    "placeName": "moscow",
    "state": "ID"
  },
  {
    "city": "moyie springs",
    "state_code": "ID",
    "placeMasterId": "P02500000FsoF0dVZTJP6BMj1ZfhrlxroYOaKvjT",
    "placeName": "moyie springs",
    "state": "ID"
  },
  {
    "city": "plummer",
    "state_code": "ID",
    "placeMasterId": "P02500000FsoF0mM34hysrxyCNU3HgSIFyniEexY",
    "placeName": "plummer",
    "state": "ID"
  },
  {
    "city": "jensen",
    "state_code": "UT",
    "placeMasterId": "P02500000FsoGt4BBemNsrYRDAHatFgwl9zpu9yX",
    "placeName": "jensen",
    "state": "UT"
  },
  {
    "city": "stockton",
    "state_code": "UT",
    "placeMasterId": "P02500000FsoGtvG3H9qaz9uFz9fOidHoNehavd9",
    "placeName": "stockton",
    "state": "UT"
  },
  {
    "city": "logan",
    "state_code": "UT",
    "placeMasterId": "P02500000FsoGtD1fGAxfY9gNy5wJABQXuZrAmCn",
    "placeName": "logan",
    "state": "UT"
  },
  {
    "city": "riverside",
    "state_code": "UT",
    "placeMasterId": "P02500000FsoGtdZ64Mh1bxPuNWyYteYHfzqfRLg",
    "placeName": "riverside",
    "state": "UT"
  },
  {
    "city": "helper",
    "state_code": "UT",
    "placeMasterId": "P02500000FsoGsvKi3No6AxC2MTFTLCeUQchjjkV",
    "placeName": "helper",
    "state": "UT"
  },
  {
    "city": "hinckley",
    "state_code": "UT",
    "placeMasterId": "P02500000FsoGsvKi3No6AxC2MTFTLCiwXTOE4qS",
    "placeName": "hinckley",
    "state": "UT"
  },
  {
    "city": "lynndyl",
    "state_code": "UT",
    "placeMasterId": "P02500000FsoGtD1fGAxfY9gNy5wJABOME56G9Az",
    "placeName": "lynndyl",
    "state": "UT"
  },
  {
    "city": "hildale",
    "state_code": "UT",
    "placeMasterId": "P02500000FsoGsvKi3No6AxC2MTFTLChH27xqzqd",
    "placeName": "hildale",
    "state": "UT"
  },
  {
    "city": "phoenix",
    "state_code": "AZ",
    "placeMasterId": "P02500000FsoEZWgqrzjtdEDuvO4SetJca76kZR3",
    "placeName": "phoenix",
    "state": "AZ"
  },
  {
    "city": "phoenix",
    "state_code": "AZ",
    "placeMasterId": "P02500000FsoEZWgqrzjtdEDuvO4SetJca76kZR3",
    "placeName": "phoenix",
    "state": "AZ"
  },
  {
    "city": "maricopa",
    "state_code": "AZ",
    "placeMasterId": "P02500000FsoEZ69Q3o0XZQUOVx2CvQFj5a03UcQ",
    "placeName": "maricopa",
    "state": "AZ"
  },
  {
    "city": "casa grande",
    "state_code": "AZ",
    "placeMasterId": "P02500000FsoEYNv22p7c8QGWUtJ7MyJCD5wMdly",
    "placeName": "casa grande",
    "state": "AZ"
  },
  {
    "city": "ajo",
    "state_code": "AZ",
    "placeMasterId": "P02500000FsoEXxNbEdOG4cX05SGrdVCWZJ1u2wG",
    "placeName": "ajo",
    "state": "AZ"
  },
  {
    "city": "youngtown",
    "state_code": "AZ",
    "placeMasterId": "P02500000FsoEaWcC5lmORQw8Y4UO2JtIQ9Rh4BT",
    "placeName": "youngtown",
    "state": "AZ"
  },
  {
    "city": "carefree",
    "state_code": "AZ",
    "placeMasterId": "P02500000FsoEYF4YRQXpRp1Lh4xhSTxZ0OzlZlh",
    "placeName": "carefree",
    "state": "AZ"
  },
  {
    "city": "douglas",
    "state_code": "AZ",
    "placeMasterId": "P02500000FsoEYWlVeDhOp1VhIheXHSihI9eO7oO",
    "placeName": "douglas",
    "state": "AZ"
  },
  {
    "city": "mcneal",
    "state_code": "AZ",
    "placeMasterId": "P02500000FsoEZEztfCaKG1jZJlNcpucHAyZ1fz7",
    "placeName": "mcneal",
    "state": "AZ"
  },
  {
    "city": "nogales",
    "state_code": "AZ",
    "placeMasterId": "P02500000FsoEZNqNGbA6wcyk7Zj2kOutpckaDkS",
    "placeName": "nogales",
    "state": "AZ"
  },
  {
    "city": "mcnary",
    "state_code": "AZ",
    "placeMasterId": "P02500000FsoEZEztfCaKG1jZJlNcpuYcPAuZlbC",
    "placeName": "mcnary",
    "state": "AZ"
  },
  {
    "city": "kayenta",
    "state_code": "AZ",
    "placeMasterId": "P02500000FsoEZ69Q3o0XZQUOVx2CvQBPPLyeCgG",
    "placeName": "kayenta",
    "state": "AZ"
  },
  {
    "city": "prescott",
    "state_code": "AZ",
    "placeMasterId": "P02500000FsoEZWgqrzjtdEDuvO4SetLLT5c7740",
    "placeName": "prescott",
    "state": "AZ"
  },
  {
    "city": "camp verde",
    "state_code": "AZ",
    "placeMasterId": "P02500000FsoEYF4YRQXpRp1Lh4xhSTzlOeNBxy4",
    "placeName": "camp verde",
    "state": "AZ"
  },
  {
    "city": "lupton",
    "state_code": "AZ",
    "placeMasterId": "P02500000FsoEZEztfCaKG1jZJlNcpuad9c4mv8u",
    "placeName": "lupton",
    "state": "AZ"
  },
  {
    "city": "albuquerque",
    "state_code": "NM",
    "placeMasterId": "P02500000FsoFyHJ9b0fLOT1rP66Ycj5SoodoNbU",
    "placeName": "albuquerque",
    "state": "NM"
  },
  {
    "city": "gallup",
    "state_code": "NM",
    "placeMasterId": "P02500000FsoFyzXXbzYGpTFjQ9peBBB2JTMs6K6",
    "placeName": "gallup",
    "state": "NM"
  },
  {
    "city": "thoreau",
    "state_code": "NM",
    "placeMasterId": "P02500000FsoG0YqnFLtuO4weG5dFCZ5XhR1XDhP",
    "placeName": "thoreau",
    "state": "NM"
  },
  {
    "city": "navajo",
    "state_code": "NM",
    "placeMasterId": "P02500000FsoFzhlvcyRCGTTbRDYjjcyYCrlndUk",
    "placeName": "navajo",
    "state": "NM"
  },
  {
    "city": "santa fe",
    "state_code": "NM",
    "placeMasterId": "P02500000FsoG0H9q2YkL0sSIeSwPNaViwlgh893",
    "placeName": "santa fe",
    "state": "NM"
  },
  {
    "city": "dixon",
    "state_code": "NM",
    "placeMasterId": "P02500000FsoFyhqaPCOhSGlNoX8oMCQ2rN4LWdV",
    "placeName": "dixon",
    "state": "NM"
  },
  {
    "city": "lemitar",
    "state_code": "NM",
    "placeMasterId": "P02500000FsoFzQ4yQBHctGzFpartue3DmIKZxCo",
    "placeName": "lemitar",
    "state": "NM"
  },
  {
    "city": "quemado",
    "state_code": "NM",
    "placeMasterId": "P02500000FsoG08JMRAAYKHD7qeazT5uogywpZdJ",
    "placeName": "quemado",
    "state": "NM"
  },
  {
    "city": "faywood",
    "state_code": "NM",
    "placeMasterId": "P02500000FsoFyqh40ayU8s0YcLUEGgmnrLGpc8n",
    "placeName": "faywood",
    "state": "NM"
  },
  {
    "city": "silver city",
    "state_code": "NM",
    "placeMasterId": "P02500000FsoG0Q0JdxK7hThTSHHpI4jCf6Maoji",
    "placeName": "silver city",
    "state": "NM"
  },
  {
    "city": "causey",
    "state_code": "NM",
    "placeMasterId": "P02500000FsoFyQ9dCPF854H2CuRyXDcQLO8T4rS",
    "placeName": "causey",
    "state": "NM"
  },
  {
    "city": "tucumcari",
    "state_code": "NM",
    "placeMasterId": "P02500000FsoG0YqnFLtuO4weG5dFCZ9fS6tK9BT",
    "placeName": "tucumcari",
    "state": "NM"
  },
  {
    "city": "beatty",
    "state_code": "NV",
    "placeMasterId": "P02500000FsoFu8lJ6VvZT2vo6Y5RCWVIBMeH0Da",
    "placeName": "beatty",
    "state": "NV"
  },
  {
    "city": "indian springs",
    "state_code": "NV",
    "placeMasterId": "P02500000FsoFuZIjuhevWqfKVz7gvzQPrIEiZ36",
    "placeName": "indian springs",
    "state": "NV"
  },
  {
    "city": "las vegas",
    "state_code": "NV",
    "placeMasterId": "P02500000FsoFuQSGJJ58qFQ9iAmH1VC0RKB5lYR",
    "placeName": "las vegas",
    "state": "NV"
  },
  {
    "city": "gabbs",
    "state_code": "NV",
    "placeMasterId": "P02500000FsoFuHbmhuVM9eAyuMQr70pEP8CCQyV",
    "placeName": "gabbs",
    "state": "NV"
  },
  {
    "city": "verdi",
    "state_code": "NV",
    "placeMasterId": "P02500000FsoFuqzh7UoUu39g7boWkyKMXb3Ga6D",
    "placeName": "verdi",
    "state": "NV"
  },
  {
    "city": "los angeles",
    "state_code": "CA",
    "placeMasterId": "P02500000FsoEiEJyfAwnXs9Xvv8xEm0Sp2kcekK",
    "placeName": "los angeles",
    "state": "CA"
  },
  {
    "city": "maywood",
    "state_code": "CA",
    "placeMasterId": "P02500000FsoEierPTMg9bft4LMBCyF4E3gzbSPr",
    "placeName": "maywood",
    "state": "CA"
  },
  {
    "city": "pasadena",
    "state_code": "CA",
    "placeMasterId": "P02500000FsoEjVwH5k8rjHM7AEFiRBLszioOrL4",
    "placeName": "pasadena",
    "state": "CA"
  },
  {
    "city": "glendale",
    "state_code": "CA",
    "placeMasterId": "P02500000FsoEgf0j1ob9zGSd5zLMDNrwH2YihSi",
    "placeName": "glendale",
    "state": "CA"
  },
  {
    "city": "burbank",
    "state_code": "CA",
    "placeMasterId": "P02500000FsoEeWJYyrwNgFn12oA5Y2JrY905Fai",
    "placeName": "burbank",
    "state": "CA"
  },
  {
    "city": "rancho cucamonga",
    "state_code": "CA",
    "placeMasterId": "P02500000FsoEk5KBVKS0TgKoNTdO58nFk2g0Onc",
    "placeName": "rancho cucamonga",
    "state": "CA"
  },
  {
    "city": "montclair",
    "state_code": "CA",
    "placeMasterId": "P02500000FsoEiwYMg9piysNPwys2nDnV8OYcoAX",
    "placeName": "montclair",
    "state": "CA"
  },
  {
    "city": "temple city",
    "state_code": "CA",
    "placeMasterId": "P02500000FsoElVmxXIDrLgmYPb5ZC2UyQGrmNB2",
    "placeName": "temple city",
    "state": "CA"
  },
  {
    "city": "chula vista",
    "state_code": "CA",
    "placeMasterId": "P02500000FsoEfEXwzqpJ7G0t3rtB6U98fMniHey",
    "placeName": "chula vista",
    "state": "CA"
  },
  {
    "city": "imperial beach",
    "state_code": "CA",
    "placeMasterId": "P02500000FsoEhEOdROuIjfRKJEj1rLLub6jZcX7",
    "placeName": "imperial beach",
    "state": "CA"
  },
  {
    "city": "el cajon",
    "state_code": "CA",
    "placeMasterId": "P02500000FsoEfwmL0piEYGEl4vcGew40bqFuFs7",
    "placeName": "el cajon",
    "state": "CA"
  },
  {
    "city": "escondido",
    "state_code": "CA",
    "placeMasterId": "P02500000FsoEgETIDcrnvSj6gYJ6Tuljpe88dal",
    "placeName": "escondido",
    "state": "CA"
  },
  {
    "city": "san diego",
    "state_code": "CA",
    "placeMasterId": "P02500000FsoEkVrcJWBMXU4KmufdobvSE82FU0j",
    "placeName": "san diego",
    "state": "CA"
  },
  {
    "city": "niland",
    "state_code": "CA",
    "placeMasterId": "P02500000FsoEj5OqHYPVfTcaknDShiBddg7sun1",
    "placeName": "niland",
    "state": "CA"
  },
  {
    "city": "apple valley",
    "state_code": "CA",
    "placeMasterId": "P02500000FsoEdo5Axt3SFFZ91kQzzaRduk9E3VB",
    "placeName": "apple valley",
    "state": "CA"
  },
  {
    "city": "lake arrowhead",
    "state_code": "CA",
    "placeMasterId": "P02500000FsoEhew4FadenTAqiflHaoV9dwaX2ym",
    "placeName": "lake arrowhead",
    "state": "CA"
  },
  {
    "city": "tecopa",
    "state_code": "CA",
    "placeMasterId": "P02500000FsoElVmxXIDrLgmYPb5ZC2V8hjVl7yu",
    "placeName": "tecopa",
    "state": "CA"
  },
  {
    "city": "riverside",
    "state_code": "CA",
    "placeMasterId": "P02500000FsoEkN18i7bZqsp9z6KDu7ViUSFSn4j",
    "placeName": "riverside",
    "state": "CA"
  },
  {
    "city": "anaheim",
    "state_code": "CA",
    "placeMasterId": "P02500000FsoEdo5Axt3SFFZ91kQzzaRbZXxINei",
    "placeName": "anaheim",
    "state": "CA"
  },
  {
    "city": "ojai",
    "state_code": "CA",
    "placeMasterId": "P02500000FsoEjN5nULZ52g6wMPuIWgxgjrt4USC",
    "placeName": "ojai",
    "state": "CA"
  },
  {
    "city": "strathmore",
    "state_code": "CA",
    "placeMasterId": "P02500000FsoElE60KV4HyUICnyOjN3o26kufFHl",
    "placeName": "strathmore",
    "state": "CA"
  },
  {
    "city": "grover beach",
    "state_code": "CA",
    "placeMasterId": "P02500000FsoEgwhgEbkjMSwyhc2C2Mah52rJTCp",
    "placeName": "grover beach",
    "state": "CA"
  },
  {
    "city": "olancha",
    "state_code": "CA",
    "placeMasterId": "P02500000FsoEjN5nULZ52g6wMPuIWgw5jAXj9zI",
    "placeName": "olancha",
    "state": "CA"
  },
  {
    "city": "fresno",
    "state_code": "CA",
    "placeMasterId": "P02500000FsoEgf0j1ob9zGSd5zLMDNqyCZUrC3I",
    "placeName": "fresno",
    "state": "CA"
  },
  {
    "city": "pacific grove",
    "state_code": "CA",
    "placeMasterId": "P02500000FsoEjN5nULZ52g6wMPuIWgxlHN05sv5",
    "placeName": "pacific grove",
    "state": "CA"
  },
  {
    "city": "american canyon",
    "state_code": "CA",
    "placeMasterId": "P02500000FsoEdo5Axt3SFFZ91kQzzaTYYWPnIim",
    "placeName": "american canyon",
    "state": "CA"
  },
  {
    "city": "antioch",
    "state_code": "CA",
    "placeMasterId": "P02500000FsoEdo5Axt3SFFZ91kQzzaSliypPgiI",
    "placeName": "antioch",
    "state": "CA"
  },
  {
    "city": "lafayette",
    "state_code": "CA",
    "placeMasterId": "P02500000FsoEhew4FadenTAqiflHaoS7BFqeHOo",
    "placeName": "lafayette",
    "state": "CA"
  },
  {
    "city": "oakland",
    "state_code": "CA",
    "placeMasterId": "P02500000FsoEjN5nULZ52g6wMPuIWgwHJpxtC9b",
    "placeName": "oakland",
    "state": "CA"
  },
  {
    "city": "berkeley",
    "state_code": "CA",
    "placeMasterId": "P02500000FsoEeEcbm4moJ3IfRBTFj3Xr6gOP3lm",
    "placeName": "berkeley",
    "state": "CA"
  },
  {
    "city": "berkeley",
    "state_code": "CA",
    "placeMasterId": "P02500000FsoEeEcbm4moJ3IfRBTFj3Xr6gOP3lm",
    "placeName": "berkeley",
    "state": "CA"
  },
  {
    "city": "berkeley",
    "state_code": "CA",
    "placeMasterId": "P02500000FsoEeEcbm4moJ3IfRBTFj3Xr6gOP3lm",
    "placeName": "berkeley",
    "state": "CA"
  },
  {
    "city": "penngrove",
    "state_code": "CA",
    "placeMasterId": "P02500000FsoEjemkh8iePsbHy2b8LfhXVNHCSPl",
    "placeName": "penngrove",
    "state": "CA"
  },
  {
    "city": "morgan hill",
    "state_code": "CA",
    "placeMasterId": "P02500000FsoEiwYMg9piysNPwys2nDpLXCxA6MJ",
    "placeName": "morgan hill",
    "state": "CA"
  },
  {
    "city": "santa clara",
    "state_code": "CA",
    "placeMasterId": "P02500000FsoEknYZWJKvugYgOXMTdafb3ziMRag",
    "placeName": "santa clara",
    "state": "CA"
  },
  {
    "city": "san jose",
    "state_code": "CA",
    "placeMasterId": "P02500000FsoEkei5uul9E5JVaj13j6FZZ7utLyF",
    "placeName": "san jose",
    "state": "CA"
  },
  {
    "city": "san jose",
    "state_code": "CA",
    "placeMasterId": "P02500000FsoEkei5uul9E5JVaj13j6FZZ7utLyF",
    "placeName": "san jose",
    "state": "CA"
  },
  {
    "city": "valley springs",
    "state_code": "CA",
    "placeMasterId": "P02500000FsoElwKOLTxDPUW4p27ovVaba8WbjLC",
    "placeName": "valley springs",
    "state": "CA"
  },
  {
    "city": "columbia",
    "state_code": "CA",
    "placeMasterId": "P02500000FsoEfEXwzqpJ7G0t3rtB6U9wIVs5BNS",
    "placeName": "columbia",
    "state": "CA"
  },
  {
    "city": "escalon",
    "state_code": "CA",
    "placeMasterId": "P02500000FsoEgETIDcrnvSj6gYJ6Tun1GTbfUtP",
    "placeName": "escalon",
    "state": "CA"
  },
  {
    "city": "patterson",
    "state_code": "CA",
    "placeMasterId": "P02500000FsoEjemkh8iePsbHy2b8Lfi7yoKcg48",
    "placeName": "patterson",
    "state": "CA"
  },
  {
    "city": "redwood valley",
    "state_code": "CA",
    "placeMasterId": "P02500000FsoEkEAf6j1nAHZzBHynzd9ctWtp2Bx",
    "placeName": "redwood valley",
    "state": "CA"
  },
  {
    "city": "alderpoint",
    "state_code": "CA",
    "placeMasterId": "P02500000FsoEdfEhMUTfYeJyDw5a565kaiFSCcm",
    "placeName": "alderpoint",
    "state": "CA"
  },
  {
    "city": "arcata",
    "state_code": "CA",
    "placeMasterId": "P02500000FsoEdo5Axt3SFFZ91kQzzaTzvi1lzCr",
    "placeName": "arcata",
    "state": "CA"
  },
  {
    "city": "samoa",
    "state_code": "CA",
    "placeMasterId": "P02500000FsoEkVrcJWBMXU4Kmufdobtbit4DjiV",
    "placeName": "samoa",
    "state": "CA"
  },
  {
    "city": "carmichael",
    "state_code": "CA",
    "placeMasterId": "P02500000FsoEeo0WBf5x3SHMeQqvN12zOvy6M3w",
    "placeName": "carmichael",
    "state": "CA"
  },
  {
    "city": "clarksburg",
    "state_code": "CA",
    "placeMasterId": "P02500000FsoEf5hTOSFWQeliG3XlBzpcDRDbIE2",
    "placeName": "clarksburg",
    "state": "CA"
  },
  {
    "city": "elk grove",
    "state_code": "CA",
    "placeMasterId": "P02500000FsoEg5cocEI1ErTvsjxgZQMYI7ka412",
    "placeName": "elk grove",
    "state": "CA"
  },
  {
    "city": "galt",
    "state_code": "CA",
    "placeMasterId": "P02500000FsoEgf0j1ob9zGSd5zLMDNruEnbcnao",
    "placeName": "galt",
    "state": "CA"
  },
  {
    "city": "river pines",
    "state_code": "CA",
    "placeMasterId": "P02500000FsoEkN18i7bZqsp9z6KDu7XVfRUO1Ik",
    "placeName": "river pines",
    "state": "CA"
  },
  {
    "city": "sacramento",
    "state_code": "CA",
    "placeMasterId": "P02500000FsoEkVrcJWBMXU4KmufdobsP4JCiDgI",
    "placeName": "sacramento",
    "state": "CA"
  },
  {
    "city": "sacramento",
    "state_code": "CA",
    "placeMasterId": "P02500000FsoEkVrcJWBMXU4KmufdobsP4JCiDgI",
    "placeName": "sacramento",
    "state": "CA"
  },
  {
    "city": "sacramento",
    "state_code": "CA",
    "placeMasterId": "P02500000FsoEkVrcJWBMXU4KmufdobsP4JCiDgI",
    "placeName": "sacramento",
    "state": "CA"
  },
  {
    "city": "nevada city",
    "state_code": "CA",
    "placeMasterId": "P02500000FsoEj5OqHYPVfTcaknDShiAtGL79xuX",
    "placeName": "nevada city",
    "state": "CA"
  },
  {
    "city": "gerber",
    "state_code": "CA",
    "placeMasterId": "P02500000FsoEgf0j1ob9zGSd5zLMDNuDsIuSNBw",
    "placeName": "gerber",
    "state": "CA"
  },
  {
    "city": "greenview",
    "state_code": "CA",
    "placeMasterId": "P02500000FsoEgnrCdDAwfrhntngm7sHLaon8XNK",
    "placeName": "greenview",
    "state": "CA"
  },
  {
    "city": "happy camp",
    "state_code": "CA",
    "placeMasterId": "P02500000FsoEgwhgEbkjMSwyhc2C2MfVBiLikrZ",
    "placeName": "happy camp",
    "state": "CA"
  },
  {
    "city": "nubieber",
    "state_code": "CA",
    "placeMasterId": "P02500000FsoEjEFJswzIM4rlYbYscCZD2HmOQ7m",
    "placeName": "nubieber",
    "state": "CA"
  },
  {
    "city": "anahola",
    "state_code": "HI",
    "placeMasterId": "P02500000FsoEz4CJpx3Scl26jjuGkZmMd3ePUhX",
    "placeName": "anahola",
    "state": "HI"
  },
  {
    "city": "seaside",
    "state_code": "OR",
    "placeMasterId": "P02500000FsoGPxVmbudgh0VfGd7dNlGOztGcwoO",
    "placeName": "seaside",
    "state": "OR"
  },
  {
    "city": "portland",
    "state_code": "OR",
    "placeMasterId": "P02500000FsoGPfopP7U7Jo1Jf0QnYmTaqhg2Hwh",
    "placeName": "portland",
    "state": "OR"
  },
  {
    "city": "aumsville",
    "state_code": "OR",
    "placeMasterId": "P02500000FsoGOFM3N9iGRnZZcsycRsmhcjkjPDm",
    "placeName": "aumsville",
    "state": "OR"
  },
  {
    "city": "halsey",
    "state_code": "OR",
    "placeMasterId": "P02500000FsoGOxaRO8bBsnnRdwhi0KbuYQaLEJN",
    "placeName": "halsey",
    "state": "OR"
  },
  {
    "city": "shedd",
    "state_code": "OR",
    "placeMasterId": "P02500000FsoGPxVmbudgh0VfGd7dNlF7nCeiYCY",
    "placeName": "shedd",
    "state": "OR"
  },
  {
    "city": "harrisburg",
    "state_code": "OR",
    "placeMasterId": "P02500000FsoGOxaRO8bBsnnRdwhi0Kg3Ancqoht",
    "placeName": "harrisburg",
    "state": "OR"
  },
  {
    "city": "cave junction",
    "state_code": "OR",
    "placeMasterId": "P02500000FsoGOX30Zwrpp03vEVfSGrQJcH0oSZ0",
    "placeName": "cave junction",
    "state": "OR"
  },
  {
    "city": "huntington",
    "state_code": "OR",
    "placeMasterId": "P02500000FsoGP6QuzXAyZP2cRl37up44hMZvBkj",
    "placeName": "huntington",
    "state": "OR"
  },
  {
    "city": "vale",
    "state_code": "OR",
    "placeMasterId": "P02500000FsoGQFCjohnG4D00sFoTCk4dRfXqIKI",
    "placeName": "vale",
    "state": "OR"
  },
  {
    "city": "sammamish",
    "state_code": "WA",
    "placeMasterId": "P02500000FsoH13ZvQyhrLC8y9kwIH7n14hMlF0g",
    "placeName": "sammamish",
    "state": "WA"
  },
  {
    "city": "auburn",
    "state_code": "WA",
    "placeMasterId": "P02500000FsoGyCeNN3A9bBFU5W1w3KU8L5Kf1vP",
    "placeName": "auburn",
    "state": "WA"
  },
  {
    "city": "seattle",
    "state_code": "WA",
    "placeMasterId": "P02500000FsoH13ZvQyhrLC8y9kwIH7vOQ9mB44J",
    "placeName": "seattle",
    "state": "WA"
  },
  {
    "city": "marysville",
    "state_code": "WA",
    "placeMasterId": "P02500000FsoH0CV3obF9DafvKsrmoBYqmE23CxR",
    "placeName": "marysville",
    "state": "WA"
  },
  {
    "city": "hansville",
    "state_code": "WA",
    "placeMasterId": "P02500000FsoGzUGfncMDmaS3Jp8hFjpeGypfFeA",
    "placeName": "hansville",
    "state": "WA"
  },
  {
    "city": "long lake",
    "state_code": "SD",
    "placeMasterId": "P02500000FsoGeegxjk5ZSsic1GhgEDe4XeKHvLq",
    "placeName": "long lake",
    "state": "SD"
  },
  {
    "city": "rapid city",
    "state_code": "SD",
    "placeMasterId": "P02500000FsoGfE4s9KOiDHhJEW5LsAx3cR9wHuM",
    "placeName": "rapid city",
    "state": "SD"
  },
  {
    "city": "piedmont",
    "state_code": "SD",
    "placeMasterId": "P02500000FsoGewNuwXF8q5CxctOW3CFsStYBREa",
    "placeName": "piedmont",
    "state": "SD"
  },
  {
    "city": "kathryn",
    "state_code": "ND",
    "placeMasterId": "P02500000FsoGBPB55TlabjXtJnt0RnOXt88ck0g",
    "placeName": "kathryn",
    "state": "ND"
  },
  {
    "city": "oriska",
    "state_code": "ND",
    "placeMasterId": "P02500000FsoGBpiVtfUwfXHPjEvGBGS1cCGLIdV",
    "placeName": "oriska",
    "state": "ND"
  },
  {
    "city": "grand forks afb",
    "state_code": "ND",
    "placeMasterId": "P02500000FsoGAydeHI2EXvoMuMqkiKNH1N6PS9O",
    "placeName": "grand forks afb",
    "state": "ND"
  },
  {
    "city": "grafton",
    "state_code": "ND",
    "placeMasterId": "P02500000FsoGB7U7sgc1EX3XiBCAcoW8P5cuQBD",
    "placeName": "grafton",
    "state": "ND"
  },
  {
    "city": "minnewaukan",
    "state_code": "ND",
    "placeMasterId": "P02500000FsoGBgs2IGv9yw2EvQZqGmDZS9qdZUg",
    "placeName": "minnewaukan",
    "state": "ND"
  },
  {
    "city": "lehr",
    "state_code": "ND",
    "placeMasterId": "P02500000FsoGBPB55TlabjXtJnt0RnSYiCo4LSj",
    "placeName": "lehr",
    "state": "ND"
  },
  {
    "city": "silverdale",
    "state_code": "WA",
    "placeMasterId": "P02500000FsoH13ZvQyhrLC8y9kwIH7w45JGEHHL",
    "placeName": "silverdale",
    "state": "WA"
  },
  {
    "city": "ryderwood",
    "state_code": "WA",
    "placeMasterId": "P02500000FsoH13ZvQyhrLC8y9kwIH7n5e6mwgmt",
    "placeName": "ryderwood",
    "state": "WA"
  },
  {
    "city": "woodland",
    "state_code": "WA",
    "placeMasterId": "P02500000FsoH1uen3MAZSnc0yd0nk3xs2hIW7az",
    "placeName": "woodland",
    "state": "WA"
  },
  {
    "city": "mansfield",
    "state_code": "WA",
    "placeMasterId": "P02500000FsoH0CV3obF9DafvKsrmoBVIcgllG9D",
    "placeName": "mansfield",
    "state": "WA"
  },
  {
    "city": "cle elum",
    "state_code": "WA",
    "placeMasterId": "P02500000FsoGym2HmdTILaEBIlPbhHqZKLOGXkK",
    "placeName": "cle elum",
    "state": "WA"
  },
  {
    "city": "colton",
    "state_code": "WA",
    "placeMasterId": "P02500000FsoGym2HmdTILaEBIlPbhHsM3LqTgCJ",
    "placeName": "colton",
    "state": "WA"
  },
  {
    "city": "garfield",
    "state_code": "WA",
    "placeMasterId": "P02500000FsoGzLQCCDmR5zCsW0nHLFGHUw2bxd9",
    "placeName": "garfield",
    "state": "WA"
  },
  {
    "city": "pullman",
    "state_code": "WA",
    "placeMasterId": "P02500000FsoH0lsyEBYHxzecY8FSS95HRH2wsRM",
    "placeName": "pullman",
    "state": "WA"
  },
  {
    "city": "spokane",
    "state_code": "WA",
    "placeMasterId": "P02500000FsoH1CQP2NHe1nO8xZHiBcLVG93v2e9",
    "placeName": "spokane",
    "state": "WA"
  },
  {
    "city": "spokane",
    "state_code": "WA",
    "placeMasterId": "P02500000FsoH1CQP2NHe1nO8xZHiBcLVG93v2e9",
    "placeName": "spokane",
    "state": "WA"
  },
  {
    "city": "kahlotus",
    "state_code": "WA",
    "placeMasterId": "P02500000FsoGzd79P0w0TBhE7dU7AE3M3taSvLC",
    "placeName": "kahlotus",
    "state": "WA"
  },
  {
    "city": "kennewick",
    "state_code": "WA",
    "placeMasterId": "P02500000FsoGzlxd0PVn9mwOvRpX4iPJQqlwrNK",
    "placeName": "kennewick",
    "state": "WA"
  },
  {
    "city": "kwigillingok",
    "state_code": "AK",
    "placeMasterId": "P02500000FsoEWxSG0rLlGPomSlqwG4dTGNMvMeM",
    "placeName": "kwigillingok",
    "state": "AK"
  },
  {
    "city": "soldotna",
    "state_code": "AK",
    "placeMasterId": "P02500000FsoEXfge1qEghQ2eTpa1oWTKqZ74j5b",
    "placeName": "soldotna",
    "state": "AK"
  },
  {
    "city": "huslia",
    "state_code": "AK",
    "placeMasterId": "P02500000FsoEWflIo4CBtDKQr9A6R5sgJypsNNf",
    "placeName": "huslia",
    "state": "AK"
  },
  {
    "city": "kaktovik",
    "state_code": "AK",
    "placeMasterId": "P02500000FsoEWflIo4CBtDKQr9A6R5vU2tjsG8X",
    "placeName": "kaktovik",
    "state": "AK"
  },
  {
    "city": "lake minchumina",
    "state_code": "AK",
    "placeMasterId": "P02500000FsoEWxSG0rLlGPomSlqwG4eiQyiY2LK",
    "placeName": "lake minchumina",
    "state": "AK"
  },
  {
    "city": "petersburg",
    "state_code": "AK",
    "placeMasterId": "P02500000FsoEXNzgp357KDYIsCtBzXi4KsCGwRy",
    "placeName": "petersburg",
    "state": "AK"
  },
  {
    "city": "thorne bay",
    "state_code": "AK",
    "placeMasterId": "P02500000FsoEXoX7dEoTO1HpHdvRj0pgFIcLZzT",
    "placeName": "thorne bay",
    "state": "AK"
  },
  {
    "city": "seville",
    "state_code": "GA",
    "placeMasterId": "P02500000FsoEyLxvoyAXBkoEigBBC7vMwyhKcgQ",
    "placeName": "seville",
    "state": "GA"
  },
  {
    "city": "vienna",
    "state_code": "GA",
    "placeMasterId": "P02500000FsoEymVMd9ttFYXl87DQvb4U9Q3NAj2",
    "placeName": "vienna",
    "state": "GA"
  },
  {
    "city": "midway",
    "state_code": "GA",
    "placeMasterId": "P02500000FsoExUt4Cahp49LBto6fjBi9QQenNOC",
    "placeName": "midway",
    "state": "GA"
  },
  {
    "city": "pembroke",
    "state_code": "GA",
    "placeMasterId": "P02500000FsoExvQV0mRB7x4iJF8vSenpXgEg9vg",
    "placeName": "pembroke",
    "state": "GA"
  },
  {
    "city": "springfield",
    "state_code": "GA",
    "placeMasterId": "P02500000FsoEyLxvoyAXBkoEigBBC7yE1TECGrZ",
    "placeName": "springfield",
    "state": "GA"
  },
  {
    "city": "savannah",
    "state_code": "GA",
    "placeMasterId": "P02500000FsoEyD7SDZakV9Z3urplHdbJAuUvfKW",
    "placeName": "savannah",
    "state": "GA"
  },
  {
    "city": "douglas",
    "state_code": "GA",
    "placeMasterId": "P02500000FsoEwM7FNQ5XZLNnTJLKRGlbxeIdpCS",
    "placeName": "douglas",
    "state": "GA"
  },
  {
    "city": "boston",
    "state_code": "GA",
    "placeMasterId": "P02500000FsoEvdsrMRCc8L9vSFcEsouX37GKIKD",
    "placeName": "boston",
    "state": "GA"
  },
  {
    "city": "du pont",
    "state_code": "GA",
    "placeMasterId": "P02500000FsoEwM7FNQ5XZLNnTJLKRGm7JIrkjlZ",
    "placeName": "du pont",
    "state": "GA"
  },
  {
    "city": "columbus",
    "state_code": "GA",
    "placeMasterId": "P02500000FsoEwDGlm1Vksk8cfUzuWmKM4R9DiHm",
    "placeName": "columbus",
    "state": "GA"
  },
  {
    "city": "daytona beach",
    "state_code": "FL",
    "placeMasterId": "P02500000FsoEr4na3kjU97KLkGYrj8xivEZhdJx",
    "placeName": "daytona beach",
    "state": "FL"
  },
  {
    "city": "jacksonville",
    "state_code": "FL",
    "placeMasterId": "P02500000FsoEs4ivHWlyxK2ZMwyn6Zc9nJdRTGT",
    "placeName": "jacksonville",
    "state": "FL"
  },
  {
    "city": "panama city",
    "state_code": "FL",
    "placeMasterId": "P02500000FsoEte2Aut7cVvjUCsmO7xed8yxJdcN",
    "placeName": "panama city",
    "state": "FL"
  },
  {
    "city": "defuniak springs",
    "state_code": "FL",
    "placeMasterId": "P02500000FsoEr4na3kjU97KLkGYrj8zj4O0uu0q",
    "placeName": "defuniak springs",
    "state": "FL"
  },
  {
    "city": "pensacola",
    "state_code": "FL",
    "placeMasterId": "P02500000FsoEte2Aut7cVvjUCsmO7xi1ABLGBK0",
    "placeName": "pensacola",
    "state": "FL"
  },
  {
    "city": "miramar beach",
    "state_code": "FL",
    "placeMasterId": "P02500000FsoEt4eGVIoTlWkmzdOiU0Bc0MzhVTk",
    "placeName": "miramar beach",
    "state": "FL"
  },
  {
    "city": "brooker",
    "state_code": "FL",
    "placeMasterId": "P02500000FsoEqVPfeAQLOiLeX1BC5BWRLOonTSy",
    "placeName": "brooker",
    "state": "FL"
  },
  {
    "city": "apopka",
    "state_code": "FL",
    "placeMasterId": "P02500000FsoEqDiiRNGm1VrIvOUMGClUgLgddJ2",
    "placeName": "apopka",
    "state": "FL"
  },
  {
    "city": "coral springs",
    "state_code": "FL",
    "placeMasterId": "P02500000FsoEqn6cqxZuluq08ds1uAIGn17JJZH",
    "placeName": "coral springs",
    "state": "FL"
  },
  {
    "city": "fort lauderdale",
    "state_code": "FL",
    "placeMasterId": "P02500000FsoErVL0rwSqCv3s9hb7Sc4XvAWhbEe",
    "placeName": "fort lauderdale",
    "state": "FL"
  },
  {
    "city": "west palm beach",
    "state_code": "FL",
    "placeMasterId": "P02500000FsoEuveTLSJghKw3RBt9KN3fVhs2PCt",
    "placeName": "west palm beach",
    "state": "FL"
  },
  {
    "city": "clearwater",
    "state_code": "FL",
    "placeMasterId": "P02500000FsoEqn6cqxZuluq08ds1uAGuY1C0NsC",
    "placeName": "clearwater",
    "state": "FL"
  },
  {
    "city": "haines city",
    "state_code": "FL",
    "placeMasterId": "P02500000FsoErn1y4jcPa7YDlKHxHaqJKufOAam",
    "placeName": "haines city",
    "state": "FL"
  },
  {
    "city": "lake wales",
    "state_code": "FL",
    "placeMasterId": "P02500000FsoEsVGM5iVL17m5mO12q2iRAnlyf81",
    "placeName": "lake wales",
    "state": "FL"
  },
  {
    "city": "fort myers",
    "state_code": "FL",
    "placeMasterId": "P02500000FsoErMUXGXt3WJohLtFhY7lIEW7YWt0",
    "placeName": "fort myers",
    "state": "FL"
  },
  {
    "city": "north fort myers",
    "state_code": "FL",
    "placeMasterId": "P02500000FsoEtDUk6hOGS7zxnRk8OUaUHMupWsG",
    "placeName": "north fort myers",
    "state": "FL"
  },
  {
    "city": "cape coral",
    "state_code": "FL",
    "placeMasterId": "P02500000FsoEqeG9FZ085JapKpWbzfvC3EH1HO5",
    "placeName": "cape coral",
    "state": "FL"
  },
  {
    "city": "bonita springs",
    "state_code": "FL",
    "placeMasterId": "P02500000FsoEqMZC2lqYi76TjCpmAh9BAHiIVL4",
    "placeName": "bonita springs",
    "state": "FL"
  },
  {
    "city": "sarasota",
    "state_code": "FL",
    "placeMasterId": "P02500000FsoEu4Zbj4qyZjT0cJodrQpDdnRoRQk",
    "placeName": "sarasota",
    "state": "FL"
  },
  {
    "city": "sarasota",
    "state_code": "FL",
    "placeMasterId": "P02500000FsoEu4Zbj4qyZjT0cJodrQpDdnRoRQk",
    "placeName": "sarasota",
    "state": "FL"
  },
  {
    "city": "north port",
    "state_code": "FL",
    "placeMasterId": "P02500000FsoEtDUk6hOGS7zxnRk8OUaiDW51aDQ",
    "placeName": "north port",
    "state": "FL"
  },
  {
    "city": "dunnellon",
    "state_code": "FL",
    "placeMasterId": "P02500000FsoErDe3f9JGpiZWY4uHddKPqWQhb7V",
    "placeName": "dunnellon",
    "state": "FL"
  },
  {
    "city": "yankeetown",
    "state_code": "FL",
    "placeMasterId": "P02500000FsoEvDLQYFTG4XQP2oZz9LnuiVMxQaY",
    "placeName": "yankeetown",
    "state": "FL"
  },
  {
    "city": "fort pierce",
    "state_code": "FL",
    "placeMasterId": "P02500000FsoErMUXGXt3WJohLtFhY7n1iT0LCoC",
    "placeName": "fort pierce",
    "state": "FL"
  },
  {
    "city": "fort pierce",
    "state_code": "FL",
    "placeMasterId": "P02500000FsoErMUXGXt3WJohLtFhY7n1iT0LCoC",
    "placeName": "fort pierce",
    "state": "FL"
  },
  {
    "city": "fort pierce",
    "state_code": "FL",
    "placeMasterId": "P02500000FsoErMUXGXt3WJohLtFhY7n1iT0LCoC",
    "placeName": "fort pierce",
    "state": "FL"
  },
  {
    "city": "bessemer",
    "state_code": "AL",
    "placeMasterId": "P02500000FsoESouPWMbzKzijADpopru0pTZcaZe",
    "placeName": "bessemer",
    "state": "AL"
  },
  {
    "city": "hartselle",
    "state_code": "AL",
    "placeMasterId": "P02500000FsoETxgELXEGpng7aibA7mplwHT6fQ9",
    "placeName": "hartselle",
    "state": "AL"
  },
  {
    "city": "lester",
    "state_code": "AL",
    "placeMasterId": "P02500000FsoEUFNBYKNqD0ATCLHzwlaydW4k0UZ",
    "placeName": "lester",
    "state": "AL"
  },
  {
    "city": "rogersville",
    "state_code": "AL",
    "placeMasterId": "P02500000FsoEVFIWm6QL1Csgp1hvKCANOYOgbbw",
    "placeName": "rogersville",
    "state": "AL"
  },
  {
    "city": "somerville",
    "state_code": "AL",
    "placeMasterId": "P02500000FsoEVO90NV07ho7rcq3LEgZR3tZs73B",
    "placeName": "somerville",
    "state": "AL"
  },
  {
    "city": "new market",
    "state_code": "AL",
    "placeMasterId": "P02500000FsoEUol5xugyxP9APaffaj2ZyhPYUCb",
    "placeName": "new market",
    "state": "AL"
  },
  {
    "city": "prattville",
    "state_code": "AL",
    "placeMasterId": "P02500000FsoEUxbZZJGle0OLDP15VDSNy4eWHb4",
    "placeName": "prattville",
    "state": "AL"
  },
  {
    "city": "rutledge",
    "state_code": "AL",
    "placeMasterId": "P02500000FsoEVFIWm6QL1Csgp1hvKC8rGBx3pA7",
    "placeName": "rutledge",
    "state": "AL"
  },
  {
    "city": "dothan",
    "state_code": "AL",
    "placeMasterId": "P02500000FsoETFRqKYLLOnSFZes4ZL06yv9JGjB",
    "placeName": "dothan",
    "state": "AL"
  },
  {
    "city": "newton",
    "state_code": "AL",
    "placeMasterId": "P02500000FsoEUol5xugyxP9APaffaj4mI0YxAAv",
    "placeName": "newton",
    "state": "AL"
  },
  {
    "city": "fort rucker",
    "state_code": "AL",
    "placeMasterId": "P02500000FsoETX8nXLUulzwbBHYuOJl5ph3Z6F9",
    "placeName": "fort rucker",
    "state": "AL"
  },
  {
    "city": "repton",
    "state_code": "AL",
    "placeMasterId": "P02500000FsoEV6S3AhqYKbdW1DMVPhmpdRCbbc7",
    "placeName": "repton",
    "state": "AL"
  },
  {
    "city": "orange beach",
    "state_code": "AL",
    "placeMasterId": "P02500000FsoEUxbZZJGle0OLDP15VDQ8vedaPSM",
    "placeName": "orange beach",
    "state": "AL"
  },
  {
    "city": "point clear",
    "state_code": "AL",
    "placeMasterId": "P02500000FsoEUxbZZJGle0OLDP15VDPvjYMOLoW",
    "placeName": "point clear",
    "state": "AL"
  },
  {
    "city": "mobile",
    "state_code": "AL",
    "placeMasterId": "P02500000FsoEUX48l7XPaCeonxyplkKNMXCzpeH",
    "placeName": "mobile",
    "state": "AL"
  },
  {
    "city": "mobile",
    "state_code": "AL",
    "placeMasterId": "P02500000FsoEUX48l7XPaCeonxyplkKNMXCzpeH",
    "placeName": "mobile",
    "state": "AL"
  },
  {
    "city": "mobile",
    "state_code": "AL",
    "placeMasterId": "P02500000FsoEUX48l7XPaCeonxyplkKNMXCzpeH",
    "placeName": "mobile",
    "state": "AL"
  },
  {
    "city": "selma",
    "state_code": "AL",
    "placeMasterId": "P02500000FsoEVO90NV07ho7rcq3LEgYZ6HqzUah",
    "placeName": "selma",
    "state": "AL"
  },
  {
    "city": "cusseta",
    "state_code": "AL",
    "placeMasterId": "P02500000FsoETFRqKYLLOnSFZes4ZL0puGxjczh",
    "placeName": "cusseta",
    "state": "AL"
  },
  {
    "city": "greenbrier",
    "state_code": "TN",
    "placeMasterId": "P02500000FsoGgeXeBIAZ5I93GdXWz4lLEQHqUm3",
    "placeName": "greenbrier",
    "state": "TN"
  },
  {
    "city": "lewisburg",
    "state_code": "TN",
    "placeMasterId": "P02500000FsoGgwEbO5K8SUdOsGEMo3TdM5wORtM",
    "placeName": "lewisburg",
    "state": "TN"
  },
  {
    "city": "coalmont",
    "state_code": "TN",
    "placeMasterId": "P02500000FsoGgE0DN6RD1UPWrCVHFbXset0PCB9",
    "placeName": "coalmont",
    "state": "TN"
  },
  {
    "city": "chattanooga",
    "state_code": "TN",
    "placeMasterId": "P02500000FsoGg59jlhrQKtAM3O9rL7CHHcMaKbF",
    "placeName": "chattanooga",
    "state": "TN"
  },
  {
    "city": "chattanooga",
    "state_code": "TN",
    "placeMasterId": "P02500000FsoGg59jlhrQKtAM3O9rL7CHHcMaKbF",
    "placeName": "chattanooga",
    "state": "TN"
  },
  {
    "city": "jefferson city",
    "state_code": "TN",
    "placeMasterId": "P02500000FsoGgnO7mgkLltOE4RswtZ6yv5FO4xf",
    "placeName": "jefferson city",
    "state": "TN"
  },
  {
    "city": "knoxville",
    "state_code": "TN",
    "placeMasterId": "P02500000FsoGgwEbO5K8SUdOsGEMo3NrnN3KYab",
    "placeName": "knoxville",
    "state": "TN"
  },
  {
    "city": "memphis",
    "state_code": "TN",
    "placeMasterId": "P02500000FsoGh554zTtv95sZg4ZmiXoGr41AEmS",
    "placeName": "memphis",
    "state": "TN"
  },
  {
    "city": "rives",
    "state_code": "TN",
    "placeMasterId": "P02500000FsoGheSzP4D3tUrGtJxSMVKEQiTO5Ji",
    "placeName": "rives",
    "state": "TN"
  },
  {
    "city": "bethel springs",
    "state_code": "TN",
    "placeMasterId": "P02500000FsoGfwJGAJHdeHvBFZoRQckJu7ve3w1",
    "placeName": "bethel springs",
    "state": "TN"
  },
  {
    "city": "medon",
    "state_code": "TN",
    "placeMasterId": "P02500000FsoGhDvYasThph7kTsvCd2ElRfBNqUH",
    "placeName": "medon",
    "state": "TN"
  },
  {
    "city": "lawrenceburg",
    "state_code": "TN",
    "placeMasterId": "P02500000FsoGgwEbO5K8SUdOsGEMo3ViFlUSZPu",
    "placeName": "lawrenceburg",
    "state": "TN"
  },
  {
    "city": "summertown",
    "state_code": "TN",
    "placeMasterId": "P02500000FsoGhw9wbrMdGhLcUweIBU4DOOoKUtw",
    "placeName": "summertown",
    "state": "TN"
  },
  {
    "city": "myrtle",
    "state_code": "MS",
    "placeMasterId": "P02500000FsoFhj7ld1iFgmdeCu24vu9pemYBIG0",
    "placeName": "myrtle",
    "state": "MS"
  },
  {
    "city": "walnut",
    "state_code": "MS",
    "placeMasterId": "P02500000FsoFiRM9e0bB7mrWDxlAULwuZuQCEsn",
    "placeName": "walnut",
    "state": "MS"
  },
  {
    "city": "pontotoc",
    "state_code": "MS",
    "placeMasterId": "P02500000FsoFi0oiporp3z7zoWiuksmA7B7b6Zl",
    "placeName": "pontotoc",
    "state": "MS"
  },
  {
    "city": "utica",
    "state_code": "MS",
    "placeMasterId": "P02500000FsoFiRM9e0bB7mrWDxlAULzVopZx8h1",
    "placeName": "utica",
    "state": "MS"
  },
  {
    "city": "meridian",
    "state_code": "MS",
    "placeMasterId": "P02500000FsoFhj7ld1iFgmdeCu24vu7e7IQOcP0",
    "placeName": "meridian",
    "state": "MS"
  },
  {
    "city": "stonewall",
    "state_code": "MS",
    "placeMasterId": "P02500000FsoFiRM9e0bB7mrWDxlAULrPWyhUQrL",
    "placeName": "stonewall",
    "state": "MS"
  },
  {
    "city": "waynesboro",
    "state_code": "MS",
    "placeMasterId": "P02500000FsoFiaCdFPAxoO6h1m6aOqJobjSMDuq",
    "placeName": "waynesboro",
    "state": "MS"
  },
  {
    "city": "columbia",
    "state_code": "MS",
    "placeMasterId": "P02500000FsoFgs2u0eFXZBAbO1xZSxzhlbBwo2c",
    "placeName": "columbia",
    "state": "MS"
  },
  {
    "city": "gulfport",
    "state_code": "MS",
    "placeMasterId": "P02500000FsoFhIaKopytcyu7nSzpCR2FcWr1z2K",
    "placeName": "gulfport",
    "state": "MS"
  },
  {
    "city": "gautier",
    "state_code": "MS",
    "placeMasterId": "P02500000FsoFh9jrDRP6wNewzeePHwm0UOfCvA1",
    "placeName": "gautier",
    "state": "MS"
  },
  {
    "city": "columbus",
    "state_code": "MS",
    "placeMasterId": "P02500000FsoFgs2u0eFXZBAbO1xZSxocfq7tUAV",
    "placeName": "columbus",
    "state": "MS"
  },
  {
    "city": "arlington",
    "state_code": "GA",
    "placeMasterId": "P02500000FsoEvV2Nl2cpRjukeRGoyKW57ueDMOF",
    "placeName": "arlington",
    "state": "GA"
  },
  {
    "city": "fairfield",
    "state_code": "KY",
    "placeMasterId": "P02500000FsoFNtTOmvU6BHcQX20zHoZVkoLXvEY",
    "placeName": "fairfield",
    "state": "KY"
  },
  {
    "city": "louisville",
    "state_code": "KY",
    "placeMasterId": "P02500000FsoFOkYGPIwoIt5TLu5UkkhkzCsPo64",
    "placeName": "louisville",
    "state": "KY"
  },
  {
    "city": "lexington",
    "state_code": "KY",
    "placeMasterId": "P02500000FsoFOkYGPIwoIt5TLu5UkkeaJQ4MXLq",
    "placeName": "lexington",
    "state": "KY"
  },
  {
    "city": "artemus",
    "state_code": "KY",
    "placeMasterId": "P02500000FsoFN2OXAY1O3g9Ni9wTosBn0frXjY8",
    "placeName": "artemus",
    "state": "KY"
  },
  {
    "city": "blaine",
    "state_code": "KY",
    "placeMasterId": "P02500000FsoFNK5UNLAxQsdjJmdJdqtIL2bJ4ph",
    "placeName": "blaine",
    "state": "KY"
  },
  {
    "city": "south williamson",
    "state_code": "KY",
    "placeMasterId": "P02500000FsoFPkTbd4zJ75ngyaVQ8BF41dpK1Dj",
    "placeName": "south williamson",
    "state": "KY"
  },
  {
    "city": "hyden",
    "state_code": "KY",
    "placeMasterId": "P02500000FsoFOK0pb7DSF5LwwT3F1Hhw0vPVyk0",
    "placeName": "hyden",
    "state": "KY"
  },
  {
    "city": "lewisburg",
    "state_code": "KY",
    "placeMasterId": "P02500000FsoFOkYGPIwoIt5TLu5Ukkejy6tOaO3",
    "placeName": "lewisburg",
    "state": "KY"
  },
  {
    "city": "ashley",
    "state_code": "OH",
    "placeMasterId": "P02500000FsoGCpdr7RXRTjzdLvLBYh4T61aqvI2",
    "placeName": "ashley",
    "state": "OH"
  },
  {
    "city": "dublin",
    "state_code": "OH",
    "placeMasterId": "P02500000FsoGEOx6knt52LgYBr8ma56pnocLsS8",
    "placeName": "dublin",
    "state": "OH"
  },
  {
    "city": "kilbourne",
    "state_code": "OH",
    "placeMasterId": "P02500000FsoGFgZPBN59Dkt7QAFXmUYcIzlDkKa",
    "placeName": "kilbourne",
    "state": "OH"
  },
  {
    "city": "sunbury",
    "state_code": "OH",
    "placeMasterId": "P02500000FsoGIpBuS5mQKyGx61qjpGfdajb3UOK",
    "placeName": "sunbury",
    "state": "OH"
  },
  {
    "city": "brice",
    "state_code": "OH",
    "placeMasterId": "P02500000FsoGDP1lX1qaE8yKZAirCeUdOuqnYsh",
    "placeName": "brice",
    "state": "OH"
  },
  {
    "city": "columbus",
    "state_code": "OH",
    "placeMasterId": "P02500000FsoGDyPfwc9iyXx1mQ6Wqc0NMzPNh3d",
    "placeName": "columbus",
    "state": "OH"
  },
  {
    "city": "east liberty",
    "state_code": "OH",
    "placeMasterId": "P02500000FsoGEOx6knt52LgYBr8ma550kVWxJoj",
    "placeName": "east liberty",
    "state": "OH"
  },
  {
    "city": "curtice",
    "state_code": "OH",
    "placeMasterId": "P02500000FsoGDyPfwc9iyXx1mQ6Wqc5xd0whPS0",
    "placeName": "curtice",
    "state": "OH"
  },
  {
    "city": "edgerton",
    "state_code": "OH",
    "placeMasterId": "P02500000FsoGEOx6knt52LgYBr8ma5B4suKtWON",
    "placeName": "edgerton",
    "state": "OH"
  },
  {
    "city": "toledo",
    "state_code": "OH",
    "placeMasterId": "P02500000FsoGIpBuS5mQKyGx61qjpGheGoHOM1s",
    "placeName": "toledo",
    "state": "OH"
  },
  {
    "city": "chesterhill",
    "state_code": "OH",
    "placeMasterId": "P02500000FsoGDgiijp09bLSgAnPh1dJJhvrwjhH",
    "placeName": "chesterhill",
    "state": "OH"
  },
  {
    "city": "gratiot",
    "state_code": "OH",
    "placeMasterId": "P02500000FsoGF7BUlmm0TLuQCurs8WxS4ScZ5kG",
    "placeName": "gratiot",
    "state": "OH"
  },
  {
    "city": "junction city",
    "state_code": "OH",
    "placeMasterId": "P02500000FsoGFgZPBN59Dkt7QAFXmUSIEoqxllU",
    "placeName": "junction city",
    "state": "OH"
  },
  {
    "city": "chardon",
    "state_code": "OH",
    "placeMasterId": "P02500000FsoGDgiijp09bLSgAnPh1dJKDYkKk5b",
    "placeName": "chardon",
    "state": "OH"
  },
  {
    "city": "lorain",
    "state_code": "OH",
    "placeMasterId": "P02500000FsoGFyGMOAEiaxNT1mwNbTOLsVg5ycs",
    "placeName": "lorain",
    "state": "OH"
  },
  {
    "city": "cleveland",
    "state_code": "OH",
    "placeMasterId": "P02500000FsoGDpZCLDZwHwhqybl6w7hFiW8c2lu",
    "placeName": "cleveland",
    "state": "OH"
  },
  {
    "city": "cleveland",
    "state_code": "OH",
    "placeMasterId": "P02500000FsoGDpZCLDZwHwhqybl6w7hFiW8c2lu",
    "placeName": "cleveland",
    "state": "OH"
  },
  {
    "city": "akron",
    "state_code": "OH",
    "placeMasterId": "P02500000FsoGCXwtueNs6XVHkIeLjiMh8uljxTa",
    "placeName": "akron",
    "state": "OH"
  },
  {
    "city": "struthers",
    "state_code": "OH",
    "placeMasterId": "P02500000FsoGIpBuS5mQKyGx61qjpGc5zIedeOm",
    "placeName": "struthers",
    "state": "OH"
  },
  {
    "city": "apple creek",
    "state_code": "OH",
    "placeMasterId": "P02500000FsoGCgnNW2xen8kSY6zleCkM3VwHIl4",
    "placeName": "apple creek",
    "state": "OH"
  },
  {
    "city": "killbuck",
    "state_code": "OH",
    "placeMasterId": "P02500000FsoGFgZPBN59Dkt7QAFXmUZdgmqNXnA",
    "placeName": "killbuck",
    "state": "OH"
  },
  {
    "city": "uhrichsville",
    "state_code": "OH",
    "placeMasterId": "P02500000FsoGIy2O3UMD1ZW7tqC9jl9jrf4QX1S",
    "placeName": "uhrichsville",
    "state": "OH"
  },
  {
    "city": "nevada",
    "state_code": "OH",
    "placeMasterId": "P02500000FsoGGyBhbwHDPA5geTMIytnfagdppQv",
    "placeName": "nevada",
    "state": "OH"
  },
  {
    "city": "pleasant plain",
    "state_code": "OH",
    "placeMasterId": "P02500000FsoGHpGZEJjvWlYjTLQoRq3I8WGexaa",
    "placeName": "pleasant plain",
    "state": "OH"
  },
  {
    "city": "sabina",
    "state_code": "OH",
    "placeMasterId": "P02500000FsoGIFo02VTHaZIFsmT4BJDal1B2k62",
    "placeName": "sabina",
    "state": "OH"
  },
  {
    "city": "sinking spring",
    "state_code": "OH",
    "placeMasterId": "P02500000FsoGIXUxFIcqxlmbUP9u0HuJrMfrPax",
    "placeName": "sinking spring",
    "state": "OH"
  },
  {
    "city": "cincinnati",
    "state_code": "OH",
    "placeMasterId": "P02500000FsoGDpZCLDZwHwhqybl6w7e8Lps6H4x",
    "placeName": "cincinnati",
    "state": "OH"
  },
  {
    "city": "cincinnati",
    "state_code": "OH",
    "placeMasterId": "P02500000FsoGDpZCLDZwHwhqybl6w7e8Lps6H4x",
    "placeName": "cincinnati",
    "state": "OH"
  },
  {
    "city": "clayton",
    "state_code": "OH",
    "placeMasterId": "P02500000FsoGDpZCLDZwHwhqybl6w7mjbNt9axq",
    "placeName": "clayton",
    "state": "OH"
  },
  {
    "city": "donnelsville",
    "state_code": "OH",
    "placeMasterId": "P02500000FsoGEG6d9PJILkRNO2nMfaiajYqX5hO",
    "placeName": "donnelsville",
    "state": "OH"
  },
  {
    "city": "new madison",
    "state_code": "OH",
    "placeMasterId": "P02500000FsoGGyBhbwHDPA5geTMIytub2xqNysj",
    "placeName": "new madison",
    "state": "OH"
  },
  {
    "city": "pleasant hill",
    "state_code": "OH",
    "placeMasterId": "P02500000FsoGHgQ5cvA8qAJYfX5OXLfzITut5gV",
    "placeName": "pleasant hill",
    "state": "OH"
  },
  {
    "city": "versailles",
    "state_code": "OH",
    "placeMasterId": "P02500000FsoGJ6sresvziAlIheXZeFV7oqBcvmc",
    "placeName": "versailles",
    "state": "OH"
  },
  {
    "city": "xenia",
    "state_code": "OH",
    "placeMasterId": "P02500000FsoGJgGm4TF8SZjzutvFICyfMqtUuGD",
    "placeName": "xenia",
    "state": "OH"
  },
  {
    "city": "springfield",
    "state_code": "OH",
    "placeMasterId": "P02500000FsoGIgLQqhCdeN1mIDVJumI8k4ObkdO",
    "placeName": "springfield",
    "state": "OH"
  },
  {
    "city": "mcdermott",
    "state_code": "OH",
    "placeMasterId": "P02500000FsoGG76pzYoVHYcdpbHnVxn1cfzOezR",
    "placeName": "mcdermott",
    "state": "OH"
  },
  {
    "city": "proctorville",
    "state_code": "OH",
    "placeMasterId": "P02500000FsoGHpGZEJjvWlYjTLQoRq3xiptWa4v",
    "placeName": "proctorville",
    "state": "OH"
  },
  {
    "city": "rarden",
    "state_code": "OH",
    "placeMasterId": "P02500000FsoGHpGZEJjvWlYjTLQoRqBsSqkkiYc",
    "placeName": "rarden",
    "state": "OH"
  },
  {
    "city": "west union",
    "state_code": "OH",
    "placeMasterId": "P02500000FsoGJXQIT4fLlyUp75ZpNiPrqobUwV5",
    "placeName": "west union",
    "state": "OH"
  },
  {
    "city": "reno",
    "state_code": "OH",
    "placeMasterId": "P02500000FsoGHpGZEJjvWlYjTLQoRqCrfzc3Kbn",
    "placeName": "reno",
    "state": "OH"
  },
  {
    "city": "columbus grove",
    "state_code": "OH",
    "placeMasterId": "P02500000FsoGDyPfwc9iyXx1mQ6WqbyHDtDSTMj",
    "placeName": "columbus grove",
    "state": "OH"
  },
  {
    "city": "melrose",
    "state_code": "OH",
    "placeMasterId": "P02500000FsoGGXeGnkXrLMMAF2K3FQe1wJGNXn3",
    "placeName": "melrose",
    "state": "OH"
  },
  {
    "city": "indianapolis",
    "state_code": "IN",
    "placeMasterId": "P02500000FsoFAckzh3o4HPrDoVt7YFuCi8MjR1V",
    "placeName": "indianapolis",
    "state": "IN"
  },
  {
    "city": "hammond",
    "state_code": "IN",
    "placeMasterId": "P02500000FsoFATuW5fEHaoc30hXhdlTShZesZR8",
    "placeName": "hammond",
    "state": "IN"
  },
  {
    "city": "elkhart",
    "state_code": "IN",
    "placeMasterId": "P02500000FsoFA3N5HTUvX0sWbGVRuINacuolnb4",
    "placeName": "elkhart",
    "state": "IN"
  },
  {
    "city": "hoagland",
    "state_code": "IN",
    "placeMasterId": "P02500000FsoFAckzh3o4HPrDoVt7YFpxJR5qHRw",
    "placeName": "hoagland",
    "state": "IN"
  },
  {
    "city": "camden",
    "state_code": "IN",
    "placeMasterId": "P02500000FsoF9TzArtBmmbtpO17mGKvvDyi9gpC",
    "placeName": "camden",
    "state": "IN"
  },
  {
    "city": "jonesboro",
    "state_code": "IN",
    "placeMasterId": "P02500000FsoFAckzh3o4HPrDoVt7YFw13RcvEi7",
    "placeName": "jonesboro",
    "state": "IN"
  },
  {
    "city": "laurel",
    "state_code": "IN",
    "placeMasterId": "P02500000FsoFAuRwtqxdecLZQ8ZxNEbsOmFG5k1",
    "placeName": "laurel",
    "state": "IN"
  },
  {
    "city": "oldenburg",
    "state_code": "IN",
    "placeMasterId": "P02500000FsoFBcgKupqZ5cZRRCJ2vgSvJmRIwvL",
    "placeName": "oldenburg",
    "state": "IN"
  },
  {
    "city": "osgood",
    "state_code": "IN",
    "placeMasterId": "P02500000FsoFBlWoWEQLmDocF0eSqAovs1Wi8kN",
    "placeName": "osgood",
    "state": "IN"
  },
  {
    "city": "deputy",
    "state_code": "IN",
    "placeMasterId": "P02500000FsoF9lg84gLM9oOAzdoc5JgRWmn1Ere",
    "placeName": "deputy",
    "state": "IN"
  },
  {
    "city": "losantville",
    "state_code": "IN",
    "placeMasterId": "P02500000FsoFAuRwtqxdecLZQ8ZxNEeLsDC5a6i",
    "placeName": "losantville",
    "state": "IN"
  },
  {
    "city": "selma",
    "state_code": "IN",
    "placeMasterId": "P02500000FsoFCC4FKQ9hq1Y8eRgiZdxLQEqUZj3",
    "placeName": "selma",
    "state": "IN"
  },
  {
    "city": "elnora",
    "state_code": "IN",
    "placeMasterId": "P02500000FsoFA3N5HTUvX0sWbGVRuIPdQd3YBvN",
    "placeName": "elnora",
    "state": "IN"
  },
  {
    "city": "oaktown",
    "state_code": "IN",
    "placeMasterId": "P02500000FsoFBcgKupqZ5cZRRCJ2vgS5Gfb7uf6",
    "placeName": "oaktown",
    "state": "IN"
  },
  {
    "city": "vincennes",
    "state_code": "IN",
    "placeMasterId": "P02500000FsoFCTlCXDJHDE2UG4NYOckiCwIVD8d",
    "placeName": "vincennes",
    "state": "IN"
  },
  {
    "city": "rockport",
    "state_code": "IN",
    "placeMasterId": "P02500000FsoFBuNI7d08Sp3n2ozskfDRSdHyCLn",
    "placeName": "rockport",
    "state": "IN"
  },
  {
    "city": "lafayette",
    "state_code": "IN",
    "placeMasterId": "P02500000FsoFAlbTISNqy16OcKEXSkFmTbTx15f",
    "placeName": "lafayette",
    "state": "IN"
  },
  {
    "city": "cayuga",
    "state_code": "IN",
    "placeMasterId": "P02500000FsoF9TzArtBmmbtpO17mGKumsHkSITV",
    "placeName": "cayuga",
    "state": "IN"
  },
  {
    "city": "otterbein",
    "state_code": "IN",
    "placeMasterId": "P02500000FsoFBlWoWEQLmDocF0eSqApduhSsmoA",
    "placeName": "otterbein",
    "state": "IN"
  },
  {
    "city": "stockwell",
    "state_code": "IN",
    "placeMasterId": "P02500000FsoFCKuivojUWcnJSG28U8MhpyQPM7N",
    "placeName": "stockwell",
    "state": "IN"
  },
  {
    "city": "macomb",
    "state_code": "MI",
    "placeMasterId": "P02500000FsoHl8y9G18VHECFf2WHZLjECnms6u7",
    "placeName": "macomb",
    "state": "MI"
  },
  {
    "city": "royal oak",
    "state_code": "MI",
    "placeMasterId": "P02500000FsoFaJ6wGPhPxXuaQg4LYQrt1eGEm8P",
    "placeName": "royal oak",
    "state": "MI"
  },
  {
    "city": "detroit",
    "state_code": "MI",
    "placeMasterId": "P02500000FsoFY1ZIc4SqxvznZgXeyauoH5nCTkI",
    "placeName": "detroit",
    "state": "MI"
  },
  {
    "city": "oak park",
    "state_code": "MI",
    "placeMasterId": "P02500000FsoFZsZVSDy3tkB41F25oxgchMY4PrO",
    "placeName": "oak park",
    "state": "MI"
  },
  {
    "city": "walled lake",
    "state_code": "MI",
    "placeMasterId": "P02500000FsoFasUqg00YhwtHdvS1COJW68W4RZg",
    "placeName": "walled lake",
    "state": "MI"
  },
  {
    "city": "hadley",
    "state_code": "MI",
    "placeMasterId": "P02500000FsoHk0CKQqWDmQErEXkwHQhv32q8LCz",
    "placeName": "hadley",
    "state": "MI"
  },
  {
    "city": "flint",
    "state_code": "MI",
    "placeMasterId": "P02500000FsoFYJGForcQL8U9BJEUnZe6ic6ZYjH",
    "placeName": "flint",
    "state": "MI"
  },
  {
    "city": "burton",
    "state_code": "MI",
    "placeMasterId": "P02500000FsoFXb1rnsjUu8GHAFVPF7pg6BzkNAm",
    "placeName": "burton",
    "state": "MI"
  },
  {
    "city": "flint",
    "state_code": "MI",
    "placeMasterId": "P02500000FsoFYJGForcQL8U9BJEUnZe6ic6ZYjH",
    "placeName": "flint",
    "state": "MI"
  },
  {
    "city": "twining",
    "state_code": "MI",
    "placeMasterId": "P02500000FsoFajeN4bQm1Le6q76bHtw1ZzfpCQ2",
    "placeName": "twining",
    "state": "MI"
  },
  {
    "city": "williamston",
    "state_code": "MI",
    "placeMasterId": "P02500000FsoFb1LKHOaLOY8SRjnR6sji5jeFtoL",
    "placeName": "williamston",
    "state": "MI"
  },
  {
    "city": "lansing",
    "state_code": "MI",
    "placeMasterId": "P02500000FsoFZAL7RF58SjxC0BJ0GVtzoDUs0q2",
    "placeName": "lansing",
    "state": "MI"
  },
  {
    "city": "berrien springs",
    "state_code": "MI",
    "placeMasterId": "P02500000FsoFXSBOCU9iDX16MR9zKdOmbPNM80o",
    "placeName": "berrien springs",
    "state": "MI"
  },
  {
    "city": "addison",
    "state_code": "MI",
    "placeMasterId": "P02500000FsoFX1dxOIQM9jHZx07jbAHMu5opvti",
    "placeName": "addison",
    "state": "MI"
  },
  {
    "city": "brooklyn",
    "state_code": "MI",
    "placeMasterId": "P02500000FsoFXSBOCU9iDX16MR9zKdRGpTO7nUB",
    "placeName": "brooklyn",
    "state": "MI"
  },
  {
    "city": "cement city",
    "state_code": "MI",
    "placeMasterId": "P02500000FsoFXsip0ft4HKkclsCF46NJSI991U1",
    "placeName": "cement city",
    "state": "MI"
  },
  {
    "city": "muskegon",
    "state_code": "MI",
    "placeMasterId": "P02500000FsoFZjj1qpOHD8vtDQgfuTK2X8vF9PN",
    "placeName": "muskegon",
    "state": "MI"
  },
  {
    "city": "frankfort",
    "state_code": "MI",
    "placeMasterId": "P02500000FsoFYS6jQGCD1jjJz7Zui3s8RPVUgYA",
    "placeName": "frankfort",
    "state": "MI"
  },
  {
    "city": "leland",
    "state_code": "MI",
    "placeMasterId": "P02500000FsoFZAL7RF58SjxC0BJ0GVvmQr9dP5Z",
    "placeName": "leland",
    "state": "MI"
  },
  {
    "city": "traverse city",
    "state_code": "MI",
    "placeMasterId": "P02500000FsoFaantTCqzKkOw2IlBNPfWVUPoyj1",
    "placeName": "traverse city",
    "state": "MI"
  },
  {
    "city": "posen",
    "state_code": "MI",
    "placeMasterId": "P02500000FsoFaAGSf17dGwfPcrivdwOGmDGTxf4",
    "placeName": "posen",
    "state": "MI"
  },
  {
    "city": "cornell",
    "state_code": "MI",
    "placeMasterId": "P02500000FsoHiZjYOskMuPn7CQIlAX5K119mHI0",
    "placeName": "cornell",
    "state": "MI"
  },
  {
    "city": "gladstone",
    "state_code": "MI",
    "placeMasterId": "P02500000FsoFYS6jQGCD1jjJz7Zui48g0CwUZgH",
    "placeName": "gladstone",
    "state": "MI"
  },
  {
    "city": "ishpeming",
    "state_code": "MI",
    "placeMasterId": "P02500000FsoFYseAERvZ5XSqOYcARX89mcYg3eC",
    "placeName": "ishpeming",
    "state": "MI"
  },
  {
    "city": "negaunee",
    "state_code": "MI",
    "placeMasterId": "P02500000FsoFZjj1qpOHD8vtDQgfuTIWnvkrNtz",
    "placeName": "negaunee",
    "state": "MI"
  },
  {
    "city": "stephenson",
    "state_code": "MI",
    "placeMasterId": "P02500000FsoFaantTCqzKkOw2IlBNPXKRnwFVjE",
    "placeName": "stephenson",
    "state": "MI"
  },
  {
    "city": "carlisle",
    "state_code": "IA",
    "placeMasterId": "P02500000FsoFDlNUxmVLOdF3UNUJb22K10RMaZy",
    "placeName": "carlisle",
    "state": "IA"
  },
  {
    "city": "guthrie center",
    "state_code": "IA",
    "placeMasterId": "P02500000FsoFFBqGzkHCGdgnWUwUhvlur2Gnae8",
    "placeName": "guthrie center",
    "state": "IA"
  },
  {
    "city": "knoxville",
    "state_code": "IA",
    "placeMasterId": "P02500000FsoFFu4f0jA7hdufXYfaGNdNTjD5521",
    "placeName": "knoxville",
    "state": "IA"
  },
  {
    "city": "mingo",
    "state_code": "IA",
    "placeMasterId": "P02500000FsoFGcJ31i338e8XYcOfopUifgIlMbE",
    "placeName": "mingo",
    "state": "IA"
  },
  {
    "city": "west des moines",
    "state_code": "IA",
    "placeMasterId": "P02500000FsoFIl0D4ehpReo9bnZwUB9Iz8HX3ZB",
    "placeName": "west des moines",
    "state": "IA"
  },
  {
    "city": "hampton",
    "state_code": "IA",
    "placeMasterId": "P02500000FsoFFKgkb8qyxEvyKJHucQ5m71uojvP",
    "placeName": "hampton",
    "state": "IA"
  },
  {
    "city": "hanlontown",
    "state_code": "IA",
    "placeMasterId": "P02500000FsoFFBqGzkHCGdgnWUwUhvkiBtDGL52",
    "placeName": "hanlontown",
    "state": "IA"
  },
  {
    "city": "harcourt",
    "state_code": "IA",
    "placeMasterId": "P02500000FsoFFKgkb8qyxEvyKJHucQ87OD6d4Dr",
    "placeName": "harcourt",
    "state": "IA"
  },
  {
    "city": "newell",
    "state_code": "IA",
    "placeMasterId": "P02500000FsoFGu00EVCcVqctAF5VdoBoTPTKJSj",
    "placeName": "newell",
    "state": "IA"
  },
  {
    "city": "rutland",
    "state_code": "IA",
    "placeMasterId": "P02500000FsoFHl4rqsfKdS5vz7A16kSzxk9NqTc",
    "placeName": "rutland",
    "state": "IA"
  },
  {
    "city": "greene",
    "state_code": "IA",
    "placeMasterId": "P02500000FsoFFBqGzkHCGdgnWUwUhvna8oi6QsC",
    "placeName": "greene",
    "state": "IA"
  },
  {
    "city": "lamont",
    "state_code": "IA",
    "placeMasterId": "P02500000FsoFFu4f0jA7hdufXYfaGNbkWHrclQn",
    "placeName": "lamont",
    "state": "IA"
  },
  {
    "city": "raymond",
    "state_code": "IA",
    "placeMasterId": "P02500000FsoFHTNue5VlGFbaNUTBHljx7fi5bcN",
    "placeName": "raymond",
    "state": "IA"
  },
  {
    "city": "traer",
    "state_code": "IA",
    "placeMasterId": "P02500000FsoFITJFrrYG4SJo0At6fCHvfJFwhjz",
    "placeName": "traer",
    "state": "IA"
  },
  {
    "city": "wellsburg",
    "state_code": "IA",
    "placeMasterId": "P02500000FsoFIl0D4ehpReo9bnZwUB2doDCfGbt",
    "placeName": "wellsburg",
    "state": "IA"
  },
  {
    "city": "clearfield",
    "state_code": "IA",
    "placeMasterId": "P02500000FsoFE34SAZeulpjP60B9Q0lNFNMVqKf",
    "placeName": "clearfield",
    "state": "IA"
  },
  {
    "city": "alta",
    "state_code": "IA",
    "placeMasterId": "P02500000FsoFD396wncPxd1BTJlE2a9QeNQorV9",
    "placeName": "alta",
    "state": "IA"
  },
  {
    "city": "sioux center",
    "state_code": "IA",
    "placeMasterId": "P02500000FsoFI2lp3fou0eaHajqqvjBziahzPAh",
    "placeName": "sioux center",
    "state": "IA"
  },
  {
    "city": "auburn",
    "state_code": "IA",
    "placeMasterId": "P02500000FsoFDBzaYCCCeEGMH86dx4byMAM1H9V",
    "placeName": "auburn",
    "state": "IA"
  },
  {
    "city": "thurman",
    "state_code": "IA",
    "placeMasterId": "P02500000FsoFIKSmGSyTNr4dCMXgkhwcIium3qt",
    "placeName": "thurman",
    "state": "IA"
  },
  {
    "city": "elkader",
    "state_code": "IA",
    "placeMasterId": "P02500000FsoFEcSMa9y3WEi6JFYp3yITmecQiAT",
    "placeName": "elkader",
    "state": "IA"
  },
  {
    "city": "elgin",
    "state_code": "IA",
    "placeMasterId": "P02500000FsoFEcSMa9y3WEi6JFYp3yFwtNcjwUj",
    "placeName": "elgin",
    "state": "IA"
  },
  {
    "city": "anamosa",
    "state_code": "IA",
    "placeMasterId": "P02500000FsoFD396wncPxd1BTJlE2aE2NyDeaE7",
    "placeName": "anamosa",
    "state": "IA"
  },
  {
    "city": "iowa city",
    "state_code": "IA",
    "placeMasterId": "P02500000FsoFFcNhnw0YKRQJvvykROrtaLOFPrR",
    "placeName": "iowa city",
    "state": "IA"
  },
  {
    "city": "north english",
    "state_code": "IA",
    "placeMasterId": "P02500000FsoFH2qTptmPCRs3y3QvYIZQgVCScdt",
    "placeName": "north english",
    "state": "IA"
  },
  {
    "city": "cedar rapids",
    "state_code": "IA",
    "placeMasterId": "P02500000FsoFDuDyZB585EUEIBpjVWPCEPVewtT",
    "placeName": "cedar rapids",
    "state": "IA"
  },
  {
    "city": "drakesville",
    "state_code": "IA",
    "placeMasterId": "P02500000FsoFETbsylOGpdSvVRDP9TvnS4b9lGp",
    "placeName": "drakesville",
    "state": "IA"
  },
  {
    "city": "pulaski",
    "state_code": "IA",
    "placeMasterId": "P02500000FsoFHTNue5VlGFbaNUTBHlhMDnMBokP",
    "placeName": "pulaski",
    "state": "IA"
  },
  {
    "city": "denmark",
    "state_code": "IA",
    "placeMasterId": "P02500000FsoFETbsylOGpdSvVRDP9Ts7YKqhuxJ",
    "placeName": "denmark",
    "state": "IA"
  },
  {
    "city": "durant",
    "state_code": "IA",
    "placeMasterId": "P02500000FsoFEcSMa9y3WEi6JFYp3yFXf8woAvh",
    "placeName": "durant",
    "state": "IA"
  },
  {
    "city": "grandview",
    "state_code": "IA",
    "placeMasterId": "P02500000FsoFFBqGzkHCGdgnWUwUhvmHFhG4To8",
    "placeName": "grandview",
    "state": "IA"
  },
  {
    "city": "lone tree",
    "state_code": "IA",
    "placeMasterId": "P02500000FsoFGBlcDWJh4qP19BMQ5MLzIMCsHXr",
    "placeName": "lone tree",
    "state": "IA"
  },
  {
    "city": "tipton",
    "state_code": "IA",
    "placeMasterId": "P02500000FsoFIKSmGSyTNr4dCMXgkhwXBbO34Td",
    "placeName": "tipton",
    "state": "IA"
  },
  {
    "city": "kiel",
    "state_code": "WI",
    "placeMasterId": "P02500000FsoH6Ktake3ulQCPsnikzFUJzkZKpxm",
    "placeName": "kiel",
    "state": "WI"
  },
  {
    "city": "waldo",
    "state_code": "WI",
    "placeMasterId": "P02500000FsoH8BtnanZ7hENgKMDBpcT5YSszMwe",
    "placeName": "waldo",
    "state": "WI"
  },
  {
    "city": "greendale",
    "state_code": "WI",
    "placeMasterId": "P02500000FsoH5uM9wSKYhcStTMgVFmQdqbf2mEc",
    "placeName": "greendale",
    "state": "WI"
  },
  {
    "city": "franklin",
    "state_code": "WI",
    "placeMasterId": "P02500000FsoH5cfCjfAzKPyXrjzfQnoEBZrhCIg",
    "placeName": "franklin",
    "state": "WI"
  },
  {
    "city": "kenosha",
    "state_code": "WI",
    "placeMasterId": "P02500000FsoH6C379FU84oxF4zNL4lBdr6f6YX2",
    "placeName": "kenosha",
    "state": "WI"
  },
  {
    "city": "milwaukee",
    "state_code": "WI",
    "placeMasterId": "P02500000FsoH6lR1YpnGpDvwIEl0iig1pZrPtxd",
    "placeName": "milwaukee",
    "state": "WI"
  },
  {
    "city": "milwaukee",
    "state_code": "WI",
    "placeMasterId": "P02500000FsoH6lR1YpnGpDvwIEl0iig1pZrPtxd",
    "placeName": "milwaukee",
    "state": "WI"
  },
  {
    "city": "milwaukee",
    "state_code": "WI",
    "placeMasterId": "P02500000FsoH6lR1YpnGpDvwIEl0iig1pZrPtxd",
    "placeName": "milwaukee",
    "state": "WI"
  },
  {
    "city": "dane",
    "state_code": "WI",
    "placeMasterId": "P02500000FsoHET8o8Exfvf9Lg5PZvAlNuI1q5Kq",
    "placeName": "dane",
    "state": "WI"
  },
  {
    "city": "baraboo",
    "state_code": "WI",
    "placeMasterId": "P02500000FsoH4TtNuUYhpc19RFEK8snOWXd4rnG",
    "placeName": "baraboo",
    "state": "WI"
  },
  {
    "city": "river falls",
    "state_code": "WI",
    "placeMasterId": "P02500000FsoH7cVtBDFywpOz76pWBetZlbLu0yF",
    "placeName": "river falls",
    "state": "WI"
  },
  {
    "city": "gresham",
    "state_code": "WI",
    "placeMasterId": "P02500000FsoH5uM9wSKYhcStTMgVFmOC66ek9su",
    "placeName": "gresham",
    "state": "WI"
  },
  {
    "city": "green bay",
    "state_code": "WI",
    "placeMasterId": "P02500000FsoH5lVgL3km11DifYL5LIC2lNuCuF7",
    "placeName": "green bay",
    "state": "WI"
  },
  {
    "city": "abbotsford",
    "state_code": "WI",
    "placeMasterId": "P02500000FsoH4CCQhhP8SPWnpcXUJtzgb95uZSb",
    "placeName": "abbotsford",
    "state": "WI"
  },
  {
    "city": "arpin",
    "state_code": "WI",
    "placeMasterId": "P02500000FsoHGBIXMzt6As5RJpYar38lcqWpHQE",
    "placeName": "arpin",
    "state": "WI"
  },
  {
    "city": "eland",
    "state_code": "WI",
    "placeMasterId": "P02500000FsoH5Toj8GbCdojN3veFWJNGRlm8SIt",
    "placeName": "eland",
    "state": "WI"
  },
  {
    "city": "junction city",
    "state_code": "WI",
    "placeMasterId": "P02500000FsoH6Ktake3ulQCPsnikzFRluv4Ukly",
    "placeName": "junction city",
    "state": "WI"
  },
  {
    "city": "marathon",
    "state_code": "WI",
    "placeMasterId": "P02500000FsoIidvFmJoxnjFugeZYVcXd20OshB4",
    "placeName": "marathon",
    "state": "WI"
  },
  {
    "city": "mount sterling",
    "state_code": "WI",
    "placeMasterId": "P02500000FsoH6uHVAEN3VpB7636QdD0bXktr8Tf",
    "placeName": "mount sterling",
    "state": "WI"
  },
  {
    "city": "soldiers grove",
    "state_code": "WI",
    "placeMasterId": "P02500000FsoH7uCqO0PYK1tKijWM0de9bCstg4l",
    "placeName": "soldiers grove",
    "state": "WI"
  },
  {
    "city": "viroqua",
    "state_code": "WI",
    "placeMasterId": "P02500000FsoH8BtnanZ7hENgKMDBpcPWuIzRAcK",
    "placeName": "viroqua",
    "state": "WI"
  },
  {
    "city": "warrens",
    "state_code": "WI",
    "placeMasterId": "P02500000FsoH8BtnanZ7hENgKMDBpcWMpq7RZZx",
    "placeName": "warrens",
    "state": "WI"
  },
  {
    "city": "menomonie",
    "state_code": "WI",
    "placeMasterId": "P02500000FsoH6lR1YpnGpDvwIEl0iiZsd9pdqOs",
    "placeName": "menomonie",
    "state": "WI"
  },
  {
    "city": "plum city",
    "state_code": "WI",
    "placeMasterId": "P02500000FsoH7KovyQ6PZcudVU8gMg5l1cJ3Dx0",
    "placeName": "plum city",
    "state": "WI"
  },
  {
    "city": "birchwood",
    "state_code": "WI",
    "placeMasterId": "P02500000FsoHG2S3lbJJUGqGW1DAwYl0yRoDrfy",
    "placeName": "birchwood",
    "state": "WI"
  },
  {
    "city": "mason",
    "state_code": "WI",
    "placeMasterId": "P02500000FsoHEKIKWqNtF3uAsH4A0gL4cUM2Bdy",
    "placeName": "mason",
    "state": "WI"
  },
  {
    "city": "weyerhaeuser",
    "state_code": "WI",
    "placeMasterId": "P02500000FsoH8KkHCC8uNpcr8AYbk6pjOJVP3d7",
    "placeName": "weyerhaeuser",
    "state": "WI"
  },
  {
    "city": "pine river",
    "state_code": "WI",
    "placeMasterId": "P02500000FsoIjM9dnIhtEjTmhiIe44RotpDBCQZ",
    "placeName": "pine river",
    "state": "WI"
  },
  {
    "city": "faribault",
    "state_code": "MN",
    "placeMasterId": "P02500000FsoFcjV3W9Vldl4Y5TwS2l7GqiojePp",
    "placeName": "faribault",
    "state": "MN"
  },
  {
    "city": "owatonna",
    "state_code": "MN",
    "placeMasterId": "P02500000FsoFejLjxhalGAUzKqmIncOQIkaJH6e",
    "placeName": "owatonna",
    "state": "MN"
  },
  {
    "city": "minneapolis",
    "state_code": "MN",
    "placeMasterId": "P02500000FsoFeIoJ9VrPCMlSvPk349D9alJlgNT",
    "placeName": "minneapolis",
    "state": "MN"
  },
  {
    "city": "minneapolis",
    "state_code": "MN",
    "placeMasterId": "P02500000FsoFeIoJ9VrPCMlSvPk349D9alJlgNT",
    "placeName": "minneapolis",
    "state": "MN"
  },
  {
    "city": "finland",
    "state_code": "MN",
    "placeMasterId": "P02500000FsoFcjV3W9Vldl4Y5TwS2l5lq453QBP",
    "placeName": "finland",
    "state": "MN"
  },
  {
    "city": "lutsen",
    "state_code": "MN",
    "placeMasterId": "P02500000FsoFe17LwihppAH7Jn3DFAWaD3SEXNv",
    "placeName": "lutsen",
    "state": "MN"
  },
  {
    "city": "alborn",
    "state_code": "MN",
    "placeMasterId": "P02500000FsoHoZHbjWzLle4QwWoJR6dUfogFaIT",
    "placeName": "alborn",
    "state": "MN"
  },
  {
    "city": "mcgregor",
    "state_code": "MN",
    "placeMasterId": "P02500000FsoFe9xpY7HcVlWI7bOd9elEYgq4KWP",
    "placeName": "mcgregor",
    "state": "MN"
  },
  {
    "city": "virginia",
    "state_code": "MN",
    "placeMasterId": "P02500000FsoFg0y2OGmpRZhYZ9t401bqR4qkySb",
    "placeName": "virginia",
    "state": "MN"
  },
  {
    "city": "eitzen",
    "state_code": "MN",
    "placeMasterId": "P02500000FsoFcRo6JMMCGYaCTrFcDmUyCKaW5JX",
    "placeName": "eitzen",
    "state": "MN"
  },
  {
    "city": "mazeppa",
    "state_code": "MN",
    "placeMasterId": "P02500000FsoFeIoJ9VrPCMlSvPk349BQfmagsGv",
    "placeName": "mazeppa",
    "state": "MN"
  },
  {
    "city": "racine",
    "state_code": "MN",
    "placeMasterId": "P02500000FsoFf12hAUkKdMzKwTT8caz6nIdMzOq",
    "placeName": "racine",
    "state": "MN"
  },
  {
    "city": "taopi",
    "state_code": "MN",
    "placeMasterId": "P02500000FsoFfs7YmsD2kySNlLXe5XBIGnIrtb3",
    "placeName": "taopi",
    "state": "MN"
  },
  {
    "city": "clarks grove",
    "state_code": "MN",
    "placeMasterId": "P02500000FsoFc1GfVAcqCkqg4QDMUJD2TO34NPb",
    "placeName": "clarks grove",
    "state": "MN"
  },
  {
    "city": "northrop",
    "state_code": "MN",
    "placeMasterId": "P02500000FsoFeaVGMJ0yZZFoX2Qst808tOhKGVr",
    "placeName": "northrop",
    "state": "MN"
  },
  {
    "city": "dovray",
    "state_code": "MN",
    "placeMasterId": "P02500000FsoFcIxchxmPZxL1g2uCJIAhBM1mpVC",
    "placeName": "dovray",
    "state": "MN"
  },
  {
    "city": "lamberton",
    "state_code": "MN",
    "placeMasterId": "P02500000FsoFdsGsLK838Z1wVyhnKfyxy42Fwek",
    "placeName": "lamberton",
    "state": "MN"
  },
  {
    "city": "ormsby",
    "state_code": "MN",
    "placeMasterId": "P02500000FsoFejLjxhalGAUzKqmIncNl73RdxJv",
    "placeName": "ormsby",
    "state": "MN"
  },
  {
    "city": "pipestone",
    "state_code": "MN",
    "placeMasterId": "P02500000FsoFf12hAUkKdMzKwTT8cb06b1EiaCI",
    "placeName": "pipestone",
    "state": "MN"
  },
  {
    "city": "cottonwood",
    "state_code": "MN",
    "placeMasterId": "P02500000FsoFc1GfVAcqCkqg4QDMUJRerAnFw8Y",
    "placeName": "cottonwood",
    "state": "MN"
  },
  {
    "city": "prinsburg",
    "state_code": "MN",
    "placeMasterId": "P02500000FsoFf12hAUkKdMzKwTT8cb1d2mi9WFf",
    "placeName": "prinsburg",
    "state": "MN"
  },
  {
    "city": "carlos",
    "state_code": "MN",
    "placeMasterId": "P02500000FsoFbjZiINTGpYMKSnWWfKdApFiEecr",
    "placeName": "carlos",
    "state": "MN"
  },
  {
    "city": "kensington",
    "state_code": "MN",
    "placeMasterId": "P02500000FsoFdaZv8WyTlMXauM0xVhJI8Nf0hbp",
    "placeName": "kensington",
    "state": "MN"
  },
  {
    "city": "mcgrath",
    "state_code": "MN",
    "placeMasterId": "P02500000FsoFe17LwihppAH7Jn3DFAOZOdZ8lMj",
    "placeName": "mcgrath",
    "state": "MN"
  },
  {
    "city": "upsala",
    "state_code": "MN",
    "placeMasterId": "P02500000FsoFfs7YmsD2kySNlLXe5XRZjFTMMgB",
    "placeName": "upsala",
    "state": "MN"
  },
  {
    "city": "pequot lakes",
    "state_code": "MN",
    "placeMasterId": "P02500000FsoFejLjxhalGAUzKqmIncQ6K3mtRf5",
    "placeName": "pequot lakes",
    "state": "MN"
  },
  {
    "city": "ogema",
    "state_code": "MN",
    "placeMasterId": "P02500000FsoFejLjxhalGAUzKqmIncL6W00bRyH",
    "placeName": "ogema",
    "state": "MN"
  },
  {
    "city": "perham",
    "state_code": "MN",
    "placeMasterId": "P02500000FsoFesCDZ6AXwlkA8f7ii6b7Oq3MzWl",
    "placeName": "perham",
    "state": "MN"
  },
  {
    "city": "bagley",
    "state_code": "MN",
    "placeMasterId": "P02500000FsoFbJ2HUBjulkco3MUGvrKVubxh4c9",
    "placeName": "bagley",
    "state": "MN"
  },
  {
    "city": "brooks",
    "state_code": "MN",
    "placeMasterId": "P02500000FsoFbjZiINTGpYMKSnWWfKWClz4EedZ",
    "placeName": "brooks",
    "state": "MN"
  },
  {
    "city": "baltic",
    "state_code": "SD",
    "placeMasterId": "P02500000FsoGdelcVy34eg0OOaHkqmvb9MEtZ5J",
    "placeName": "baltic",
    "state": "SD"
  },
  {
    "city": "canton",
    "state_code": "SD",
    "placeMasterId": "P02500000FsoGdnc67McrLHFZCOdAlHH501Bjsl1",
    "placeName": "canton",
    "state": "SD"
  },
  {
    "city": "dell rapids",
    "state_code": "SD",
    "placeMasterId": "P02500000FsoGdwSZilCe1sUk0CyaflgFCddI8b8",
    "placeName": "dell rapids",
    "state": "SD"
  },
  {
    "city": "fairview",
    "state_code": "SD",
    "placeMasterId": "P02500000FsoGeE9WvYMDP4z5bpfQUkN5ZmPnAYv",
    "placeName": "fairview",
    "state": "SD"
  },
  {
    "city": "viborg",
    "state_code": "SD",
    "placeMasterId": "P02500000FsoGfVlpM7YHaUBeq8mBh9hs2FkbLUm",
    "placeName": "viborg",
    "state": "SD"
  },
  {
    "city": "sioux falls",
    "state_code": "SD",
    "placeMasterId": "P02500000FsoGfE4s9KOiDHhJEW5LsAy2czuKme9",
    "placeName": "sioux falls",
    "state": "SD"
  },
  {
    "city": "britton",
    "state_code": "SD",
    "placeMasterId": "P02500000FsoGdnc67McrLHFZCOdAlHCFz9Flhsm",
    "placeName": "britton",
    "state": "SD"
  },
  {
    "city": "lebanon",
    "state_code": "SD",
    "placeMasterId": "P02500000FsoGeegxjk5ZSsic1GhgEDUHqxTh7mD",
    "placeName": "lebanon",
    "state": "SD"
  },
  {
    "city": "seneca",
    "state_code": "SD",
    "placeMasterId": "P02500000FsoGfE4s9KOiDHhJEW5LsB72Q1cpQJa",
    "placeName": "seneca",
    "state": "SD"
  },
  {
    "city": "belvidere",
    "state_code": "SD",
    "placeMasterId": "P02500000FsoGdelcVy34eg0OOaHkqmvmlvneHNm",
    "placeName": "belvidere",
    "state": "SD"
  },
  {
    "city": "custer",
    "state_code": "SD",
    "placeMasterId": "P02500000FsoGdwSZilCe1sUk0CyaflnbSgQ4GuK",
    "placeName": "custer",
    "state": "SD"
  },
  {
    "city": "perth",
    "state_code": "ND",
    "placeMasterId": "P02500000FsoGByYzV44jM8WaX3Gg5kqDb2zLF4m",
    "placeName": "perth",
    "state": "ND"
  },
  {
    "city": "york",
    "state_code": "ND",
    "placeMasterId": "P02500000FsoGCXwtueNs6XVHkIeLjiFinmvoPkY",
    "placeName": "york",
    "state": "ND"
  },
  {
    "city": "binford",
    "state_code": "ND",
    "placeMasterId": "P02500000FsoGAGPGGJ9J6vaUtJ7f9sSqV0UU0ii",
    "placeName": "binford",
    "state": "ND"
  },
  {
    "city": "bowdon",
    "state_code": "ND",
    "placeMasterId": "P02500000FsoGAPFjrhj5nWpfh7T54Mjt87j1t3q",
    "placeName": "bowdon",
    "state": "ND"
  },
  {
    "city": "courtenay",
    "state_code": "ND",
    "placeMasterId": "P02500000FsoGAY6DT6IsU84qUvoUyr8s1qMUNdt",
    "placeName": "courtenay",
    "state": "ND"
  },
  {
    "city": "dawson",
    "state_code": "ND",
    "placeMasterId": "P02500000FsoGAgwh4UsfAjK1Ik9utLOZUqGkpXJ",
    "placeName": "dawson",
    "state": "ND"
  },
  {
    "city": "mchenry",
    "state_code": "ND",
    "placeMasterId": "P02500000FsoGBY1YgsLNIKn47cEQMHdkM45vVGZ",
    "placeName": "mchenry",
    "state": "ND"
  },
  {
    "city": "rogers",
    "state_code": "ND",
    "placeMasterId": "P02500000FsoGC7PT6SeW2jllKrc60FA1xnNE8MO",
    "placeName": "rogers",
    "state": "ND"
  },
  {
    "city": "hettinger",
    "state_code": "ND",
    "placeMasterId": "P02500000FsoGBGKbU5Bnv8IiVzXaXJAiJO9Zmwb",
    "placeName": "hettinger",
    "state": "ND"
  },
  {
    "city": "butte",
    "state_code": "ND",
    "placeMasterId": "P02500000FsoGAPFjrhj5nWpfh7T54MpSX7Gi8xZ",
    "placeName": "butte",
    "state": "ND"
  },
  {
    "city": "san bernardino",
    "state_code": "CA",
    "placeMasterId": "P02500000FsoEkVrcJWBMXU4KmufdobxDvk7Zv0i",
    "placeName": "san bernardino",
    "state": "CA"
  },
  {
    "city": "temecula",
    "state_code": "CA",
    "placeMasterId": "P02500000FsoElVmxXIDrLgmYPb5ZC2XFPwEYYTa",
    "placeName": "temecula",
    "state": "CA"
  },
  {
    "city": "irvine",
    "state_code": "CA",
    "placeMasterId": "P02500000FsoEhNF72nU5QGgV734RlpjosMp0ILe",
    "placeName": "irvine",
    "state": "CA"
  },
  {
    "city": "dana point",
    "state_code": "CA",
    "placeMasterId": "P02500000FsoEff5No2YfB3kPTIvQpxFr8QZNYx8",
    "placeName": "dana point",
    "state": "CA"
  },
  {
    "city": "orange",
    "state_code": "CA",
    "placeMasterId": "P02500000FsoEjN5nULZ52g6wMPuIWgyRxHqSV9r",
    "placeName": "orange",
    "state": "CA"
  },
  {
    "city": "santa barbara",
    "state_code": "CA",
    "placeMasterId": "P02500000FsoEkei5uul9E5JVaj13j6J6FwOz9kT",
    "placeName": "santa barbara",
    "state": "CA"
  },
  {
    "city": "arvin",
    "state_code": "CA",
    "placeMasterId": "P02500000FsoEdo5Axt3SFFZ91kQzzaUbOLXzNNe",
    "placeName": "arvin",
    "state": "CA"
  },
  {
    "city": "bakersfield",
    "state_code": "CA",
    "placeMasterId": "P02500000FsoEdwveZHdEvqoJpYmPu4r7PsLmxxn",
    "placeName": "bakersfield",
    "state": "CA"
  },
  {
    "city": "oceano",
    "state_code": "CA",
    "placeMasterId": "P02500000FsoEjEFJswzIM4rlYbYscCZvdAKDcno",
    "placeName": "oceano",
    "state": "CA"
  },
  {
    "city": "tacoma",
    "state_code": "WA",
    "placeMasterId": "P02500000FsoH1LGsdlrQiOdJlNd866Yu1WjXF5B",
    "placeName": "tacoma",
    "state": "WA"
  },
  {
    "city": "grayland",
    "state_code": "WA",
    "placeMasterId": "P02500000FsoGzLQCCDmR5zCsW0nHLFSv8gc2nM6",
    "placeName": "grayland",
    "state": "WA"
  },
  {
    "city": "quincy",
    "state_code": "WA",
    "placeMasterId": "P02500000FsoH0lsyEBYHxzecY8FSS99XzFH5SlQ",
    "placeName": "quincy",
    "state": "WA"
  },
  {
    "city": "kettle falls",
    "state_code": "WA",
    "placeMasterId": "P02500000FsoGzlxd0PVn9mwOvRpX4iNvqGd22Uz",
    "placeName": "kettle falls",
    "state": "WA"
  },
  {
    "city": "spokane",
    "state_code": "WA",
    "placeMasterId": "P02500000FsoH1CQP2NHe1nO8xZHiBcLVG93v2e9",
    "placeName": "spokane",
    "state": "WA"
  },
  {
    "city": "connell",
    "state_code": "WA",
    "placeMasterId": "P02500000FsoGym2HmdTILaEBIlPbhHuXaCxFHsI",
    "placeName": "connell",
    "state": "WA"
  },
  {
    "city": "starbuck",
    "state_code": "WA",
    "placeMasterId": "P02500000FsoH1CQP2NHe1nO8xZHiBcGliVDurpM",
    "placeName": "starbuck",
    "state": "WA"
  },
  {
    "city": "hope",
    "state_code": "AK",
    "placeMasterId": "P02500000FsoEWflIo4CBtDKQr9A6R5tICOiQbzc",
    "placeName": "hope",
    "state": "AK"
  },
  {
    "city": "kwethluk",
    "state_code": "AK",
    "placeMasterId": "P02500000FsoEWobmPSlyZoZbexVWLaINJc62TKs",
    "placeName": "kwethluk",
    "state": "AK"
  },
  {
    "city": "nikolski",
    "state_code": "AK",
    "placeMasterId": "P02500000FsoEXF9DDeVKdcJ84OXm53O45IJbMhs",
    "placeName": "nikolski",
    "state": "AK"
  },
  {
    "city": "shungnak",
    "state_code": "AK",
    "placeMasterId": "P02500000FsoEXWqAQReu0onTg1Ebu2ALwyHeJA9",
    "placeName": "shungnak",
    "state": "AK"
  },
  {
    "city": "tenakee springs",
    "state_code": "AK",
    "placeMasterId": "P02500000FsoEXoX7dEoTO1HpHdvRj0puv3HcYZe",
    "placeName": "tenakee springs",
    "state": "AK"
  },
  {
    "city": "los angeles",
    "state_code": "CA",
    "placeMasterId": "P02500000FsoEiEJyfAwnXs9Xvv8xEm0Sp2kcekK",
    "placeName": "los angeles",
    "state": "CA"
  },
  {
    "city": "gardena",
    "state_code": "CA",
    "placeMasterId": "P02500000FsoEgf0j1ob9zGSd5zLMDNtozkE6oq6",
    "placeName": "gardena",
    "state": "CA"
  },
  {
    "city": "huntington park",
    "state_code": "CA",
    "placeMasterId": "P02500000FsoEhEOdROuIjfRKJEj1rLLBpvc55r9",
    "placeName": "huntington park",
    "state": "CA"
  },
  {
    "city": "santa monica",
    "state_code": "CA",
    "placeMasterId": "P02500000FsoEknYZWJKvugYgOXMTdadyET1MSKo",
    "placeName": "santa monica",
    "state": "CA"
  },
  {
    "city": "santa monica",
    "state_code": "CA",
    "placeMasterId": "P02500000FsoEknYZWJKvugYgOXMTdadyET1MSKo",
    "placeName": "santa monica",
    "state": "CA"
  },
  {
    "city": "buena park",
    "state_code": "CA",
    "placeMasterId": "P02500000FsoEeWJYyrwNgFn12oA5Y2IWpjhBxk2",
    "placeName": "buena park",
    "state": "CA"
  },
  {
    "city": "monrovia",
    "state_code": "CA",
    "placeMasterId": "P02500000FsoEinht4lFwIH8F9AWcsjRoLLAUqZ8",
    "placeName": "monrovia",
    "state": "CA"
  },
  {
    "city": "rosemead",
    "state_code": "CA",
    "placeMasterId": "P02500000FsoEkN18i7bZqsp9z6KDu7YDj15xrFN",
    "placeName": "rosemead",
    "state": "CA"
  },
  {
    "city": "san diego",
    "state_code": "CA",
    "placeMasterId": "P02500000FsoEkVrcJWBMXU4KmufdobvSE82FU0j",
    "placeName": "san diego",
    "state": "CA"
  },
  {
    "city": "indio",
    "state_code": "CA",
    "placeMasterId": "P02500000FsoEhEOdROuIjfRKJEj1rLO9RqRJqrW",
    "placeName": "indio",
    "state": "CA"
  },
  {
    "city": "mecca",
    "state_code": "CA",
    "placeMasterId": "P02500000FsoEierPTMg9bft4LMBCyF68V0oUUIh",
    "placeName": "mecca",
    "state": "CA"
  },
  {
    "city": "murrieta",
    "state_code": "CA",
    "placeMasterId": "P02500000FsoEiwYMg9piysNPwys2nDssQ2NvJD8",
    "placeName": "murrieta",
    "state": "CA"
  },
  {
    "city": "lindsay",
    "state_code": "CA",
    "placeMasterId": "P02500000FsoEi5TV3mN0rGuN86nXKHcCG83Wn6h",
    "placeName": "lindsay",
    "state": "CA"
  },
  {
    "city": "shafter",
    "state_code": "CA",
    "placeMasterId": "P02500000FsoEkwP37huibHnrCLhtY50uMu31gsr",
    "placeName": "shafter",
    "state": "CA"
  },
  {
    "city": "acton",
    "state_code": "CA",
    "placeMasterId": "P02500000FsoEdWODl5tss34nQ7kAAbjIykZvhFO",
    "placeName": "acton",
    "state": "CA"
  },
  {
    "city": "boron",
    "state_code": "CA",
    "placeMasterId": "P02500000FsoEeNT5NTMazeXqEzofdXx8NCD9DKw",
    "placeName": "boron",
    "state": "CA"
  },
  {
    "city": "lancaster",
    "state_code": "CA",
    "placeMasterId": "P02500000FsoEhwd1SNnEAffCKIS7PnEAmeiSJix",
    "placeName": "lancaster",
    "state": "CA"
  },
  {
    "city": "rosamond",
    "state_code": "CA",
    "placeMasterId": "P02500000FsoEkN18i7bZqsp9z6KDu7Xw76xwO75",
    "placeName": "rosamond",
    "state": "CA"
  },
  {
    "city": "caruthers",
    "state_code": "CA",
    "placeMasterId": "P02500000FsoEewqzn3fjk3WXSFCLHVOjne9liXL",
    "placeName": "caruthers",
    "state": "CA"
  },
  {
    "city": "del rey",
    "state_code": "CA",
    "placeMasterId": "P02500000FsoEfWEuCdysUSVEfUa0vSxv7TCSKRj",
    "placeName": "del rey",
    "state": "CA"
  },
  {
    "city": "fresno",
    "state_code": "CA",
    "placeMasterId": "P02500000FsoEgf0j1ob9zGSd5zLMDNqyCZUrC3I",
    "placeName": "fresno",
    "state": "CA"
  },
  {
    "city": "alameda",
    "state_code": "CA",
    "placeMasterId": "P02500000FsoEdfEhMUTfYeJyDw5a5638FT0ZpI6",
    "placeName": "alameda",
    "state": "CA"
  },
  {
    "city": "antioch",
    "state_code": "CA",
    "placeMasterId": "P02500000FsoEdo5Axt3SFFZ91kQzzaSliypPgiI",
    "placeName": "antioch",
    "state": "CA"
  },
  {
    "city": "san leandro",
    "state_code": "CA",
    "placeMasterId": "P02500000FsoEkVrcJWBMXU4Kmufdobx0jSZ7LQo",
    "placeName": "san leandro",
    "state": "CA"
  },
  {
    "city": "suisun city",
    "state_code": "CA",
    "placeMasterId": "P02500000FsoElMwTvte4f5XNbmk9HY9Z6tLOktc",
    "placeName": "suisun city",
    "state": "CA"
  },
  {
    "city": "vallejo",
    "state_code": "CA",
    "placeMasterId": "P02500000FsoElnTuk5NQitGu1DmP11IVMgeCOpg",
    "placeName": "vallejo",
    "state": "CA"
  },
  {
    "city": "vallejo",
    "state_code": "CA",
    "placeMasterId": "P02500000FsoElnTuk5NQitGu1DmP11IVMgeCOpg",
    "placeName": "vallejo",
    "state": "CA"
  },
  {
    "city": "oakland",
    "state_code": "CA",
    "placeMasterId": "P02500000FsoEjN5nULZ52g6wMPuIWgwHJpxtC9b",
    "placeName": "oakland",
    "state": "CA"
  },
  {
    "city": "oakland",
    "state_code": "CA",
    "placeMasterId": "P02500000FsoEjN5nULZ52g6wMPuIWgwHJpxtC9b",
    "placeName": "oakland",
    "state": "CA"
  },
  {
    "city": "berkeley",
    "state_code": "CA",
    "placeMasterId": "P02500000FsoEeEcbm4moJ3IfRBTFj3Xr6gOP3lm",
    "placeName": "berkeley",
    "state": "CA"
  },
  {
    "city": "hickman",
    "state_code": "CA",
    "placeMasterId": "P02500000FsoEh5Y9q0KW34C9VQNbwqxpvQUzJEn",
    "placeName": "hickman",
    "state": "CA"
  },
  {
    "city": "planada",
    "state_code": "CA",
    "placeMasterId": "P02500000FsoEjndEIXIR6TqSlqwYGA45Z4g3ExP",
    "placeName": "planada",
    "state": "CA"
  },
  {
    "city": "santa rosa",
    "state_code": "CA",
    "placeMasterId": "P02500000FsoEknYZWJKvugYgOXMTdahIPSeh1En",
    "placeName": "santa rosa",
    "state": "CA"
  },
  {
    "city": "glen ellen",
    "state_code": "CA",
    "placeMasterId": "P02500000FsoEgf0j1ob9zGSd5zLMDNtqIhhfVgJ",
    "placeName": "glen ellen",
    "state": "CA"
  },
  {
    "city": "amador city",
    "state_code": "CA",
    "placeMasterId": "P02500000FsoEdo5Axt3SFFZ91kQzzaRih223uXx",
    "placeName": "amador city",
    "state": "CA"
  },
  {
    "city": "esparto",
    "state_code": "CA",
    "placeMasterId": "P02500000FsoEgETIDcrnvSj6gYJ6Tumpu9ykFcG",
    "placeName": "esparto",
    "state": "CA"
  },
  {
    "city": "herald",
    "state_code": "CA",
    "placeMasterId": "P02500000FsoEgwhgEbkjMSwyhc2C2Mg8zhCir4M",
    "placeName": "herald",
    "state": "CA"
  },
  {
    "city": "pine grove",
    "state_code": "CA",
    "placeMasterId": "P02500000FsoEjndEIXIR6TqSlqwYGA38A382YMU",
    "placeName": "pine grove",
    "state": "CA"
  },
  {
    "city": "antelope",
    "state_code": "CA",
    "placeMasterId": "P02500000FsoEdo5Axt3SFFZ91kQzzaSTU5VvlHM",
    "placeName": "antelope",
    "state": "CA"
  },
  {
    "city": "alleghany",
    "state_code": "CA",
    "placeMasterId": "P02500000FsoEdfEhMUTfYeJyDw5a5670oU5aDgy",
    "placeName": "alleghany",
    "state": "CA"
  },
  {
    "city": "richvale",
    "state_code": "CA",
    "placeMasterId": "P02500000FsoEk5KBVKS0TgKoNTdO58qTdsRd9w0",
    "placeName": "richvale",
    "state": "CA"
  },
  {
    "city": "bieber",
    "state_code": "CA",
    "placeMasterId": "P02500000FsoEe5m8AgD1cS3UdN7poZCn9dgGana",
    "placeName": "bieber",
    "state": "CA"
  },
  {
    "city": "tahoma",
    "state_code": "CA",
    "placeMasterId": "P02500000FsoElVmxXIDrLgmYPb5ZC2VhskEnv92",
    "placeName": "tahoma",
    "state": "CA"
  },
  {
    "city": "aiea",
    "state_code": "HI",
    "placeMasterId": "P02500000FsoEz4CJpx3Scl26jjuGkZmz4cAxFb5",
    "placeName": "aiea",
    "state": "HI"
  },
  {
    "city": "kualapuu",
    "state_code": "HI",
    "placeMasterId": "P02500000FsoEzLtH2kD1zxWSLMb6ZYWw7n5Cvfo",
    "placeName": "kualapuu",
    "state": "HI"
  },
  {
    "city": "lanai city",
    "state_code": "HI",
    "placeMasterId": "P02500000FsoEzLtH2kD1zxWSLMb6ZYXjOqmiDRO",
    "placeName": "lanai city",
    "state": "HI"
  },
  {
    "city": "pahoa",
    "state_code": "HI",
    "placeMasterId": "P02500000FsoEzUjke8mogYld9AwWU2xsmEMZc6k",
    "placeName": "pahoa",
    "state": "HI"
  },
  {
    "city": "blodgett",
    "state_code": "OR",
    "placeMasterId": "P02500000FsoGOOCWyYI38OokQhK2MN9z4Nr2v0J",
    "placeName": "blodgett",
    "state": "OR"
  },
  {
    "city": "idanha",
    "state_code": "OR",
    "placeMasterId": "P02500000FsoGP6QuzXAyZP2cRl37uovhzCf3Wtq",
    "placeName": "idanha",
    "state": "OR"
  },
  {
    "city": "siletz",
    "state_code": "OR",
    "placeMasterId": "P02500000FsoGPxVmbudgh0VfGd7dNlGyOfRxrc9",
    "placeName": "siletz",
    "state": "OR"
  },
  {
    "city": "willamina",
    "state_code": "OR",
    "placeMasterId": "P02500000FsoGQO3DQ6N2koFBg49t7EOVmGi2A9M",
    "placeName": "willamina",
    "state": "OR"
  },
  {
    "city": "eugene",
    "state_code": "OR",
    "placeMasterId": "P02500000FsoGOojxmk1PCCYGq8MI5qABIfZ8O2m",
    "placeName": "eugene",
    "state": "OR"
  },
  {
    "city": "cottage grove",
    "state_code": "OR",
    "placeMasterId": "P02500000FsoGOX30Zwrpp03vEVfSGrYeiRDsL6i",
    "placeName": "cottage grove",
    "state": "OR"
  },
  {
    "city": "sutherlin",
    "state_code": "OR",
    "placeMasterId": "P02500000FsoGQ6MGDJDTNbkq4RT3IFiP4nZ0L2W",
    "placeName": "sutherlin",
    "state": "OR"
  },
  {
    "city": "white city",
    "state_code": "OR",
    "placeMasterId": "P02500000FsoGQO3DQ6N2koFBg49t7EKZuD5aPbc",
    "placeName": "white city",
    "state": "OR"
  },
  {
    "city": "o'brien",
    "state_code": "OR",
    "placeMasterId": "P02500000FsoGPWyLniuKdCm8rC5NeIEQEmrGvKl",
    "placeName": "o'brien",
    "state": "OR"
  },
  {
    "city": "condon",
    "state_code": "OR",
    "placeMasterId": "P02500000FsoGOX30Zwrpp03vEVfSGrWspZIrfEO",
    "placeName": "condon",
    "state": "OR"
  },
  {
    "city": "lostine",
    "state_code": "OR",
    "placeMasterId": "P02500000FsoGPO7sCKKXwbWy3NjxjniQRr0T32p",
    "placeName": "lostine",
    "state": "OR"
  },
  {
    "city": "black diamond",
    "state_code": "WA",
    "placeMasterId": "P02500000FsoGyULKZqJiyNjph8ilsJ0aFvdkYHG",
    "placeName": "black diamond",
    "state": "WA"
  },
  {
    "city": "lynnwood",
    "state_code": "WA",
    "placeMasterId": "P02500000FsoGzuo6bo5ZqOBZjGAwzCteLmvZvjo",
    "placeName": "lynnwood",
    "state": "WA"
  },
  {
    "city": "medina",
    "state_code": "WA",
    "placeMasterId": "P02500000FsoH0CV3obF9DafvKsrmoBY9UrYFKrk",
    "placeName": "medina",
    "state": "WA"
  },
  {
    "city": "lynnwood",
    "state_code": "WA",
    "placeMasterId": "P02500000FsoGzuo6bo5ZqOBZjGAwzCteLmvZvjo",
    "placeName": "lynnwood",
    "state": "WA"
  },
  {
    "city": "seattle",
    "state_code": "WA",
    "placeMasterId": "P02500000FsoH13ZvQyhrLC8y9kwIH7vOQ9mB44J",
    "placeName": "seattle",
    "state": "WA"
  },
  {
    "city": "everett",
    "state_code": "WA",
    "placeMasterId": "P02500000FsoGzCZiapCePNxhiCRrQkxQ6F7rW5O",
    "placeName": "everett",
    "state": "WA"
  },
  {
    "city": "mount vernon",
    "state_code": "WA",
    "placeMasterId": "P02500000FsoH0LLXPzovuBv68hDCig0JqyB1Ota",
    "placeName": "mount vernon",
    "state": "WA"
  },
  {
    "city": "mount vernon",
    "state_code": "WA",
    "placeMasterId": "P02500000FsoH0LLXPzovuBv68hDCig0JqyB1Ota",
    "placeName": "mount vernon",
    "state": "WA"
  },
  {
    "city": "buckley",
    "state_code": "WA",
    "placeMasterId": "P02500000FsoGyULKZqJiyNjph8ilsJDujLDCAjQ",
    "placeName": "buckley",
    "state": "WA"
  },
  {
    "city": "dupont",
    "state_code": "WA",
    "placeMasterId": "P02500000FsoGz3jEzQcrimiWuO6RWGYhENrltTp",
    "placeName": "dupont",
    "state": "WA"
  },
  {
    "city": "gig harbor",
    "state_code": "WA",
    "placeMasterId": "P02500000FsoGzLQCCDmR5zCsW0nHLFK0nNn8thb",
    "placeName": "gig harbor",
    "state": "WA"
  },
  {
    "city": "indianola",
    "state_code": "WA",
    "placeMasterId": "P02500000FsoGzUGfncMDmaS3Jp8hFjrLfmda5RQ",
    "placeName": "indianola",
    "state": "WA"
  },
  {
    "city": "lansford",
    "state_code": "ND",
    "placeMasterId": "P02500000FsoGBY1YgsLNIKn47cEQMHeGI82ttxX",
    "placeName": "lansford",
    "state": "ND"
  },
  {
    "city": "surrey",
    "state_code": "ND",
    "placeMasterId": "P02500000FsoGCP6QJFo5PwG6wUIvpDtvjLCDkQy",
    "placeName": "surrey",
    "state": "ND"
  },
  {
    "city": "epping",
    "state_code": "ND",
    "placeMasterId": "P02500000FsoGAgwh4UsfAjK1Ik9utLfMJVQe1ep",
    "placeName": "epping",
    "state": "ND"
  },
  {
    "city": "lavina",
    "state_code": "MT",
    "placeMasterId": "P02500000FsoFpiWVPE2EAQLPCNNTxKy4ZcptR6c",
    "placeName": "lavina",
    "state": "MT"
  },
  {
    "city": "wilsall",
    "state_code": "MT",
    "placeMasterId": "P02500000FsoFqiRqd04iyd3cp3nPKlSfpnKPkXU",
    "placeName": "wilsall",
    "state": "MT"
  },
  {
    "city": "circle",
    "state_code": "MT",
    "placeMasterId": "P02500000FsoForRdmqZW2osMNVIyUOkzyK84nOo",
    "placeName": "circle",
    "state": "MT"
  },
  {
    "city": "fort peck",
    "state_code": "MT",
    "placeMasterId": "P02500000FsoFpHz4b2Is6cbsmwLEDrtDeDe5FPy",
    "placeName": "fort peck",
    "state": "MT"
  },
  {
    "city": "alzada",
    "state_code": "MT",
    "placeMasterId": "P02500000FsoFoZkga3PwfcO0lsc8fPySIGaCij5",
    "placeName": "alzada",
    "state": "MT"
  },
  {
    "city": "glendive",
    "state_code": "MT",
    "placeMasterId": "P02500000FsoFpQpYCQsenDr3akge8MHOZQQySnV",
    "placeName": "glendive",
    "state": "MT"
  },
  {
    "city": "fort benton",
    "state_code": "MT",
    "placeMasterId": "P02500000FsoFpHz4b2Is6cbsmwLEDrtNROQ5NDY",
    "placeName": "fort benton",
    "state": "MT"
  },
  {
    "city": "joplin",
    "state_code": "MT",
    "placeMasterId": "P02500000FsoFpZg1npSRTp6EOZ242qft3Ex78Xg",
    "placeName": "joplin",
    "state": "MT"
  },
  {
    "city": "helena",
    "state_code": "MT",
    "placeMasterId": "P02500000FsoFpQpYCQsenDr3akge8MFa3MzsN9f",
    "placeName": "helena",
    "state": "MT"
  },
  {
    "city": "dillon",
    "state_code": "MT",
    "placeMasterId": "P02500000FsoFp0I7OF9IjQ7XBJeOOtAb1Mu2hOW",
    "placeName": "dillon",
    "state": "MT"
  },
  {
    "city": "three forks",
    "state_code": "MT",
    "placeMasterId": "P02500000FsoFqZbN1bUwI1oS1FRzQH6IeL0lON5",
    "placeName": "three forks",
    "state": "MT"
  },
  {
    "city": "lolo",
    "state_code": "MT",
    "placeMasterId": "P02500000FsoFprMz0cc0r1aa0BitrpEnEUybDIr",
    "placeName": "lolo",
    "state": "MT"
  },
  {
    "city": "plains",
    "state_code": "MT",
    "placeMasterId": "P02500000FsoFq93wDPlaEE4vboPjgo14POrrQMq",
    "placeName": "plains",
    "state": "MT"
  },
  {
    "city": "kalispell",
    "state_code": "MT",
    "placeMasterId": "P02500000FsoFpiWVPE2EAQLPCNNTxKsdEsDaPES",
    "placeName": "kalispell",
    "state": "MT"
  },
  {
    "city": "crystal lake",
    "state_code": "IL",
    "placeMasterId": "P02500000FsoF2mCjWG3sUNOdcqt8RJSU4HrsUpM",
    "placeName": "crystal lake",
    "state": "IL"
  },
  {
    "city": "cary",
    "state_code": "IL",
    "placeMasterId": "P02500000FsoF2LfIi4KWQZf7DPqshqKAHNWjvOr",
    "placeName": "cary",
    "state": "IL"
  },
  {
    "city": "bellwood",
    "state_code": "IL",
    "placeMasterId": "P02500000FsoF1mHOIU1NgAgQ0ATD3spVBh2T3QU",
    "placeName": "bellwood",
    "state": "IL"
  },
  {
    "city": "elgin",
    "state_code": "IL",
    "placeMasterId": "P02500000FsoF3CkAKRnEYB8A2HvOAmY3wSrnsPC",
    "placeName": "elgin",
    "state": "IL"
  },
  {
    "city": "winfield",
    "state_code": "IL",
    "placeMasterId": "P02500000FsoF8ubGSIse2Cv8Alk6cNOSwFOA45M",
    "placeName": "winfield",
    "state": "IL"
  },
  {
    "city": "palos hills",
    "state_code": "IL",
    "placeMasterId": "P02500000FsoF6d3cnxe52b0LJmDQ2XWAuLKlMRe",
    "placeName": "palos hills",
    "state": "IL"
  },
  {
    "city": "chicago",
    "state_code": "IL",
    "placeMasterId": "P02500000FsoF2LfIi4KWQZf7DPqshqNB04VNil1",
    "placeName": "chicago",
    "state": "IL"
  },
  {
    "city": "chicago",
    "state_code": "IL",
    "placeMasterId": "P02500000FsoF2LfIi4KWQZf7DPqshqNB04VNil1",
    "placeName": "chicago",
    "state": "IL"
  },
  {
    "city": "essex",
    "state_code": "IL",
    "placeMasterId": "P02500000FsoF3LadvqN1EmNKq6Go5Gy9gdMYW82",
    "placeName": "essex",
    "state": "IL"
  },
  {
    "city": "cedarville",
    "state_code": "IL",
    "placeMasterId": "P02500000FsoF2Cop6fkjjyPwPbVSnLydZ335h0p",
    "placeName": "cedarville",
    "state": "IL"
  },
  {
    "city": "milledgeville",
    "state_code": "IL",
    "placeMasterId": "P02500000FsoF5lylBaBMuzXIUu8uZbDl5ERse9B",
    "placeName": "milledgeville",
    "state": "IL"
  },
  {
    "city": "hooppole",
    "state_code": "IL",
    "placeMasterId": "P02500000FsoF4UMSl0zIjaKjGb29NBsnqFwpNMi",
    "placeName": "hooppole",
    "state": "IL"
  },
  {
    "city": "west brooklyn",
    "state_code": "IL",
    "placeMasterId": "P02500000FsoF8lkmquIrLbfxMxOght0gDxzb4J3",
    "placeName": "west brooklyn",
    "state": "IL"
  },
  {
    "city": "delavan",
    "state_code": "IL",
    "placeMasterId": "P02500000FsoF2v3D7edfAydoQfEYLnpMq2GG3sq",
    "placeName": "delavan",
    "state": "IL"
  },
  {
    "city": "broadlands",
    "state_code": "IL",
    "placeMasterId": "P02500000FsoF1v7rtsbAMlvanyocyNDuAyKIuVF",
    "placeName": "broadlands",
    "state": "IL"
  },
  {
    "city": "arcola",
    "state_code": "IL",
    "placeMasterId": "P02500000FsoF1LjxUII1cMwtajQxKPhfILe3tdq",
    "placeName": "arcola",
    "state": "IL"
  },
  {
    "city": "kansas",
    "state_code": "IL",
    "placeMasterId": "P02500000FsoF4dCwMPZ5QBZu4PNZHgGEf2FjN4h",
    "placeName": "kansas",
    "state": "IL"
  },
  {
    "city": "bingham",
    "state_code": "IL",
    "placeMasterId": "P02500000FsoF1mHOIU1NgAgQ0ATD3srPCGjGoIU",
    "placeName": "bingham",
    "state": "IL"
  },
  {
    "city": "livingston",
    "state_code": "IL",
    "placeMasterId": "P02500000FsoF5CaqlzsEAaYbHelEvdnSedrYOxC",
    "placeName": "livingston",
    "state": "IL"
  },
  {
    "city": "ferris",
    "state_code": "IL",
    "placeMasterId": "P02500000FsoF3UR7XEwnvNcVducDzlGmUVKMoGB",
    "placeName": "ferris",
    "state": "IL"
  },
  {
    "city": "casey",
    "state_code": "IL",
    "placeMasterId": "P02500000FsoF2LfIi4KWQZf7DPqshqMDMYwqHaQ",
    "placeName": "casey",
    "state": "IL"
  },
  {
    "city": "oreana",
    "state_code": "IL",
    "placeMasterId": "P02500000FsoF6d3cnxe52b0LJmDQ2XSBHt4dKCj",
    "placeName": "oreana",
    "state": "IL"
  },
  {
    "city": "warrensburg",
    "state_code": "IL",
    "placeMasterId": "P02500000FsoF8cuJFVj4f0QmZ93GnOeiCowvtHE",
    "placeName": "warrensburg",
    "state": "IL"
  },
  {
    "city": "browning",
    "state_code": "IL",
    "placeMasterId": "P02500000FsoF1v7rtsbAMlvanyocyNGDAOeumQ1",
    "placeName": "browning",
    "state": "IL"
  },
  {
    "city": "williamsville",
    "state_code": "IL",
    "placeMasterId": "P02500000FsoF8lkmquIrLbfxMxOght2jWLwdaGS",
    "placeName": "williamsville",
    "state": "IL"
  },
  {
    "city": "springfield",
    "state_code": "IL",
    "placeMasterId": "P02500000FsoF7ufvEWq9E0CuY5KBEwn2MTYuixB",
    "placeName": "springfield",
    "state": "IL"
  },
  {
    "city": "bone gap",
    "state_code": "IL",
    "placeMasterId": "P02500000FsoF1mHOIU1NgAgQ0ATD3srIJLVg6VD",
    "placeName": "bone gap",
    "state": "IL"
  },
  {
    "city": "enfield",
    "state_code": "IL",
    "placeMasterId": "P02500000FsoF3CkAKRnEYB8A2HvOAmadOHTgN9t",
    "placeName": "enfield",
    "state": "IL"
  },
  {
    "city": "carbondale",
    "state_code": "IL",
    "placeMasterId": "P02500000FsoF2Cop6fkjjyPwPbVSnLyXX4wbDOH",
    "placeName": "carbondale",
    "state": "IL"
  },
  {
    "city": "cambria",
    "state_code": "IL",
    "placeMasterId": "P02500000FsoF2Cop6fkjjyPwPbVSnM0VFfvTCvg",
    "placeName": "cambria",
    "state": "IL"
  },
  {
    "city": "joppa",
    "state_code": "IL",
    "placeMasterId": "P02500000FsoF4dCwMPZ5QBZu4PNZHgHleOByHUp",
    "placeName": "joppa",
    "state": "IL"
  },
  {
    "city": "kirksville",
    "state_code": "MO",
    "placeMasterId": "P02500000FsoFlZyeujISF0FLtpMMX84hfSxq6wP",
    "placeName": "kirksville",
    "state": "MO"
  },
  {
    "city": "caledonia",
    "state_code": "MO",
    "placeMasterId": "P02500000FsoFjRHUrmdfvzZjqeB5rmUCiwMzak1",
    "placeName": "caledonia",
    "state": "MO"
  },
  {
    "city": "peculiar",
    "state_code": "MO",
    "placeMasterId": "P02500000FsoFmraxLIUWQPRv88T7jXXEJ6SAFZP",
    "placeName": "peculiar",
    "state": "MO"
  },
  {
    "city": "raymore",
    "state_code": "MO",
    "placeMasterId": "P02500000FsoFn9HuY5e5nbwGjl9xYWCDXxRM9p1",
    "placeName": "raymore",
    "state": "MO"
  },
  {
    "city": "kansas city",
    "state_code": "MO",
    "placeMasterId": "P02500000FsoFlR8BJKifYP0B610wcdmJLAheztV",
    "placeName": "kansas city",
    "state": "MO"
  },
  {
    "city": "clarksdale",
    "state_code": "MO",
    "placeMasterId": "P02500000FsoFjiyS4ZnFJC45SGrvglFFIh57m1h",
    "placeName": "clarksdale",
    "state": "MO"
  },
  {
    "city": "graham",
    "state_code": "MO",
    "placeMasterId": "P02500000FsoFkitnILpk7OmJ4xHr4BzpPdZ0D9d",
    "placeName": "graham",
    "state": "MO"
  },
  {
    "city": "maryville",
    "state_code": "MO",
    "placeMasterId": "P02500000FsoFm9MZKJbazPE374k2B5fvs6gCkoj",
    "placeName": "maryville",
    "state": "MO"
  },
  {
    "city": "plattsburg",
    "state_code": "MO",
    "placeMasterId": "P02500000FsoFn0RQwh4J70h5vwoXe1tgRZwbjid",
    "placeName": "plattsburg",
    "state": "MO"
  },
  {
    "city": "tina",
    "state_code": "MO",
    "placeMasterId": "P02500000FsoFo0MmAT6nvDPJYdET1SQWPo4TP2T",
    "placeName": "tina",
    "state": "MO"
  },
  {
    "city": "asbury",
    "state_code": "MO",
    "placeMasterId": "P02500000FsoFij36qnkkUzLrpaS0JKgndriabZp",
    "placeName": "asbury",
    "state": "MO"
  },
  {
    "city": "wheaton",
    "state_code": "MO",
    "placeMasterId": "P02500000FsoFoQuCyeq9z18py4GikvZ4zMjjmgM",
    "placeName": "wheaton",
    "state": "MO"
  },
  {
    "city": "new bloomfield",
    "state_code": "MO",
    "placeMasterId": "P02500000FsoFmZu08VKx3CxZWVmHuYgxltyKrhj",
    "placeName": "new bloomfield",
    "state": "MO"
  },
  {
    "city": "rhineland",
    "state_code": "MO",
    "placeMasterId": "P02500000FsoFnI8O9UDsUDBRXZVNT0e5riHstyD",
    "placeName": "rhineland",
    "state": "MO"
  },
  {
    "city": "sunrise beach",
    "state_code": "MO",
    "placeMasterId": "P02500000FsoFnrWIZ4X1EcA8kot36y4GHZ7qPKU",
    "placeName": "sunrise beach",
    "state": "MO"
  },
  {
    "city": "columbia",
    "state_code": "MO",
    "placeMasterId": "P02500000FsoFjrovfyN1znJGG5DLbFdjkPEVpI9",
    "placeName": "columbia",
    "state": "MO"
  },
  {
    "city": "fulton",
    "state_code": "MO",
    "placeMasterId": "P02500000FsoFka3JgxFxQnX8H8wR9hZ83pQFIHw",
    "placeName": "fulton",
    "state": "MO"
  },
  {
    "city": "keytesville",
    "state_code": "MO",
    "placeMasterId": "P02500000FsoFlZyeujISF0FLtpMMX82GJiHAYMr",
    "placeName": "keytesville",
    "state": "MO"
  },
  {
    "city": "moberly",
    "state_code": "MO",
    "placeMasterId": "P02500000FsoFmR3WX6lAMbiOihQs04ITLMeg4N5",
    "placeName": "moberly",
    "state": "MO"
  },
  {
    "city": "billings",
    "state_code": "MO",
    "placeMasterId": "P02500000FsoFj9aXezU6Yn5OF1UG2njuXaJhj6c",
    "placeName": "billings",
    "state": "MO"
  },
  {
    "city": "highlandville",
    "state_code": "MO",
    "placeMasterId": "P02500000FsoFl9RE6XZ6BCVpUOK6nexfBO9JCef",
    "placeName": "highlandville",
    "state": "MO"
  },
  {
    "city": "taneyville",
    "state_code": "MO",
    "placeMasterId": "P02500000FsoFo0MmAT6nvDPJYdET1SPWiI6L258",
    "placeName": "taneyville",
    "state": "MO"
  },
  {
    "city": "springfield",
    "state_code": "MO",
    "placeMasterId": "P02500000FsoFnifoxfxEY0uxx0XdCTlHDhP1BxY",
    "placeName": "springfield",
    "state": "MO"
  },
  {
    "city": "atchison",
    "state_code": "KS",
    "placeMasterId": "P02500000FsoFJBXdsqRBVSXg1EcCDe91K7G83b3",
    "placeName": "atchison",
    "state": "KS"
  },
  {
    "city": "olathe",
    "state_code": "KS",
    "placeMasterId": "P02500000FsoFLkmEjypJsGwoTqpicSslgnGWwxM",
    "placeName": "olathe",
    "state": "KS"
  },
  {
    "city": "mission",
    "state_code": "KS",
    "placeMasterId": "P02500000FsoFLKEnvn5xoTDI4PnSszkIcDoCOU6",
    "placeName": "mission",
    "state": "KS"
  },
  {
    "city": "robinson",
    "state_code": "KS",
    "placeMasterId": "P02500000FsoFMBJfYAYfw4gKtHryLvwktIf2x04",
    "placeName": "robinson",
    "state": "KS"
  },
  {
    "city": "wetmore",
    "state_code": "KS",
    "placeMasterId": "P02500000FsoFMkhZxkrogTf26XFdztSDxu7vSub",
    "placeName": "wetmore",
    "state": "KS"
  },
  {
    "city": "topeka",
    "state_code": "KS",
    "placeMasterId": "P02500000FsoFMbr6MMI1zsPrIiuE5P2hY2Q28N9",
    "placeName": "topeka",
    "state": "KS"
  },
  {
    "city": "topeka",
    "state_code": "KS",
    "placeMasterId": "P02500000FsoFMbr6MMI1zsPrIiuE5P2hY2Q28N9",
    "placeName": "topeka",
    "state": "KS"
  },
  {
    "city": "cherokee",
    "state_code": "KS",
    "placeMasterId": "P02500000FsoFJc54h2AXZGHCQfeRx7KQMcXLJUB",
    "placeName": "cherokee",
    "state": "KS"
  },
  {
    "city": "franklin",
    "state_code": "KS",
    "placeMasterId": "P02500000FsoFKKJSi13T0GV4RjNXVZ78i6GPAkq",
    "placeName": "franklin",
    "state": "KS"
  },
  {
    "city": "girard",
    "state_code": "KS",
    "placeMasterId": "P02500000FsoFKKJSi13T0GV4RjNXVZBtyJigsy2",
    "placeName": "girard",
    "state": "KS"
  },
  {
    "city": "mapleton",
    "state_code": "KS",
    "placeMasterId": "P02500000FsoFLKEnvn5xoTDI4PnSszh0MpO36AR",
    "placeName": "mapleton",
    "state": "KS"
  },
  {
    "city": "madison",
    "state_code": "KS",
    "placeMasterId": "P02500000FsoFLBOKKOWB7ry7GbS2yVNH8U6gGDE",
    "placeName": "madison",
    "state": "KS"
  },
  {
    "city": "virgil",
    "state_code": "KS",
    "placeMasterId": "P02500000FsoFMbr6MMI1zsPrIiuE5P3URXfvqDp",
    "placeName": "virgil",
    "state": "KS"
  },
  {
    "city": "clifton",
    "state_code": "KS",
    "placeMasterId": "P02500000FsoFJc54h2AXZGHCQfeRx7Kq09Zziub",
    "placeName": "clifton",
    "state": "KS"
  },
  {
    "city": "harper",
    "state_code": "KS",
    "placeMasterId": "P02500000FsoFKT9wJPdFgrkFFXixQ3WXb8kK42x",
    "placeName": "harper",
    "state": "KS"
  },
  {
    "city": "wichita",
    "state_code": "KS",
    "placeMasterId": "P02500000FsoFMtY3Z9RbN4uCuLb3uNnBOyNlFLT",
    "placeName": "wichita",
    "state": "KS"
  },
  {
    "city": "geneseo",
    "state_code": "KS",
    "placeMasterId": "P02500000FsoFKKJSi13T0GV4RjNXVZ90ukI6ICA",
    "placeName": "geneseo",
    "state": "KS"
  },
  {
    "city": "lindsborg",
    "state_code": "KS",
    "placeMasterId": "P02500000FsoFL2XqizwORGiwSn6d410sI9LfBQN",
    "placeName": "lindsborg",
    "state": "KS"
  },
  {
    "city": "hoisington",
    "state_code": "KS",
    "placeMasterId": "P02500000FsoFKc0PuoD2NSzQ3M4NKXrcnIigml7",
    "placeName": "hoisington",
    "state": "KS"
  },
  {
    "city": "fort dodge",
    "state_code": "KS",
    "placeMasterId": "P02500000FsoFKBSz6cTgJfFtdv27b4lhJLTScpC",
    "placeName": "fort dodge",
    "state": "KS"
  },
  {
    "city": "johnson",
    "state_code": "KS",
    "placeMasterId": "P02500000FsoHZ9s2aieXYldcApVB2CdkBp5DQEr",
    "placeName": "johnson",
    "state": "KS"
  },
  {
    "city": "springfield",
    "state_code": "NE",
    "placeMasterId": "P02500000FsoFtZNOgvcQidx6tIhlYYyXy3pFKhZ",
    "placeName": "springfield",
    "state": "NE"
  },
  {
    "city": "uehling",
    "state_code": "NE",
    "placeMasterId": "P02500000FsoFtr4Ltim05qRSUvObNXaP2xoZdLq",
    "placeName": "uehling",
    "state": "NE"
  },
  {
    "city": "omaha",
    "state_code": "NE",
    "placeMasterId": "P02500000FsoFszzUHLJHyEyPg3K5ubV6FuzuT2T",
    "placeName": "omaha",
    "state": "NE"
  },
  {
    "city": "omaha",
    "state_code": "NE",
    "placeMasterId": "P02500000FsoFszzUHLJHyEyPg3K5ubV6FuzuT2T",
    "placeName": "omaha",
    "state": "NE"
  },
  {
    "city": "omaha",
    "state_code": "NE",
    "placeMasterId": "P02500000FsoFszzUHLJHyEyPg3K5ubV6FuzuT2T",
    "placeName": "omaha",
    "state": "NE"
  },
  {
    "city": "omaha",
    "state_code": "NE",
    "placeMasterId": "P02500000FsoFszzUHLJHyEyPg3K5ubV6FuzuT2T",
    "placeName": "omaha",
    "state": "NE"
  },
  {
    "city": "hallam",
    "state_code": "NE",
    "placeMasterId": "P02500000FsoFs8ucexqZqdVMrBFaRf6zJf30WPU",
    "placeName": "hallam",
    "state": "NE"
  },
  {
    "city": "lorton",
    "state_code": "NE",
    "placeMasterId": "P02500000FsoFsiIX4Y9ib2U44QdG5cdMAojT33B",
    "placeName": "lorton",
    "state": "NE"
  },
  {
    "city": "murdock",
    "state_code": "NE",
    "placeMasterId": "P02500000FsoFsr90fwjVHdjEsEyg076NZ9Iro5J",
    "placeName": "murdock",
    "state": "NE"
  },
  {
    "city": "sterling",
    "state_code": "NE",
    "placeMasterId": "P02500000FsoFtiDsIKCDPFCHh73BT3Lgb39rpUH",
    "placeName": "sterling",
    "state": "NE"
  },
  {
    "city": "tobias",
    "state_code": "NE",
    "placeMasterId": "P02500000FsoFtiDsIKCDPFCHh73BT3SPPVUNevc",
    "placeName": "tobias",
    "state": "NE"
  },
  {
    "city": "naper",
    "state_code": "NE",
    "placeMasterId": "P02500000FsoFsr90fwjVHdjEsEyg077achEDjnY",
    "placeName": "naper",
    "state": "NE"
  },
  {
    "city": "south sioux city",
    "state_code": "NE",
    "placeMasterId": "P02500000FsoFtZNOgvcQidx6tIhlYYtz5y2sKEW",
    "placeName": "south sioux city",
    "state": "NE"
  },
  {
    "city": "dunning",
    "state_code": "NE",
    "placeMasterId": "P02500000FsoFriNBqm7DmplqRkDKiC8qClcMttO",
    "placeName": "dunning",
    "state": "NE"
  },
  {
    "city": "giltner",
    "state_code": "NE",
    "placeMasterId": "P02500000FsoFs0493ZGnA2GC3MuAXAnPUyx5Z9h",
    "placeName": "giltner",
    "state": "NE"
  },
  {
    "city": "kearney",
    "state_code": "NE",
    "placeMasterId": "P02500000FsoFsQbZrl09DpziSnwQGdwY2CUD8eM",
    "placeName": "kearney",
    "state": "NE"
  },
  {
    "city": "miller",
    "state_code": "NE",
    "placeMasterId": "P02500000FsoFsiIX4Y9ib2U44QdG5co2E7pSz1C",
    "placeName": "miller",
    "state": "NE"
  },
  {
    "city": "north platte",
    "state_code": "NE",
    "placeMasterId": "P02500000FsoFszzUHLJHyEyPg3K5ubLzERyhhpk",
    "placeName": "north platte",
    "state": "NE"
  },
  {
    "city": "lisco",
    "state_code": "NE",
    "placeMasterId": "P02500000FsoFsZS3T9ZvuREtGcHqB8HBDJUNY1A",
    "placeName": "lisco",
    "state": "NE"
  },
  {
    "city": "sidney",
    "state_code": "NE",
    "placeMasterId": "P02500000FsoFtZNOgvcQidx6tIhlYYtKO9BgYgr",
    "placeName": "sidney",
    "state": "NE"
  },
  {
    "city": "new orleans",
    "state_code": "LA",
    "placeMasterId": "P02500000FsoFS21FHQDs6hiTpa26i1JVz94sOtB",
    "placeName": "new orleans",
    "state": "LA"
  },
  {
    "city": "slidell",
    "state_code": "LA",
    "placeMasterId": "P02500000FsoFSbP9h0X0r6hB2pPmLyrBkBqtHfA",
    "placeName": "slidell",
    "state": "LA"
  },
  {
    "city": "tickfaw",
    "state_code": "LA",
    "placeMasterId": "P02500000FsoFSkFdIP6nXhwLqdlCGTDOVZ50Hvu",
    "placeName": "tickfaw",
    "state": "LA"
  },
  {
    "city": "lake charles",
    "state_code": "LA",
    "placeMasterId": "P02500000FsoFRkKI4d4IjVE8DxLGt2Q5hpUnD3T",
    "placeName": "lake charles",
    "state": "LA"
  },
  {
    "city": "maringouin",
    "state_code": "LA",
    "placeMasterId": "P02500000FsoFRtAlg1e5Q6TJ1lggnWrWZLmie3r",
    "placeName": "maringouin",
    "state": "LA"
  },
  {
    "city": "prairieville",
    "state_code": "LA",
    "placeMasterId": "P02500000FsoFSJiCUDNRTuCpRCiwX066cLovDSt",
    "placeName": "prairieville",
    "state": "LA"
  },
  {
    "city": "baton rouge",
    "state_code": "LA",
    "placeMasterId": "P02500000FsoFQJrW2fIRrUmOBpt5m8hbG1ZgRcE",
    "placeName": "baton rouge",
    "state": "LA"
  },
  {
    "city": "benton",
    "state_code": "LA",
    "placeMasterId": "P02500000FsoFQJrW2fIRrUmOBpt5m8vv85ZG4ru",
    "placeName": "benton",
    "state": "LA"
  },
  {
    "city": "dubberly",
    "state_code": "LA",
    "placeMasterId": "P02500000FsoFQtFQSFbabtl5P5GlQ6LkvdxIXXP",
    "placeName": "dubberly",
    "state": "LA"
  },
  {
    "city": "spearsville",
    "state_code": "LA",
    "placeMasterId": "P02500000FsoFSbP9h0X0r6hB2pPmLyj7yFnfLju",
    "placeName": "spearsville",
    "state": "LA"
  },
  {
    "city": "start",
    "state_code": "LA",
    "placeMasterId": "P02500000FsoFSkFdIP6nXhwLqdlCGTE80qcZ8Li",
    "placeName": "start",
    "state": "LA"
  },
  {
    "city": "alexandria",
    "state_code": "LA",
    "placeMasterId": "P02500000FsoFQB12RGifAtXDO1XfreVqCmGfOlB",
    "placeName": "alexandria",
    "state": "LA"
  },
  {
    "city": "dumas",
    "state_code": "AR",
    "placeMasterId": "P02500000FsoEbEqa6kfJsRA0Z8DTalnL7Nx8si6",
    "placeName": "dumas",
    "state": "AR"
  },
  {
    "city": "norman",
    "state_code": "AR",
    "placeMasterId": "P02500000FsoEcWSsXJrO3qMZnRKEnBAxQzGou74",
    "placeName": "norman",
    "state": "AR"
  },
  {
    "city": "de valls bluff",
    "state_code": "AR",
    "placeMasterId": "P02500000FsoEb606VM5XBpuplJs3gHQxjDGXFea",
    "placeName": "de valls bluff",
    "state": "AR"
  },
  {
    "city": "holly grove",
    "state_code": "AR",
    "placeMasterId": "P02500000FsoEboEUWKyScq8hmNb9EjJoxYelhzu",
    "placeName": "holly grove",
    "state": "AR"
  },
  {
    "city": "letona",
    "state_code": "AR",
    "placeMasterId": "P02500000FsoEc5vRj88202d3O0Hz3i2V97cMOeI",
    "placeName": "letona",
    "state": "AR"
  },
  {
    "city": "newport",
    "state_code": "AR",
    "placeMasterId": "P02500000FsoEcfJM8iRAkRbkbFfehfTFlbWOaTS",
    "placeName": "newport",
    "state": "AR"
  },
  {
    "city": "north little rock",
    "state_code": "AR",
    "placeMasterId": "P02500000FsoEcfJM8iRAkRbkbFfehfRubWgs65k",
    "placeName": "north little rock",
    "state": "AR"
  },
  {
    "city": "plumerville",
    "state_code": "AR",
    "placeMasterId": "P02500000FsoEco9pk70xR2qvP414c9sHzVB1oBk",
    "placeName": "plumerville",
    "state": "AR"
  },
  {
    "city": "little rock",
    "state_code": "AR",
    "placeMasterId": "P02500000FsoEcElvKWhogdsEBodOyCMRN7NDM4y",
    "placeName": "little rock",
    "state": "AR"
  },
  {
    "city": "hughes",
    "state_code": "AR",
    "placeMasterId": "P02500000FsoEboEUWKyScq8hmNb9EjFBgU0OSOc",
    "placeName": "hughes",
    "state": "AR"
  },
  {
    "city": "lepanto",
    "state_code": "AR",
    "placeMasterId": "P02500000FsoEcElvKWhogdsEBodOyCKwp4wNLQZ",
    "placeName": "lepanto",
    "state": "AR"
  },
  {
    "city": "maynard",
    "state_code": "AR",
    "placeMasterId": "P02500000FsoEcElvKWhogdsEBodOyCPBlhkjpm6",
    "placeName": "maynard",
    "state": "AR"
  },
  {
    "city": "oil trough",
    "state_code": "AR",
    "placeMasterId": "P02500000FsoEcWSsXJrO3qMZnRKEnB7evCNiOWh",
    "placeName": "oil trough",
    "state": "AR"
  },
  {
    "city": "scranton",
    "state_code": "AR",
    "placeMasterId": "P02500000FsoEd5qmwuAWoFLH0ghuR8bDJT8lUI9",
    "placeName": "scranton",
    "state": "AR"
  },
  {
    "city": "hackett",
    "state_code": "AR",
    "placeMasterId": "P02500000FsoEboEUWKyScq8hmNb9EjDrsb7D2JT",
    "placeName": "hackett",
    "state": "AR"
  },
  {
    "city": "el reno",
    "state_code": "OK",
    "placeMasterId": "P02500000FsoGL6jY6R0zKaBjx1NQP6XWfQShAw4",
    "placeName": "el reno",
    "state": "OK"
  },
  {
    "city": "geary",
    "state_code": "OK",
    "placeMasterId": "P02500000FsoGLFa1hpam1BQukpiqJb6RMysAkCf",
    "placeName": "geary",
    "state": "OK"
  },
  {
    "city": "hydro",
    "state_code": "OK",
    "placeMasterId": "P02500000FsoGLg7SW1K84zARAGl6349SbDMnRcg",
    "placeName": "hydro",
    "state": "OK"
  },
  {
    "city": "maysville",
    "state_code": "OK",
    "placeMasterId": "P02500000FsoGMFVMvbdGpO98NW8lh1aLYZigueL",
    "placeName": "maysville",
    "state": "OK"
  },
  {
    "city": "norman",
    "state_code": "OK",
    "placeMasterId": "P02500000FsoGMg2njnMctBsemxB1QUbHJdaKM5C",
    "placeName": "norman",
    "state": "OK"
  },
  {
    "city": "elmore city",
    "state_code": "OK",
    "placeMasterId": "P02500000FsoGL6jY6R0zKaBjx1NQP6dyYenjPUP",
    "placeName": "elmore city",
    "state": "OK"
  },
  {
    "city": "leon",
    "state_code": "OK",
    "placeMasterId": "P02500000FsoGLxoPioThSBemltRvs2yudKB1Vgq",
    "placeName": "leon",
    "state": "OK"
  },
  {
    "city": "fargo",
    "state_code": "OK",
    "placeMasterId": "P02500000FsoGL6jY6R0zKaBjx1NQP6fs3VPQ4Ig",
    "placeName": "fargo",
    "state": "OK"
  },
  {
    "city": "felt",
    "state_code": "OK",
    "placeMasterId": "P02500000FsoGL6jY6R0zKaBjx1NQP6iHOY5ahNi",
    "placeName": "felt",
    "state": "OK"
  },
  {
    "city": "gore",
    "state_code": "OK",
    "placeMasterId": "P02500000FsoGLOQVJEAYhmg5Ye4GE5LPAoohY4M",
    "placeName": "gore",
    "state": "OK"
  },
  {
    "city": "indianola",
    "state_code": "OK",
    "placeMasterId": "P02500000FsoGLg7SW1K84zARAGl634Al49OTCrk",
    "placeName": "indianola",
    "state": "OK"
  },
  {
    "city": "whitefield",
    "state_code": "OK",
    "placeMasterId": "P02500000FsoGNxf6AMYh4b5E1GHmcuB2PZewPJ3",
    "placeName": "whitefield",
    "state": "OK"
  },
  {
    "city": "valliant",
    "state_code": "OK",
    "placeMasterId": "P02500000FsoGNoocYxyuNzq3DRwMiPiGEkFqHNW",
    "placeName": "valliant",
    "state": "OK"
  },
  {
    "city": "francis",
    "state_code": "OK",
    "placeMasterId": "P02500000FsoGLFa1hpam1BQukpiqJb64R9v1AaS",
    "placeName": "francis",
    "state": "OK"
  },
  {
    "city": "marble city",
    "state_code": "OK",
    "placeMasterId": "P02500000FsoGMFVMvbdGpO98NW8lh1V2XB6EiMn",
    "placeName": "marble city",
    "state": "OK"
  },
  {
    "city": "lewisville",
    "state_code": "TX",
    "placeMasterId": "P02500000FsoGnMK5WvITNWeF1nmAo6IN3MuxnDs",
    "placeName": "lewisville",
    "state": "TX"
  },
  {
    "city": "prosper",
    "state_code": "TX",
    "placeMasterId": "P02500000FsoGpV1FZrxFgXJr4yxRTRnRNewFRjd",
    "placeName": "prosper",
    "state": "TX"
  },
  {
    "city": "grand saline",
    "state_code": "TX",
    "placeMasterId": "P02500000FsoGleAMIAN38Ji9O3d9sDk3JZOIABU",
    "placeName": "grand saline",
    "state": "TX"
  },
  {
    "city": "lancaster",
    "state_code": "TX",
    "placeMasterId": "P02500000FsoGnDTbvWiggvP4DzQktbjMUvZHAP1",
    "placeName": "lancaster",
    "state": "TX"
  },
  {
    "city": "palmer",
    "state_code": "TX",
    "placeMasterId": "P02500000FsoGovdLAHe6w8L9rjZlpUKYmbse63x",
    "placeName": "palmer",
    "state": "TX"
  },
  {
    "city": "wilmer",
    "state_code": "TX",
    "placeMasterId": "P02500000FsoGs4FqR0LO3LizXbAxsGPnS9lrPP8",
    "placeName": "wilmer",
    "state": "TX"
  },
  {
    "city": "dallas",
    "state_code": "TX",
    "placeMasterId": "P02500000FsoGkMY3rbAywuVa9kWOfoNE7vnQ9N4",
    "placeName": "dallas",
    "state": "TX"
  },
  {
    "city": "dallas",
    "state_code": "TX",
    "placeMasterId": "P02500000FsoGkMY3rbAywuVa9kWOfoNE7vnQ9N4",
    "placeName": "dallas",
    "state": "TX"
  },
  {
    "city": "mount pleasant",
    "state_code": "TX",
    "placeMasterId": "P02500000FsoGoMFQkhKyBjMSeUC6BWmeo4nCKWf",
    "placeName": "mount pleasant",
    "state": "TX"
  },
  {
    "city": "easton",
    "state_code": "TX",
    "placeMasterId": "P02500000FsoGkn5UfmuL0iF6ZBYePHPOc4LO7ca",
    "placeName": "easton",
    "state": "TX"
  },
  {
    "city": "lone star",
    "state_code": "TX",
    "placeMasterId": "P02500000FsoGne12jiS2kj8adQT0d4niu7178e6",
    "placeName": "lone star",
    "state": "TX"
  },
  {
    "city": "tyler",
    "state_code": "TX",
    "placeMasterId": "P02500000FsoGrUrw1Q2FIwkIKLnIEIqxT9CHRU3",
    "placeName": "tyler",
    "state": "TX"
  },
  {
    "city": "chandler",
    "state_code": "TX",
    "placeMasterId": "P02500000FsoGjnA9S0rqCVWswV8j1qqhTxaplWh",
    "placeName": "chandler",
    "state": "TX"
  },
  {
    "city": "tenaha",
    "state_code": "TX",
    "placeMasterId": "P02500000FsoGrDAyocsfvkFwij6SPKE88bobJyN",
    "placeName": "tenaha",
    "state": "TX"
  },
  {
    "city": "euless",
    "state_code": "TX",
    "placeMasterId": "P02500000FsoGkvvyHBU7hJUHMzu4JltzSxKCYtU",
    "placeName": "euless",
    "state": "TX"
  },
  {
    "city": "millsap",
    "state_code": "TX",
    "placeMasterId": "P02500000FsoGoDOx9IlBV87HqfqgH2IsGTs21zf",
    "placeName": "millsap",
    "state": "TX"
  },
  {
    "city": "fort worth",
    "state_code": "TX",
    "placeMasterId": "P02500000FsoGlMTP5NDTl7DnmQwK3EqQnKzuFlE",
    "placeName": "fort worth",
    "state": "TX"
  },
  {
    "city": "fort worth",
    "state_code": "TX",
    "placeMasterId": "P02500000FsoGlMTP5NDTl7DnmQwK3EqQnKzuFlE",
    "placeName": "fort worth",
    "state": "TX"
  },
  {
    "city": "wichita falls",
    "state_code": "TX",
    "placeMasterId": "P02500000FsoGs4FqR0LO3LizXbAxsGR17JZqdwE",
    "placeName": "wichita falls",
    "state": "TX"
  },
  {
    "city": "burkburnett",
    "state_code": "TX",
    "placeMasterId": "P02500000FsoGjVTCFDiGpJ2XKsRtCs1RNMWtNmO",
    "placeName": "burkburnett",
    "state": "TX"
  },
  {
    "city": "granger",
    "state_code": "TX",
    "placeMasterId": "P02500000FsoGln0ptYwpouxKBryZmhypRuhRdTw",
    "placeName": "granger",
    "state": "TX"
  },
  {
    "city": "waco",
    "state_code": "TX",
    "placeMasterId": "P02500000FsoGrdiPcoc1zXzT8A8i8nMQbSmxQI8",
    "placeName": "waco",
    "state": "TX"
  },
  {
    "city": "houston",
    "state_code": "TX",
    "placeMasterId": "P02500000FsoGmDYGhkgBsigqbJ0pWBK8GcFdEcU",
    "placeName": "houston",
    "state": "TX"
  },
  {
    "city": "houston",
    "state_code": "TX",
    "placeMasterId": "P02500000FsoGmDYGhkgBsigqbJ0pWBK8GcFdEcU",
    "placeName": "houston",
    "state": "TX"
  },
  {
    "city": "houston",
    "state_code": "TX",
    "placeMasterId": "P02500000FsoGmDYGhkgBsigqbJ0pWBK8GcFdEcU",
    "placeName": "houston",
    "state": "TX"
  },
  {
    "city": "spring",
    "state_code": "TX",
    "placeMasterId": "P02500000FsoGqvU1bpj6YXlb76PcaLLSx3ByJ8h",
    "placeName": "spring",
    "state": "TX"
  },
  {
    "city": "bellaire",
    "state_code": "TX",
    "placeMasterId": "P02500000FsoGiw5HpdP84u3q7d4DYuaeIor0vFB",
    "placeName": "bellaire",
    "state": "TX"
  },
  {
    "city": "brazoria",
    "state_code": "TX",
    "placeMasterId": "P02500000FsoGj4vlR1yulVJ0vRPdTP1xhsGQvmE",
    "placeName": "brazoria",
    "state": "TX"
  },
  {
    "city": "rosenberg",
    "state_code": "TX",
    "placeMasterId": "P02500000FsoGq4P9zSGOQwIYIEL77PFALnqS04z",
    "placeName": "rosenberg",
    "state": "TX"
  },
  {
    "city": "thompsons",
    "state_code": "TX",
    "placeMasterId": "P02500000FsoGrM1SQ1SScLV7WXRsJoVKfoITJt3",
    "placeName": "thompsons",
    "state": "TX"
  },
  {
    "city": "crosby",
    "state_code": "TX",
    "placeMasterId": "P02500000FsoGkDhaGCbCGJGPLwAylK4Y8RBRC95",
    "placeName": "crosby",
    "state": "TX"
  },
  {
    "city": "bridge city",
    "state_code": "TX",
    "placeMasterId": "P02500000FsoGjDmF2QYhS6YBjFl3NtNyTW7H2Yk",
    "placeName": "bridge city",
    "state": "TX"
  },
  {
    "city": "china",
    "state_code": "TX",
    "placeMasterId": "P02500000FsoGjnA9S0rqCVWswV8j1qo0os9zV8L",
    "placeName": "china",
    "state": "TX"
  },
  {
    "city": "warren",
    "state_code": "TX",
    "placeMasterId": "P02500000FsoGrmYtEDBog9EdvyU83HifJtKBdzY",
    "placeName": "warren",
    "state": "TX"
  }
]