[
  {
    "city": "vanleer",
    "state_code": "TN",
    "placeMasterId": "P02500000FsoGi50QDFwPxIanIkzi5yTI6F2gDvz",
    "placeName": "vanleer",
    "state": "TN"
  },
  {
    "city": "nashville",
    "state_code": "TN",
    "placeMasterId": "P02500000FsoGhMm2CH3UWIMvHhGcXWZ0CJVUMa1",
    "placeName": "nashville",
    "state": "TN"
  },
  {
    "city": "estill springs",
    "state_code": "TN",
    "placeMasterId": "P02500000FsoGgMqgyV0zi5ehf0qhA61yJGUY9AP",
    "placeName": "estill springs",
    "state": "TN"
  },
  {
    "city": "flintville",
    "state_code": "TN",
    "placeMasterId": "P02500000FsoGgVhAZtamOgtsSpC74aNTNfJ0OM8",
    "placeName": "flintville",
    "state": "TN"
  },
  {
    "city": "normandy",
    "state_code": "TN",
    "placeMasterId": "P02500000FsoGhMm2CH3UWIMvHhGcXWUtkEisNXB",
    "placeName": "normandy",
    "state": "TN"
  },
  {
    "city": "elizabethton",
    "state_code": "TN",
    "placeMasterId": "P02500000FsoGgMqgyV0zi5ehf0qhA5zXpLq6vvM",
    "placeName": "elizabethton",
    "state": "TN"
  },
  {
    "city": "knoxville",
    "state_code": "TN",
    "placeMasterId": "P02500000FsoGgwEbO5K8SUdOsGEMo3NrnN3KYab",
    "placeName": "knoxville",
    "state": "TN"
  },
  {
    "city": "whiteville",
    "state_code": "TN",
    "placeMasterId": "P02500000FsoGiDqtoeWCdtpy6ZL80SlHJk0uMp7",
    "placeName": "whiteville",
    "state": "TN"
  },
  {
    "city": "gordonsville",
    "state_code": "TN",
    "placeMasterId": "P02500000FsoGgeXeBIAZ5I93GdXWz4coDq87RLo",
    "placeName": "gordonsville",
    "state": "TN"
  },
  {
    "city": "spencer",
    "state_code": "TN",
    "placeMasterId": "P02500000FsoGhnJT0Smqa66Rh8IsGzr0L6ACLPb",
    "placeName": "spencer",
    "state": "TN"
  },
  {
    "city": "lyon",
    "state_code": "MS",
    "placeMasterId": "P02500000FsoFhaHI1d8T0BOTP5gf1Pg0014WKoF",
    "placeName": "lyon",
    "state": "MS"
  },
  {
    "city": "greenville",
    "state_code": "MS",
    "placeMasterId": "P02500000FsoFhIaKopytcyu7nSzpCQxhzRLZYEG",
    "placeName": "greenville",
    "state": "MS"
  },
  {
    "city": "blue springs",
    "state_code": "MS",
    "placeMasterId": "P02500000FsoFgaLwnr5yBygFmPGjdzAClLOXuTi",
    "placeName": "blue springs",
    "state": "MS"
  },
  {
    "city": "coffeeville",
    "state_code": "MS",
    "placeMasterId": "P02500000FsoFgs2u0eFXZBAbO1xZSxzhR76wlZZ",
    "placeName": "coffeeville",
    "state": "MS"
  },
  {
    "city": "lena",
    "state_code": "MS",
    "placeMasterId": "P02500000FsoFhRQoQEYgJa9IbHLF6vMLuld3PQx",
    "placeName": "lena",
    "state": "MS"
  },
  {
    "city": "walnut grove",
    "state_code": "MS",
    "placeMasterId": "P02500000FsoFiaCdFPAxoO6h1m6aOqH7MmtADGK",
    "placeName": "walnut grove",
    "state": "MS"
  },
  {
    "city": "jackson",
    "state_code": "MS",
    "placeMasterId": "P02500000FsoFhRQoQEYgJa9IbHLF6vGkcb3WK7F",
    "placeName": "jackson",
    "state": "MS"
  },
  {
    "city": "grandin",
    "state_code": "ND",
    "placeMasterId": "P02500000FsoGB7U7sgc1EX3XiBCAcof8IPYkGCv",
    "placeName": "grandin",
    "state": "ND"
  },
  {
    "city": "dunseith",
    "state_code": "ND",
    "placeMasterId": "P02500000FsoGAgwh4UsfAjK1Ik9utLY0pI8CKQY",
    "placeName": "dunseith",
    "state": "ND"
  },
  {
    "city": "fort totten",
    "state_code": "ND",
    "placeMasterId": "P02500000FsoGApnAftSRrKZC6YVKnpwf0aIW0Wg",
    "placeName": "fort totten",
    "state": "ND"
  },
  {
    "city": "jamestown",
    "state_code": "ND",
    "placeMasterId": "P02500000FsoGBGKbU5Bnv8IiVzXaXIwz89mRGPS",
    "placeName": "jamestown",
    "state": "ND"
  },
  {
    "city": "tuttle",
    "state_code": "ND",
    "placeMasterId": "P02500000FsoGCGFwhrEIjL0w8fxVujiym5RR4PF",
    "placeName": "tuttle",
    "state": "ND"
  },
  {
    "city": "hazen",
    "state_code": "ND",
    "placeMasterId": "P02500000FsoGBGKbU5Bnv8IiVzXaXIwrKgKC6aG",
    "placeName": "hazen",
    "state": "ND"
  },
  {
    "city": "riverdale",
    "state_code": "ND",
    "placeMasterId": "P02500000FsoGC7PT6SeW2jllKrc60F8E5ROb1Am",
    "placeName": "riverdale",
    "state": "ND"
  },
  {
    "city": "wilton",
    "state_code": "ND",
    "placeMasterId": "P02500000FsoGCXwtueNs6XVHkIeLjiNRP4nHYAT",
    "placeName": "wilton",
    "state": "ND"
  },
  {
    "city": "anamoose",
    "state_code": "ND",
    "placeMasterId": "P02500000FsoGAGPGGJ9J6vaUtJ7f9sHOkVSs63O",
    "placeName": "anamoose",
    "state": "ND"
  },
  {
    "city": "glenburn",
    "state_code": "ND",
    "placeMasterId": "P02500000FsoGAydeHI2EXvoMuMqkiKLoFoMXzJC",
    "placeName": "glenburn",
    "state": "ND"
  },
  {
    "city": "sherwood",
    "state_code": "ND",
    "placeMasterId": "P02500000FsoGCGFwhrEIjL0w8fxVujTuuA4xubG",
    "placeName": "sherwood",
    "state": "ND"
  },
  {
    "city": "westhope",
    "state_code": "ND",
    "placeMasterId": "P02500000FsoGCP6QJFo5PwG6wUIvpE1GkEdx3So",
    "placeName": "westhope",
    "state": "ND"
  },
  {
    "city": "tioga",
    "state_code": "ND",
    "placeMasterId": "P02500000FsoGCP6QJFo5PwG6wUIvpDwQ7gntGP2",
    "placeName": "tioga",
    "state": "ND"
  },
  {
    "city": "trenton",
    "state_code": "ND",
    "placeMasterId": "P02500000FsoI87F1Mq3vtwbJ0m8ZGDRDLM6InBt",
    "placeName": "trenton",
    "state": "ND"
  },
  {
    "city": "edgar",
    "state_code": "MT",
    "placeMasterId": "P02500000FsoFp98azdj5Q1Mhz7zoJNYSROIj1Hd",
    "placeName": "edgar",
    "state": "MT"
  },
  {
    "city": "harlowton",
    "state_code": "MT",
    "placeMasterId": "P02500000FsoFpQpYCQsenDr3akge8MHERJn2NfG",
    "placeName": "harlowton",
    "state": "MT"
  },
  {
    "city": "roberts",
    "state_code": "MT",
    "placeMasterId": "P02500000FsoFq93wDPlaEE4vboPjgo4zjmfDcWx",
    "placeName": "roberts",
    "state": "MT"
  },
  {
    "city": "shawmut",
    "state_code": "MT",
    "placeMasterId": "P02500000FsoFqQktQCv9bQZHDR6ZVmipEMQ2q6l",
    "placeName": "shawmut",
    "state": "MT"
  },
  {
    "city": "springdale",
    "state_code": "MT",
    "placeMasterId": "P02500000FsoFqQktQCv9bQZHDR6ZVmpYOSIluQr",
    "placeName": "springdale",
    "state": "MT"
  },
  {
    "city": "neihart",
    "state_code": "MT",
    "placeMasterId": "P02500000FsoFprMz0cc0r1aa0BitrpGqFid6dXn",
    "placeName": "neihart",
    "state": "MT"
  },
  {
    "city": "sun river",
    "state_code": "MT",
    "placeMasterId": "P02500000FsoFqQktQCv9bQZHDR6ZVmo13cIe91m",
    "placeName": "sun river",
    "state": "MT"
  },
  {
    "city": "avon",
    "state_code": "MT",
    "placeMasterId": "P02500000FsoFoibABRzjMDdBZgxYZuH0S1G5V5v",
    "placeName": "avon",
    "state": "MT"
  },
  {
    "city": "arlee",
    "state_code": "MT",
    "placeMasterId": "P02500000FsoFoZkga3PwfcO0lsc8fQ1bR0Ccn2t",
    "placeName": "arlee",
    "state": "MT"
  },
  {
    "city": "condon",
    "state_code": "MT",
    "placeMasterId": "P02500000FsoFp0I7OF9IjQ7XBJeOOsyBr04b9ey",
    "placeName": "condon",
    "state": "MT"
  },
  {
    "city": "trout creek",
    "state_code": "MT",
    "placeMasterId": "P02500000FsoFqZbN1bUwI1oS1FRzQH8so6YNVFp",
    "placeName": "trout creek",
    "state": "MT"
  },
  {
    "city": "winnetka",
    "state_code": "IL",
    "placeMasterId": "P02500000FsoF8ubGSIse2Cv8Alk6cNO0dcF4KHf",
    "placeName": "winnetka",
    "state": "IL"
  },
  {
    "city": "dundee",
    "state_code": "IL",
    "placeMasterId": "P02500000FsoHJB4Z2K0abUE6BsoMzL2VsjPsMRQ",
    "placeName": "dundee",
    "state": "IL"
  },
  {
    "city": "river grove",
    "state_code": "IL",
    "placeMasterId": "P02500000FsoF7CRXDXxDmzz2X1b5gUwLDGeSiAu",
    "placeName": "river grove",
    "state": "IL"
  },
  {
    "city": "villa park",
    "state_code": "IL",
    "placeMasterId": "P02500000FsoF8U3pe79HyPBblKhqsuKBJ5bcOHL",
    "placeName": "villa park",
    "state": "IL"
  },
  {
    "city": "evanston",
    "state_code": "IL",
    "placeMasterId": "P02500000FsoF3LadvqN1EmNKq6Go5GvPjlHnYcB",
    "placeName": "evanston",
    "state": "IL"
  },
  {
    "city": "blue island",
    "state_code": "IL",
    "placeMasterId": "P02500000FsoF1mHOIU1NgAgQ0ATD3sqevwNERcQ",
    "placeName": "blue island",
    "state": "IL"
  },
  {
    "city": "kinsman",
    "state_code": "IL",
    "placeMasterId": "P02500000FsoF4uttZCienO4Fg24P6f0o78dTrak",
    "placeName": "kinsman",
    "state": "IL"
  },
  {
    "city": "hometown",
    "state_code": "IL",
    "placeMasterId": "P02500000FsoF4LVz9cPW2z5YSmgjShYtZWRFmNA",
    "placeName": "hometown",
    "state": "IL"
  },
  {
    "city": "downers grove",
    "state_code": "IL",
    "placeMasterId": "P02500000FsoF33tgj3DRrZszETZyGIDbdFxZ5ZE",
    "placeName": "downers grove",
    "state": "IL"
  },
  {
    "city": "earlville",
    "state_code": "IL",
    "placeMasterId": "P02500000FsoF33tgj3DRrZszETZyGIDQNB8LFpG",
    "placeName": "earlville",
    "state": "IL"
  },
  {
    "city": "chicago",
    "state_code": "IL",
    "placeMasterId": "P02500000FsoF2LfIi4KWQZf7DPqshqNB04VNil1",
    "placeName": "chicago",
    "state": "IL"
  },
  {
    "city": "chicago",
    "state_code": "IL",
    "placeMasterId": "P02500000FsoF2LfIi4KWQZf7DPqshqNB04VNil1",
    "placeName": "chicago",
    "state": "IL"
  },
  {
    "city": "chicago",
    "state_code": "IL",
    "placeMasterId": "P02500000FsoF2LfIi4KWQZf7DPqshqNB04VNil1",
    "placeName": "chicago",
    "state": "IL"
  },
  {
    "city": "chicago",
    "state_code": "IL",
    "placeMasterId": "P02500000FsoF2LfIi4KWQZf7DPqshqNB04VNil1",
    "placeName": "chicago",
    "state": "IL"
  },
  {
    "city": "milford",
    "state_code": "IL",
    "placeMasterId": "P02500000FsoF5lylBaBMuzXIUu8uZbFUkyYx0Qt",
    "placeName": "milford",
    "state": "IL"
  },
  {
    "city": "thawville",
    "state_code": "IL",
    "placeMasterId": "P02500000FsoF8CMsRJzibChG9i113vWdA5ko1iR",
    "placeName": "thawville",
    "state": "IL"
  },
  {
    "city": "garden prairie",
    "state_code": "IL",
    "placeMasterId": "P02500000FsoF3m84k26NIa6rFXJ3ok4VXO0zZMX",
    "placeName": "garden prairie",
    "state": "IL"
  },
  {
    "city": "carbon cliff",
    "state_code": "IL",
    "placeMasterId": "P02500000FsoF2Cop6fkjjyPwPbVSnLxYG1OwZWo",
    "placeName": "carbon cliff",
    "state": "IL"
  },
  {
    "city": "fenton",
    "state_code": "IL",
    "placeMasterId": "P02500000FsoHJbbzqVjwfHxcbJqcio78ZGTvqjK",
    "placeName": "fenton",
    "state": "IL"
  },
  {
    "city": "osco",
    "state_code": "IL",
    "placeMasterId": "P02500000FsoHMt4yid10T6ad4znEg4dkI7Wznse",
    "placeName": "osco",
    "state": "IL"
  },
  {
    "city": "cedar point",
    "state_code": "IL",
    "placeMasterId": "P02500000FsoF2Cop6fkjjyPwPbVSnLyLGw4mrvg",
    "placeName": "cedar point",
    "state": "IL"
  },
  {
    "city": "tonica",
    "state_code": "IL",
    "placeMasterId": "P02500000FsoF8CMsRJzibChG9i113vbFSenIOPD",
    "placeName": "tonica",
    "state": "IL"
  },
  {
    "city": "prairie city",
    "state_code": "IL",
    "placeMasterId": "P02500000FsoF6uka0knePnUgvOuFrWEH5Ex0itW",
    "placeName": "prairie city",
    "state": "IL"
  },
  {
    "city": "elmwood",
    "state_code": "IL",
    "placeMasterId": "P02500000FsoF3CkAKRnEYB8A2HvOAmbSc3MtYkp",
    "placeName": "elmwood",
    "state": "IL"
  },
  {
    "city": "metamora",
    "state_code": "IL",
    "placeMasterId": "P02500000FsoF5d8HaBbaEOI7h5nUf6ulX7eeEXr",
    "placeName": "metamora",
    "state": "IL"
  },
  {
    "city": "lexington",
    "state_code": "IL",
    "placeMasterId": "P02500000FsoF5CaqlzsEAaYbHelEvdjwtCGMyXp",
    "placeName": "lexington",
    "state": "IL"
  },
  {
    "city": "strawn",
    "state_code": "IL",
    "placeMasterId": "P02500000FsoF7ufvEWq9E0CuY5KBEwqNaf8WD4n",
    "placeName": "strawn",
    "state": "IL"
  },
  {
    "city": "champaign",
    "state_code": "IL",
    "placeMasterId": "P02500000FsoF2LfIi4KWQZf7DPqshqIRwcizJVd",
    "placeName": "champaign",
    "state": "IL"
  },
  {
    "city": "monticello",
    "state_code": "IL",
    "placeMasterId": "P02500000FsoF5lylBaBMuzXIUu8uZbHL6OKcOxQ",
    "placeName": "monticello",
    "state": "IL"
  },
  {
    "city": "savoy",
    "state_code": "IL",
    "placeMasterId": "P02500000FsoF7cyy1jgZqniYwSdLPy2mcFeSrl3",
    "placeName": "savoy",
    "state": "IL"
  },
  {
    "city": "sidney",
    "state_code": "IL",
    "placeMasterId": "P02500000FsoF7lpRd8GMXOxjkGylKSUIDWEf2RF",
    "placeName": "sidney",
    "state": "IL"
  },
  {
    "city": "roxana",
    "state_code": "IL",
    "placeMasterId": "P02500000FsoF7CRXDXxDmzz2X1b5gUzpQDNTxNw",
    "placeName": "roxana",
    "state": "IL"
  },
  {
    "city": "effingham",
    "state_code": "IL",
    "placeMasterId": "P02500000FsoF3CkAKRnEYB8A2HvOAmXP77DKSeb",
    "placeName": "effingham",
    "state": "IL"
  },
  {
    "city": "waggoner",
    "state_code": "IL",
    "placeMasterId": "P02500000FsoF8LDM2iZVHnwQxWMQyPycGDSF6jA",
    "placeName": "waggoner",
    "state": "IL"
  },
  {
    "city": "thayer",
    "state_code": "IL",
    "placeMasterId": "P02500000FsoF8CMsRJzibChG9i113vaKC3YCZGY",
    "placeName": "thayer",
    "state": "IL"
  },
  {
    "city": "ewing",
    "state_code": "IL",
    "placeMasterId": "P02500000FsoF3LadvqN1EmNKq6Go5GwwpY4S2fk",
    "placeName": "ewing",
    "state": "IL"
  },
  {
    "city": "springerton",
    "state_code": "IL",
    "placeMasterId": "P02500000FsoF7ufvEWq9E0CuY5KBEwpGleOk8bL",
    "placeName": "springerton",
    "state": "IL"
  },
  {
    "city": "valier",
    "state_code": "IL",
    "placeMasterId": "P02500000FsoF8LDM2iZVHnwQxWMQyPunRyR72v7",
    "placeName": "valier",
    "state": "IL"
  },
  {
    "city": "vernon",
    "state_code": "IL",
    "placeMasterId": "P02500000FsoF8LDM2iZVHnwQxWMQyPy3NMR7n2P",
    "placeName": "vernon",
    "state": "IL"
  },
  {
    "city": "pulaski",
    "state_code": "IL",
    "placeMasterId": "P02500000FsoF6uka0knePnUgvOuFrWG3327kMk8",
    "placeName": "pulaski",
    "state": "IL"
  },
  {
    "city": "de soto",
    "state_code": "MO",
    "placeMasterId": "P02500000FsoFk0fPHMwogOYR3tYlVk4PHIfm7oo",
    "placeName": "de soto",
    "state": "MO"
  },
  {
    "city": "hazelwood",
    "state_code": "MO",
    "placeMasterId": "P02500000FsoFl9RE6XZ6BCVpUOK6neuvdmyB4wy",
    "placeName": "hazelwood",
    "state": "MO"
  },
  {
    "city": "troy",
    "state_code": "MO",
    "placeMasterId": "P02500000FsoFo0MmAT6nvDPJYdET1SSagm4GTS5",
    "placeName": "troy",
    "state": "MO"
  },
  {
    "city": "whiteside",
    "state_code": "MO",
    "placeMasterId": "P02500000FsoFoQuCyeq9z18py4GikvaKfhbBL8D",
    "placeName": "whiteside",
    "state": "MO"
  },
  {
    "city": "center",
    "state_code": "MO",
    "placeMasterId": "P02500000FsoFja7yTBDScaoueSWVmGzF67PhbgC",
    "placeName": "center",
    "state": "MO"
  },
  {
    "city": "milan",
    "state_code": "MO",
    "placeMasterId": "P02500000FsoFmID2viBNg0TDut5S5ZtQ0jpyJed",
    "placeName": "milan",
    "state": "MO"
  },
  {
    "city": "annapolis",
    "state_code": "MO",
    "placeMasterId": "P02500000FsoFij36qnkkUzLrpaS0JKlaMfB5Mfd",
    "placeName": "annapolis",
    "state": "MO"
  },
  {
    "city": "des arc",
    "state_code": "MO",
    "placeMasterId": "P02500000FsoFk9VsslWbMznbrhuBQEOMASN0CjH",
    "placeName": "des arc",
    "state": "MO"
  },
  {
    "city": "advance",
    "state_code": "MO",
    "placeMasterId": "P02500000FsoFiaCdFPAxoO6h1m6aOqOSzj2G18k",
    "placeName": "advance",
    "state": "MO"
  },
  {
    "city": "commerce",
    "state_code": "MO",
    "placeMasterId": "P02500000FsoFjiyS4ZnFJC45SGrvglKDi4iLHce",
    "placeName": "commerce",
    "state": "MO"
  },
  {
    "city": "fairdealing",
    "state_code": "MO",
    "placeMasterId": "P02500000FsoFkIMMUA6O3b2mfWFbKiohqDQ8gSP",
    "placeName": "fairdealing",
    "state": "MO"
  },
  {
    "city": "neelyville",
    "state_code": "MO",
    "placeMasterId": "P02500000FsoFmR3WX6lAMbiOihQs04PKPXCASqH",
    "placeName": "neelyville",
    "state": "MO"
  },
  {
    "city": "craig",
    "state_code": "MO",
    "placeMasterId": "P02500000FsoFjrovfyN1znJGG5DLbFjXxvhuxJV",
    "placeName": "craig",
    "state": "MO"
  },
  {
    "city": "new hampton",
    "state_code": "MO",
    "placeMasterId": "P02500000FsoFmZu08VKx3CxZWVmHuYfXmOFp4Ft",
    "placeName": "new hampton",
    "state": "MO"
  },
  {
    "city": "osborn",
    "state_code": "MO",
    "placeMasterId": "P02500000FsoFmraxLIUWQPRv88T7jXQZwZKjsqQ",
    "placeName": "osborn",
    "state": "MO"
  },
  {
    "city": "rosendale",
    "state_code": "MO",
    "placeMasterId": "P02500000FsoFnQyrksnfAoQcLNqnNV06WPsAl6F",
    "placeName": "rosendale",
    "state": "MO"
  },
  {
    "city": "dawn",
    "state_code": "MO",
    "placeMasterId": "P02500000FsoFk0fPHMwogOYR3tYlVjzrxirkTXj",
    "placeName": "dawn",
    "state": "MO"
  },
  {
    "city": "mendon",
    "state_code": "MO",
    "placeMasterId": "P02500000FsoFmID2viBNg0TDut5S5Zw4GPUrz9x",
    "placeName": "mendon",
    "state": "MO"
  },
  {
    "city": "sumner",
    "state_code": "MO",
    "placeMasterId": "P02500000FsoFnrWIZ4X1EcA8kot36y2wpH6OVCA",
    "placeName": "sumner",
    "state": "MO"
  },
  {
    "city": "creighton",
    "state_code": "MO",
    "placeMasterId": "P02500000FsoFjrovfyN1znJGG5DLbFhRedrcZst",
    "placeName": "creighton",
    "state": "MO"
  },
  {
    "city": "lowry city",
    "state_code": "MO",
    "placeMasterId": "P02500000FsoFm0W5iv1oInysJGOcGbLLtc9BUml",
    "placeName": "lowry city",
    "state": "MO"
  },
  {
    "city": "mindenmines",
    "state_code": "MO",
    "placeMasterId": "P02500000FsoFmID2viBNg0TDut5S5Zy5nTHlmT4",
    "placeName": "mindenmines",
    "state": "MO"
  },
  {
    "city": "linn creek",
    "state_code": "MO",
    "placeMasterId": "P02500000FsoFm0W5iv1oInysJGOcGbAQsBZ8L0r",
    "placeName": "linn creek",
    "state": "MO"
  },
  {
    "city": "olean",
    "state_code": "MO",
    "placeMasterId": "P02500000FsoFmikTjtujjoCkKK7hp365JEW1LkK",
    "placeName": "olean",
    "state": "MO"
  },
  {
    "city": "huntsville",
    "state_code": "MO",
    "placeMasterId": "P02500000FsoFlIHhhw8srnl0ICfWi9Nn8OApUPr",
    "placeName": "huntsville",
    "state": "MO"
  },
  {
    "city": "climax springs",
    "state_code": "MO",
    "placeMasterId": "P02500000FsoFjiyS4ZnFJC45SGrvglPMBTt3AJI",
    "placeName": "climax springs",
    "state": "MO"
  },
  {
    "city": "crocker",
    "state_code": "MO",
    "placeMasterId": "P02500000FsoFjrovfyN1znJGG5DLbFl4YXTa2HK",
    "placeName": "crocker",
    "state": "MO"
  },
  {
    "city": "leasburg",
    "state_code": "MO",
    "placeMasterId": "P02500000FsoFlip8W7sEvbUWhdhmRcaV1H3nObE",
    "placeName": "leasburg",
    "state": "MO"
  },
  {
    "city": "butterfield",
    "state_code": "MO",
    "placeMasterId": "P02500000FsoFjRHUrmdfvzZjqeB5rmZS6XIGHoE",
    "placeName": "butterfield",
    "state": "MO"
  },
  {
    "city": "hollister",
    "state_code": "MO",
    "placeMasterId": "P02500000FsoFl9RE6XZ6BCVpUOK6nf2qfaJ5jsg",
    "placeName": "hollister",
    "state": "MO"
  },
  {
    "city": "shell knob",
    "state_code": "MO",
    "placeMasterId": "P02500000FsoFnifoxfxEY0uxx0XdCTg8KAqkUb1",
    "placeName": "shell knob",
    "state": "MO"
  },
  {
    "city": "sparta",
    "state_code": "MO",
    "placeMasterId": "P02500000FsoFnrWIZ4X1EcA8kot36y0Q753vujw",
    "placeName": "sparta",
    "state": "MO"
  },
  {
    "city": "springfield",
    "state_code": "MO",
    "placeMasterId": "P02500000FsoFnifoxfxEY0uxx0XdCTlHDhP1BxY",
    "placeName": "springfield",
    "state": "MO"
  },
  {
    "city": "lawrence",
    "state_code": "KS",
    "placeMasterId": "P02500000FsoFKthN7bMbkfTleylD9WfQGaj0ALz",
    "placeName": "lawrence",
    "state": "KS"
  },
  {
    "city": "kansas city",
    "state_code": "KS",
    "placeMasterId": "P02500000FsoFKthN7bMbkfTleylD9WcwenSSDwE",
    "placeName": "kansas city",
    "state": "KS"
  },
  {
    "city": "lenexa",
    "state_code": "KS",
    "placeMasterId": "P02500000FsoFL2XqizwORGiwSn6d40yh5PPI6HP",
    "placeName": "lenexa",
    "state": "KS"
  },
  {
    "city": "overland park",
    "state_code": "KS",
    "placeMasterId": "P02500000FsoFLtciLNP6YsBzHfB8WxB9BAanqbl",
    "placeName": "overland park",
    "state": "KS"
  },
  {
    "city": "bern",
    "state_code": "KS",
    "placeMasterId": "P02500000FsoFJKO7UF0yC3mqp2xc88bBkVIeR32",
    "placeName": "bern",
    "state": "KS"
  },
  {
    "city": "sabetha",
    "state_code": "KS",
    "placeMasterId": "P02500000FsoFMKA99Z8ScfvVh6DOGQKZe7bSKjG",
    "placeName": "sabetha",
    "state": "KS"
  },
  {
    "city": "topeka",
    "state_code": "KS",
    "placeMasterId": "P02500000FsoFMbr6MMI1zsPrIiuE5P2hY2Q28N9",
    "placeName": "topeka",
    "state": "KS"
  },
  {
    "city": "burns",
    "state_code": "KS",
    "placeMasterId": "P02500000FsoFJc54h2AXZGHCQfeRx7GxXDIDeNd",
    "placeName": "burns",
    "state": "KS"
  },
  {
    "city": "council grove",
    "state_code": "KS",
    "placeMasterId": "P02500000FsoFJkvYIQkKFrWNETzrrbh2EoS4Kgy",
    "placeName": "council grove",
    "state": "KS"
  },
  {
    "city": "lost springs",
    "state_code": "KS",
    "placeMasterId": "P02500000FsoFLBOKKOWB7ry7GbS2yVJvXhvGcjo",
    "placeName": "lost springs",
    "state": "KS"
  },
  {
    "city": "wilsey",
    "state_code": "KS",
    "placeMasterId": "P02500000FsoFMtY3Z9RbN4uCuLb3uNpzSMyBmT1",
    "placeName": "wilsey",
    "state": "KS"
  },
  {
    "city": "jewell",
    "state_code": "KS",
    "placeMasterId": "P02500000FsoFKthN7bMbkfTleylD9WcYYiDNTif",
    "placeName": "jewell",
    "state": "KS"
  },
  {
    "city": "leon",
    "state_code": "KS",
    "placeMasterId": "P02500000FsoFL2XqizwORGiwSn6d410OJhG03iQ",
    "placeName": "leon",
    "state": "KS"
  },
  {
    "city": "wichita",
    "state_code": "KS",
    "placeMasterId": "P02500000FsoFMtY3Z9RbN4uCuLb3uNnBOyNlFLT",
    "placeName": "wichita",
    "state": "KS"
  },
  {
    "city": "chetopa",
    "state_code": "KS",
    "placeMasterId": "P02500000FsoFJkvYIQkKFrWNETzrrbeXmnIKM0x",
    "placeName": "chetopa",
    "state": "KS"
  },
  {
    "city": "longton",
    "state_code": "KS",
    "placeMasterId": "P02500000FsoFLBOKKOWB7ry7GbS2yVM8LFqBd5Q",
    "placeName": "longton",
    "state": "KS"
  },
  {
    "city": "bennington",
    "state_code": "KS",
    "placeMasterId": "P02500000FsoFJTEb5daksf21crJ22crfirJCFPG",
    "placeName": "bennington",
    "state": "KS"
  },
  {
    "city": "clay center",
    "state_code": "KS",
    "placeMasterId": "P02500000FsoFJkvYIQkKFrWNETzrrbckDhSjDnZ",
    "placeName": "clay center",
    "state": "KS"
  },
  {
    "city": "ellsworth",
    "state_code": "KS",
    "placeMasterId": "P02500000FsoFK2cVVDttd40iq6ghgaNseXrpH1z",
    "placeName": "ellsworth",
    "state": "KS"
  },
  {
    "city": "galva",
    "state_code": "KS",
    "placeMasterId": "P02500000FsoFKKJSi13T0GV4RjNXVZ7c80r1lGn",
    "placeName": "galva",
    "state": "KS"
  },
  {
    "city": "lorraine",
    "state_code": "KS",
    "placeMasterId": "P02500000FsoFLBOKKOWB7ry7GbS2yVKhfhkjtQ4",
    "placeName": "lorraine",
    "state": "KS"
  },
  {
    "city": "south hutchinson",
    "state_code": "KS",
    "placeMasterId": "P02500000FsoFMT0ckxiFJHAgUuYoAugdYZDgIq9",
    "placeName": "south hutchinson",
    "state": "KS"
  },
  {
    "city": "claflin",
    "state_code": "KS",
    "placeMasterId": "P02500000FsoFJkvYIQkKFrWNETzrrbfXHlKxxCd",
    "placeName": "claflin",
    "state": "KS"
  },
  {
    "city": "raymond",
    "state_code": "KS",
    "placeMasterId": "P02500000FsoFM2TBwlytFTRA5TWYRRbkGTx2C29",
    "placeName": "raymond",
    "state": "KS"
  },
  {
    "city": "kanorado",
    "state_code": "KS",
    "placeMasterId": "P02500000FsoFKthN7bMbkfTleylD9Wd73hwMBDB",
    "placeName": "kanorado",
    "state": "KS"
  },
  {
    "city": "copeland",
    "state_code": "KS",
    "placeMasterId": "P02500000FsoFJkvYIQkKFrWNETzrrbeSctzF9VE",
    "placeName": "copeland",
    "state": "KS"
  },
  {
    "city": "nickerson",
    "state_code": "NE",
    "placeMasterId": "P02500000FsoFszzUHLJHyEyPg3K5ubPNDGtDdYG",
    "placeName": "nickerson",
    "state": "NE"
  },
  {
    "city": "offutt afb",
    "state_code": "NE",
    "placeMasterId": "P02500000FsoFszzUHLJHyEyPg3K5ubOJlGJvdvy",
    "placeName": "offutt afb",
    "state": "NE"
  },
  {
    "city": "barneston",
    "state_code": "NE",
    "placeMasterId": "P02500000FsoFr08npnEILpXyQgUF9kEAL4jQ15V",
    "placeName": "barneston",
    "state": "NE"
  },
  {
    "city": "lewiston",
    "state_code": "NE",
    "placeMasterId": "P02500000FsoFsZS3T9ZvuREtGcHqB8L6GloudX8",
    "placeName": "lewiston",
    "state": "NE"
  },
  {
    "city": "pawnee city",
    "state_code": "NE",
    "placeMasterId": "P02500000FsoFtHgRU8SrLRSlHg0vja8NUlqvUg1",
    "placeName": "pawnee city",
    "state": "NE"
  },
  {
    "city": "peru",
    "state_code": "NE",
    "placeMasterId": "P02500000FsoFt8pxsjt4eqDaTrfVp5sFxOZrBth",
    "placeName": "peru",
    "state": "NE"
  },
  {
    "city": "verdon",
    "state_code": "NE",
    "placeMasterId": "P02500000FsoFtzupV7LmmRgdIjk1I1wPSAgqDof",
    "placeName": "verdon",
    "state": "NE"
  },
  {
    "city": "lincoln",
    "state_code": "NE",
    "placeMasterId": "P02500000FsoFsZS3T9ZvuREtGcHqB8DyQVvTvuI",
    "placeName": "lincoln",
    "state": "NE"
  },
  {
    "city": "lincoln",
    "state_code": "NE",
    "placeMasterId": "P02500000FsoFsZS3T9ZvuREtGcHqB8DyQVvTvuI",
    "placeName": "lincoln",
    "state": "NE"
  },
  {
    "city": "david city",
    "state_code": "NE",
    "placeMasterId": "P02500000FsoFriNBqm7DmplqRkDKiC2DgAj2SwY",
    "placeName": "david city",
    "state": "NE"
  },
  {
    "city": "morse bluff",
    "state_code": "NE",
    "placeMasterId": "P02500000FsoFsr90fwjVHdjEsEyg074wYNAy0Bo",
    "placeName": "morse bluff",
    "state": "NE"
  },
  {
    "city": "norfolk",
    "state_code": "NE",
    "placeMasterId": "P02500000FsoFszzUHLJHyEyPg3K5ubOY05fNE8n",
    "placeName": "norfolk",
    "state": "NE"
  },
  {
    "city": "beemer",
    "state_code": "NE",
    "placeMasterId": "P02500000FsoFr08npnEILpXyQgUF9kEFXEBMidy",
    "placeName": "beemer",
    "state": "NE"
  },
  {
    "city": "brunswick",
    "state_code": "NE",
    "placeMasterId": "P02500000FsoFr8zHRBo52Qn9EUpf4EeE3AMizUG",
    "placeName": "brunswick",
    "state": "NE"
  },
  {
    "city": "butte",
    "state_code": "NE",
    "placeMasterId": "P02500000FsoFrQgEdyxePdHUq7WUtDGbpD7CLOM",
    "placeName": "butte",
    "state": "NE"
  },
  {
    "city": "ashton",
    "state_code": "NE",
    "placeMasterId": "P02500000FsoFqrIKEOeVfEIncs8pFFyGRxtpYib",
    "placeName": "ashton",
    "state": "NE"
  },
  {
    "city": "cairo",
    "state_code": "NE",
    "placeMasterId": "P02500000FsoFrQgEdyxePdHUq7WUtDGnnIswI0x",
    "placeName": "cairo",
    "state": "NE"
  },
  {
    "city": "hordville",
    "state_code": "NE",
    "placeMasterId": "P02500000FsoFsQbZrl09DpziSnwQGdrleKRJokz",
    "placeName": "hordville",
    "state": "NE"
  },
  {
    "city": "harvard",
    "state_code": "NE",
    "placeMasterId": "P02500000FsoFs8ucexqZqdVMrBFaRfBhBYJr2bH",
    "placeName": "harvard",
    "state": "NE"
  },
  {
    "city": "harrison",
    "state_code": "NE",
    "placeMasterId": "P02500000FsoFs8ucexqZqdVMrBFaRf9YLWvVKcz",
    "placeName": "harrison",
    "state": "NE"
  },
  {
    "city": "hay springs",
    "state_code": "NE",
    "placeMasterId": "P02500000FsoFs8ucexqZqdVMrBFaRfMpMSCEi55",
    "placeName": "hay springs",
    "state": "NE"
  },
  {
    "city": "belle chasse",
    "state_code": "LA",
    "placeMasterId": "P02500000FsoFQJrW2fIRrUmOBpt5m8qjI8TexpH",
    "placeName": "belle chasse",
    "state": "LA"
  },
  {
    "city": "houma",
    "state_code": "LA",
    "placeMasterId": "P02500000FsoFRJmrGRKwfhUboWJ19ZSX6AdN76w",
    "placeName": "houma",
    "state": "LA"
  },
  {
    "city": "labadieville",
    "state_code": "LA",
    "placeMasterId": "P02500000FsoFRbToTEUW2tyxQ8zqyY5kxAThZn8",
    "placeName": "labadieville",
    "state": "LA"
  },
  {
    "city": "angie",
    "state_code": "LA",
    "placeMasterId": "P02500000FsoFQB12RGifAtXDO1XfreR2u3n39kK",
    "placeName": "angie",
    "state": "LA"
  },
  {
    "city": "independence",
    "state_code": "LA",
    "placeMasterId": "P02500000FsoFRJmrGRKwfhUboWJ19ZSphxFCKq3",
    "placeName": "independence",
    "state": "LA"
  },
  {
    "city": "sulphur",
    "state_code": "LA",
    "placeMasterId": "P02500000FsoFSbP9h0X0r6hB2pPmLylNSc1uIwy",
    "placeName": "sulphur",
    "state": "LA"
  },
  {
    "city": "westlake",
    "state_code": "LA",
    "placeMasterId": "P02500000FsoFSt66tngaEJBWeS6cAxddYZ27UIP",
    "placeName": "westlake",
    "state": "LA"
  },
  {
    "city": "clayton",
    "state_code": "LA",
    "placeMasterId": "P02500000FsoFQkOwqr1nvIVubGvLVbt0035L6JN",
    "placeName": "clayton",
    "state": "LA"
  },
  {
    "city": "mineral springs",
    "state_code": "AR",
    "placeMasterId": "P02500000FsoEcWSsXJrO3qMZnRKEnB6LjRl9c0f",
    "placeName": "mineral springs",
    "state": "AR"
  },
  {
    "city": "donaldson",
    "state_code": "AR",
    "placeMasterId": "P02500000FsoEbEqa6kfJsRA0Z8DTalmzrYQhaBJ",
    "placeName": "donaldson",
    "state": "AR"
  },
  {
    "city": "center ridge",
    "state_code": "AR",
    "placeMasterId": "P02500000FsoEax9ctxVkVEfexVWdln2EAg9O0NH",
    "placeName": "center ridge",
    "state": "AR"
  },
  {
    "city": "damascus",
    "state_code": "AR",
    "placeMasterId": "P02500000FsoEbEqa6kfJsRA0Z8DTallhI7f9lOV",
    "placeName": "damascus",
    "state": "AR"
  },
  {
    "city": "greenbrier",
    "state_code": "AR",
    "placeMasterId": "P02500000FsoEbWXXJXotFdeMAkuJPkYHsZN3lij",
    "placeName": "greenbrier",
    "state": "AR"
  },
  {
    "city": "griffithville",
    "state_code": "AR",
    "placeMasterId": "P02500000FsoEbfO0uwOfwEtWyZFjKEtz2sp7SdW",
    "placeName": "griffithville",
    "state": "AR"
  },
  {
    "city": "mcrae",
    "state_code": "AR",
    "placeMasterId": "P02500000FsoEcNcOvvHbNF7OzcyosghmaJUq2pu",
    "placeName": "mcrae",
    "state": "AR"
  },
  {
    "city": "perry",
    "state_code": "AR",
    "placeMasterId": "P02500000FsoEco9pk70xR2qvP414c9ouITJib19",
    "placeName": "perry",
    "state": "AR"
  },
  {
    "city": "little rock",
    "state_code": "AR",
    "placeMasterId": "P02500000FsoEcElvKWhogdsEBodOyCMRN7NDM4y",
    "placeName": "little rock",
    "state": "AR"
  },
  {
    "city": "hickory ridge",
    "state_code": "AR",
    "placeMasterId": "P02500000FsoEbfO0uwOfwEtWyZFjKEvOEGX2s9m",
    "placeName": "hickory ridge",
    "state": "AR"
  },
  {
    "city": "madison",
    "state_code": "AR",
    "placeMasterId": "P02500000FsoEcElvKWhogdsEBodOyCN7hwq7uUt",
    "placeName": "madison",
    "state": "AR"
  },
  {
    "city": "cotter",
    "state_code": "AR",
    "placeMasterId": "P02500000FsoEb606VM5XBpuplJs3gHPPWzvRe08",
    "placeName": "cotter",
    "state": "AR"
  },
  {
    "city": "oak grove",
    "state_code": "AR",
    "placeMasterId": "P02500000FsoEcWSsXJrO3qMZnRKEnB83E7P3VR3",
    "placeName": "oak grove",
    "state": "AR"
  },
  {
    "city": "elkins",
    "state_code": "AR",
    "placeMasterId": "P02500000FsoEbNh3i9F6Z2PBMwYtVG70YNMFERk",
    "placeName": "elkins",
    "state": "AR"
  },
  {
    "city": "huntsville",
    "state_code": "AR",
    "placeMasterId": "P02500000FsoEbx4y7jYFJRNsaBwZ9DbkmXGUxRo",
    "placeName": "huntsville",
    "state": "AR"
  },
  {
    "city": "hector",
    "state_code": "AR",
    "placeMasterId": "P02500000FsoEboEUWKyScq8hmNb9EjGnZJPTncU",
    "placeName": "hector",
    "state": "AR"
  },
  {
    "city": "alma",
    "state_code": "AR",
    "placeMasterId": "P02500000FsoEaWcC5lmORQw8Y4UO2JvjIVQwjuM",
    "placeName": "alma",
    "state": "AR"
  },
  {
    "city": "edmond",
    "state_code": "OK",
    "placeMasterId": "P02500000FsoGL6jY6R0zKaBjx1NQP6aBd1eiWKr",
    "placeName": "edmond",
    "state": "OK"
  },
  {
    "city": "colony",
    "state_code": "OK",
    "placeMasterId": "P02500000FsoGKgC7IFHdGmSDXaLAfdZSO6Q6FQR",
    "placeName": "colony",
    "state": "OK"
  },
  {
    "city": "luther",
    "state_code": "OK",
    "placeMasterId": "P02500000FsoGMFVMvbdGpO98NW8lh1Y7lMFq1Na",
    "placeName": "luther",
    "state": "OK"
  },
  {
    "city": "marlow",
    "state_code": "OK",
    "placeMasterId": "P02500000FsoGMFVMvbdGpO98NW8lh1gO1S1jqM3",
    "placeName": "marlow",
    "state": "OK"
  },
  {
    "city": "carmen",
    "state_code": "OK",
    "placeMasterId": "P02500000FsoGKXLdgqhqaBD2jlzkl93T7EOyZd8",
    "placeName": "carmen",
    "state": "OK"
  },
  {
    "city": "nash",
    "state_code": "OK",
    "placeMasterId": "P02500000FsoGMXCK8OmqCadTz8pbW0IKHlImsLg",
    "placeName": "nash",
    "state": "OK"
  },
  {
    "city": "broken arrow",
    "state_code": "OK",
    "placeMasterId": "P02500000FsoGKFegU3YHCyih89IuwAJycRydnPR",
    "placeName": "broken arrow",
    "state": "OK"
  },
  {
    "city": "dewey",
    "state_code": "OK",
    "placeMasterId": "P02500000FsoGKp2atdrPxNhOLOgaa7wyaCUT1jT",
    "placeName": "dewey",
    "state": "OK"
  },
  {
    "city": "pawhuska",
    "state_code": "OK",
    "placeMasterId": "P02500000FsoGMotHLBwPZn7palWRKz0A7vSetcx",
    "placeName": "pawhuska",
    "state": "OK"
  },
  {
    "city": "sapulpa",
    "state_code": "OK",
    "placeMasterId": "P02500000FsoGNFQi9NfldarM0CYh4S9pIroKEwv",
    "placeName": "sapulpa",
    "state": "OK"
  },
  {
    "city": "tulsa",
    "state_code": "OK",
    "placeMasterId": "P02500000FsoGNfy8xZP7hOasPdawnvKembwKfLR",
    "placeName": "tulsa",
    "state": "OK"
  },
  {
    "city": "tulsa",
    "state_code": "OK",
    "placeMasterId": "P02500000FsoGNfy8xZP7hOasPdawnvKembwKfLR",
    "placeName": "tulsa",
    "state": "OK"
  },
  {
    "city": "ketchum",
    "state_code": "OK",
    "placeMasterId": "P02500000FsoGLoxw7PtulaPby56VxYVbfQwCOy5",
    "placeName": "ketchum",
    "state": "OK"
  },
  {
    "city": "boynton",
    "state_code": "OK",
    "placeMasterId": "P02500000FsoGK6oCseyUWNTWKKxV1g51gWdiDbS",
    "placeName": "boynton",
    "state": "OK"
  },
  {
    "city": "rattan",
    "state_code": "OK",
    "placeMasterId": "P02500000FsoGMxjkwaWCGON0OZrrFTSwP4tqJgg",
    "placeName": "rattan",
    "state": "OK"
  },
  {
    "city": "wilburton",
    "state_code": "OK",
    "placeMasterId": "P02500000FsoGO6VZll8TlCKOp4dCXOPk8lzSgt0",
    "placeName": "wilburton",
    "state": "OK"
  },
  {
    "city": "sawyer",
    "state_code": "OK",
    "placeMasterId": "P02500000FsoGNFQi9NfldarM0CYh4SG7Fz1qpbA",
    "placeName": "sawyer",
    "state": "OK"
  },
  {
    "city": "shawnee",
    "state_code": "OK",
    "placeMasterId": "P02500000FsoGNFQi9NfldarM0CYh4SHhdcfRfox",
    "placeName": "shawnee",
    "state": "OK"
  },
  {
    "city": "moffett",
    "state_code": "OK",
    "placeMasterId": "P02500000FsoGMXCK8OmqCadTz8pbW0FSWQSZaBt",
    "placeName": "moffett",
    "state": "OK"
  },
  {
    "city": "roland",
    "state_code": "OK",
    "placeMasterId": "P02500000FsoGN6aEXz5ywzcBCODH9xpjnjxhnVQ",
    "placeName": "roland",
    "state": "OK"
  },
  {
    "city": "sallisaw",
    "state_code": "OK",
    "placeMasterId": "P02500000FsoGN6aEXz5ywzcBCODH9xoX7QofYvO",
    "placeName": "sallisaw",
    "state": "OK"
  },
  {
    "city": "carrollton",
    "state_code": "TX",
    "placeMasterId": "P02500000FsoGjeJfqcI3VuHi8gnJ7MXGWnfbcgm",
    "placeName": "carrollton",
    "state": "TX"
  },
  {
    "city": "denison",
    "state_code": "TX",
    "placeMasterId": "P02500000FsoGkVOXSzkldVkkxYroaIh5eGqIBAI",
    "placeName": "denison",
    "state": "TX"
  },
  {
    "city": "wylie",
    "state_code": "TX",
    "placeMasterId": "P02500000FsoGsD6K2OvAjwyALPWNmkqrfHken11",
    "placeName": "wylie",
    "state": "TX"
  },
  {
    "city": "dallas",
    "state_code": "TX",
    "placeMasterId": "P02500000FsoGkMY3rbAywuVa9kWOfoNE7vnQ9N4",
    "placeName": "dallas",
    "state": "TX"
  },
  {
    "city": "dallas",
    "state_code": "TX",
    "placeMasterId": "P02500000FsoGkMY3rbAywuVa9kWOfoNE7vnQ9N4",
    "placeName": "dallas",
    "state": "TX"
  },
  {
    "city": "whitewright",
    "state_code": "TX",
    "placeMasterId": "P02500000FsoGs4FqR0LO3LizXbAxsGQw9amlldA",
    "placeName": "whitewright",
    "state": "TX"
  },
  {
    "city": "winfield",
    "state_code": "TX",
    "placeMasterId": "P02500000FsoGsD6K2OvAjwyALPWNmkg9yMoo1Fo",
    "placeName": "winfield",
    "state": "TX"
  },
  {
    "city": "overton",
    "state_code": "TX",
    "placeMasterId": "P02500000FsoGovdLAHe6w8L9rjZlpUGh3rSLBbv",
    "placeName": "overton",
    "state": "TX"
  },
  {
    "city": "jacksonville",
    "state_code": "TX",
    "placeMasterId": "P02500000FsoGmVFDuXplFvBCCvhfL9uygZEuulu",
    "placeName": "jacksonville",
    "state": "TX"
  },
  {
    "city": "lufkin",
    "state_code": "TX",
    "placeMasterId": "P02500000FsoGne12jiS2kj8adQT0d52WJQDytSv",
    "placeName": "lufkin",
    "state": "TX"
  },
  {
    "city": "arlington",
    "state_code": "TX",
    "placeMasterId": "P02500000FsoGiVXr1Rfm16KJiC1xpRRvnErdMUM",
    "placeName": "arlington",
    "state": "TX"
  },
  {
    "city": "hurst",
    "state_code": "TX",
    "placeMasterId": "P02500000FsoGmMOkJ9FyZJw1P7MFQfYBu6bxbfg",
    "placeName": "hurst",
    "state": "TX"
  },
  {
    "city": "covington",
    "state_code": "TX",
    "placeMasterId": "P02500000FsoGk4r6eo1PZi1EY7pYqpdyz9m0oit",
    "placeName": "covington",
    "state": "TX"
  },
  {
    "city": "houston",
    "state_code": "TX",
    "placeMasterId": "P02500000FsoGmDYGhkgBsigqbJ0pWBK8GcFdEcU",
    "placeName": "houston",
    "state": "TX"
  },
  {
    "city": "houston",
    "state_code": "TX",
    "placeMasterId": "P02500000FsoGmDYGhkgBsigqbJ0pWBK8GcFdEcU",
    "placeName": "houston",
    "state": "TX"
  },
  {
    "city": "houston",
    "state_code": "TX",
    "placeMasterId": "P02500000FsoGmDYGhkgBsigqbJ0pWBK8GcFdEcU",
    "placeName": "houston",
    "state": "TX"
  },
  {
    "city": "humble",
    "state_code": "TX",
    "placeMasterId": "P02500000FsoGmMOkJ9FyZJw1P7MFQfXHtJGBxlx",
    "placeName": "humble",
    "state": "TX"
  },
  {
    "city": "wallis",
    "state_code": "TX",
    "placeMasterId": "P02500000FsoGrdiPcoc1zXzT8A8i8nPJ8hLzTTJ",
    "placeName": "wallis",
    "state": "TX"
  },
  {
    "city": "tivoli",
    "state_code": "TX",
    "placeMasterId": "P02500000FsoGrM1SQ1SScLV7WXRsJofd8huUTja",
    "placeName": "tivoli",
    "state": "TX"
  },
  {
    "city": "boerne",
    "state_code": "TX",
    "placeMasterId": "P02500000FsoGj4vlR1yulVJ0vRPdTOz0vEe43vV",
    "placeName": "boerne",
    "state": "TX"
  },
  {
    "city": "pleasanton",
    "state_code": "TX",
    "placeMasterId": "P02500000FsoGpMAlyTNSzw4gHAc1YxGIOrPUAfp",
    "placeName": "pleasanton",
    "state": "TX"
  },
  {
    "city": "floresville",
    "state_code": "TX",
    "placeMasterId": "P02500000FsoGlDcvTydh4Vycycau8kdTCBbWwby",
    "placeName": "floresville",
    "state": "TX"
  },
  {
    "city": "mcqueeney",
    "state_code": "TX",
    "placeMasterId": "P02500000FsoGnmrWL71pRKNlREoQXZG1SxReGBW",
    "placeName": "mcqueeney",
    "state": "TX"
  },
  {
    "city": "yorktown",
    "state_code": "TX",
    "placeMasterId": "P02500000FsoGsD6K2OvAjwyALPWNmkkB1Qb2Z7G",
    "placeName": "yorktown",
    "state": "TX"
  },
  {
    "city": "corpus christi",
    "state_code": "TX",
    "placeMasterId": "P02500000FsoGkDhaGCbCGJGPLwAylJumHp42lmi",
    "placeName": "corpus christi",
    "state": "TX"
  },
  {
    "city": "corpus christi",
    "state_code": "TX",
    "placeMasterId": "P02500000FsoGkDhaGCbCGJGPLwAylJumHp42lmi",
    "placeName": "corpus christi",
    "state": "TX"
  },
  {
    "city": "corpus christi",
    "state_code": "TX",
    "placeMasterId": "P02500000FsoGkDhaGCbCGJGPLwAylJumHp42lmi",
    "placeName": "corpus christi",
    "state": "TX"
  },
  {
    "city": "mcallen",
    "state_code": "TX",
    "placeMasterId": "P02500000FsoGnmrWL71pRKNlREoQXZJVFuPMgE7",
    "placeName": "mcallen",
    "state": "TX"
  },
  {
    "city": "san juan",
    "state_code": "TX",
    "placeMasterId": "P02500000FsoGqDFdaqqB7XXj62gX1tlJIds1JaC",
    "placeName": "san juan",
    "state": "TX"
  },
  {
    "city": "marble falls",
    "state_code": "TX",
    "placeMasterId": "P02500000FsoGnvhzwVbc7vcwF39qS3cHndl2Yzg",
    "placeName": "marble falls",
    "state": "TX"
  },
  {
    "city": "austin",
    "state_code": "TX",
    "placeMasterId": "P02500000FsoGieOKcqFYhhZUW0NNjvrbzzBh3wR",
    "placeName": "austin",
    "state": "TX"
  },
  {
    "city": "austin",
    "state_code": "TX",
    "placeMasterId": "P02500000FsoGieOKcqFYhhZUW0NNjvrbzzBh3wR",
    "placeName": "austin",
    "state": "TX"
  },
  {
    "city": "austin",
    "state_code": "TX",
    "placeMasterId": "P02500000FsoGieOKcqFYhhZUW0NNjvrbzzBh3wR",
    "placeName": "austin",
    "state": "TX"
  },
  {
    "city": "austin",
    "state_code": "TX",
    "placeMasterId": "P02500000FsoGieOKcqFYhhZUW0NNjvrbzzBh3wR",
    "placeName": "austin",
    "state": "TX"
  },
  {
    "city": "austin",
    "state_code": "TX",
    "placeMasterId": "P02500000FsoGieOKcqFYhhZUW0NNjvrbzzBh3wR",
    "placeName": "austin",
    "state": "TX"
  },
  {
    "city": "uvalde",
    "state_code": "TX",
    "placeMasterId": "P02500000FsoGrdiPcoc1zXzT8A8i8nCbyxPWAVL",
    "placeName": "uvalde",
    "state": "TX"
  },
  {
    "city": "crystal city",
    "state_code": "TX",
    "placeMasterId": "P02500000FsoGkMY3rbAywuVa9kWOfoKvT5dm9MY",
    "placeName": "crystal city",
    "state": "TX"
  },
  {
    "city": "darrouzett",
    "state_code": "TX",
    "placeMasterId": "P02500000FsoGkMY3rbAywuVa9kWOfoLRWo5v9TH",
    "placeName": "darrouzett",
    "state": "TX"
  },
  {
    "city": "morse",
    "state_code": "TX",
    "placeMasterId": "P02500000FsoGoMFQkhKyBjMSeUC6BWmCzeCRtsN",
    "placeName": "morse",
    "state": "TX"
  },
  {
    "city": "amarillo",
    "state_code": "TX",
    "placeMasterId": "P02500000FsoGiMhNQ35zKV58uNgXuxIaAeFmU4D",
    "placeName": "amarillo",
    "state": "TX"
  },
  {
    "city": "childress",
    "state_code": "TX",
    "placeMasterId": "P02500000FsoGjnA9S0rqCVWswV8j1qtr6lwpS2J",
    "placeName": "childress",
    "state": "TX"
  },
  {
    "city": "pecos",
    "state_code": "TX",
    "placeMasterId": "P02500000FsoGpDKIN4ngJKpVTMGbeStFOdIs6fg",
    "placeName": "pecos",
    "state": "TX"
  },
  {
    "city": "alpine",
    "state_code": "TX",
    "placeMasterId": "P02500000FsoGiMhNQ35zKV58uNgXuxEOchKfiaa",
    "placeName": "alpine",
    "state": "TX"
  },
  {
    "city": "marfa",
    "state_code": "TX",
    "placeMasterId": "P02500000FsoGnmrWL71pRKNlREoQXZMVLgv7SsF",
    "placeName": "marfa",
    "state": "TX"
  },
  {
    "city": "el paso",
    "state_code": "TX",
    "placeMasterId": "P02500000FsoGkn5UfmuL0iF6ZBYePHb6XkiWYkD",
    "placeName": "el paso",
    "state": "TX"
  },
  {
    "city": "fort bliss",
    "state_code": "TX",
    "placeMasterId": "P02500000FsoGlDcvTydh4Vycycau8khnjGRJ0gF",
    "placeName": "fort bliss",
    "state": "TX"
  },
  {
    "city": "el paso",
    "state_code": "TX",
    "placeMasterId": "P02500000FsoGkn5UfmuL0iF6ZBYePHb6XkiWYkD",
    "placeName": "el paso",
    "state": "TX"
  },
  {
    "city": "el paso",
    "state_code": "TX",
    "placeMasterId": "P02500000FsoGkn5UfmuL0iF6ZBYePHb6XkiWYkD",
    "placeName": "el paso",
    "state": "TX"
  },
  {
    "city": "arvada",
    "state_code": "CO",
    "placeMasterId": "P02500000FsoEmViIl4GM9tUm2HVUZT9cbsYF4K3",
    "placeName": "arvada",
    "state": "CO"
  },
  {
    "city": "aurora",
    "state_code": "CO",
    "placeMasterId": "P02500000FsoEmViIl4GM9tUm2HVUZT8wZbsyrI4",
    "placeName": "aurora",
    "state": "CO"
  },
  {
    "city": "aurora",
    "state_code": "CO",
    "placeMasterId": "P02500000FsoEmViIl4GM9tUm2HVUZT8wZbsyrI4",
    "placeName": "aurora",
    "state": "CO"
  },
  {
    "city": "broomfield",
    "state_code": "CO",
    "placeMasterId": "P02500000FsoEmeYmMSq8qUjwq5quTxVo6TkMWU7",
    "placeName": "broomfield",
    "state": "CO"
  },
  {
    "city": "castle rock",
    "state_code": "CO",
    "placeMasterId": "P02500000FsoEmnPFxrPvX5z7duCKORqaeNL8tmX",
    "placeName": "castle rock",
    "state": "CO"
  },
  {
    "city": "denver",
    "state_code": "CO",
    "placeMasterId": "P02500000FsoEmwFjZFziDhEIRiXkIwGQWtD2cc9",
    "placeName": "denver",
    "state": "CO"
  },
  {
    "city": "denver",
    "state_code": "CO",
    "placeMasterId": "P02500000FsoEmwFjZFziDhEIRiXkIwGQWtD2cc9",
    "placeName": "denver",
    "state": "CO"
  },
  {
    "city": "thornton",
    "state_code": "CO",
    "placeMasterId": "P02500000FsoEoePSo0v8SuAO5SglEohYMdm5eIW",
    "placeName": "thornton",
    "state": "CO"
  },
  {
    "city": "boulder",
    "state_code": "CO",
    "placeMasterId": "P02500000FsoEmeYmMSq8qUjwq5quTxTxPmoV1Le",
    "placeName": "boulder",
    "state": "CO"
  },
  {
    "city": "central city",
    "state_code": "CO",
    "placeMasterId": "P02500000FsoEmnPFxrPvX5z7duCKORq8WHW2Kxa",
    "placeName": "central city",
    "state": "CO"
  },
  {
    "city": "morrison",
    "state_code": "CO",
    "placeMasterId": "P02500000FsoEo51YOQbziVBgsDJ5arC0TdlZfpv",
    "placeName": "morrison",
    "state": "CO"
  },
  {
    "city": "longmont",
    "state_code": "CO",
    "placeMasterId": "P02500000FsoEnwB4n22D1twW4OxfgMopfGW0eOD",
    "placeName": "longmont",
    "state": "CO"
  },
  {
    "city": "niwot",
    "state_code": "CO",
    "placeMasterId": "P02500000FsoEo51YOQbziVBgsDJ5arDrZ5sz5yy",
    "placeName": "niwot",
    "state": "CO"
  },
  {
    "city": "arriba",
    "state_code": "CO",
    "placeMasterId": "P02500000FsoEmViIl4GM9tUm2HVUZT8K2U6W9tw",
    "placeName": "arriba",
    "state": "CO"
  },
  {
    "city": "woodland park",
    "state_code": "CO",
    "placeMasterId": "P02500000FsoEow6Q0o4hq6ejh5Nb3nTecpRr2Ru",
    "placeName": "woodland park",
    "state": "CO"
  },
  {
    "city": "colorado springs",
    "state_code": "CO",
    "placeMasterId": "P02500000FsoEmwFjZFziDhEIRiXkIwGl9Aki2Up",
    "placeName": "colorado springs",
    "state": "CO"
  },
  {
    "city": "colorado springs",
    "state_code": "CO",
    "placeMasterId": "P02500000FsoEmwFjZFziDhEIRiXkIwGl9Aki2Up",
    "placeName": "colorado springs",
    "state": "CO"
  },
  {
    "city": "colorado springs",
    "state_code": "CO",
    "placeMasterId": "P02500000FsoEmwFjZFziDhEIRiXkIwGl9Aki2Up",
    "placeName": "colorado springs",
    "state": "CO"
  },
  {
    "city": "pueblo",
    "state_code": "CO",
    "placeMasterId": "P02500000FsoEoMiVbDlZ5hg2TpzvPpwAiu1FV6U",
    "placeName": "pueblo",
    "state": "CO"
  },
  {
    "city": "campo",
    "state_code": "CO",
    "placeMasterId": "P02500000FsoEmnPFxrPvX5z7duCKORpcLF5AO1g",
    "placeName": "campo",
    "state": "CO"
  },
  {
    "city": "holly",
    "state_code": "CO",
    "placeMasterId": "P02500000FsoEneU7aEsdehSASmGprO3iW5vV8gD",
    "placeName": "holly",
    "state": "CO"
  },
  {
    "city": "walsenburg",
    "state_code": "CO",
    "placeMasterId": "P02500000FsoEow6Q0o4hq6ejh5Nb3nOvV4rvI3t",
    "placeName": "walsenburg",
    "state": "CO"
  },
  {
    "city": "hooper",
    "state_code": "CO",
    "placeMasterId": "P02500000FsoEneU7aEsdehSASmGprO3S22Eg6hR",
    "placeName": "hooper",
    "state": "CO"
  },
  {
    "city": "durango",
    "state_code": "CO",
    "placeMasterId": "P02500000FsoEn56DAeZUuITTFWtADQc4BwwW0m5",
    "placeName": "durango",
    "state": "CO"
  },
  {
    "city": "eagle",
    "state_code": "CO",
    "placeMasterId": "P02500000FsoEnDwgm39Hatie3LEa7uw8I3lgvjU",
    "placeName": "eagle",
    "state": "CO"
  },
  {
    "city": "new castle",
    "state_code": "CO",
    "placeMasterId": "P02500000FsoEoDs1zpBmP6Qrg1eVVLXMOiygOzz",
    "placeName": "new castle",
    "state": "CO"
  },
  {
    "city": "albin",
    "state_code": "WY",
    "placeMasterId": "P02500000FsoH8cREOzITl27CjnFRZ5ZlHN4mT44",
    "placeName": "albin",
    "state": "WY"
  },
  {
    "city": "guernsey",
    "state_code": "WY",
    "placeMasterId": "P02500000FsoH9Bp8oZbcVR5tx2d7D314cWA5K0Q",
    "placeName": "guernsey",
    "state": "WY"
  },
  {
    "city": "torrington",
    "state_code": "WY",
    "placeMasterId": "P02500000FsoH9cMZclKyZEpQMTfMwWCN26iiKyF",
    "placeName": "torrington",
    "state": "WY"
  },
  {
    "city": "yoder",
    "state_code": "WY",
    "placeMasterId": "P02500000FsoH9lD3E9ulFq4bAI0mr0YcdITx8ss",
    "placeName": "yoder",
    "state": "WY"
  },
  {
    "city": "basin",
    "state_code": "WY",
    "placeMasterId": "P02500000FsoH8lHi0NsGRdMNXbarTZsAXuQZyMF",
    "placeName": "basin",
    "state": "WY"
  },
  {
    "city": "meeteetse",
    "state_code": "WY",
    "placeMasterId": "P02500000FsoH9KfcPyBPC2L4kqyX7XOdQYot2HF",
    "placeName": "meeteetse",
    "state": "WY"
  },
  {
    "city": "thermopolis",
    "state_code": "WY",
    "placeMasterId": "P02500000FsoH9cMZclKyZEpQMTfMwW9oL8PXUdk",
    "placeName": "thermopolis",
    "state": "WY"
  },
  {
    "city": "beulah",
    "state_code": "WY",
    "placeMasterId": "P02500000FsoH8lHi0NsGRdMNXbarTZqrp6Sdao7",
    "placeName": "beulah",
    "state": "WY"
  },
  {
    "city": "freedom",
    "state_code": "WY",
    "placeMasterId": "P02500000FsoH92yfDB1popqj9EHhIYcfWFILWgS",
    "placeName": "freedom",
    "state": "WY"
  },
  {
    "city": "ucon",
    "state_code": "ID",
    "placeMasterId": "P02500000FsoF1430HV8SFASXz6k7VR0g7Olf4fA",
    "placeName": "ucon",
    "state": "ID"
  },
  {
    "city": "cottonwood",
    "state_code": "ID",
    "placeMasterId": "P02500000FsoF047f3j5xQxkKMQKC80PI0pUv055",
    "placeName": "cottonwood",
    "state": "ID"
  },
  {
    "city": "fruitland",
    "state_code": "ID",
    "placeMasterId": "P02500000FsoF0Cy8f7fk7YzVAEfc2UmnuUXRSJ8",
    "placeName": "fruitland",
    "state": "ID"
  },
  {
    "city": "mountain home afb",
    "state_code": "ID",
    "placeMasterId": "P02500000FsoF0Uf5rupJUlTqlrMRrTYZkmzhD0C",
    "placeName": "mountain home afb",
    "state": "ID"
  },
  {
    "city": "star",
    "state_code": "ID",
    "placeMasterId": "P02500000FsoF1430HV8SFASXz6k7VQxfwlnFnoZ",
    "placeName": "star",
    "state": "ID"
  },
  {
    "city": "deary",
    "state_code": "ID",
    "placeMasterId": "P02500000FsoF047f3j5xQxkKMQKC80Q8x6Q4CSC",
    "placeName": "deary",
    "state": "ID"
  },
  {
    "city": "paradise",
    "state_code": "UT",
    "placeMasterId": "P02500000FsoGtdZ64Mh1bxPuNWyYteSnB9lPofh",
    "placeName": "paradise",
    "state": "UT"
  },
  {
    "city": "provo",
    "state_code": "UT",
    "placeMasterId": "P02500000FsoGtdZ64Mh1bxPuNWyYteQE3GF95H8",
    "placeName": "provo",
    "state": "UT"
  },
  {
    "city": "oak city",
    "state_code": "UT",
    "placeMasterId": "P02500000FsoGtUicSy7EvMAjZid8zA5NSv9uuPg",
    "placeName": "oak city",
    "state": "UT"
  },
  {
    "city": "henrieville",
    "state_code": "UT",
    "placeMasterId": "P02500000FsoGsvKi3No6AxC2MTFTLCj592keszW",
    "placeName": "henrieville",
    "state": "UT"
  },
  {
    "city": "rockville",
    "state_code": "UT",
    "placeMasterId": "P02500000FsoGtdZ64Mh1bxPuNWyYtedA1Ml8JO1",
    "placeName": "rockville",
    "state": "UT"
  },
  {
    "city": "toquerville",
    "state_code": "UT",
    "placeMasterId": "P02500000FsoGtvG3H9qaz9uFz9fOidGxnv99m5L",
    "placeName": "toquerville",
    "state": "UT"
  },
  {
    "city": "phoenix",
    "state_code": "AZ",
    "placeMasterId": "P02500000FsoEZWgqrzjtdEDuvO4SetJca76kZR3",
    "placeName": "phoenix",
    "state": "AZ"
  },
  {
    "city": "phoenix",
    "state_code": "AZ",
    "placeMasterId": "P02500000FsoEZWgqrzjtdEDuvO4SetJca76kZR3",
    "placeName": "phoenix",
    "state": "AZ"
  },
  {
    "city": "phoenix",
    "state_code": "AZ",
    "placeMasterId": "P02500000FsoEZWgqrzjtdEDuvO4SetJca76kZR3",
    "placeName": "phoenix",
    "state": "AZ"
  },
  {
    "city": "superior",
    "state_code": "AZ",
    "placeMasterId": "P02500000FsoEa64lHa32NdCc8dS8Iqng6BXEiDn",
    "placeName": "superior",
    "state": "AZ"
  },
  {
    "city": "mesa",
    "state_code": "AZ",
    "placeMasterId": "P02500000FsoEZEztfCaKG1jZJlNcpuaRxnUeQgp",
    "placeName": "mesa",
    "state": "AZ"
  },
  {
    "city": "mesa",
    "state_code": "AZ",
    "placeMasterId": "P02500000FsoEZEztfCaKG1jZJlNcpuaRxnUeQgp",
    "placeName": "mesa",
    "state": "AZ"
  },
  {
    "city": "chandler",
    "state_code": "AZ",
    "placeMasterId": "P02500000FsoEYNv22p7c8QGWUtJ7MyMb0MOaj2F",
    "placeName": "chandler",
    "state": "AZ"
  },
  {
    "city": "scottsdale",
    "state_code": "AZ",
    "placeMasterId": "P02500000FsoEZoNo4mtT0QiGX0lITs2v218sukG",
    "placeName": "scottsdale",
    "state": "AZ"
  },
  {
    "city": "tempe",
    "state_code": "AZ",
    "placeMasterId": "P02500000FsoEZxEHgBTFh1xRKp6iOMSnYxJEd2N",
    "placeName": "tempe",
    "state": "AZ"
  },
  {
    "city": "glendale",
    "state_code": "AZ",
    "placeMasterId": "P02500000FsoEYoSSr0qyCE02uKLN6RQeREgGOxx",
    "placeName": "glendale",
    "state": "AZ"
  },
  {
    "city": "san luis",
    "state_code": "AZ",
    "placeMasterId": "P02500000FsoEZoNo4mtT0QiGX0lITs4i07D3QkC",
    "placeName": "san luis",
    "state": "AZ"
  },
  {
    "city": "san luis",
    "state_code": "AZ",
    "placeMasterId": "P02500000FsoEZoNo4mtT0QiGX0lITs4i07D3QkC",
    "placeName": "san luis",
    "state": "AZ"
  },
  {
    "city": "peoria",
    "state_code": "AZ",
    "placeMasterId": "P02500000FsoEZNqNGbA6wcyk7Zj2kOyAoqXDou0",
    "placeName": "peoria",
    "state": "AZ"
  },
  {
    "city": "surprise",
    "state_code": "AZ",
    "placeMasterId": "P02500000FsoEZxEHgBTFh1xRKp6iOMSORrjKMSL",
    "placeName": "surprise",
    "state": "AZ"
  },
  {
    "city": "sells",
    "state_code": "AZ",
    "placeMasterId": "P02500000FsoEZxEHgBTFh1xRKp6iOMOJXODCMgJ",
    "placeName": "sells",
    "state": "AZ"
  },
  {
    "city": "tucson",
    "state_code": "AZ",
    "placeMasterId": "P02500000FsoEa64lHa32NdCc8dS8IqpdZHyNtyf",
    "placeName": "tucson",
    "state": "AZ"
  },
  {
    "city": "tucson",
    "state_code": "AZ",
    "placeMasterId": "P02500000FsoEa64lHa32NdCc8dS8IqpdZHyNtyf",
    "placeName": "tucson",
    "state": "AZ"
  },
  {
    "city": "cameron",
    "state_code": "AZ",
    "placeMasterId": "P02500000FsoEYF4YRQXpRp1Lh4xhSTxC1ijEROr",
    "placeName": "cameron",
    "state": "AZ"
  },
  {
    "city": "joseph city",
    "state_code": "AZ",
    "placeMasterId": "P02500000FsoEZ69Q3o0XZQUOVx2CvQBLRQh7QO2",
    "placeName": "joseph city",
    "state": "AZ"
  },
  {
    "city": "cornville",
    "state_code": "AZ",
    "placeMasterId": "P02500000FsoEYWlVeDhOp1VhIheXHSiT9FIpqhD",
    "placeName": "cornville",
    "state": "AZ"
  },
  {
    "city": "seligman",
    "state_code": "AZ",
    "placeMasterId": "P02500000FsoEZxEHgBTFh1xRKp6iOMP7JXBkWU9",
    "placeName": "seligman",
    "state": "AZ"
  },
  {
    "city": "bullhead city",
    "state_code": "AZ",
    "placeMasterId": "P02500000FsoEYF4YRQXpRp1Lh4xhSTz0yHjg3Ag",
    "placeName": "bullhead city",
    "state": "AZ"
  },
  {
    "city": "nazlini",
    "state_code": "AZ",
    "placeMasterId": "P02500000FsoEZNqNGbA6wcyk7Zj2kOwdfPNx48j",
    "placeName": "nazlini",
    "state": "AZ"
  },
  {
    "city": "peralta",
    "state_code": "NM",
    "placeMasterId": "P02500000FsoFzqcPEN0yx4imF1u9e7Q2GP1gh8Y",
    "placeName": "peralta",
    "state": "NM"
  },
  {
    "city": "albuquerque",
    "state_code": "NM",
    "placeMasterId": "P02500000FsoFyHJ9b0fLOT1rP66Ycj5SoodoNbU",
    "placeName": "albuquerque",
    "state": "NM"
  },
  {
    "city": "el rito",
    "state_code": "NM",
    "placeMasterId": "P02500000FsoFyqh40ayU8s0YcLUEGgiMhzR3eJc",
    "placeName": "el rito",
    "state": "NM"
  },
  {
    "city": "columbus",
    "state_code": "NM",
    "placeMasterId": "P02500000FsoFyhqaPCOhSGlNoX8oMCDaD4u8n7b",
    "placeName": "columbus",
    "state": "NM"
  },
  {
    "city": "dexter",
    "state_code": "NM",
    "placeMasterId": "P02500000FsoFyhqaPCOhSGlNoX8oMCOfzmzuS4c",
    "placeName": "dexter",
    "state": "NM"
  },
  {
    "city": "santa rosa",
    "state_code": "NM",
    "placeMasterId": "P02500000FsoG0H9q2YkL0sSIeSwPNaR5s5EMKew",
    "placeName": "santa rosa",
    "state": "NM"
  },
  {
    "city": "las vegas",
    "state_code": "NV",
    "placeMasterId": "P02500000FsoFuQSGJJ58qFQ9iAmH1VC0RKB5lYR",
    "placeName": "las vegas",
    "state": "NV"
  },
  {
    "city": "las vegas",
    "state_code": "NV",
    "placeMasterId": "P02500000FsoFuQSGJJ58qFQ9iAmH1VC0RKB5lYR",
    "placeName": "las vegas",
    "state": "NV"
  },
  {
    "city": "genoa",
    "state_code": "NV",
    "placeMasterId": "P02500000FsoFuHbmhuVM9eAyuMQr70rd0be5itS",
    "placeName": "genoa",
    "state": "NV"
  },
  {
    "city": "sparks",
    "state_code": "NV",
    "placeMasterId": "P02500000FsoFui9DW6EiDRuVJnT6qTsW0mL5w4C",
    "placeName": "sparks",
    "state": "NV"
  },
  {
    "city": "buckatunna",
    "state_code": "MS",
    "placeMasterId": "P02500000FsoFgjCQPFfksZvQaDc9YTbFo9KhfQ1",
    "placeName": "buckatunna",
    "state": "MS"
  },
  {
    "city": "state line",
    "state_code": "MS",
    "placeMasterId": "P02500000FsoFiRM9e0bB7mrWDxlAULrDujLimAI",
    "placeName": "state line",
    "state": "MS"
  },
  {
    "city": "soso",
    "state_code": "MS",
    "placeMasterId": "P02500000FsoFi9fCRDRbkaNAcL4KfNI8AOk1MZ3",
    "placeName": "soso",
    "state": "MS"
  },
  {
    "city": "gulfport",
    "state_code": "MS",
    "placeMasterId": "P02500000FsoFhIaKopytcyu7nSzpCR2FcWr1z2K",
    "placeName": "gulfport",
    "state": "MS"
  },
  {
    "city": "long beach",
    "state_code": "MS",
    "placeMasterId": "P02500000FsoFhRQoQEYgJa9IbHLF6vNzhaX0EUE",
    "placeName": "long beach",
    "state": "MS"
  },
  {
    "city": "saucier",
    "state_code": "MS",
    "placeMasterId": "P02500000FsoFiIVg2c1ORBcLQ9PkZrUt6FmB2LP",
    "placeName": "saucier",
    "state": "MS"
  },
  {
    "city": "pascagoula",
    "state_code": "MS",
    "placeMasterId": "P02500000FsoFhryFEQI2NNsp0iNUqOTnv5t4GWk",
    "placeName": "pascagoula",
    "state": "MS"
  },
  {
    "city": "bainbridge",
    "state_code": "GA",
    "placeMasterId": "P02500000FsoEvV2Nl2cpRjukeRGoyKXZWNfkkGG",
    "placeName": "bainbridge",
    "state": "GA"
  },
  {
    "city": "ekron",
    "state_code": "KY",
    "placeMasterId": "P02500000FsoFNtTOmvU6BHcQX20zHoQum2YOi3p",
    "placeName": "ekron",
    "state": "KY"
  },
  {
    "city": "louisville",
    "state_code": "KY",
    "placeMasterId": "P02500000FsoFOkYGPIwoIt5TLu5UkkhkzCsPo64",
    "placeName": "louisville",
    "state": "KY"
  },
  {
    "city": "louisville",
    "state_code": "KY",
    "placeMasterId": "P02500000FsoFOkYGPIwoIt5TLu5UkkhkzCsPo64",
    "placeName": "louisville",
    "state": "KY"
  },
  {
    "city": "clay city",
    "state_code": "KY",
    "placeMasterId": "P02500000FsoFNSvxyjkk7Tsu7ayjYLKsesXOoXn",
    "placeName": "clay city",
    "state": "KY"
  },
  {
    "city": "wilmore",
    "state_code": "KY",
    "placeMasterId": "P02500000FsoFQ2AYps8sUII2aDCFxA3q353vENX",
    "placeName": "wilmore",
    "state": "KY"
  },
  {
    "city": "livingston",
    "state_code": "KY",
    "placeMasterId": "P02500000FsoFOkYGPIwoIt5TLu5UkkfIRlnM038",
    "placeName": "livingston",
    "state": "KY"
  },
  {
    "city": "worthville",
    "state_code": "KY",
    "placeMasterId": "P02500000FsoFQB12RGifAtXDO1XfreJkgWTzRyu",
    "placeName": "worthville",
    "state": "KY"
  },
  {
    "city": "louisa",
    "state_code": "KY",
    "placeMasterId": "P02500000FsoFOkYGPIwoIt5TLu5Ukkkb03NLeGM",
    "placeName": "louisa",
    "state": "KY"
  },
  {
    "city": "fancy farm",
    "state_code": "KY",
    "placeMasterId": "P02500000FsoFNtTOmvU6BHcQX20zHoR2SpJ5wRt",
    "placeName": "fancy farm",
    "state": "KY"
  },
  {
    "city": "owensboro",
    "state_code": "KY",
    "placeMasterId": "P02500000FsoFPB5hDUgAMgozlL7kUDpZDxmuU7H",
    "placeName": "owensboro",
    "state": "KY"
  },
  {
    "city": "beech grove",
    "state_code": "KY",
    "placeMasterId": "P02500000FsoFN2OXAY1O3g9Ni9wTosCq3loO4sr",
    "placeName": "beech grove",
    "state": "KY"
  },
  {
    "city": "drakesboro",
    "state_code": "KY",
    "placeMasterId": "P02500000FsoFNkcvBWuJUgNFjDfZNK5bgoESGGH",
    "placeName": "drakesboro",
    "state": "KY"
  },
  {
    "city": "dixon",
    "state_code": "KY",
    "placeMasterId": "P02500000FsoFNkcvBWuJUgNFjDfZNK2fVbOnjZz",
    "placeName": "dixon",
    "state": "KY"
  },
  {
    "city": "hardyville",
    "state_code": "KY",
    "placeMasterId": "P02500000FsoFOBALzidfYU6m8ehp6nFzIgRoH1A",
    "placeName": "hardyville",
    "state": "KY"
  },
  {
    "city": "bladensburg",
    "state_code": "OH",
    "placeMasterId": "P02500000FsoGDGBHvdGnXXj9lMNRIAAbDMaIexn",
    "placeName": "bladensburg",
    "state": "OH"
  },
  {
    "city": "hebron",
    "state_code": "OH",
    "placeMasterId": "P02500000FsoGFG1yNBLn9x9b0jDI31OG7lCXPxg",
    "placeName": "hebron",
    "state": "OH"
  },
  {
    "city": "westerville",
    "state_code": "OH",
    "placeMasterId": "P02500000FsoGJFjLGHVmOm0TVSszYjozA5qZBjY",
    "placeName": "westerville",
    "state": "OH"
  },
  {
    "city": "laurelville",
    "state_code": "OH",
    "placeMasterId": "P02500000FsoGFyGMOAEiaxNT1mwNbT8ywcc9Ulw",
    "placeName": "laurelville",
    "state": "OH"
  },
  {
    "city": "london",
    "state_code": "OH",
    "placeMasterId": "P02500000FsoGG76pzYoVHYcdpbHnVxegzCNUyQj",
    "placeName": "london",
    "state": "OH"
  },
  {
    "city": "columbus",
    "state_code": "OH",
    "placeMasterId": "P02500000FsoGDyPfwc9iyXx1mQ6Wqc0NMzPNh3d",
    "placeName": "columbus",
    "state": "OH"
  },
  {
    "city": "harpster",
    "state_code": "OH",
    "placeMasterId": "P02500000FsoGF7BUlmm0TLuQCurs8XAxrnHoI9t",
    "placeName": "harpster",
    "state": "OH"
  },
  {
    "city": "risingsun",
    "state_code": "OH",
    "placeMasterId": "P02500000FsoGHy72piJiDMnuH9mEMKUZNqW494U",
    "placeName": "risingsun",
    "state": "OH"
  },
  {
    "city": "glenford",
    "state_code": "OH",
    "placeMasterId": "P02500000FsoGEyL1AOCDmkfFP6WSE2eOv56E1T6",
    "placeName": "glenford",
    "state": "OH"
  },
  {
    "city": "lore city",
    "state_code": "OH",
    "placeMasterId": "P02500000FsoGFyGMOAEiaxNT1mwNbTJnxPJBj9M",
    "placeName": "lore city",
    "state": "OH"
  },
  {
    "city": "ashtabula",
    "state_code": "OH",
    "placeMasterId": "P02500000FsoGCgnNW2xen8kSY6zleCkiH982sBC",
    "placeName": "ashtabula",
    "state": "OH"
  },
  {
    "city": "westlake",
    "state_code": "OH",
    "placeMasterId": "P02500000FsoGJFjLGHVmOm0TVSszYjry2aZ5A0K",
    "placeName": "westlake",
    "state": "OH"
  },
  {
    "city": "walnut creek",
    "state_code": "OH",
    "placeMasterId": "P02500000FsoGJFjLGHVmOm0TVSszYjmcnAgMvcy",
    "placeName": "walnut creek",
    "state": "OH"
  },
  {
    "city": "bloomville",
    "state_code": "OH",
    "placeMasterId": "P02500000FsoGDGBHvdGnXXj9lMNRIA88Sz425XJ",
    "placeName": "bloomville",
    "state": "OH"
  },
  {
    "city": "new riegel",
    "state_code": "OH",
    "placeMasterId": "P02500000FsoGH72BDKr05lKrSHhitOKAVvzBI7m",
    "placeName": "new riegel",
    "state": "OH"
  },
  {
    "city": "hamilton",
    "state_code": "OH",
    "placeMasterId": "P02500000FsoGF7BUlmm0TLuQCurs8WznCJabQe8",
    "placeName": "hamilton",
    "state": "OH"
  },
  {
    "city": "amelia",
    "state_code": "OH",
    "placeMasterId": "P02500000FsoGCXwtueNs6XVHkIeLjiU2fEcDwX4",
    "placeName": "amelia",
    "state": "OH"
  },
  {
    "city": "milford",
    "state_code": "OH",
    "placeMasterId": "P02500000FsoGGXeGnkXrLMMAF2K3FQqpCj7eA4Q",
    "placeName": "milford",
    "state": "OH"
  },
  {
    "city": "sardinia",
    "state_code": "OH",
    "placeMasterId": "P02500000FsoGIFo02VTHaZIFsmT4BJBGgl3o5KU",
    "placeName": "sardinia",
    "state": "OH"
  },
  {
    "city": "cincinnati",
    "state_code": "OH",
    "placeMasterId": "P02500000FsoGDpZCLDZwHwhqybl6w7e8Lps6H4x",
    "placeName": "cincinnati",
    "state": "OH"
  },
  {
    "city": "cincinnati",
    "state_code": "OH",
    "placeMasterId": "P02500000FsoGDpZCLDZwHwhqybl6w7e8Lps6H4x",
    "placeName": "cincinnati",
    "state": "OH"
  },
  {
    "city": "cincinnati",
    "state_code": "OH",
    "placeMasterId": "P02500000FsoGDpZCLDZwHwhqybl6w7e8Lps6H4x",
    "placeName": "cincinnati",
    "state": "OH"
  },
  {
    "city": "cincinnati",
    "state_code": "OH",
    "placeMasterId": "P02500000FsoGDpZCLDZwHwhqybl6w7e8Lps6H4x",
    "placeName": "cincinnati",
    "state": "OH"
  },
  {
    "city": "anna",
    "state_code": "OH",
    "placeMasterId": "P02500000FsoGCpdr7RXRTjzdLvLBYgyExaAris4",
    "placeName": "anna",
    "state": "OH"
  },
  {
    "city": "bellbrook",
    "state_code": "OH",
    "placeMasterId": "P02500000FsoGCyUKiq7EALEo9jgbTBUmuiOj4Jz",
    "placeName": "bellbrook",
    "state": "OH"
  },
  {
    "city": "bourneville",
    "state_code": "OH",
    "placeMasterId": "P02500000FsoGDGBHvdGnXXj9lMNRIA8dtGCga27",
    "placeName": "bourneville",
    "state": "OH"
  },
  {
    "city": "friendship",
    "state_code": "OH",
    "placeMasterId": "P02500000FsoGEpUXYzcR69Q4bIB2JYBsHakpPIP",
    "placeName": "friendship",
    "state": "OH"
  },
  {
    "city": "wilkesville",
    "state_code": "OH",
    "placeMasterId": "P02500000FsoGJOZorg5Z5NFeJHEPTEImQqrhc6o",
    "placeName": "wilkesville",
    "state": "OH"
  },
  {
    "city": "zaleski",
    "state_code": "OH",
    "placeMasterId": "P02500000FsoGJp7Ffrov9AzAiiGfChCOgty8uqM",
    "placeName": "zaleski",
    "state": "OH"
  },
  {
    "city": "albany",
    "state_code": "OH",
    "placeMasterId": "P02500000FsoGCgnNW2xen8kSY6zleCbFIBdWE4g",
    "placeName": "albany",
    "state": "OH"
  },
  {
    "city": "jacksonville",
    "state_code": "OH",
    "placeMasterId": "P02500000FsoGFXivZyVMX9dwcLu7s02QqK6FIMq",
    "placeName": "jacksonville",
    "state": "OH"
  },
  {
    "city": "lima",
    "state_code": "OH",
    "placeMasterId": "P02500000FsoGFyGMOAEiaxNT1mwNbTDOR7AFdAX",
    "placeName": "lima",
    "state": "OH"
  },
  {
    "city": "cairo",
    "state_code": "OH",
    "placeMasterId": "P02500000FsoGDXsF8QQMukDVMz4H78uI12oOUta",
    "placeName": "cairo",
    "state": "OH"
  },
  {
    "city": "new bremen",
    "state_code": "OH",
    "placeMasterId": "P02500000FsoGGyBhbwHDPA5geTMIytr1DK3e8ME",
    "placeName": "new bremen",
    "state": "OH"
  },
  {
    "city": "van wert",
    "state_code": "OH",
    "placeMasterId": "P02500000FsoGIy2O3UMD1ZW7tqC9jlCmo1SAAZs",
    "placeName": "van wert",
    "state": "OH"
  },
  {
    "city": "fishers",
    "state_code": "IN",
    "placeMasterId": "P02500000FsoFA3N5HTUvX0sWbGVRuIOnY1YnAvr",
    "placeName": "fishers",
    "state": "IN"
  },
  {
    "city": "bainbridge",
    "state_code": "IN",
    "placeMasterId": "P02500000FsoF9CIDf62DPPPTmOQwRMCj8kB2cNS",
    "placeName": "bainbridge",
    "state": "IN"
  },
  {
    "city": "greenwood",
    "state_code": "IN",
    "placeMasterId": "P02500000FsoFAL42UGeUuDMsCtCHjH8gRYbVBYw",
    "placeName": "greenwood",
    "state": "IN"
  },
  {
    "city": "jamestown",
    "state_code": "IN",
    "placeMasterId": "P02500000FsoFAckzh3o4HPrDoVt7YFrCkvFQEMz",
    "placeName": "jamestown",
    "state": "IN"
  },
  {
    "city": "indianapolis",
    "state_code": "IN",
    "placeMasterId": "P02500000FsoFAckzh3o4HPrDoVt7YFuCi8MjR1V",
    "placeName": "indianapolis",
    "state": "IN"
  },
  {
    "city": "indianapolis",
    "state_code": "IN",
    "placeMasterId": "P02500000FsoFAckzh3o4HPrDoVt7YFuCi8MjR1V",
    "placeName": "indianapolis",
    "state": "IN"
  },
  {
    "city": "indianapolis",
    "state_code": "IN",
    "placeMasterId": "P02500000FsoFAckzh3o4HPrDoVt7YFuCi8MjR1V",
    "placeName": "indianapolis",
    "state": "IN"
  },
  {
    "city": "kouts",
    "state_code": "IN",
    "placeMasterId": "P02500000FsoFAlbTISNqy16OcKEXSkEbW4JcKit",
    "placeName": "kouts",
    "state": "IN"
  },
  {
    "city": "lowell",
    "state_code": "IN",
    "placeMasterId": "P02500000FsoFB3IQVFXQLDakDwvNHiz45HHQoNp",
    "placeName": "lowell",
    "state": "IN"
  },
  {
    "city": "wheeler",
    "state_code": "IN",
    "placeMasterId": "P02500000FsoFClS9k0SqaQWprh4ODbS5gbinnKb",
    "placeName": "wheeler",
    "state": "IN"
  },
  {
    "city": "converse",
    "state_code": "IN",
    "placeMasterId": "P02500000FsoF9lg84gLM9oOAzdoc5JcgEd2jjvj",
    "placeName": "converse",
    "state": "IN"
  },
  {
    "city": "fredericksburg",
    "state_code": "IN",
    "placeMasterId": "P02500000FsoFACDYss4iDc7hP4qromkGhzU3z1J",
    "placeName": "fredericksburg",
    "state": "IN"
  },
  {
    "city": "flat rock",
    "state_code": "IN",
    "placeMasterId": "P02500000FsoHRJJmPuuLljB1zAVBvGBiJ4g5pVM",
    "placeName": "flat rock",
    "state": "IN"
  },
  {
    "city": "cambridge city",
    "state_code": "IN",
    "placeMasterId": "P02500000FsoF9L8hGUc060eeaCmMLqYxDe10sEQ",
    "placeName": "cambridge city",
    "state": "IN"
  },
  {
    "city": "greens fork",
    "state_code": "IN",
    "placeMasterId": "P02500000FsoFAL42UGeUuDMsCtCHjH7IluIpBiC",
    "placeName": "greens fork",
    "state": "IN"
  },
  {
    "city": "straughn",
    "state_code": "IN",
    "placeMasterId": "P02500000FsoFCKuivojUWcnJSG28U8K81QMFn1k",
    "placeName": "straughn",
    "state": "IN"
  },
  {
    "city": "bloomington",
    "state_code": "IN",
    "placeMasterId": "P02500000FsoF9CIDf62DPPPTmOQwRMAEdPDRnqu",
    "placeName": "bloomington",
    "state": "IN"
  },
  {
    "city": "switz city",
    "state_code": "IN",
    "placeMasterId": "P02500000FsoFCKuivojUWcnJSG28U8NILNFYuyO",
    "placeName": "switz city",
    "state": "IN"
  },
  {
    "city": "evansville",
    "state_code": "IN",
    "placeMasterId": "P02500000FsoF9uWbg4v8qPdLnSA1zo2zspGZniW",
    "placeName": "evansville",
    "state": "IN"
  },
  {
    "city": "capac",
    "state_code": "MI",
    "placeMasterId": "P02500000FsoFXjsLPHJHajVRy3qp9c7kBhYaahn",
    "placeName": "capac",
    "state": "MI"
  },
  {
    "city": "romeo",
    "state_code": "MI",
    "placeMasterId": "P02500000FsoFaJ6wGPhPxXuaQg4LYQjl443zjDR",
    "placeName": "romeo",
    "state": "MI"
  },
  {
    "city": "detroit",
    "state_code": "MI",
    "placeMasterId": "P02500000FsoFY1ZIc4SqxvznZgXeyauoH5nCTkI",
    "placeName": "detroit",
    "state": "MI"
  },
  {
    "city": "auburn hills",
    "state_code": "MI",
    "placeMasterId": "P02500000FsoFXJKub5ZvWvlvYcoZQ8xZK2JRQVr",
    "placeName": "auburn hills",
    "state": "MI"
  },
  {
    "city": "lake orion",
    "state_code": "MI",
    "placeMasterId": "P02500000FsoFZAL7RF58SjxC0BJ0GVnCoRIiqbf",
    "placeName": "lake orion",
    "state": "MI"
  },
  {
    "city": "novi",
    "state_code": "MI",
    "placeMasterId": "P02500000FsoFZjj1qpOHD8vtDQgfuTRrSsQgCcu",
    "placeName": "novi",
    "state": "MI"
  },
  {
    "city": "atlas",
    "state_code": "MI",
    "placeMasterId": "P02500000FsoHh9GmMuyW2PLNAIqa3dLIoasFmX3",
    "placeName": "atlas",
    "state": "MI"
  },
  {
    "city": "carsonville",
    "state_code": "MI",
    "placeMasterId": "P02500000FsoFXjsLPHJHajVRy3qp9c181nZxakH",
    "placeName": "carsonville",
    "state": "MI"
  },
  {
    "city": "saginaw",
    "state_code": "MI",
    "placeMasterId": "P02500000FsoFaRxProHCe99lEUPlSv76nEZg8RV",
    "placeName": "saginaw",
    "state": "MI"
  },
  {
    "city": "saginaw",
    "state_code": "MI",
    "placeMasterId": "P02500000FsoFaRxProHCe99lEUPlSv76nEZg8RV",
    "placeName": "saginaw",
    "state": "MI"
  },
  {
    "city": "mayville",
    "state_code": "MI",
    "placeMasterId": "P02500000FsoFZS24e2EhpwRXbnzq5Uf7IaB6CYE",
    "placeName": "mayville",
    "state": "MI"
  },
  {
    "city": "greenville",
    "state_code": "MI",
    "placeMasterId": "P02500000FsoFYaxD1elziKyUmvvKcYUp23Rjaf9",
    "placeName": "greenville",
    "state": "MI"
  },
  {
    "city": "holt",
    "state_code": "MI",
    "placeMasterId": "P02500000FsoFYjngd3LmOwDfakGkX2mu6pIvKrv",
    "placeName": "holt",
    "state": "MI"
  },
  {
    "city": "owosso",
    "state_code": "MI",
    "placeMasterId": "P02500000FsoFa1Pz3cXqaLQEp3NVjRxYV8T7yyy",
    "placeName": "owosso",
    "state": "MI"
  },
  {
    "city": "potterville",
    "state_code": "MI",
    "placeMasterId": "P02500000FsoFaAGSf17dGwfPcrivdwSWFZn6173",
    "placeName": "potterville",
    "state": "MI"
  },
  {
    "city": "lansing",
    "state_code": "MI",
    "placeMasterId": "P02500000FsoFZAL7RF58SjxC0BJ0GVtzoDUs0q2",
    "placeName": "lansing",
    "state": "MI"
  },
  {
    "city": "allegan",
    "state_code": "MI",
    "placeMasterId": "P02500000FsoFX1dxOIQM9jHZx07jbALCViMUWCr",
    "placeName": "allegan",
    "state": "MI"
  },
  {
    "city": "delton",
    "state_code": "MI",
    "placeMasterId": "P02500000FsoFYAPmDT2deXEyNUt4t58WqG46Nb6",
    "placeName": "delton",
    "state": "MI"
  },
  {
    "city": "leonidas",
    "state_code": "MI",
    "placeMasterId": "P02500000FsoHkrHC3Dyvu1hu3PpRkMzghuBk9NU",
    "placeName": "leonidas",
    "state": "MI"
  },
  {
    "city": "hillsdale",
    "state_code": "MI",
    "placeMasterId": "P02500000FsoFYseAERvZ5XSqOYcARX051LZ23sD",
    "placeName": "hillsdale",
    "state": "MI"
  },
  {
    "city": "fremont",
    "state_code": "MI",
    "placeMasterId": "P02500000FsoFYS6jQGCD1jjJz7Zui3xcJ01Xi03",
    "placeName": "fremont",
    "state": "MI"
  },
  {
    "city": "grand rapids",
    "state_code": "MI",
    "placeMasterId": "P02500000FsoFYaxD1elziKyUmvvKcYHhKO7uwq1",
    "placeName": "grand rapids",
    "state": "MI"
  },
  {
    "city": "boon",
    "state_code": "MI",
    "placeMasterId": "P02500000FsoFXSBOCU9iDX16MR9zKdUkju8FPtT",
    "placeName": "boon",
    "state": "MI"
  },
  {
    "city": "glen arbor",
    "state_code": "MI",
    "placeMasterId": "P02500000FsoFYS6jQGCD1jjJz7Zui435VMgZ7yP",
    "placeName": "glen arbor",
    "state": "MI"
  },
  {
    "city": "conway",
    "state_code": "MI",
    "placeMasterId": "P02500000FsoFXsip0ft4HKkclsCF46ULH0JAZ6D",
    "placeName": "conway",
    "state": "MI"
  },
  {
    "city": "nadeau",
    "state_code": "MI",
    "placeMasterId": "P02500000FsoHlrCXH01QiEQ7g6FN7nd79pnidxe",
    "placeName": "nadeau",
    "state": "MI"
  },
  {
    "city": "copper city",
    "state_code": "MI",
    "placeMasterId": "P02500000FsoFY1ZIc4SqxvznZgXeyanXJI850Pq",
    "placeName": "copper city",
    "state": "MI"
  },
  {
    "city": "copper harbor",
    "state_code": "MI",
    "placeMasterId": "P02500000FsoFXsip0ft4HKkclsCF46UPPDNbeLu",
    "placeName": "copper harbor",
    "state": "MI"
  },
  {
    "city": "watersmeet",
    "state_code": "MI",
    "placeMasterId": "P02500000FsoHnr3DiY6QKdqYvT5DsesDeetsLjp",
    "placeName": "watersmeet",
    "state": "MI"
  },
  {
    "city": "cumming",
    "state_code": "IA",
    "placeMasterId": "P02500000FsoFEKlPNMoU92DkhcrzEzX2uXejtiD",
    "placeName": "cumming",
    "state": "IA"
  },
  {
    "city": "iowa falls",
    "state_code": "IA",
    "placeMasterId": "P02500000FsoFFcNhnw0YKRQJvvykROqWR4pFUlS",
    "placeName": "iowa falls",
    "state": "IA"
  },
  {
    "city": "minburn",
    "state_code": "IA",
    "placeMasterId": "P02500000FsoFGl9Wd6cppFNiMQk5jJo6ipBpfcc",
    "placeName": "minburn",
    "state": "IA"
  },
  {
    "city": "des moines",
    "state_code": "IA",
    "placeMasterId": "P02500000FsoFETbsylOGpdSvVRDP9Ttytdspgxt",
    "placeName": "des moines",
    "state": "IA"
  },
  {
    "city": "mason city",
    "state_code": "IA",
    "placeMasterId": "P02500000FsoFGKc5outTlReBwzhpzqlwJEelqXr",
    "placeName": "mason city",
    "state": "IA"
  },
  {
    "city": "alexander",
    "state_code": "IA",
    "placeMasterId": "P02500000FsoFD396wncPxd1BTJlE2aC05yM4wg2",
    "placeName": "alexander",
    "state": "IA"
  },
  {
    "city": "sheffield",
    "state_code": "IA",
    "placeMasterId": "P02500000FsoFHtvLSHF7K3L6mvVR1Ep18PuiSaR",
    "placeName": "sheffield",
    "state": "IA"
  },
  {
    "city": "algona",
    "state_code": "IA",
    "placeMasterId": "P02500000FsoFD396wncPxd1BTJlE2a9ezTJXLuV",
    "placeName": "algona",
    "state": "IA"
  },
  {
    "city": "early",
    "state_code": "IA",
    "placeMasterId": "P02500000FsoFETbsylOGpdSvVRDP9TvBtT4fuD5",
    "placeName": "early",
    "state": "IA"
  },
  {
    "city": "lehigh",
    "state_code": "IA",
    "placeMasterId": "P02500000FsoFG2v8c7juOF9qLN10ArxaMMF9a9D",
    "placeName": "lehigh",
    "state": "IA"
  },
  {
    "city": "sac city",
    "state_code": "IA",
    "placeMasterId": "P02500000FsoFHl4rqsfKdS5vz7A16kRNxzIu760",
    "placeName": "sac city",
    "state": "IA"
  },
  {
    "city": "thor",
    "state_code": "IA",
    "placeMasterId": "P02500000FsoFIKSmGSyTNr4dCMXgkhxuNQJj2jZ",
    "placeName": "thor",
    "state": "IA"
  },
  {
    "city": "ackley",
    "state_code": "IA",
    "placeMasterId": "P02500000FsoFD396wncPxd1BTJlE2aA3E6iUmn3",
    "placeName": "ackley",
    "state": "IA"
  },
  {
    "city": "dike",
    "state_code": "IA",
    "placeMasterId": "P02500000FsoFETbsylOGpdSvVRDP9TsxmFGN3Sd",
    "placeName": "dike",
    "state": "IA"
  },
  {
    "city": "elma",
    "state_code": "IA",
    "placeMasterId": "P02500000FsoFElIqBYXqCpxH73uEySf55Hqx7bx",
    "placeName": "elma",
    "state": "IA"
  },
  {
    "city": "holland",
    "state_code": "IA",
    "placeMasterId": "P02500000FsoFFTXECXQldqB987dKWuThN4k55hU",
    "placeName": "holland",
    "state": "IA"
  },
  {
    "city": "tripoli",
    "state_code": "IA",
    "placeMasterId": "P02500000FsoFITJFrrYG4SJo0At6fCI170nRdYp",
    "placeName": "tripoli",
    "state": "IA"
  },
  {
    "city": "massena",
    "state_code": "IA",
    "placeMasterId": "P02500000FsoFGTSZQJTGS2tMko3FuL5PvuQiaO6",
    "placeName": "massena",
    "state": "IA"
  },
  {
    "city": "breda",
    "state_code": "IA",
    "placeMasterId": "P02500000FsoFDcX1MNvYi1zsgZ8tgXdso2whWrM",
    "placeName": "breda",
    "state": "IA"
  },
  {
    "city": "halbur",
    "state_code": "IA",
    "placeMasterId": "P02500000FsoFFBqGzkHCGdgnWUwUhvkCcFRPDR4",
    "placeName": "halbur",
    "state": "IA"
  },
  {
    "city": "earling",
    "state_code": "IA",
    "placeMasterId": "P02500000FsoFEcSMa9y3WEi6JFYp3yGDGIICIIQ",
    "placeName": "earling",
    "state": "IA"
  },
  {
    "city": "portsmouth",
    "state_code": "IA",
    "placeMasterId": "P02500000FsoFHKXR2gvyZeMPZg7lNHLX3IF9uR7",
    "placeName": "portsmouth",
    "state": "IA"
  },
  {
    "city": "red oak",
    "state_code": "IA",
    "placeMasterId": "P02500000FsoFHcEOFU5XwqqlBIobCG2uqk3d4lW",
    "placeName": "red oak",
    "state": "IA"
  },
  {
    "city": "new market",
    "state_code": "IA",
    "placeMasterId": "P02500000FsoFGu00EVCcVqctAF5VdoFVXJcO0fv",
    "placeName": "new market",
    "state": "IA"
  },
  {
    "city": "epworth",
    "state_code": "IA",
    "placeMasterId": "P02500000FsoFElIqBYXqCpxH73uEySdvGLrvjdK",
    "placeName": "epworth",
    "state": "IA"
  },
  {
    "city": "zwingle",
    "state_code": "IA",
    "placeMasterId": "P02500000FsoFItqgg3Hc8G3KPbvMOfWZ4OAOQgR",
    "placeName": "zwingle",
    "state": "IA"
  },
  {
    "city": "fort atkinson",
    "state_code": "IA",
    "placeMasterId": "P02500000FsoFEu9Jmx7ctRCRusFesx1gwt3I2i5",
    "placeName": "fort atkinson",
    "state": "IA"
  },
  {
    "city": "chelsea",
    "state_code": "IA",
    "placeMasterId": "P02500000FsoFDuDyZB585EUEIBpjVWNbh5urPNq",
    "placeName": "chelsea",
    "state": "IA"
  },
  {
    "city": "kalona",
    "state_code": "IA",
    "placeMasterId": "P02500000FsoFFlEBPKaL12fUjkKALtFE27aGFUL",
    "placeName": "kalona",
    "state": "IA"
  },
  {
    "city": "keystone",
    "state_code": "IA",
    "placeMasterId": "P02500000FsoFFu4f0jA7hdufXYfaGNa3drwRWVb",
    "placeName": "keystone",
    "state": "IA"
  },
  {
    "city": "riverside",
    "state_code": "IA",
    "placeMasterId": "P02500000FsoFHcEOFU5XwqqlBIobCG63K3RPY0e",
    "placeName": "riverside",
    "state": "IA"
  },
  {
    "city": "vining",
    "state_code": "IA",
    "placeMasterId": "P02500000FsoFIc9jTG82l3YynzEWZgfpbGop6N8",
    "placeName": "vining",
    "state": "IA"
  },
  {
    "city": "douds",
    "state_code": "IA",
    "placeMasterId": "P02500000FsoFETbsylOGpdSvVRDP9TsRTE2mFZf",
    "placeName": "douds",
    "state": "IA"
  },
  {
    "city": "libertyville",
    "state_code": "IA",
    "placeMasterId": "P02500000FsoFGBlcDWJh4qP19BMQ5MLt6cevgmv",
    "placeName": "libertyville",
    "state": "IA"
  },
  {
    "city": "unionville",
    "state_code": "IA",
    "placeMasterId": "P02500000FsoFITJFrrYG4SJo0At6fCIemBNGTrc",
    "placeName": "unionville",
    "state": "IA"
  },
  {
    "city": "burlington",
    "state_code": "IA",
    "placeMasterId": "P02500000FsoFDcX1MNvYi1zsgZ8tgXhBS5eWk9Z",
    "placeName": "burlington",
    "state": "IA"
  },
  {
    "city": "morning sun",
    "state_code": "IA",
    "placeMasterId": "P02500000FsoFGl9Wd6cppFNiMQk5jJoSGx68uL2",
    "placeName": "morning sun",
    "state": "IA"
  },
  {
    "city": "lomira",
    "state_code": "WI",
    "placeMasterId": "P02500000FsoHEbzHjdXScGOWTtkzpeya0HVHyYs",
    "placeName": "lomira",
    "state": "WI"
  },
  {
    "city": "bristol",
    "state_code": "WI",
    "placeMasterId": "P02500000FsoIg4gevBQpQuqmE2M26ntyn7NGvR2",
    "placeName": "bristol",
    "state": "WI"
  },
  {
    "city": "kenosha",
    "state_code": "WI",
    "placeMasterId": "P02500000FsoH6C379FU84oxF4zNL4lBdr6f6YX2",
    "placeName": "kenosha",
    "state": "WI"
  },
  {
    "city": "twin lakes",
    "state_code": "WI",
    "placeMasterId": "P02500000FsoH8BtnanZ7hENgKMDBpcP7NSkL7in",
    "placeName": "twin lakes",
    "state": "WI"
  },
  {
    "city": "browntown",
    "state_code": "WI",
    "placeMasterId": "P02500000FsoH4laL7HiHCoVV2rv9xrYWiwjb5pC",
    "placeName": "browntown",
    "state": "WI"
  },
  {
    "city": "cobb",
    "state_code": "WI",
    "placeMasterId": "P02500000FsoH53HIK4rqa0zqeUbzmqHv4pPxlSI",
    "placeName": "cobb",
    "state": "WI"
  },
  {
    "city": "darlington",
    "state_code": "WI",
    "placeMasterId": "P02500000FsoH5KyFWs1PxDUCG7IpbowBOobcJ7c",
    "placeName": "darlington",
    "state": "WI"
  },
  {
    "city": "baldwin",
    "state_code": "WI",
    "placeMasterId": "P02500000FsoHFkl6Yo9k74LuuOWL7ZzmYCK7Tcx",
    "placeName": "baldwin",
    "state": "WI"
  },
  {
    "city": "wrightstown",
    "state_code": "WI",
    "placeMasterId": "P02500000FsoHEKIKWqNtF3uAsH4A0gKPwFfAz6r",
    "placeName": "wrightstown",
    "state": "WI"
  },
  {
    "city": "denmark",
    "state_code": "WI",
    "placeMasterId": "P02500000FsoH5C7lvTRdGcF1SIxPhKe9eXGpsDs",
    "placeName": "denmark",
    "state": "WI"
  },
  {
    "city": "chili",
    "state_code": "WI",
    "placeMasterId": "P02500000FsoH53HIK4rqa0zqeUbzmqE2ZGgq383",
    "placeName": "chili",
    "state": "WI"
  },
  {
    "city": "loyal",
    "state_code": "WI",
    "placeMasterId": "P02500000FsoH6Tk4M2dhS1Ragc4Atk0MxH0IihJ",
    "placeName": "loyal",
    "state": "WI"
  },
  {
    "city": "tony",
    "state_code": "WI",
    "placeMasterId": "P02500000FsoH8BtnanZ7hENgKMDBpcJak86cAN9",
    "placeName": "tony",
    "state": "WI"
  },
  {
    "city": "genoa",
    "state_code": "WI",
    "placeMasterId": "P02500000FsoHFtbaACjWnfb5iCrl24N4MYtCLkW",
    "placeName": "genoa",
    "state": "WI"
  },
  {
    "city": "elmwood",
    "state_code": "WI",
    "placeMasterId": "P02500000FsoH5Toj8GbCdojN3veFWJPAJCim4NI",
    "placeName": "elmwood",
    "state": "WI"
  },
  {
    "city": "new auburn",
    "state_code": "WI",
    "placeMasterId": "P02500000FsoH6uHVAEN3VpB7636QdD7AhFYcfU2",
    "placeName": "new auburn",
    "state": "WI"
  },
  {
    "city": "bayfield",
    "state_code": "WI",
    "placeMasterId": "P02500000FsoH4TtNuUYhpc19RFEK8shGfAMxxEi",
    "placeName": "bayfield",
    "state": "WI"
  },
  {
    "city": "hawthorne",
    "state_code": "WI",
    "placeMasterId": "P02500000FsoIhdzuYXmSzWXh3y9d8BxC1FzT5DO",
    "placeName": "hawthorne",
    "state": "WI"
  },
  {
    "city": "herbster",
    "state_code": "WI",
    "placeMasterId": "P02500000FsoH63CdXquLODi4HB1vAGlMEl04c5K",
    "placeName": "herbster",
    "state": "WI"
  },
  {
    "city": "stone lake",
    "state_code": "WI",
    "placeMasterId": "P02500000FsoIkM4z14kO2wC0KOiZRUzN4zow3tZ",
    "placeName": "stone lake",
    "state": "WI"
  },
  {
    "city": "dennison",
    "state_code": "MN",
    "placeMasterId": "P02500000FsoFcIxchxmPZxL1g2uCJHuChgO4aSR",
    "placeName": "dennison",
    "state": "MN"
  },
  {
    "city": "delano",
    "state_code": "MN",
    "placeMasterId": "P02500000FsoFcA796ZCctM5qsEYmOngdvrl1Yrm",
    "placeName": "delano",
    "state": "MN"
  },
  {
    "city": "hanover",
    "state_code": "MN",
    "placeMasterId": "P02500000FsoFdA2UKLF7hYo4UuyhmECab5ePBsN",
    "placeName": "hanover",
    "state": "MN"
  },
  {
    "city": "hopkins",
    "state_code": "MN",
    "placeMasterId": "P02500000FsoFdRjRX8Oh4lIQ6XfXbCsCaKrMG4s",
    "placeName": "hopkins",
    "state": "MN"
  },
  {
    "city": "minneapolis",
    "state_code": "MN",
    "placeMasterId": "P02500000FsoFeIoJ9VrPCMlSvPk349D9alJlgNT",
    "placeName": "minneapolis",
    "state": "MN"
  },
  {
    "city": "moose lake",
    "state_code": "MN",
    "placeMasterId": "P02500000FsoFeRemkuRBsy0djE5SydUlaod7Ir1",
    "placeName": "moose lake",
    "state": "MN"
  },
  {
    "city": "willow river",
    "state_code": "MN",
    "placeMasterId": "P02500000FsoFgIezb3wOomBuAmZtp0VFR0H1Iil",
    "placeName": "willow river",
    "state": "MN"
  },
  {
    "city": "chatfield",
    "state_code": "MN",
    "placeMasterId": "P02500000FsoFc1GfVAcqCkqg4QDMUJA8jdfHlxn",
    "placeName": "chatfield",
    "state": "MN"
  },
  {
    "city": "sargeant",
    "state_code": "MN",
    "placeMasterId": "P02500000FsoFfRa7ygTghAirLuVOM4Gpe9SoL0Q",
    "placeName": "sargeant",
    "state": "MN"
  },
  {
    "city": "blue earth",
    "state_code": "MN",
    "placeMasterId": "P02500000FsoFbajEgytU8x79ezB6kqEnaVjYuAi",
    "placeName": "blue earth",
    "state": "MN"
  },
  {
    "city": "elysian",
    "state_code": "MN",
    "placeMasterId": "P02500000FsoFcRo6JMMCGYaCTrFcDmTYvOzlClb",
    "placeName": "elysian",
    "state": "MN"
  },
  {
    "city": "janesville",
    "state_code": "MN",
    "placeMasterId": "P02500000FsoFdRjRX8Oh4lIQ6XfXbD37npC8RWQ",
    "placeName": "janesville",
    "state": "MN"
  },
  {
    "city": "sanborn",
    "state_code": "MN",
    "placeMasterId": "P02500000FsoFfRa7ygTghAirLuVOM4BBH0KZIGk",
    "placeName": "sanborn",
    "state": "MN"
  },
  {
    "city": "windom",
    "state_code": "MN",
    "placeMasterId": "P02500000FsoFgIezb3wOomBuAmZtp0R0AqCnwoq",
    "placeName": "windom",
    "state": "MN"
  },
  {
    "city": "round lake",
    "state_code": "MN",
    "placeMasterId": "P02500000FsoFfIjeNHtu0ZTgY69yRZh5JxUNSA8",
    "placeName": "round lake",
    "state": "MN"
  },
  {
    "city": "cosmos",
    "state_code": "MN",
    "placeMasterId": "P02500000FsoFcA796ZCctM5qsEYmOnXOmikOZPe",
    "placeName": "cosmos",
    "state": "MN"
  },
  {
    "city": "graceville",
    "state_code": "MN",
    "placeMasterId": "P02500000FsoFd1C0iwfL0xYth6dHrjnCKRrba8u",
    "placeName": "graceville",
    "state": "MN"
  },
  {
    "city": "bowlus",
    "state_code": "MN",
    "placeMasterId": "P02500000FsoFbajEgytU8x79ezB6kqHxYEHDrfI",
    "placeName": "bowlus",
    "state": "MN"
  },
  {
    "city": "sartell",
    "state_code": "MN",
    "placeMasterId": "P02500000FsoFfRa7ygTghAirLuVOM4E3GOernaM",
    "placeName": "sartell",
    "state": "MN"
  },
  {
    "city": "swanville",
    "state_code": "MN",
    "placeMasterId": "P02500000FsoFfjH5BTdG4NDCxXCEB2yBjJKrrBq",
    "placeName": "swanville",
    "state": "MN"
  },
  {
    "city": "pillager",
    "state_code": "MN",
    "placeMasterId": "P02500000FsoFesCDZ6AXwlkA8f7ii6l6R7LsFvF",
    "placeName": "pillager",
    "state": "MN"
  },
  {
    "city": "battle lake",
    "state_code": "MN",
    "placeMasterId": "P02500000FsoFbRsl5aJhSLryrApgqLmMA14wxid",
    "placeName": "battle lake",
    "state": "MN"
  },
  {
    "city": "elbow lake",
    "state_code": "MN",
    "placeMasterId": "P02500000FsoFcRo6JMMCGYaCTrFcDmWUoUNo1st",
    "placeName": "elbow lake",
    "state": "MN"
  },
  {
    "city": "naytahwaush",
    "state_code": "MN",
    "placeMasterId": "P02500000FsoFeaVGMJ0yZZFoX2Qst7tpD3BKAZk",
    "placeName": "naytahwaush",
    "state": "MN"
  },
  {
    "city": "bigfork",
    "state_code": "MN",
    "placeMasterId": "P02500000FsoFbRsl5aJhSLryrApgqLlK8cYfZs8",
    "placeName": "bigfork",
    "state": "MN"
  },
  {
    "city": "blackduck",
    "state_code": "MN",
    "placeMasterId": "P02500000FsoFbRsl5aJhSLryrApgqLsU3dVr9zO",
    "placeName": "blackduck",
    "state": "MN"
  },
  {
    "city": "donaldson",
    "state_code": "MN",
    "placeMasterId": "P02500000FsoFcIxchxmPZxL1g2uCJI2WQtzRENk",
    "placeName": "donaldson",
    "state": "MN"
  },
  {
    "city": "halma",
    "state_code": "MN",
    "placeMasterId": "P02500000FsoFdA2UKLF7hYo4UuyhmE9hpW4HEXl",
    "placeName": "halma",
    "state": "MN"
  },
  {
    "city": "freeman",
    "state_code": "SD",
    "placeMasterId": "P02500000FsoGeE9WvYMDP4z5bpfQUkKoPUoLwox",
    "placeName": "freeman",
    "state": "SD"
  },
  {
    "city": "montrose",
    "state_code": "SD",
    "placeMasterId": "P02500000FsoGenXRL8fM9Txmp5368hosbYwRyix",
    "placeName": "montrose",
    "state": "SD"
  },
  {
    "city": "tea",
    "state_code": "SD",
    "placeMasterId": "P02500000FsoGfMvLkiyUtswU2KQlmfFxPII5MdS",
    "placeName": "tea",
    "state": "SD"
  },
  {
    "city": "castlewood",
    "state_code": "SD",
    "placeMasterId": "P02500000FsoGdnc67McrLHFZCOdAlHN2dQKFUEW",
    "placeName": "castlewood",
    "state": "SD"
  },
  {
    "city": "lake city",
    "state_code": "SD",
    "placeMasterId": "P02500000FsoGeVqU8LVmmHTRDSMGJj7uNx4wMgW",
    "placeName": "lake city",
    "state": "SD"
  },
  {
    "city": "fulton",
    "state_code": "SD",
    "placeMasterId": "P02500000FsoGeE9WvYMDP4z5bpfQUkMhYIJIxlk",
    "placeName": "fulton",
    "state": "SD"
  },
  {
    "city": "lake andes",
    "state_code": "SD",
    "placeMasterId": "P02500000FsoGeVqU8LVmmHTRDSMGJjLBvtICcwq",
    "placeName": "lake andes",
    "state": "SD"
  },
  {
    "city": "wessington springs",
    "state_code": "SD",
    "placeMasterId": "P02500000FsoGfecIxW84H5Qpdx7bbe1qeHr0CiM",
    "placeName": "wessington springs",
    "state": "SD"
  },
  {
    "city": "akaska",
    "state_code": "SD",
    "placeMasterId": "P02500000FsoGdVv8uZTHy4lDalwKwITkqD5ZZoN",
    "placeName": "akaska",
    "state": "SD"
  },
  {
    "city": "mansfield",
    "state_code": "SD",
    "placeMasterId": "P02500000FsoGeegxjk5ZSsic1GhgEDXTjBRZIUL",
    "placeName": "mansfield",
    "state": "SD"
  },
  {
    "city": "okreek",
    "state_code": "SD",
    "placeMasterId": "P02500000FsoGewNuwXF8q5CxctOW3CLbvOUY71I",
    "placeName": "okreek",
    "state": "SD"
  },
  {
    "city": "box elder",
    "state_code": "SD",
    "placeMasterId": "P02500000FsoGdelcVy34eg0OOaHkqn1n28wO65v",
    "placeName": "box elder",
    "state": "SD"
  },
  {
    "city": "lead",
    "state_code": "SD",
    "placeMasterId": "P02500000FsoGeegxjk5ZSsic1GhgEDSa6oWaOcw",
    "placeName": "lead",
    "state": "SD"
  },
  {
    "city": "pine ridge",
    "state_code": "SD",
    "placeMasterId": "P02500000FsoGf5EOXvovWgS8QhjvxgZJZ7g6ohI",
    "placeName": "pine ridge",
    "state": "SD"
  },
  {
    "city": "los angeles",
    "state_code": "CA",
    "placeMasterId": "P02500000FsoEiEJyfAwnXs9Xvv8xEm0Sp2kcekK",
    "placeName": "los angeles",
    "state": "CA"
  },
  {
    "city": "los angeles",
    "state_code": "CA",
    "placeMasterId": "P02500000FsoEiEJyfAwnXs9Xvv8xEm0Sp2kcekK",
    "placeName": "los angeles",
    "state": "CA"
  },
  {
    "city": "los angeles",
    "state_code": "CA",
    "placeMasterId": "P02500000FsoEiEJyfAwnXs9Xvv8xEm0Sp2kcekK",
    "placeName": "los angeles",
    "state": "CA"
  },
  {
    "city": "los angeles",
    "state_code": "CA",
    "placeMasterId": "P02500000FsoEiEJyfAwnXs9Xvv8xEm0Sp2kcekK",
    "placeName": "los angeles",
    "state": "CA"
  },
  {
    "city": "whittier",
    "state_code": "CA",
    "placeMasterId": "P02500000FsoEm5ArwsX065lFcqTEq03Op0nFoD0",
    "placeName": "whittier",
    "state": "CA"
  },
  {
    "city": "santa fe springs",
    "state_code": "CA",
    "placeMasterId": "P02500000FsoEknYZWJKvugYgOXMTdafzQjANJGe",
    "placeName": "santa fe springs",
    "state": "CA"
  },
  {
    "city": "long beach",
    "state_code": "CA",
    "placeMasterId": "P02500000FsoEiEJyfAwnXs9Xvv8xElwosKjKxLA",
    "placeName": "long beach",
    "state": "CA"
  },
  {
    "city": "long beach",
    "state_code": "CA",
    "placeMasterId": "P02500000FsoEiEJyfAwnXs9Xvv8xElwosKjKxLA",
    "placeName": "long beach",
    "state": "CA"
  },
  {
    "city": "long beach",
    "state_code": "CA",
    "placeMasterId": "P02500000FsoEiEJyfAwnXs9Xvv8xElwosKjKxLA",
    "placeName": "long beach",
    "state": "CA"
  },
  {
    "city": "thousand oaks",
    "state_code": "CA",
    "placeMasterId": "P02500000FsoEledR8gne2I1jDPQz6WrBVr8NLQo",
    "placeName": "thousand oaks",
    "state": "CA"
  },
  {
    "city": "escondido",
    "state_code": "CA",
    "placeMasterId": "P02500000FsoEgETIDcrnvSj6gYJ6Tuljpe88dal",
    "placeName": "escondido",
    "state": "CA"
  },
  {
    "city": "indio",
    "state_code": "CA",
    "placeMasterId": "P02500000FsoEhEOdROuIjfRKJEj1rLO9RqRJqrW",
    "placeName": "indio",
    "state": "CA"
  },
  {
    "city": "joshua tree",
    "state_code": "CA",
    "placeMasterId": "P02500000FsoEhNF72nU5QGgV734RlplQ7VzCAFk",
    "placeName": "joshua tree",
    "state": "CA"
  },
  {
    "city": "whitewater",
    "state_code": "CA",
    "placeMasterId": "P02500000FsoEmE1LYH6mmh0QQeoekUNg6wStX3g",
    "placeName": "whitewater",
    "state": "CA"
  },
  {
    "city": "adelanto",
    "state_code": "CA",
    "placeMasterId": "P02500000FsoEdfEhMUTfYeJyDw5a564ufMIVYYD",
    "placeName": "adelanto",
    "state": "CA"
  },
  {
    "city": "fontana",
    "state_code": "CA",
    "placeMasterId": "P02500000FsoEgNJlp1Rac3yHUMeWOP8ho6QDBrF",
    "placeName": "fontana",
    "state": "CA"
  },
  {
    "city": "hesperia",
    "state_code": "CA",
    "placeMasterId": "P02500000FsoEh5Y9q0KW34C9VQNbwqzVI6gwv8R",
    "placeName": "hesperia",
    "state": "CA"
  },
  {
    "city": "phelan",
    "state_code": "CA",
    "placeMasterId": "P02500000FsoEjemkh8iePsbHy2b8Lfiwa0UWP3D",
    "placeName": "phelan",
    "state": "CA"
  },
  {
    "city": "moreno valley",
    "state_code": "CA",
    "placeMasterId": "P02500000FsoEiwYMg9piysNPwys2nDnm1HWZG0r",
    "placeName": "moreno valley",
    "state": "CA"
  },
  {
    "city": "moreno valley",
    "state_code": "CA",
    "placeMasterId": "P02500000FsoEiwYMg9piysNPwys2nDnm1HWZG0r",
    "placeName": "moreno valley",
    "state": "CA"
  },
  {
    "city": "midway city",
    "state_code": "CA",
    "placeMasterId": "P02500000FsoEierPTMg9bft4LMBCyF71j2RE3AV",
    "placeName": "midway city",
    "state": "CA"
  },
  {
    "city": "mission viejo",
    "state_code": "CA",
    "placeMasterId": "P02500000FsoEinht4lFwIH8F9AWcsjQtucQ2TZf",
    "placeName": "mission viejo",
    "state": "CA"
  },
  {
    "city": "brea",
    "state_code": "CA",
    "placeMasterId": "P02500000FsoEeNT5NTMazeXqEzofdXzDFnZk7rm",
    "placeName": "brea",
    "state": "CA"
  },
  {
    "city": "ventura",
    "state_code": "CA",
    "placeMasterId": "P02500000FsoEkei5uul9E5JVaj13j6FL1ptM6qq",
    "placeName": "ventura",
    "state": "CA"
  },
  {
    "city": "earlimart",
    "state_code": "CA",
    "placeMasterId": "P02500000FsoEfwmL0piEYGEl4vcGew2zgfnhSXK",
    "placeName": "earlimart",
    "state": "CA"
  },
  {
    "city": "bakersfield",
    "state_code": "CA",
    "placeMasterId": "P02500000FsoEdwveZHdEvqoJpYmPu4r7PsLmxxn",
    "placeName": "bakersfield",
    "state": "CA"
  },
  {
    "city": "lompoc",
    "state_code": "CA",
    "placeMasterId": "P02500000FsoEi5TV3mN0rGuN86nXKHdUMIPUPDG",
    "placeName": "lompoc",
    "state": "CA"
  },
  {
    "city": "nipomo",
    "state_code": "CA",
    "placeMasterId": "P02500000FsoEjEFJswzIM4rlYbYscCX9n6xmjHE",
    "placeName": "nipomo",
    "state": "CA"
  },
  {
    "city": "big creek",
    "state_code": "CA",
    "placeMasterId": "P02500000FsoEeEcbm4moJ3IfRBTFj3alpBvACIk",
    "placeName": "big creek",
    "state": "CA"
  },
  {
    "city": "coarsegold",
    "state_code": "CA",
    "placeMasterId": "P02500000FsoEfEXwzqpJ7G0t3rtB6U8DgPIYbNc",
    "placeName": "coarsegold",
    "state": "CA"
  },
  {
    "city": "parlier",
    "state_code": "CA",
    "placeMasterId": "P02500000FsoEjVwH5k8rjHM7AEFiRBMwlOCE8Jz",
    "placeName": "parlier",
    "state": "CA"
  },
  {
    "city": "fresno",
    "state_code": "CA",
    "placeMasterId": "P02500000FsoEgf0j1ob9zGSd5zLMDNqyCZUrC3I",
    "placeName": "fresno",
    "state": "CA"
  },
  {
    "city": "mountain view",
    "state_code": "CA",
    "placeMasterId": "P02500000FsoEiwYMg9piysNPwys2nDqaZzNzqjS",
    "placeName": "mountain view",
    "state": "CA"
  },
  {
    "city": "brentwood",
    "state_code": "CA",
    "placeMasterId": "P02500000FsoEeNT5NTMazeXqEzofdXxc1wlWwJT",
    "placeName": "brentwood",
    "state": "CA"
  },
  {
    "city": "fremont",
    "state_code": "CA",
    "placeMasterId": "P02500000FsoEgWAFQQ1NIfDSIAzwItWg8B5R7Dt",
    "placeName": "fremont",
    "state": "CA"
  },
  {
    "city": "livermore",
    "state_code": "CA",
    "placeMasterId": "P02500000FsoEi5TV3mN0rGuN86nXKHbrdblVn9U",
    "placeName": "livermore",
    "state": "CA"
  },
  {
    "city": "albany",
    "state_code": "CA",
    "placeMasterId": "P02500000FsoEdfEhMUTfYeJyDw5a564iZQ1nW0T",
    "placeName": "albany",
    "state": "CA"
  },
  {
    "city": "fairfax",
    "state_code": "CA",
    "placeMasterId": "P02500000FsoEgNJlp1Rac3yHUMeWOP6nx1OfeN8",
    "placeName": "fairfax",
    "state": "CA"
  },
  {
    "city": "san jose",
    "state_code": "CA",
    "placeMasterId": "P02500000FsoEkei5uul9E5JVaj13j6FZZ7utLyF",
    "placeName": "san jose",
    "state": "CA"
  },
  {
    "city": "san jose",
    "state_code": "CA",
    "placeMasterId": "P02500000FsoEkei5uul9E5JVaj13j6FZZ7utLyF",
    "placeName": "san jose",
    "state": "CA"
  },
  {
    "city": "stockton",
    "state_code": "CA",
    "placeMasterId": "P02500000FsoElE60KV4HyUICnyOjN3mM5drQo04",
    "placeName": "stockton",
    "state": "CA"
  },
  {
    "city": "oakdale",
    "state_code": "CA",
    "placeMasterId": "P02500000FsoEjEFJswzIM4rlYbYscCZkQMbY9R6",
    "placeName": "oakdale",
    "state": "CA"
  },
  {
    "city": "auburn",
    "state_code": "CA",
    "placeMasterId": "P02500000FsoEdwveZHdEvqoJpYmPu4p2Hno6fzp",
    "placeName": "auburn",
    "state": "CA"
  },
  {
    "city": "georgetown",
    "state_code": "CA",
    "placeMasterId": "P02500000FsoEgf0j1ob9zGSd5zLMDNsdHSuPbYi",
    "placeName": "georgetown",
    "state": "CA"
  },
  {
    "city": "rio oso",
    "state_code": "CA",
    "placeMasterId": "P02500000FsoEkN18i7bZqsp9z6KDu7WAQsvAfEC",
    "placeName": "rio oso",
    "state": "CA"
  },
  {
    "city": "sutter creek",
    "state_code": "CA",
    "placeMasterId": "P02500000FsoElMwTvte4f5XNbmk9HYArxxV62C0",
    "placeName": "sutter creek",
    "state": "CA"
  },
  {
    "city": "volcano",
    "state_code": "CA",
    "placeMasterId": "P02500000FsoElwKOLTxDPUW4p27ovVdM0au3pRd",
    "placeName": "volcano",
    "state": "CA"
  },
  {
    "city": "pollock pines",
    "state_code": "CA",
    "placeMasterId": "P02500000FsoEjwThtvsDn55dZfHyAeOA3qi67vX",
    "placeName": "pollock pines",
    "state": "CA"
  },
  {
    "city": "sacramento",
    "state_code": "CA",
    "placeMasterId": "P02500000FsoEkVrcJWBMXU4KmufdobsP4JCiDgI",
    "placeName": "sacramento",
    "state": "CA"
  },
  {
    "city": "sacramento",
    "state_code": "CA",
    "placeMasterId": "P02500000FsoEkVrcJWBMXU4KmufdobsP4JCiDgI",
    "placeName": "sacramento",
    "state": "CA"
  },
  {
    "city": "bangor",
    "state_code": "CA",
    "placeMasterId": "P02500000FsoEdwveZHdEvqoJpYmPu4qGerSxJTw",
    "placeName": "bangor",
    "state": "CA"
  },
  {
    "city": "princeton",
    "state_code": "CA",
    "placeMasterId": "P02500000FsoEjwThtvsDn55dZfHyAeT3tAvNhNH",
    "placeName": "princeton",
    "state": "CA"
  },
  {
    "city": "fort jones",
    "state_code": "CA",
    "placeMasterId": "P02500000FsoEgNJlp1Rac3yHUMeWOP9zUJFrekc",
    "placeName": "fort jones",
    "state": "CA"
  },
  {
    "city": "yreka",
    "state_code": "CA",
    "placeMasterId": "P02500000FsoEmViIl4GM9tUm2HVUZT6fme8XlrM",
    "placeName": "yreka",
    "state": "CA"
  },
  {
    "city": "keaau",
    "state_code": "HI",
    "placeMasterId": "P02500000FsoEzLtH2kD1zxWSLMb6ZYVtkn7n7Fj",
    "placeName": "keaau",
    "state": "HI"
  },
  {
    "city": "lake oswego",
    "state_code": "OR",
    "placeMasterId": "P02500000FsoGPFHOavklG0HnFZOXpJRQcpCEl4u",
    "placeName": "lake oswego",
    "state": "OR"
  },
  {
    "city": "rufus",
    "state_code": "OR",
    "placeMasterId": "P02500000FsoGPofJ0W3u0PGUSomDTGsPEbA82k9",
    "placeName": "rufus",
    "state": "OR"
  },
  {
    "city": "the dalles",
    "state_code": "OR",
    "placeMasterId": "P02500000FsoGQ6MGDJDTNbkq4RT3IFglNnkYeIA",
    "placeName": "the dalles",
    "state": "OR"
  },
  {
    "city": "beaver",
    "state_code": "OR",
    "placeMasterId": "P02500000FsoGOFM3N9iGRnZZcsycRssXHqj3DKV",
    "placeName": "beaver",
    "state": "OR"
  },
  {
    "city": "portland",
    "state_code": "OR",
    "placeMasterId": "P02500000FsoGPfopP7U7Jo1Jf0QnYmTaqhg2Hwh",
    "placeName": "portland",
    "state": "OR"
  },
  {
    "city": "detroit",
    "state_code": "OR",
    "placeMasterId": "P02500000FsoGOojxmk1PCCYGq8MI5qCEQutivkB",
    "placeName": "detroit",
    "state": "OR"
  },
  {
    "city": "riddle",
    "state_code": "OR",
    "placeMasterId": "P02500000FsoGPofJ0W3u0PGUSomDTGwrbx5O4ZQ",
    "placeName": "riddle",
    "state": "OR"
  },
  {
    "city": "roseburg",
    "state_code": "OR",
    "placeMasterId": "P02500000FsoGPofJ0W3u0PGUSomDTH2nJ781EUh",
    "placeName": "roseburg",
    "state": "OR"
  },
  {
    "city": "pendleton",
    "state_code": "OR",
    "placeMasterId": "P02500000FsoGPfopP7U7Jo1Jf0QnYmXdlEsmhSY",
    "placeName": "pendleton",
    "state": "OR"
  },
  {
    "city": "canyon city",
    "state_code": "OR",
    "placeMasterId": "P02500000FsoGOOCWyYI38OokQhK2MNHHfnKgJ0K",
    "placeName": "canyon city",
    "state": "OR"
  },
  {
    "city": "la grande",
    "state_code": "OR",
    "placeMasterId": "P02500000FsoGP6QuzXAyZP2cRl37upAkf1cqbTO",
    "placeName": "la grande",
    "state": "OR"
  },
  {
    "city": "seattle",
    "state_code": "WA",
    "placeMasterId": "P02500000FsoH13ZvQyhrLC8y9kwIH7vOQ9mB44J",
    "placeName": "seattle",
    "state": "WA"
  },
  {
    "city": "seattle",
    "state_code": "WA",
    "placeMasterId": "P02500000FsoH13ZvQyhrLC8y9kwIH7vOQ9mB44J",
    "placeName": "seattle",
    "state": "WA"
  },
  {
    "city": "blaine",
    "state_code": "WA",
    "placeMasterId": "P02500000FsoGyULKZqJiyNjph8ilsJ3LzqyLAU7",
    "placeName": "blaine",
    "state": "WA"
  },
  {
    "city": "hamilton",
    "state_code": "WA",
    "placeMasterId": "P02500000FsoGzUGfncMDmaS3Jp8hFjlCkKh2p73",
    "placeName": "hamilton",
    "state": "WA"
  },
  {
    "city": "eatonville",
    "state_code": "WA",
    "placeMasterId": "P02500000FsoGz3jEzQcrimiWuO6RWGYtcEiDVUc",
    "placeName": "eatonville",
    "state": "WA"
  },
  {
    "city": "amherst",
    "state_code": "MA",
    "placeMasterId": "P02500000FsoHdRGMgby6AmyqHBriMtem1k81bss",
    "placeName": "amherst",
    "state": "MA"
  },
  {
    "city": "chester",
    "state_code": "MA",
    "placeMasterId": "P02500000FsoHda6qI0XsrOE150D8HO0jRXndP18",
    "placeName": "chester",
    "state": "MA"
  },
  {
    "city": "granby",
    "state_code": "MA",
    "placeMasterId": "P02500000FsoHB2pLej6pRFHAOb7Y3Pitek4SykX",
    "placeName": "granby",
    "state": "MA"
  },
  {
    "city": "turners falls",
    "state_code": "MA",
    "placeMasterId": "P02500000FsoFWsnTmtqZT82P9BmJgfwKyJXnnDi",
    "placeName": "turners falls",
    "state": "MA"
  },
  {
    "city": "pepperell",
    "state_code": "MA",
    "placeMasterId": "P02500000FsoHB2pLej6pRFHAOb7Y3PkRgicSOOg",
    "placeName": "pepperell",
    "state": "MA"
  },
  {
    "city": "grafton",
    "state_code": "MA",
    "placeMasterId": "P02500000FsoHdixJtP7fXzTBsoYYBsVh1w2CkMK",
    "placeName": "grafton",
    "state": "MA"
  },
  {
    "city": "worcester",
    "state_code": "MA",
    "placeMasterId": "P02500000FsoFX1dxOIQM9jHZx07jbAFLDi9kkRa",
    "placeName": "worcester",
    "state": "MA"
  },
  {
    "city": "hopkinton",
    "state_code": "MA",
    "placeMasterId": "P02500000FsoHB2pLej6pRFHAOb7Y3Po50wQdBbP",
    "placeName": "hopkinton",
    "state": "MA"
  },
  {
    "city": "stow",
    "state_code": "MA",
    "placeMasterId": "P02500000FsoHeILEIzQoIORt63wDppy7wSyaJL1",
    "placeName": "stow",
    "state": "MA"
  },
  {
    "city": "salisbury",
    "state_code": "MA",
    "placeMasterId": "P02500000FsoHAtys3KX2ke1zamm88vW7tMevbqP",
    "placeName": "salisbury",
    "state": "MA"
  },
  {
    "city": "topsfield",
    "state_code": "MA",
    "placeMasterId": "P02500000FsoHAtys3KX2ke1zamm88vThTaMZOgT",
    "placeName": "topsfield",
    "state": "MA"
  },
  {
    "city": "boston",
    "state_code": "MA",
    "placeMasterId": "P02500000FsoFWJPZNJXQij3hvwOe2iNmqEqJmO9",
    "placeName": "boston",
    "state": "MA"
  },
  {
    "city": "chatham",
    "state_code": "MA",
    "placeMasterId": "P02500000FsoHAl8ORvxG42momyQiER6YCVTuANO",
    "placeName": "chatham",
    "state": "MA"
  },
  {
    "city": "acushnet",
    "state_code": "MA",
    "placeMasterId": "P02500000FsoHdRGMgby6AmyqHBriMtevZHfUcGQ",
    "placeName": "acushnet",
    "state": "MA"
  },
  {
    "city": "brookline",
    "state_code": "NH",
    "placeMasterId": "P02500000FsoIBOi0ExKzhlEJUS5BDU8hT6OZNVB",
    "placeName": "brookline",
    "state": "NH"
  },
  {
    "city": "danbury",
    "state_code": "NH",
    "placeMasterId": "P02500000FsoIBXYTqLumOMTUIGQb7yO1WpxvFb9",
    "placeName": "danbury",
    "state": "NH"
  },
  {
    "city": "salisbury",
    "state_code": "NH",
    "placeMasterId": "P02500000FsoIBy5ueXe8SAD0hhSqrRbtoqVYKYG",
    "placeName": "salisbury",
    "state": "NH"
  },
  {
    "city": "sanbornton",
    "state_code": "NH",
    "placeMasterId": "P02500000FsoIBy5ueXe8SAD0hhSqrRcL6MJCPWR",
    "placeName": "sanbornton",
    "state": "NH"
  },
  {
    "city": "franconia",
    "state_code": "NH",
    "placeMasterId": "P02500000FsoIBXYTqLumOMTUIGQb7yOnnKVpEqf",
    "placeName": "franconia",
    "state": "NH"
  },
  {
    "city": "west stewartstown",
    "state_code": "NH",
    "placeMasterId": "P02500000FsoFv8geKHy4HFe1jEVMZx2vtBER4bl",
    "placeName": "west stewartstown",
    "state": "NH"
  },
  {
    "city": "cornish",
    "state_code": "NH",
    "placeMasterId": "P02500000FsoIBXYTqLumOMTUIGQb7yNO4prrt4w",
    "placeName": "cornish",
    "state": "NH"
  },
  {
    "city": "seabrook",
    "state_code": "NH",
    "placeMasterId": "P02500000FsoIC6wOFwDv8lSBVVoGlvtzKMkOplV",
    "placeName": "seabrook",
    "state": "NH"
  },
  {
    "city": "effingham",
    "state_code": "NH",
    "placeMasterId": "P02500000FsoIBXYTqLumOMTUIGQb7ySbwLiI5P9",
    "placeName": "effingham",
    "state": "NH"
  },
  {
    "city": "wolfeboro",
    "state_code": "NH",
    "placeMasterId": "P02500000FsoHBcDG4JPyBeFrbqVDhNBbk8xdXXe",
    "placeName": "wolfeboro",
    "state": "NH"
  },
  {
    "city": "newfield",
    "state_code": "ME",
    "placeMasterId": "P02500000FsoHg0UxXkMEXbNyjo5EliQFaCR8Bem",
    "placeName": "newfield",
    "state": "ME"
  },
  {
    "city": "south portland",
    "state_code": "ME",
    "placeMasterId": "P02500000FsoFTAn46aq9bVfsG4nRzwK5VcwJggz",
    "placeName": "south portland",
    "state": "ME"
  },
  {
    "city": "hebron",
    "state_code": "ME",
    "placeMasterId": "P02500000FsoHfZxWjYcsTneSKN2z2FD1badzEeQ",
    "placeName": "hebron",
    "state": "ME"
  },
  {
    "city": "kenduskeag",
    "state_code": "ME",
    "placeMasterId": "P02500000FsoHfio0KxCfAOtd8BOOwjb2utUZH39",
    "placeName": "kenduskeag",
    "state": "ME"
  },
  {
    "city": "cranberry isles",
    "state_code": "ME",
    "placeMasterId": "P02500000FsoHf0ZcJyJjjOfl77fJOHopEmCI30q",
    "placeName": "cranberry isles",
    "state": "ME"
  },
  {
    "city": "whiting",
    "state_code": "ME",
    "placeMasterId": "P02500000FsoHgijLYjF9ybbqkroKKAFFwzcAaIv",
    "placeName": "whiting",
    "state": "ME"
  },
  {
    "city": "island falls",
    "state_code": "ME",
    "placeMasterId": "P02500000FsoHfR738A35nCPHWYhZ7kzen1KrR27",
    "placeName": "island falls",
    "state": "ME"
  },
  {
    "city": "vinalhaven",
    "state_code": "ME",
    "placeMasterId": "P02500000FsoHgZsrxKfNI0Mfx3SuPftpXECJf5X",
    "placeName": "vinalhaven",
    "state": "ME"
  },
  {
    "city": "belgrade",
    "state_code": "ME",
    "placeMasterId": "P02500000FsoHeisf7BAAMCBPVUyTZJ5bKmKhGta",
    "placeName": "belgrade",
    "state": "ME"
  },
  {
    "city": "brookfield",
    "state_code": "VT",
    "placeMasterId": "P02500000FsoIeMWvgQVPBhugaID1AvOOOOOfbqw",
    "placeName": "brookfield",
    "state": "VT"
  },
  {
    "city": "plymouth",
    "state_code": "VT",
    "placeMasterId": "P02500000FsoIevuq60oXw6tNnXagosvITsQWLsK",
    "placeName": "plymouth",
    "state": "VT"
  },
  {
    "city": "westminster",
    "state_code": "VT",
    "placeMasterId": "P02500000FsoHE2bNK3EJrrPpGeNKBhfRHO4mdOe",
    "placeName": "westminster",
    "state": "VT"
  },
  {
    "city": "charlotte",
    "state_code": "VT",
    "placeMasterId": "P02500000FsoIeVNPHp5BsJ9rO6YR5PlGfOtPaIs",
    "placeName": "charlotte",
    "state": "VT"
  },
  {
    "city": "graniteville",
    "state_code": "VT",
    "placeMasterId": "P02500000FsoGuCx0Tx0AMMObamMEXc1VkegPbbj",
    "placeName": "graniteville",
    "state": "VT"
  },
  {
    "city": "waterbury",
    "state_code": "VT",
    "placeMasterId": "P02500000FsoHE2bNK3EJrrPpGeNKBhk4cRR4Yzw",
    "placeName": "waterbury",
    "state": "VT"
  },
  {
    "city": "woodbury",
    "state_code": "VT",
    "placeMasterId": "P02500000FsoIfVIkVb7ggVs50myMSqRYf53s8aJ",
    "placeName": "woodbury",
    "state": "VT"
  },
  {
    "city": "chittenden",
    "state_code": "VT",
    "placeMasterId": "P02500000FsoIeMWvgQVPBhugaID1AvRgXk5Dp9n",
    "placeName": "chittenden",
    "state": "VT"
  },
  {
    "city": "hartford",
    "state_code": "CT",
    "placeMasterId": "P02500000FsoEp4wtcCeUWhtuUtj0yHnuNbUVDLP",
    "placeName": "hartford",
    "state": "CT"
  },
  {
    "city": "new london",
    "state_code": "CT",
    "placeMasterId": "P02500000FsoEpDnNDbEHDJ95Ii4Qsm9RCmkhL6h",
    "placeName": "new london",
    "state": "CT"
  },
  {
    "city": "clinton",
    "state_code": "CT",
    "placeMasterId": "P02500000FsoH9u3WpYUXwRJly6MClUyfrN0Jlsm",
    "placeName": "clinton",
    "state": "CT"
  },
  {
    "city": "harwinton",
    "state_code": "CT",
    "placeMasterId": "P02500000FsoHGSzUZn2fY4ZmvSFQg255fIwL88J",
    "placeName": "harwinton",
    "state": "CT"
  },
  {
    "city": "washington",
    "state_code": "CT",
    "placeMasterId": "P02500000FsoHGtWvNym1bsJJKtHgPV1LcXhVY79",
    "placeName": "washington",
    "state": "CT"
  },
  {
    "city": "bethel",
    "state_code": "CT",
    "placeMasterId": "P02500000FsoH9u3WpYUXwRJly6MClUoU6vNepuW",
    "placeName": "bethel",
    "state": "CT"
  },
  {
    "city": "fort lee",
    "state_code": "NJ",
    "placeMasterId": "P02500000FsoFvqv2LGqziFrtkIES8OxEpp1O2xx",
    "placeName": "fort lee",
    "state": "NJ"
  },
  {
    "city": "millburn",
    "state_code": "NJ",
    "placeMasterId": "P02500000FsoICy1FsJgdGMvEKNsmEsHlopLmteU",
    "placeName": "millburn",
    "state": "NJ"
  },
  {
    "city": "verona",
    "state_code": "NJ",
    "placeMasterId": "P02500000FsoIDXPAHtzm0ltvXdGRspaDlDDfoQ8",
    "placeName": "verona",
    "state": "NJ"
  },
  {
    "city": "plainfield",
    "state_code": "NJ",
    "placeMasterId": "P02500000FsoFxHNoNEcqaGJdmPgdFIYWsKaqB7h",
    "placeName": "plainfield",
    "state": "NJ"
  },
  {
    "city": "pompton lakes",
    "state_code": "NJ",
    "placeMasterId": "P02500000FsoFxHNoNEcqaGJdmPgdFIcC8fjHuSm",
    "placeName": "pompton lakes",
    "state": "NJ"
  },
  {
    "city": "ringwood",
    "state_code": "NJ",
    "placeMasterId": "P02500000FsoFxHNoNEcqaGJdmPgdFIdcJSlP5VD",
    "placeName": "ringwood",
    "state": "NJ"
  },
  {
    "city": "sussex",
    "state_code": "NJ",
    "placeMasterId": "P02500000FsoFxqlimovzKfIKzf4ItG4zCrOZdc1",
    "placeName": "sussex",
    "state": "NJ"
  },
  {
    "city": "maywood",
    "state_code": "NJ",
    "placeMasterId": "P02500000FsoFwhztxeJhprKwZAIxbL6WwpLpJyd",
    "placeName": "maywood",
    "state": "NJ"
  },
  {
    "city": "norwood",
    "state_code": "NJ",
    "placeMasterId": "P02500000FsoFwzgrARTHD3pIAmznQJq0R8rFEaU",
    "placeName": "norwood",
    "state": "NJ"
  },
  {
    "city": "shrewsbury",
    "state_code": "NJ",
    "placeMasterId": "P02500000FsoIDFiD56qCdZPZw0Zc3qzVJmQFhDx",
    "placeName": "shrewsbury",
    "state": "NJ"
  },
  {
    "city": "hazlet",
    "state_code": "NJ",
    "placeMasterId": "P02500000FsoICpAmGv6qZlg3WZXMKNorqGsiFPt",
    "placeName": "hazlet",
    "state": "NJ"
  },
  {
    "city": "leonardo",
    "state_code": "NJ",
    "placeMasterId": "P02500000FsoFwZ9QMFjv9G5llLxXgqfokSI1mGF",
    "placeName": "leonardo",
    "state": "NJ"
  },
  {
    "city": "kenvil",
    "state_code": "NJ",
    "placeMasterId": "P02500000FsoFwQIwkrA8SeqaxXc7mMMQsDJHMEW",
    "placeName": "kenvil",
    "state": "NJ"
  },
  {
    "city": "lafayette",
    "state_code": "NJ",
    "placeMasterId": "P02500000FsoICpAmGv6qZlg3WZXMKNtbUmNxzXM",
    "placeName": "lafayette",
    "state": "NJ"
  },
  {
    "city": "chatham",
    "state_code": "NJ",
    "placeMasterId": "P02500000FsoICXTp47xHCZBhuwqWVP1SvhaSiGF",
    "placeName": "chatham",
    "state": "NJ"
  },
  {
    "city": "barnegat",
    "state_code": "NJ",
    "placeMasterId": "P02500000FsoICOdLSjNUVxwX78V6auhGziCg0MH",
    "placeName": "barnegat",
    "state": "NJ"
  },
  {
    "city": "burlington",
    "state_code": "NJ",
    "placeMasterId": "P02500000FsoFvZE58ThQL3NY8fXcJQ4O7VTjztk",
    "placeName": "burlington",
    "state": "NJ"
  },
  {
    "city": "fairton",
    "state_code": "NJ",
    "placeMasterId": "P02500000FsoFvqv2LGqziFrtkIES8OtGpWS8MTf",
    "placeName": "fairton",
    "state": "NJ"
  },
  {
    "city": "lakewood",
    "state_code": "NJ",
    "placeMasterId": "P02500000FsoICpAmGv6qZlg3WZXMKNu7DQYsK0r",
    "placeName": "lakewood",
    "state": "NJ"
  },
  {
    "city": "lakehurst",
    "state_code": "NJ",
    "placeMasterId": "P02500000FsoFwQIwkrA8SeqaxXc7mMOXEpkCE8h",
    "placeName": "lakehurst",
    "state": "NJ"
  },
  {
    "city": "flemington",
    "state_code": "NJ",
    "placeMasterId": "P02500000FsoFvzlVwfQmOr74Y6Zs2tC4ANjvoCx",
    "placeName": "flemington",
    "state": "NJ"
  },
  {
    "city": "milltown",
    "state_code": "NJ",
    "placeMasterId": "P02500000FsoFwqqNZ2tUWSa7MyeNVpWIE6YIo3L",
    "placeName": "milltown",
    "state": "NJ"
  },
  {
    "city": "south river",
    "state_code": "NJ",
    "placeMasterId": "P02500000FsoFxhvFBQMCe43ABqisylcfp7Um0Fe",
    "placeName": "south river",
    "state": "NJ"
  },
  {
    "city": "new york",
    "state_code": "NY",
    "placeMasterId": "P02500000FsoG3hTIW4bBVIKTvxERFLPbpMNP8u9",
    "placeName": "new york",
    "state": "NY"
  },
  {
    "city": "new york",
    "state_code": "NY",
    "placeMasterId": "P02500000FsoG3hTIW4bBVIKTvxERFLPbpMNP8u9",
    "placeName": "new york",
    "state": "NY"
  },
  {
    "city": "new york",
    "state_code": "NY",
    "placeMasterId": "P02500000FsoG3hTIW4bBVIKTvxERFLPbpMNP8u9",
    "placeName": "new york",
    "state": "NY"
  },
  {
    "city": "staten island",
    "state_code": "NY",
    "placeMasterId": "P02500000FsoHDBWVhflbkFwmRmIoilOWW8CMZ4T",
    "placeName": "staten island",
    "state": "NY"
  },
  {
    "city": "port chester",
    "state_code": "NY",
    "placeMasterId": "P02500000FsoG4PhgX3U6wIYLx0xWnn5VcGv2ZMt",
    "placeName": "port chester",
    "state": "NY"
  },
  {
    "city": "white plains",
    "state_code": "NY",
    "placeMasterId": "P02500000FsoG5hJyxcgB7hkvBK4I0CVqoZQzEuf",
    "placeName": "white plains",
    "state": "NY"
  },
  {
    "city": "florida",
    "state_code": "NY",
    "placeMasterId": "P02500000FsoHCkz4tU2FgSDG2LGYzIFcFb3KsgU",
    "placeName": "florida",
    "state": "NY"
  },
  {
    "city": "brooklyn",
    "state_code": "NY",
    "placeMasterId": "P02500000FsoHCc8bI5SSzqy5EWv94nnzJKQNSS5",
    "placeName": "brooklyn",
    "state": "NY"
  },
  {
    "city": "malverne",
    "state_code": "NY",
    "placeMasterId": "P02500000FsoG3GvrhsrpRUaxWWCBVsL6xAO1KPx",
    "placeName": "malverne",
    "state": "NY"
  },
  {
    "city": "oceanside",
    "state_code": "NY",
    "placeMasterId": "P02500000FsoG3zAFirkksUopXZvH4K7iJe90omb",
    "placeName": "oceanside",
    "state": "NY"
  },
  {
    "city": "west babylon",
    "state_code": "NY",
    "placeMasterId": "P02500000FsoG5YTVME6OR6VkNVis5iELT51JcjS",
    "placeName": "west babylon",
    "state": "NY"
  },
  {
    "city": "ronkonkoma",
    "state_code": "NY",
    "placeMasterId": "P02500000FsoG4YYA8S3tctnWkpIwiHUAk2mUqMt",
    "placeName": "ronkonkoma",
    "state": "NY"
  },
  {
    "city": "riverhead",
    "state_code": "NY",
    "placeMasterId": "P02500000FsoHDTDSuSvB7SR83OzeXkAmCDy0CG8",
    "placeName": "riverhead",
    "state": "NY"
  },
  {
    "city": "greenport",
    "state_code": "NY",
    "placeMasterId": "P02500000FsoHCBbATtj6w3EYp5stLKjRnzSGAMw",
    "placeName": "greenport",
    "state": "NY"
  },
  {
    "city": "delanson",
    "state_code": "NY",
    "placeMasterId": "P02500000FsoG1qT5fv5yZU9DUOk0OyVhIWKA48B",
    "placeName": "delanson",
    "state": "NY"
  },
  {
    "city": "jefferson",
    "state_code": "NY",
    "placeMasterId": "P02500000FsoIFOPN83Uywa5BzBksjCPGIYRzJfA",
    "placeName": "jefferson",
    "state": "NY"
  },
  {
    "city": "nassau",
    "state_code": "NY",
    "placeMasterId": "P02500000FsoHD2g26HBp3ehbdxxOoH0hTSgcxEz",
    "placeName": "nassau",
    "state": "NY"
  },
  {
    "city": "speculator",
    "state_code": "NY",
    "placeMasterId": "P02500000FsoG4z5awdnFghX3AGLCRkluODK9moj",
    "placeName": "speculator",
    "state": "NY"
  },
  {
    "city": "worcester",
    "state_code": "NY",
    "placeMasterId": "P02500000FsoIHOG3ZbZyYzVdEYajU3fTdzZIF18",
    "placeName": "worcester",
    "state": "NY"
  },
  {
    "city": "salt point",
    "state_code": "NY",
    "placeMasterId": "P02500000FsoG4hOdjqdgJV2hYdeMcm1hjP0VlC4",
    "placeName": "salt point",
    "state": "NY"
  },
  {
    "city": "wappingers falls",
    "state_code": "NY",
    "placeMasterId": "P02500000FsoG5Pd1kpWbkVGZZhNSBDqpYicEnSd",
    "placeName": "wappingers falls",
    "state": "NY"
  },
  {
    "city": "lyon mountain",
    "state_code": "NY",
    "placeMasterId": "P02500000FsoG3PmLJHRc85q8KKXbQMXyw8nmoU6",
    "placeName": "lyon mountain",
    "state": "NY"
  },
  {
    "city": "aurora",
    "state_code": "NY",
    "placeMasterId": "P02500000FsoHCBbATtj6w3EYp5stLKueHRBbnCa",
    "placeName": "aurora",
    "state": "NY"
  },
  {
    "city": "cortland",
    "state_code": "NY",
    "placeMasterId": "P02500000FsoG1hcc4WWBssu2gaOaUU8Acl9wsDt",
    "placeName": "cortland",
    "state": "NY"
  },
  {
    "city": "fair haven",
    "state_code": "NY",
    "placeMasterId": "P02500000FsoG28A2siFXwgdZ61QqDx8lzLhPmuV",
    "placeName": "fair haven",
    "state": "NY"
  },
  {
    "city": "mcgraw",
    "state_code": "NY",
    "placeMasterId": "P02500000FsoG3GvrhsrpRUaxWWCBVsKFy1pLs8T",
    "placeName": "mcgraw",
    "state": "NY"
  },
  {
    "city": "syracuse",
    "state_code": "NY",
    "placeMasterId": "P02500000FsoG57w4Y2N2NImDy4gcMF3udu0wEbR",
    "placeName": "syracuse",
    "state": "NY"
  },
  {
    "city": "syracuse",
    "state_code": "NY",
    "placeMasterId": "P02500000FsoG57w4Y2N2NImDy4gcMF3udu0wEbR",
    "placeName": "syracuse",
    "state": "NY"
  },
  {
    "city": "altmar",
    "state_code": "NY",
    "placeMasterId": "P02500000FsoG0qXkS93TlHQzriK51XnoOlLO7Ni",
    "placeName": "altmar",
    "state": "NY"
  },
  {
    "city": "ava",
    "state_code": "NY",
    "placeMasterId": "P02500000FsoIDp67Uh9LNyOH9FxHhoO3x57qhkX",
    "placeName": "ava",
    "state": "NY"
  },
  {
    "city": "morrisville",
    "state_code": "NY",
    "placeMasterId": "P02500000FsoG3Ycoug1Ooh5J88t1Kqy3ENwPfjJ",
    "placeName": "morrisville",
    "state": "NY"
  },
  {
    "city": "hammond",
    "state_code": "NY",
    "placeMasterId": "P02500000FsoHD2g26HBp3ehbdxxOoH5nKmNCwNA",
    "placeName": "hammond",
    "state": "NY"
  },
  {
    "city": "hermon",
    "state_code": "NY",
    "placeMasterId": "P02500000FsoHDBWVhflbkFwmRmIoilLWxBjhy1O",
    "placeName": "hermon",
    "state": "NY"
  },
  {
    "city": "davenport",
    "state_code": "NY",
    "placeMasterId": "P02500000FsoIEXKVVg2Goyc9AJgNGGCseZDsYru",
    "placeName": "davenport",
    "state": "NY"
  },
  {
    "city": "owego",
    "state_code": "NY",
    "placeMasterId": "P02500000FsoHDTDSuSvB7SR83OzeXk6DJQqjvZD",
    "placeName": "owego",
    "state": "NY"
  },
  {
    "city": "binghamton",
    "state_code": "NY",
    "placeMasterId": "P02500000FsoG0zOE3XdGRsgAfWfUw2HIWCT02ES",
    "placeName": "binghamton",
    "state": "NY"
  },
  {
    "city": "west valley",
    "state_code": "NY",
    "placeMasterId": "P02500000FsoG5hJyxcgB7hkvBK4I0CdthGU9vWx",
    "placeName": "west valley",
    "state": "NY"
  },
  {
    "city": "buffalo",
    "state_code": "NY",
    "placeMasterId": "P02500000FsoG1H5BGKmpp5AWH9MKl12AT3E2vOM",
    "placeName": "buffalo",
    "state": "NY"
  },
  {
    "city": "buffalo",
    "state_code": "NY",
    "placeMasterId": "P02500000FsoG1H5BGKmpp5AWH9MKl12AT3E2vOM",
    "placeName": "buffalo",
    "state": "NY"
  },
  {
    "city": "perry",
    "state_code": "NY",
    "placeMasterId": "P02500000FsoHDkuQ7G4kUevTf1gUMiwVK3LUEnY",
    "placeName": "perry",
    "state": "NY"
  },
  {
    "city": "alma",
    "state_code": "NY",
    "placeMasterId": "P02500000FsoIDgFdtIZYhN96LRbrnJzzhHtUeSS",
    "placeName": "alma",
    "state": "NY"
  },
  {
    "city": "portville",
    "state_code": "NY",
    "placeMasterId": "P02500000FsoHBtuDH6ZXYqkDDTC3WLxygqzm4Kj",
    "placeName": "portville",
    "state": "NY"
  },
  {
    "city": "greenwood",
    "state_code": "NY",
    "placeMasterId": "P02500000FsoIExrwJrlcsmLfZkiczjOWdgzY0pd",
    "placeName": "greenwood",
    "state": "NY"
  },
  {
    "city": "painted post",
    "state_code": "NY",
    "placeMasterId": "P02500000FsoG480jKGKXZ640LOGgyoZunWpK8MQ",
    "placeName": "painted post",
    "state": "NY"
  },
  {
    "city": "clinton",
    "state_code": "PA",
    "placeMasterId": "P02500000FsoGRxMT3SigJPw6VzxU8cWOZ9VyZ66",
    "placeName": "clinton",
    "state": "PA"
  },
  {
    "city": "oakmont",
    "state_code": "PA",
    "placeMasterId": "P02500000FsoGX5peljUx32kNREOWwFugsrdXLK1",
    "placeName": "oakmont",
    "state": "PA"
  },
  {
    "city": "pittsburgh",
    "state_code": "PA",
    "placeMasterId": "P02500000FsoGXfDZBJo5nRj4eTmCaDENhHWAB15",
    "placeName": "pittsburgh",
    "state": "PA"
  },
  {
    "city": "pittsburgh",
    "state_code": "PA",
    "placeMasterId": "P02500000FsoGXfDZBJo5nRj4eTmCaDENhHWAB15",
    "placeName": "pittsburgh",
    "state": "PA"
  },
  {
    "city": "finleyville",
    "state_code": "PA",
    "placeMasterId": "P02500000FsoGTNpF5QUXBQNqY7PfFWDYI29MU7N",
    "placeName": "finleyville",
    "state": "PA"
  },
  {
    "city": "west middletown",
    "state_code": "PA",
    "placeMasterId": "P02500000FsoGaNIddqm0qrNNuuL8tWQHLhQZvE2",
    "placeName": "west middletown",
    "state": "PA"
  },
  {
    "city": "wind ridge",
    "state_code": "PA",
    "placeMasterId": "P02500000FsoGaezaqdvaE3rjWX1yiVGscVYSQB0",
    "placeName": "wind ridge",
    "state": "PA"
  },
  {
    "city": "uniontown",
    "state_code": "PA",
    "placeMasterId": "P02500000FsoGZwlCpf2en3drVTItA38LZaUMvfR",
    "placeName": "uniontown",
    "state": "PA"
  },
  {
    "city": "newell",
    "state_code": "PA",
    "placeMasterId": "P02500000FsoGWfIDxXlazF0r1nMHCmonlxbdcHa",
    "placeName": "newell",
    "state": "PA"
  },
  {
    "city": "oliver",
    "state_code": "PA",
    "placeMasterId": "P02500000FsoGXEg8N84jjdzYF2jwqkDYIxlRmjE",
    "placeName": "oliver",
    "state": "PA"
  },
  {
    "city": "calumet",
    "state_code": "PA",
    "placeMasterId": "P02500000FsoGRffVqfZ6wDRkuNGeJdg9its9NDO",
    "placeName": "calumet",
    "state": "PA"
  },
  {
    "city": "youngwood",
    "state_code": "PA",
    "placeMasterId": "P02500000FsoGanq4S2VMuf6uKLNOczaLF5NjMBC",
    "placeName": "youngwood",
    "state": "PA"
  },
  {
    "city": "creekside",
    "state_code": "PA",
    "placeMasterId": "P02500000FsoGSNttreS2NDfcvQzjs5ZJ2UqMse2",
    "placeName": "creekside",
    "state": "PA"
  },
  {
    "city": "brockway",
    "state_code": "PA",
    "placeMasterId": "P02500000FsoGRWp2FGzKFcCa6YvEP9IRjPGQTND",
    "placeName": "brockway",
    "state": "PA"
  },
  {
    "city": "leeper",
    "state_code": "PA",
    "placeMasterId": "P02500000FsoGVNfvWyZWnpoHnUFW0NFnTnYhFZE",
    "placeName": "leeper",
    "state": "PA"
  },
  {
    "city": "emlenton",
    "state_code": "PA",
    "placeMasterId": "P02500000FsoGT68HsdKxoDtUwUipQXVNSh3rr0H",
    "placeName": "emlenton",
    "state": "PA"
  },
  {
    "city": "erie",
    "state_code": "PA",
    "placeMasterId": "P02500000FsoGT68HsdKxoDtUwUipQXb9IbBAKWB",
    "placeName": "erie",
    "state": "PA"
  },
  {
    "city": "osceola mills",
    "state_code": "PA",
    "placeMasterId": "P02500000FsoGXEg8N84jjdzYF2jwqkGv29uCdk2",
    "placeName": "osceola mills",
    "state": "PA"
  },
  {
    "city": "newton hamilton",
    "state_code": "PA",
    "placeMasterId": "P02500000FsoGWwzBAKvAMRVCdQ371lOOAwPf4Zs",
    "placeName": "newton hamilton",
    "state": "PA"
  },
  {
    "city": "pillow",
    "state_code": "PA",
    "placeMasterId": "P02500000FsoGXfDZBJo5nRj4eTmCaDIL7vehfOc",
    "placeName": "pillow",
    "state": "PA"
  },
  {
    "city": "mont alto",
    "state_code": "PA",
    "placeMasterId": "P02500000FsoGWEkn9M2EvRHKcMK1TJh3TGNYpsi",
    "placeName": "mont alto",
    "state": "PA"
  },
  {
    "city": "gap",
    "state_code": "PA",
    "placeMasterId": "P02500000FsoGTfWCIDe6YcsC9k6V4UwiVXvhpuE",
    "placeName": "gap",
    "state": "PA"
  },
  {
    "city": "williamsport",
    "state_code": "PA",
    "placeMasterId": "P02500000FsoGaW97FFLnXScYiigYo0o1WrFINgr",
    "placeName": "williamsport",
    "state": "PA"
  },
  {
    "city": "eagles mere",
    "state_code": "PA",
    "placeMasterId": "P02500000FsoGSoRKfqBOR1P9Ks1zbYayNxdmB5F",
    "placeName": "eagles mere",
    "state": "PA"
  },
  {
    "city": "loganton",
    "state_code": "PA",
    "placeMasterId": "P02500000FsoGVWWP8N9JUR3SbIavurjCYlUhCVR",
    "placeName": "loganton",
    "state": "PA"
  },
  {
    "city": "renovo",
    "state_code": "PA",
    "placeMasterId": "P02500000FsoGY5kzzVXRrFSb3uoSJgLa2waahuE",
    "placeName": "renovo",
    "state": "PA"
  },
  {
    "city": "bloomsburg",
    "state_code": "PA",
    "placeMasterId": "P02500000FsoGR6HbR5FyBoT3h7syfgMYaXVrbFu",
    "placeName": "bloomsburg",
    "state": "PA"
  },
  {
    "city": "hartleton",
    "state_code": "PA",
    "placeMasterId": "P02500000FsoGUEu6hnxFJ1qtMzUAiSQ7yIx7y8S",
    "placeName": "hartleton",
    "state": "PA"
  },
  {
    "city": "new ringgold",
    "state_code": "PA",
    "placeMasterId": "P02500000FsoGWwzBAKvAMRVCdQ371lMoRmY9YPs",
    "placeName": "new ringgold",
    "state": "PA"
  },
  {
    "city": "bethlehem",
    "state_code": "PA",
    "placeMasterId": "P02500000FsoGR6HbR5FyBoT3h7syfgEDIimWLKK",
    "placeName": "bethlehem",
    "state": "PA"
  },
  {
    "city": "emmaus",
    "state_code": "PA",
    "placeMasterId": "P02500000FsoGT68HsdKxoDtUwUipQXYHbvrYJb5",
    "placeName": "emmaus",
    "state": "PA"
  },
  {
    "city": "red hill",
    "state_code": "PA",
    "placeMasterId": "P02500000FsoGXwuWO6xfAeDQG6T2PC8wy9eitJh",
    "placeName": "red hill",
    "state": "PA"
  },
  {
    "city": "allentown",
    "state_code": "PA",
    "placeMasterId": "P02500000FsoGQWth1UwpRPUMTsVJ1inYRsHJgCK",
    "placeName": "allentown",
    "state": "PA"
  },
  {
    "city": "waverly",
    "state_code": "PA",
    "placeMasterId": "P02500000FsoGa5bgR3cRTet2JHeJ4XeFdO31Sca",
    "placeName": "waverly",
    "state": "PA"
  },
  {
    "city": "scranton",
    "state_code": "PA",
    "placeMasterId": "P02500000FsoGYf8uP5qabeRIHAC7xdsDcRUIZct",
    "placeName": "scranton",
    "state": "PA"
  },
  {
    "city": "nanticoke",
    "state_code": "PA",
    "placeMasterId": "P02500000FsoGWWRkM9BoIdlgDz0rIIR79zOFJN7",
    "placeName": "nanticoke",
    "state": "PA"
  },
  {
    "city": "broomall",
    "state_code": "PA",
    "placeMasterId": "P02500000FsoGRNyYdsPXZ0xPIkZoUf3Ogpux9ZM",
    "placeName": "broomall",
    "state": "PA"
  },
  {
    "city": "philadelphia",
    "state_code": "PA",
    "placeMasterId": "P02500000FsoGXWN5ZvEJ6qTtqfQmfiyVODy6MPW",
    "placeName": "philadelphia",
    "state": "PA"
  },
  {
    "city": "schwenksville",
    "state_code": "PA",
    "placeMasterId": "P02500000FsoGYf8uP5qabeRIHAC7xdsWyPSZkFu",
    "placeName": "schwenksville",
    "state": "PA"
  },
  {
    "city": "spring house",
    "state_code": "PA",
    "placeMasterId": "P02500000FsoGZEWoog9jM3PzUPZnbbNoKj8N9iO",
    "placeName": "spring house",
    "state": "PA"
  },
  {
    "city": "port clinton",
    "state_code": "PA",
    "placeMasterId": "P02500000FsoGXo42miNsU2yFSI7cUhoWE6zYvms",
    "placeName": "port clinton",
    "state": "PA"
  },
  {
    "city": "kenton",
    "state_code": "DE",
    "placeMasterId": "P02500000FsoEpnBHdBXPxi7mVxS6WjfN5lbJBCi",
    "placeName": "kenton",
    "state": "DE"
  },
  {
    "city": "rehoboth beach",
    "state_code": "DE",
    "placeMasterId": "P02500000FsoEpnBHdBXPxi7mVxS6WjhiCE17ePR",
    "placeName": "rehoboth beach",
    "state": "DE"
  },
  {
    "city": "washington",
    "state_code": "DC",
    "placeMasterId": "P02500000FsoEq4sEpygzKuc87a8wLiQYg142PzN",
    "placeName": "washington",
    "state": "DC"
  },
  {
    "city": "washington",
    "state_code": "DC",
    "placeMasterId": "P02500000FsoEq4sEpygzKuc87a8wLiQYg142PzN",
    "placeName": "washington",
    "state": "DC"
  },
  {
    "city": "owings",
    "state_code": "MD",
    "placeMasterId": "P02500000FsoFVJUE9XUvuWLUJFyifHrJDWsWN23",
    "placeName": "owings",
    "state": "MD"
  },
  {
    "city": "cabin john",
    "state_code": "MD",
    "placeMasterId": "P02500000FsoFTkAyWB9ILueZTKB7dtdHq31dLjH",
    "placeName": "cabin john",
    "state": "MD"
  },
  {
    "city": "gaithersburg",
    "state_code": "MD",
    "placeMasterId": "P02500000FsoFUSPMXA2DmusRUNuDCLSggAPIqSu",
    "placeName": "gaithersburg",
    "state": "MD"
  },
  {
    "city": "pikesville",
    "state_code": "MD",
    "placeMasterId": "P02500000FsoFVSKhkw4ib7af74K8ZmICCCzA09Z",
    "placeName": "pikesville",
    "state": "MD"
  },
  {
    "city": "baltimore",
    "state_code": "MD",
    "placeMasterId": "P02500000FsoFTSU1JNziyiADrhUHous91WaBH4V",
    "placeName": "baltimore",
    "state": "MD"
  },
  {
    "city": "annapolis",
    "state_code": "MD",
    "placeMasterId": "P02500000FsoFTJdXhzPwI6v33t8ruQbBn6PWpnz",
    "placeName": "annapolis",
    "state": "MD"
  },
  {
    "city": "henderson",
    "state_code": "MD",
    "placeMasterId": "P02500000FsoFUbFq8Yc0TW7cICFd6pz5N8GRS2t",
    "placeName": "henderson",
    "state": "MD"
  },
  {
    "city": "taylors island",
    "state_code": "MD",
    "placeMasterId": "P02500000FsoFW1icAWNrLWZMKJhoDjf03bGf8IW",
    "placeName": "taylors island",
    "state": "MD"
  },
  {
    "city": "hagerstown",
    "state_code": "MD",
    "placeMasterId": "P02500000FsoFUSPMXA2DmusRUNuDCLkCogDQqnO",
    "placeName": "hagerstown",
    "state": "MD"
  },
  {
    "city": "hagerstown",
    "state_code": "MD",
    "placeMasterId": "P02500000FsoFUSPMXA2DmusRUNuDCLkCogDQqnO",
    "placeName": "hagerstown",
    "state": "MD"
  },
  {
    "city": "maugansville",
    "state_code": "MD",
    "placeMasterId": "P02500000FsoFV1nGwkLMXJr8hdHsqJBZ1KAhavt",
    "placeName": "maugansville",
    "state": "MD"
  },
  {
    "city": "middletown",
    "state_code": "MD",
    "placeMasterId": "P02500000FsoFVAdkY8v9Dv6JVRdIknKK0mQKuhb",
    "placeName": "middletown",
    "state": "MD"
  },
  {
    "city": "sykesville",
    "state_code": "MD",
    "placeMasterId": "P02500000FsoFW1icAWNrLWZMKJhoDjiAON5DhZC",
    "placeName": "sykesville",
    "state": "MD"
  },
  {
    "city": "deal island",
    "state_code": "MD",
    "placeMasterId": "P02500000FsoFU1rviyIrj78v4wrxSsMO6k7FylH",
    "placeName": "deal island",
    "state": "MD"
  },
  {
    "city": "eden",
    "state_code": "MD",
    "placeMasterId": "P02500000FsoFUAiPKMsePiO5slDNNMjQoMjHHpE",
    "placeName": "eden",
    "state": "MD"
  },
  {
    "city": "fruitland",
    "state_code": "MD",
    "placeMasterId": "P02500000FsoFUJYsvlSR6JdGgZYnHrGfTjshnih",
    "placeName": "fruitland",
    "state": "MD"
  },
  {
    "city": "annandale",
    "state_code": "VA",
    "placeMasterId": "P02500000FsoGuUdxgk9jjYsxCP34MapH0t7mWaI",
    "placeName": "annandale",
    "state": "VA"
  },
  {
    "city": "fairfax",
    "state_code": "VA",
    "placeMasterId": "P02500000FsoGvdPmVum1EMqLctoPeVgSVwMaiOw",
    "placeName": "fairfax",
    "state": "VA"
  },
  {
    "city": "arlington",
    "state_code": "VA",
    "placeMasterId": "P02500000FsoGudURI8jWQA880DOUH59WbK2sySL",
    "placeName": "arlington",
    "state": "VA"
  },
  {
    "city": "fredericksburg",
    "state_code": "VA",
    "placeMasterId": "P02500000FsoGvmGG7JLnuy5WQi9pZ00uWETqz97",
    "placeName": "fredericksburg",
    "state": "VA"
  },
  {
    "city": "ruckersville",
    "state_code": "VA",
    "placeMasterId": "P02500000FsoGxLZVkfhRTZmRGdxQaOB9RjbVxSH",
    "placeName": "ruckersville",
    "state": "VA"
  },
  {
    "city": "shipman",
    "state_code": "VA",
    "placeMasterId": "P02500000FsoGxdGSxSr0qmGmsGeGPMoYxQN9JZG",
    "placeName": "shipman",
    "state": "VA"
  },
  {
    "city": "new church",
    "state_code": "VA",
    "placeMasterId": "P02500000FsoGwv24wTy5Pm2urCvAqv6tdnvpAYv",
    "placeName": "new church",
    "state": "VA"
  },
  {
    "city": "newport news",
    "state_code": "VA",
    "placeMasterId": "P02500000FsoGwmBbL5OIjAnk3OZkwQlvDbncqYB",
    "placeName": "newport news",
    "state": "VA"
  },
  {
    "city": "hampton",
    "state_code": "VA",
    "placeMasterId": "P02500000FsoGvv6jihvabZKhEWVFTUVmU86xved",
    "placeName": "hampton",
    "state": "VA"
  },
  {
    "city": "waverly",
    "state_code": "VA",
    "placeMasterId": "P02500000FsoGxuxQAG0aDyl8TtL6ELoeq7cfctC",
    "placeName": "waverly",
    "state": "VA"
  },
  {
    "city": "fincastle",
    "state_code": "VA",
    "placeMasterId": "P02500000FsoGvdPmVum1EMqLctoPeVj0yGndVTE",
    "placeName": "fincastle",
    "state": "VA"
  },
  {
    "city": "radford",
    "state_code": "VA",
    "placeMasterId": "P02500000FsoGxCj29H7emyXGSpc0ftfF3RDqqdg",
    "placeName": "radford",
    "state": "VA"
  },
  {
    "city": "sandy level",
    "state_code": "VA",
    "placeMasterId": "P02500000FsoGxLZVkfhRTZmRGdxQaOFRROVRK1Q",
    "placeName": "sandy level",
    "state": "VA"
  },
  {
    "city": "chilhowie",
    "state_code": "VA",
    "placeMasterId": "P02500000FsoGvCsLhj2fAZ6pDSm9v2Yz1UtaYY0",
    "placeName": "chilhowie",
    "state": "VA"
  },
  {
    "city": "weyers cave",
    "state_code": "VA",
    "placeMasterId": "P02500000FsoGy3ntleaMua0JHhgW8puVAYJ1oov",
    "placeName": "weyers cave",
    "state": "VA"
  },
  {
    "city": "lynchburg",
    "state_code": "VA",
    "placeMasterId": "P02500000FsoGwLeAWtewfN4DdxXVCxd3TsjcPjf",
    "placeName": "lynchburg",
    "state": "VA"
  },
  {
    "city": "amherst",
    "state_code": "VA",
    "placeMasterId": "P02500000FsoGudURI8jWQA880DOUH58GlrSUbL9",
    "placeName": "amherst",
    "state": "VA"
  },
  {
    "city": "itmann",
    "state_code": "WV",
    "placeMasterId": "P02500000FsoH33QbsWmqxbZPP7m91z0DbKSZj91",
    "placeName": "itmann",
    "state": "WV"
  },
  {
    "city": "northfork",
    "state_code": "WV",
    "placeMasterId": "P02500000FsoH3Ty2giWD1PIvoYoOlS2Lt0y5E03",
    "placeName": "northfork",
    "state": "WV"
  },
  {
    "city": "scarbro",
    "state_code": "WV",
    "placeMasterId": "P02500000FsoH3leztVfmObnHQBVEaQrt8S5VlGE",
    "placeName": "scarbro",
    "state": "WV"
  },
  {
    "city": "wheeling",
    "state_code": "WV",
    "placeMasterId": "P02500000FsoH43Lx6IpLloHd1oC4PPfvdyao9RH",
    "placeName": "wheeling",
    "state": "WV"
  },
  {
    "city": "weirton",
    "state_code": "WV",
    "placeMasterId": "P02500000FsoH43Lx6IpLloHd1oC4PPeubnna6YU",
    "placeName": "weirton",
    "state": "WV"
  },
  {
    "city": "paden city",
    "state_code": "WV",
    "placeMasterId": "P02500000FsoH3Ty2giWD1PIvoYoOlS3PKSywyiP",
    "placeName": "paden city",
    "state": "WV"
  },
  {
    "city": "waverly",
    "state_code": "WV",
    "placeMasterId": "P02500000FsoH43Lx6IpLloHd1oC4PPZ1m71yJiS",
    "placeName": "waverly",
    "state": "WV"
  },
  {
    "city": "gypsy",
    "state_code": "WV",
    "placeMasterId": "P02500000FsoH2ljefjdHaP53nV5JD0LddPyMUdh",
    "placeName": "gypsy",
    "state": "WV"
  },
  {
    "city": "newburg",
    "state_code": "WV",
    "placeMasterId": "P02500000FsoH3L7Z5JwQKo3l0kSyqxsBVxNb5Fc",
    "placeName": "newburg",
    "state": "WV"
  },
  {
    "city": "sutton",
    "state_code": "WV",
    "placeMasterId": "P02500000FsoH3uVTUuFZ5D2SDzqeUvINdzQBuGJ",
    "placeName": "sutton",
    "state": "WV"
  },
  {
    "city": "petersburg",
    "state_code": "WV",
    "placeMasterId": "P02500000FsoH3Ty2giWD1PIvoYoOlSBScX2yixO",
    "placeName": "petersburg",
    "state": "WV"
  },
  {
    "city": "thomasville",
    "state_code": "NC",
    "placeMasterId": "P02500000FsoG9h1LqiqAMWbng3jzVutDTuA7oLl",
    "placeName": "thomasville",
    "state": "NC"
  },
  {
    "city": "apex",
    "state_code": "NC",
    "placeMasterId": "P02500000FsoG5z0wAPpkUuFGmwl7pB9aG4soHBj",
    "placeName": "apex",
    "state": "NC"
  },
  {
    "city": "bunn",
    "state_code": "NC",
    "placeMasterId": "P02500000FsoG6PYMybZ6YhynCNnNYeIz7u1VosT",
    "placeName": "bunn",
    "state": "NC"
  },
  {
    "city": "raleigh",
    "state_code": "NC",
    "placeMasterId": "P02500000FsoG8ymxpjxEvWNvf00txSyEKZeGT37",
    "placeName": "raleigh",
    "state": "NC"
  },
  {
    "city": "raleigh",
    "state_code": "NC",
    "placeMasterId": "P02500000FsoG8ymxpjxEvWNvf00txSyEKZeGT37",
    "placeName": "raleigh",
    "state": "NC"
  },
  {
    "city": "durham",
    "state_code": "NC",
    "placeMasterId": "P02500000FsoG6q5nmnIScViJbopdI7bFzX5TYCc",
    "placeName": "durham",
    "state": "NC"
  },
  {
    "city": "durham",
    "state_code": "NC",
    "placeMasterId": "P02500000FsoG6q5nmnIScViJbopdI7bFzX5TYCc",
    "placeName": "durham",
    "state": "NC"
  },
  {
    "city": "lucama",
    "state_code": "NC",
    "placeMasterId": "P02500000FsoG87i6DMUWnuusq7wOUWlzBBMyv9w",
    "placeName": "lucama",
    "state": "NC"
  },
  {
    "city": "weldon",
    "state_code": "NC",
    "placeMasterId": "P02500000FsoG9yiJ3Vzjjj69HgQpKthtgqW4ntW",
    "placeName": "weldon",
    "state": "NC"
  },
  {
    "city": "coinjock",
    "state_code": "NC",
    "placeMasterId": "P02500000FsoG6YOqa08tFJDy0C8nT8shanc8eeN",
    "placeName": "coinjock",
    "state": "NC"
  },
  {
    "city": "columbia",
    "state_code": "NC",
    "placeMasterId": "P02500000FsoG6hFKBOifvuT8o0UDNczyY47Guqn",
    "placeName": "columbia",
    "state": "NC"
  },
  {
    "city": "gatesville",
    "state_code": "NC",
    "placeMasterId": "P02500000FsoG7GdEaz1ogJRq1Frt1akTHBOpDPL",
    "placeName": "gatesville",
    "state": "NC"
  },
  {
    "city": "manns harbor",
    "state_code": "NC",
    "placeMasterId": "P02500000FsoG87i6DMUWnuusq7wOUWrCuhyxt1h",
    "placeName": "manns harbor",
    "state": "NC"
  },
  {
    "city": "badin",
    "state_code": "NC",
    "placeMasterId": "P02500000FsoG67rPloPXBVURal6XjfcRZstrTWW",
    "placeName": "badin",
    "state": "NC"
  },
  {
    "city": "kannapolis",
    "state_code": "NC",
    "placeMasterId": "P02500000FsoG7q190ZKxQiQXEVFYfY7yNLDc1Uz",
    "placeName": "kannapolis",
    "state": "NC"
  },
  {
    "city": "mooresville",
    "state_code": "NC",
    "placeMasterId": "P02500000FsoG8GYZol4JUWA3dwHoP1NJ9I4Wzoi",
    "placeName": "mooresville",
    "state": "NC"
  },
  {
    "city": "charlotte",
    "state_code": "NC",
    "placeMasterId": "P02500000FsoG6YOqa08tFJDy0C8nT8qHEOhlkFv",
    "placeName": "charlotte",
    "state": "NC"
  },
  {
    "city": "fairmont",
    "state_code": "NC",
    "placeMasterId": "P02500000FsoG77mkzaS1ziCfDRWT768jTzjtTl8",
    "placeName": "fairmont",
    "state": "NC"
  },
  {
    "city": "linden",
    "state_code": "NC",
    "placeMasterId": "P02500000FsoG87i6DMUWnuusq7wOUWqVEsnrzkY",
    "placeName": "linden",
    "state": "NC"
  },
  {
    "city": "pinehurst",
    "state_code": "NC",
    "placeMasterId": "P02500000FsoG8pwUELNSEv8krBfU2yaSeq0zgvj",
    "placeName": "pinehurst",
    "state": "NC"
  },
  {
    "city": "salemburg",
    "state_code": "NC",
    "placeMasterId": "P02500000FsoG9GTv2X6oIisHGchjmRjMmhxPP8s",
    "placeName": "salemburg",
    "state": "NC"
  },
  {
    "city": "chadbourn",
    "state_code": "NC",
    "placeMasterId": "P02500000FsoG6YOqa08tFJDy0C8nT8gVAJ1xzpC",
    "placeName": "chadbourn",
    "state": "NC"
  },
  {
    "city": "jacksonville",
    "state_code": "NC",
    "placeMasterId": "P02500000FsoG7hAfPAlAk7BMQgu8l3ihGGArPiW",
    "placeName": "jacksonville",
    "state": "NC"
  },
  {
    "city": "jefferson",
    "state_code": "NC",
    "placeMasterId": "P02500000FsoG7hAfPAlAk7BMQgu8l3n9qoGeSP3",
    "placeName": "jefferson",
    "state": "NC"
  },
  {
    "city": "cameron",
    "state_code": "SC",
    "placeMasterId": "P02500000FsoGbNDyrcoVf45bXal4GwwS9wkCiw0",
    "placeName": "cameron",
    "state": "SC"
  },
  {
    "city": "hopkins",
    "state_code": "SC",
    "placeMasterId": "P02500000FsoGbwbtHD7ePT4Ikq8juuWgeTeCeww",
    "placeName": "hopkins",
    "state": "SC"
  },
  {
    "city": "little mountain",
    "state_code": "SC",
    "placeMasterId": "P02500000FsoGcN9K5Or0TGnpAHAzeNSpthPT4Sk",
    "placeName": "little mountain",
    "state": "SC"
  },
  {
    "city": "saluda",
    "state_code": "SC",
    "placeMasterId": "P02500000FsoGcwXEUzA9DfmWNWYfILC3satQpWm",
    "placeName": "saluda",
    "state": "SC"
  },
  {
    "city": "west columbia",
    "state_code": "SC",
    "placeMasterId": "P02500000FsoGdEEBhmJiasGrz9FV7JvsHGvsB5G",
    "placeName": "west columbia",
    "state": "SC"
  },
  {
    "city": "columbia",
    "state_code": "SC",
    "placeMasterId": "P02500000FsoGbW4ST1OILfKmLP6UBRJpkapmyqZ",
    "placeName": "columbia",
    "state": "SC"
  },
  {
    "city": "columbia",
    "state_code": "SC",
    "placeMasterId": "P02500000FsoGbW4ST1OILfKmLP6UBRJpkapmyqZ",
    "placeName": "columbia",
    "state": "SC"
  },
  {
    "city": "cowpens",
    "state_code": "SC",
    "placeMasterId": "P02500000FsoGbW4ST1OILfKmLP6UBRR3fRvAnw0",
    "placeName": "cowpens",
    "state": "SC"
  },
  {
    "city": "joanna",
    "state_code": "SC",
    "placeMasterId": "P02500000FsoGc5SMsbhR64JTYeU9pOnxnHPcu0w",
    "placeName": "joanna",
    "state": "SC"
  },
  {
    "city": "landrum",
    "state_code": "SC",
    "placeMasterId": "P02500000FsoGcEIqU0HDmfYeMSpZjtBIzkadvIk",
    "placeName": "landrum",
    "state": "SC"
  },
  {
    "city": "charleston",
    "state_code": "SC",
    "placeMasterId": "P02500000FsoGbNDyrcoVf45bXal4Gx4gp6ShtVb",
    "placeName": "charleston",
    "state": "SC"
  },
  {
    "city": "charleston",
    "state_code": "SC",
    "placeMasterId": "P02500000FsoGbNDyrcoVf45bXal4Gx4gp6ShtVb",
    "placeName": "charleston",
    "state": "SC"
  },
  {
    "city": "north charleston",
    "state_code": "SC",
    "placeMasterId": "P02500000FsoGceqHIC0ZqTIAltrpTMFVDv5U8wH",
    "placeName": "north charleston",
    "state": "SC"
  },
  {
    "city": "cheraw",
    "state_code": "SC",
    "placeMasterId": "P02500000FsoGbNDyrcoVf45bXal4Gx3uGz8zwzH",
    "placeName": "cheraw",
    "state": "SC"
  },
  {
    "city": "marion",
    "state_code": "SC",
    "placeMasterId": "P02500000FsoGcVzngnQn9s2zy5WPYrqmwbUWGmm",
    "placeName": "marion",
    "state": "SC"
  },
  {
    "city": "murrells inlet",
    "state_code": "SC",
    "placeMasterId": "P02500000FsoGcVzngnQn9s2zy5WPYs1vEnTKcPb",
    "placeName": "murrells inlet",
    "state": "SC"
  },
  {
    "city": "fort mill",
    "state_code": "SC",
    "placeMasterId": "P02500000FsoGbnlPfoXrirp7x1nK0Q2DZZrcuAG",
    "placeName": "fort mill",
    "state": "SC"
  },
  {
    "city": "rock hill",
    "state_code": "SC",
    "placeMasterId": "P02500000FsoGcwXEUzA9DfmWNWYfIL2scSRCBrM",
    "placeName": "rock hill",
    "state": "SC"
  },
  {
    "city": "trenton",
    "state_code": "SC",
    "placeMasterId": "P02500000FsoGdEEBhmJiasGrz9FV7Jw6FJDttKO",
    "placeName": "trenton",
    "state": "SC"
  },
  {
    "city": "williston",
    "state_code": "SC",
    "placeMasterId": "P02500000FsoGdN4fJAtVHTW2mxav1oEKiWltZ3o",
    "placeName": "williston",
    "state": "SC"
  },
  {
    "city": "north augusta",
    "state_code": "SC",
    "placeMasterId": "P02500000FsoGcVzngnQn9s2zy5WPYs0laq5iEgu",
    "placeName": "north augusta",
    "state": "SC"
  },
  {
    "city": "gifford",
    "state_code": "SC",
    "placeMasterId": "P02500000FsoGbnlPfoXrirp7x1nK0Q4UdV2Egqw",
    "placeName": "gifford",
    "state": "SC"
  },
  {
    "city": "alpharetta",
    "state_code": "GA",
    "placeMasterId": "P02500000FsoEvV2Nl2cpRjukeRGoyKUGR8PlnqD",
    "placeName": "alpharetta",
    "state": "GA"
  },
  {
    "city": "alpharetta",
    "state_code": "GA",
    "placeMasterId": "P02500000FsoEvV2Nl2cpRjukeRGoyKUGR8PlnqD",
    "placeName": "alpharetta",
    "state": "GA"
  },
  {
    "city": "douglasville",
    "state_code": "GA",
    "placeMasterId": "P02500000FsoEwM7FNQ5XZLNnTJLKRGkSlaqR6hG",
    "placeName": "douglasville",
    "state": "GA"
  },
  {
    "city": "fairburn",
    "state_code": "GA",
    "placeMasterId": "P02500000FsoEwUxiyofKFwcyH7gkLl8jvMLce7m",
    "placeName": "fairburn",
    "state": "GA"
  },
  {
    "city": "lagrange",
    "state_code": "GA",
    "placeMasterId": "P02500000FsoExDC6znYFgwqqIBPpuCvsAnB1LxC",
    "placeName": "lagrange",
    "state": "GA"
  },
  {
    "city": "forest park",
    "state_code": "GA",
    "placeMasterId": "P02500000FsoEwmegBbotd97JskNaAjorfQuzPjZ",
    "placeName": "forest park",
    "state": "GA"
  },
  {
    "city": "atlanta",
    "state_code": "GA",
    "placeMasterId": "P02500000FsoEvV2Nl2cpRjukeRGoyKXsQZ9lvPs",
    "placeName": "atlanta",
    "state": "GA"
  },
  {
    "city": "register",
    "state_code": "GA",
    "placeMasterId": "P02500000FsoEy4GycB0xoYJt73ULN9DTN5YfKG7",
    "placeName": "register",
    "state": "GA"
  },
  {
    "city": "blairsville",
    "state_code": "GA",
    "placeMasterId": "P02500000FsoEvdsrMRCc8L9vSFcEsot57EGGKva",
    "placeName": "blairsville",
    "state": "GA"
  },
  {
    "city": "carnesville",
    "state_code": "GA",
    "placeMasterId": "P02500000FsoEvmjKxpmOowP6G3xenJGDtaMK1U7",
    "placeName": "carnesville",
    "state": "GA"
  },
  {
    "city": "lula",
    "state_code": "GA",
    "placeMasterId": "P02500000FsoExM2abC82NY615zlFohJSRCsfUYN",
    "placeName": "lula",
    "state": "GA"
  },
  {
    "city": "bethlehem",
    "state_code": "GA",
    "placeMasterId": "P02500000FsoEvdsrMRCc8L9vSFcEsors9CJtH3U",
    "placeName": "bethlehem",
    "state": "GA"
  },
  {
    "city": "ringgold",
    "state_code": "GA",
    "placeMasterId": "P02500000FsoEyD7SDZakV9Z3urplHdX5HZvxPvN",
    "placeName": "ringgold",
    "state": "GA"
  },
  {
    "city": "varnell",
    "state_code": "GA",
    "placeMasterId": "P02500000FsoEymVMd9ttFYXl87DQvb1bkBUfiS3",
    "placeName": "varnell",
    "state": "GA"
  },
  {
    "city": "augusta",
    "state_code": "GA",
    "placeMasterId": "P02500000FsoEvV2Nl2cpRjukeRGoyKWGC8vWncN",
    "placeName": "augusta",
    "state": "GA"
  },
  {
    "city": "lovingston",
    "state_code": "VA",
    "placeMasterId": "P02500000FsoGwUUe8IEjLyJORlsv7RrYHqTziuL",
    "placeName": "lovingston",
    "state": "VA"
  },
  {
    "city": "richmond",
    "state_code": "VA",
    "placeMasterId": "P02500000FsoGxLZVkfhRTZmRGdxQaO3uqNoDmKN",
    "placeName": "richmond",
    "state": "VA"
  },
  {
    "city": "suffolk",
    "state_code": "VA",
    "placeMasterId": "P02500000FsoGxm6wYrQnXNVxg4zgJrBl4EMlhhd",
    "placeName": "suffolk",
    "state": "VA"
  },
  {
    "city": "virginia beach",
    "state_code": "VA",
    "placeMasterId": "P02500000FsoGxuxQAG0aDyl8TtL6ELfzK3Qkryw",
    "placeName": "virginia beach",
    "state": "VA"
  },
  {
    "city": "newport news",
    "state_code": "VA",
    "placeMasterId": "P02500000FsoGwmBbL5OIjAnk3OZkwQlvDbncqYB",
    "placeName": "newport news",
    "state": "VA"
  },
  {
    "city": "prince george",
    "state_code": "VA",
    "placeMasterId": "P02500000FsoGxCj29H7emyXGSpc0ftm5cmfuHqj",
    "placeName": "prince george",
    "state": "VA"
  },
  {
    "city": "dillwyn",
    "state_code": "VA",
    "placeMasterId": "P02500000FsoGvUZIuWCEXlbAp5Szk1F9L75fNwt",
    "placeName": "dillwyn",
    "state": "VA"
  },
  {
    "city": "fieldale",
    "state_code": "VA",
    "placeMasterId": "P02500000FsoGvdPmVum1EMqLctoPeVl6YpRwUwd",
    "placeName": "fieldale",
    "state": "VA"
  },
  {
    "city": "castlewood",
    "state_code": "VA",
    "placeMasterId": "P02500000FsoGv41s6KSsTxrePeQk0YHaEtR0y4J",
    "placeName": "castlewood",
    "state": "VA"
  },
  {
    "city": "clintwood",
    "state_code": "VA",
    "placeMasterId": "P02500000FsoGvCsLhj2fAZ6pDSm9v2ef4eGjvZG",
    "placeName": "clintwood",
    "state": "VA"
  },
  {
    "city": "honaker",
    "state_code": "VA",
    "placeMasterId": "P02500000FsoGw3xDK6VNIAZs2KqfNyrRmrL6ztK",
    "placeName": "honaker",
    "state": "VA"
  },
  {
    "city": "wise",
    "state_code": "VA",
    "placeMasterId": "P02500000FsoGy3ntleaMua0JHhgW8q3jDrO9BkU",
    "placeName": "wise",
    "state": "VA"
  },
  {
    "city": "troutdale",
    "state_code": "VA",
    "placeMasterId": "P02500000FsoGxuxQAG0aDyl8TtL6ELXca9ZQYpY",
    "placeName": "troutdale",
    "state": "VA"
  },
  {
    "city": "low moor",
    "state_code": "VA",
    "placeMasterId": "P02500000FsoGwLeAWtewfN4DdxXVCxfHAg9ppvm",
    "placeName": "low moor",
    "state": "VA"
  },
  {
    "city": "middlebrook",
    "state_code": "VA",
    "placeMasterId": "P02500000FsoGwdL7jgoW2ZYZFaEL1wISG2qRSjc",
    "placeName": "middlebrook",
    "state": "VA"
  },
  {
    "city": "blairs",
    "state_code": "VA",
    "placeMasterId": "P02500000FsoGumKutXJJ6lNIo1juBZX8L2G5xyE",
    "placeName": "blairs",
    "state": "VA"
  },
  {
    "city": "covel",
    "state_code": "WV",
    "placeMasterId": "P02500000FsoH2LCDrXtvWbLXO433TX9sWsFhHQ7",
    "placeName": "covel",
    "state": "WV"
  },
  {
    "city": "eleanor",
    "state_code": "WV",
    "placeMasterId": "P02500000FsoH2ctB4L3UtnpszgjtIVmNh4VMCWd",
    "placeName": "eleanor",
    "state": "WV"
  },
  {
    "city": "poca",
    "state_code": "WV",
    "placeMasterId": "P02500000FsoH3Ty2giWD1PIvoYoOlSEaDrcuW0k",
    "placeName": "poca",
    "state": "WV"
  },
  {
    "city": "sylvester",
    "state_code": "WV",
    "placeMasterId": "P02500000FsoH3uVTUuFZ5D2SDzqeUvH5vg1WzmL",
    "placeName": "sylvester",
    "state": "WV"
  },
  {
    "city": "martinsburg",
    "state_code": "WV",
    "placeMasterId": "P02500000FsoH3CH5TvMdeCoaCw7YwTPfVAGOoKL",
    "placeName": "martinsburg",
    "state": "WV"
  },
  {
    "city": "paw paw",
    "state_code": "WV",
    "placeMasterId": "P02500000FsoH3Ty2giWD1PIvoYoOlS9iRywFrEr",
    "placeName": "paw paw",
    "state": "WV"
  },
  {
    "city": "lavalette",
    "state_code": "WV",
    "placeMasterId": "P02500000FsoH33QbsWmqxbZPP7m91z8vUNbHx7d",
    "placeName": "lavalette",
    "state": "WV"
  },
  {
    "city": "omar",
    "state_code": "WV",
    "placeMasterId": "P02500000FsoH3Ty2giWD1PIvoYoOlS88a49jQAo",
    "placeName": "omar",
    "state": "WV"
  },
  {
    "city": "ansted",
    "state_code": "WV",
    "placeMasterId": "P02500000FsoH1uen3MAZSnc0yd0nk4Alxnc9UPL",
    "placeName": "ansted",
    "state": "WV"
  },
  {
    "city": "hico",
    "state_code": "WV",
    "placeMasterId": "P02500000FsoH2ua8H8D4H0KEbJQj7UiUZXurb3R",
    "placeName": "hico",
    "state": "WV"
  },
  {
    "city": "oak hill",
    "state_code": "WV",
    "placeMasterId": "P02500000FsoH3Ty2giWD1PIvoYoOlS3YlooPiTs",
    "placeName": "oak hill",
    "state": "WV"
  },
  {
    "city": "rupert",
    "state_code": "WV",
    "placeMasterId": "P02500000FsoH3leztVfmObnHQBVEaQwU2Rc9nbd",
    "placeName": "rupert",
    "state": "WV"
  },
  {
    "city": "springfield",
    "state_code": "WV",
    "placeMasterId": "P02500000FsoH3uVTUuFZ5D2SDzqeUvD5WeuzdAY",
    "placeName": "springfield",
    "state": "WV"
  },
  {
    "city": "wiley ford",
    "state_code": "WV",
    "placeMasterId": "P02500000FsoH4CCQhhP8SPWnpcXUJttAVjjYA5J",
    "placeName": "wiley ford",
    "state": "WV"
  },
  {
    "city": "wardensville",
    "state_code": "WV",
    "placeMasterId": "P02500000FsoH43Lx6IpLloHd1oC4PPbN3XvXQtl",
    "placeName": "wardensville",
    "state": "WV"
  },
  {
    "city": "reidsville",
    "state_code": "NC",
    "placeMasterId": "P02500000FsoG8ymxpjxEvWNvf00txT6mB7gcJYn",
    "placeName": "reidsville",
    "state": "NC"
  },
  {
    "city": "cary",
    "state_code": "NC",
    "placeMasterId": "P02500000FsoG6PYMybZ6YhynCNnNYeRe98ichEV",
    "placeName": "cary",
    "state": "NC"
  },
  {
    "city": "clayton",
    "state_code": "NC",
    "placeMasterId": "P02500000FsoG6YOqa08tFJDy0C8nT8lAxyqvLPc",
    "placeName": "clayton",
    "state": "NC"
  },
  {
    "city": "macon",
    "state_code": "NC",
    "placeMasterId": "P02500000FsoG8GYZol4JUWA3dwHoP16cLOTTWPm",
    "placeName": "macon",
    "state": "NC"
  },
  {
    "city": "roxboro",
    "state_code": "NC",
    "placeMasterId": "P02500000FsoG97dRR8X1c7d6SoMJrxNuq05TXyE",
    "placeName": "roxboro",
    "state": "NC"
  },
  {
    "city": "smithfield",
    "state_code": "NC",
    "placeMasterId": "P02500000FsoG9PKOdvgazK7S4R39gw9laAbAPHC",
    "placeName": "smithfield",
    "state": "NC"
  },
  {
    "city": "littleton",
    "state_code": "NC",
    "placeMasterId": "P02500000FsoG87i6DMUWnuusq7wOUWqB0mLGSEV",
    "placeName": "littleton",
    "state": "NC"
  },
  {
    "city": "stantonsburg",
    "state_code": "NC",
    "placeMasterId": "P02500000FsoG9YAsFKGNfvMcsFOZbQUJOMtdnMK",
    "placeName": "stantonsburg",
    "state": "NC"
  },
  {
    "city": "stokes",
    "state_code": "NC",
    "placeMasterId": "P02500000FsoG9YAsFKGNfvMcsFOZbQZWQPBa3Nf",
    "placeName": "stokes",
    "state": "NC"
  },
  {
    "city": "kitty hawk",
    "state_code": "NC",
    "placeMasterId": "P02500000FsoG7q190ZKxQiQXEVFYfY60bHskASe",
    "placeName": "kitty hawk",
    "state": "NC"
  },
  {
    "city": "rodanthe",
    "state_code": "NC",
    "placeMasterId": "P02500000FsoG97dRR8X1c7d6SoMJrxLSHuikDjQ",
    "placeName": "rodanthe",
    "state": "NC"
  },
  {
    "city": "bostic",
    "state_code": "NC",
    "placeMasterId": "P02500000FsoG6GhtNCzJs6jcOZRxeA2pPK0jK9a",
    "placeName": "bostic",
    "state": "NC"
  },
  {
    "city": "dallas",
    "state_code": "NC",
    "placeMasterId": "P02500000FsoG6hFKBOifvuT8o0UDNdA8Si5dM4g",
    "placeName": "dallas",
    "state": "NC"
  },
  {
    "city": "fayetteville",
    "state_code": "NC",
    "placeMasterId": "P02500000FsoG77mkzaS1ziCfDRWT76CllOZaZAj",
    "placeName": "fayetteville",
    "state": "NC"
  },
  {
    "city": "lumber bridge",
    "state_code": "NC",
    "placeMasterId": "P02500000FsoG87i6DMUWnuusq7wOUWoOHHXDd04",
    "placeName": "lumber bridge",
    "state": "NC"
  },
  {
    "city": "wagram",
    "state_code": "NC",
    "placeMasterId": "P02500000FsoG9prpS7Px37qyTs5PQPAU8pB05fw",
    "placeName": "wagram",
    "state": "NC"
  },
  {
    "city": "fair bluff",
    "state_code": "NC",
    "placeMasterId": "P02500000FsoG77mkzaS1ziCfDRWT76A2nsTx8ul",
    "placeName": "fair bluff",
    "state": "NC"
  },
  {
    "city": "winterville",
    "state_code": "NC",
    "placeMasterId": "P02500000FsoGA7YmeuZWQKLK5UmFFNugq957ZwW",
    "placeName": "winterville",
    "state": "NC"
  },
  {
    "city": "claremont",
    "state_code": "NC",
    "placeMasterId": "P02500000FsoG6YOqa08tFJDy0C8nT8jEqnQxpkl",
    "placeName": "claremont",
    "state": "NC"
  },
  {
    "city": "hildebran",
    "state_code": "NC",
    "placeMasterId": "P02500000FsoG7YKBnmBO3VwBcsYiqZPx4GXLodg",
    "placeName": "hildebran",
    "state": "NC"
  },
  {
    "city": "bakersville",
    "state_code": "NC",
    "placeMasterId": "P02500000FsoG5z0wAPpkUuFGmwl7pBK53AsDIGW",
    "placeName": "bakersville",
    "state": "NC"
  },
  {
    "city": "bryson city",
    "state_code": "NC",
    "placeMasterId": "P02500000FsoG6GhtNCzJs6jcOZRxeA5Fpi1LGJP",
    "placeName": "bryson city",
    "state": "NC"
  },
  {
    "city": "cherokee",
    "state_code": "NC",
    "placeMasterId": "P02500000FsoG6YOqa08tFJDy0C8nT8qnRPRGF2I",
    "placeName": "cherokee",
    "state": "NC"
  },
  {
    "city": "mars hill",
    "state_code": "NC",
    "placeMasterId": "P02500000FsoG8GYZol4JUWA3dwHoP1BYR0BtuD6",
    "placeName": "mars hill",
    "state": "NC"
  },
  {
    "city": "hendersonville",
    "state_code": "NC",
    "placeMasterId": "P02500000FsoG7YKBnmBO3VwBcsYiqZQ3Z79YnTA",
    "placeName": "hendersonville",
    "state": "NC"
  },
  {
    "city": "gadsden",
    "state_code": "SC",
    "placeMasterId": "P02500000FsoGbnlPfoXrirp7x1nK0Q39Kr6rUZt",
    "placeName": "gadsden",
    "state": "SC"
  },
  {
    "city": "lydia",
    "state_code": "SC",
    "placeMasterId": "P02500000FsoGcN9K5Or0TGnpAHAzeNZXzTQCz9n",
    "placeName": "lydia",
    "state": "SC"
  },
  {
    "city": "pomaria",
    "state_code": "SC",
    "placeMasterId": "P02500000FsoGcngktaaMX4XLZiDFNqgLePgCCiv",
    "placeName": "pomaria",
    "state": "SC"
  },
  {
    "city": "wagener",
    "state_code": "SC",
    "placeMasterId": "P02500000FsoGdN4fJAtVHTW2mxav1o4uYGgTfV1",
    "placeName": "wagener",
    "state": "SC"
  },
  {
    "city": "ward",
    "state_code": "SC",
    "placeMasterId": "P02500000FsoGdEEBhmJiasGrz9FV7JoZ50x26iu",
    "placeName": "ward",
    "state": "SC"
  },
  {
    "city": "winnsboro",
    "state_code": "SC",
    "placeMasterId": "P02500000FsoGdVv8uZTHy4lDalwKwITBev0Vfsu",
    "placeName": "winnsboro",
    "state": "SC"
  },
  {
    "city": "duncan",
    "state_code": "SC",
    "placeMasterId": "P02500000FsoGbeuw4Py52GZx9DRu5vdbkd8dqKt",
    "placeName": "duncan",
    "state": "SC"
  },
  {
    "city": "reidville",
    "state_code": "SC",
    "placeMasterId": "P02500000FsoGcwXEUzA9DfmWNWYfIKvnT68NMKG",
    "placeName": "reidville",
    "state": "SC"
  },
  {
    "city": "jamestown",
    "state_code": "SC",
    "placeMasterId": "P02500000FsoGbwbtHD7ePT4Ikq8juuZYeHHehS8",
    "placeName": "jamestown",
    "state": "SC"
  },
  {
    "city": "clio",
    "state_code": "SC",
    "placeMasterId": "P02500000FsoGbW4ST1OILfKmLP6UBRHz047yOfZ",
    "placeName": "clio",
    "state": "SC"
  },
  {
    "city": "hemingway",
    "state_code": "SC",
    "placeMasterId": "P02500000FsoGbwbtHD7ePT4Ikq8juuSLHwN4GoE",
    "placeName": "hemingway",
    "state": "SC"
  },
  {
    "city": "myrtle beach",
    "state_code": "SC",
    "placeMasterId": "P02500000FsoGcN9K5Or0TGnpAHAzeNbBRrJHz9g",
    "placeName": "myrtle beach",
    "state": "SC"
  },
  {
    "city": "anderson",
    "state_code": "SC",
    "placeMasterId": "P02500000FsoGb5X1epewHrbFvy4ERyK3lzp4DKY",
    "placeName": "anderson",
    "state": "SC"
  },
  {
    "city": "easley",
    "state_code": "SC",
    "placeMasterId": "P02500000FsoGbeuw4Py52GZx9DRu5vgAUdgxpSO",
    "placeName": "easley",
    "state": "SC"
  },
  {
    "city": "smyrna",
    "state_code": "SC",
    "placeMasterId": "P02500000FsoGd5Ni6NjvuH1hBKu5CpOsXFgwOf9",
    "placeName": "smyrna",
    "state": "SC"
  },
  {
    "city": "aiken",
    "state_code": "SC",
    "placeMasterId": "P02500000FsoGb5X1epewHrbFvy4ERyEcYPvbgA7",
    "placeName": "aiken",
    "state": "SC"
  },
  {
    "city": "suwanee",
    "state_code": "GA",
    "placeMasterId": "P02500000FsoEyUoPQMkJsM3PWUWb6cJIoGUIaBj",
    "placeName": "suwanee",
    "state": "GA"
  },
  {
    "city": "social circle",
    "state_code": "GA",
    "placeMasterId": "P02500000FsoEyLxvoyAXBkoEigBBC803GyD8Pkn",
    "placeName": "social circle",
    "state": "GA"
  },
  {
    "city": "loganville",
    "state_code": "GA",
    "placeMasterId": "P02500000FsoExM2abC82NY615zlFohLA3zrUdT0",
    "placeName": "loganville",
    "state": "GA"
  },
  {
    "city": "ball ground",
    "state_code": "GA",
    "placeMasterId": "P02500000FsoEvdsrMRCc8L9vSFcEsoqosJbnYpR",
    "placeName": "ball ground",
    "state": "GA"
  },
  {
    "city": "kingston",
    "state_code": "GA",
    "placeMasterId": "P02500000FsoExDC6znYFgwqqIBPpuCx4Lr5Hf01",
    "placeName": "kingston",
    "state": "GA"
  },
  {
    "city": "jackson",
    "state_code": "GA",
    "placeMasterId": "P02500000FsoEx4LdOOyT0LbfUN4Pzid9SrwGBl1",
    "placeName": "jackson",
    "state": "GA"
  },
  {
    "city": "atlanta",
    "state_code": "GA",
    "placeMasterId": "P02500000FsoEvV2Nl2cpRjukeRGoyKXsQZ9lvPs",
    "placeName": "atlanta",
    "state": "GA"
  },
  {
    "city": "atlanta",
    "state_code": "GA",
    "placeMasterId": "P02500000FsoEvV2Nl2cpRjukeRGoyKXsQZ9lvPs",
    "placeName": "atlanta",
    "state": "GA"
  },
  {
    "city": "statesboro",
    "state_code": "GA",
    "placeMasterId": "P02500000FsoEyLxvoyAXBkoEigBBC7wyMocdm6L",
    "placeName": "statesboro",
    "state": "GA"
  },
  {
    "city": "dahlonega",
    "state_code": "GA",
    "placeMasterId": "P02500000FsoEwDGlm1Vksk8cfUzuWmOF35XO3hF",
    "placeName": "dahlonega",
    "state": "GA"
  },
  {
    "city": "martin",
    "state_code": "GA",
    "placeMasterId": "P02500000FsoExUt4Cahp49LBto6fjBjMZZB6kJo",
    "placeName": "martin",
    "state": "GA"
  },
  {
    "city": "grovetown",
    "state_code": "GA",
    "placeMasterId": "P02500000FsoEwmegBbotd97JskNaAjr5mjwjIgN",
    "placeName": "grovetown",
    "state": "GA"
  },
  {
    "city": "keysville",
    "state_code": "GA",
    "placeMasterId": "P02500000FsoEx4LdOOyT0LbfUN4PzicbD81bCf7",
    "placeName": "keysville",
    "state": "GA"
  },
  {
    "city": "abbeville",
    "state_code": "GA",
    "placeMasterId": "P02500000FsoEvMBu9e32l8fZqcvP3q9XD5223xI",
    "placeName": "abbeville",
    "state": "GA"
  },
  {
    "city": "cordele",
    "state_code": "GA",
    "placeMasterId": "P02500000FsoEwDGlm1Vksk8cfUzuWmLFwIA8l0J",
    "placeName": "cordele",
    "state": "GA"
  },
  {
    "city": "montezuma",
    "state_code": "GA",
    "placeMasterId": "P02500000FsoExdjXnzHbkkaMhcS5dg4VE5kJkX7",
    "placeName": "montezuma",
    "state": "GA"
  },
  {
    "city": "lumber city",
    "state_code": "GA",
    "placeMasterId": "P02500000FsoExM2abC82NY615zlFohNhBegkL1r",
    "placeName": "lumber city",
    "state": "GA"
  },
  {
    "city": "morven",
    "state_code": "GA",
    "placeMasterId": "P02500000FsoExdjXnzHbkkaMhcS5dg59xPQcLYd",
    "placeName": "morven",
    "state": "GA"
  },
  {
    "city": "pearson",
    "state_code": "GA",
    "placeMasterId": "P02500000FsoExvQV0mRB7x4iJF8vSepMkZ5MUwt",
    "placeName": "pearson",
    "state": "GA"
  },
  {
    "city": "moody afb",
    "state_code": "GA",
    "placeMasterId": "P02500000FsoExdjXnzHbkkaMhcS5dg2y3WC8qab",
    "placeName": "moody afb",
    "state": "GA"
  },
  {
    "city": "andersonville",
    "state_code": "GA",
    "placeMasterId": "P02500000FsoEvV2Nl2cpRjukeRGoyKWSJKfRoLn",
    "placeName": "andersonville",
    "state": "GA"
  },
  {
    "city": "meigs",
    "state_code": "GA",
    "placeMasterId": "P02500000FsoExUt4Cahp49LBto6fjBiPcReVBJW",
    "placeName": "meigs",
    "state": "GA"
  },
  {
    "city": "hamilton",
    "state_code": "GA",
    "placeMasterId": "P02500000FsoEwvV9n0OgJkMUgYj05EDoewtjBeO",
    "placeName": "hamilton",
    "state": "GA"
  },
  {
    "city": "the villages",
    "state_code": "FL",
    "placeMasterId": "P02500000FsoEumnzk3ju0jgsdNXjPscZQVN00Po",
    "placeName": "the villages",
    "state": "FL"
  },
  {
    "city": "jacksonville",
    "state_code": "FL",
    "placeMasterId": "P02500000FsoEs4ivHWlyxK2ZMwyn6Zc9nJdRTGT",
    "placeName": "jacksonville",
    "state": "FL"
  },
  {
    "city": "mary esther",
    "state_code": "FL",
    "placeMasterId": "P02500000FsoEsmxJIVeuOKGRO0hsf1Rc1zN0XuH",
    "placeName": "mary esther",
    "state": "FL"
  },
  {
    "city": "mcintosh",
    "state_code": "FL",
    "placeMasterId": "P02500000FsoEse6ph757hj1GaCMSkX8HJoh1rjE",
    "placeName": "mcintosh",
    "state": "FL"
  },
  {
    "city": "worthington springs",
    "state_code": "FL",
    "placeMasterId": "P02500000FsoEvMBu9e32l8fZqcvP3q6FOVsv1w7",
    "placeName": "worthington springs",
    "state": "FL"
  },
  {
    "city": "sanford",
    "state_code": "FL",
    "placeMasterId": "P02500000FsoEuDQ5KTQlGKiBQ8A3lv8IpGJtzMJ",
    "placeName": "sanford",
    "state": "FL"
  },
  {
    "city": "melbourne",
    "state_code": "FL",
    "placeMasterId": "P02500000FsoEsvnmtuEh4vVcBp3IZVpfHG8GKti",
    "placeName": "melbourne",
    "state": "FL"
  },
  {
    "city": "palm bay",
    "state_code": "FL",
    "placeMasterId": "P02500000FsoEtVBhJUXppKUJP4QyDTJMIgEUAtA",
    "placeName": "palm bay",
    "state": "FL"
  },
  {
    "city": "melbourne beach",
    "state_code": "FL",
    "placeMasterId": "P02500000FsoEsmxJIVeuOKGRO0hsf1RK6FbRr8y",
    "placeName": "melbourne beach",
    "state": "FL"
  },
  {
    "city": "sebastian",
    "state_code": "FL",
    "placeMasterId": "P02500000FsoEuMGYvs0XwvxMDwVTgPVya02UkpA",
    "placeName": "sebastian",
    "state": "FL"
  },
  {
    "city": "hollywood",
    "state_code": "FL",
    "placeMasterId": "P02500000FsoErvsRg8CCGinOZ8dNC5DYkbxOTEU",
    "placeName": "hollywood",
    "state": "FL"
  },
  {
    "city": "miami",
    "state_code": "FL",
    "placeMasterId": "P02500000FsoEsvnmtuEh4vVcBp3IZVnnnRh03zn",
    "placeName": "miami",
    "state": "FL"
  },
  {
    "city": "miami",
    "state_code": "FL",
    "placeMasterId": "P02500000FsoEsvnmtuEh4vVcBp3IZVnnnRh03zn",
    "placeName": "miami",
    "state": "FL"
  },
  {
    "city": "boynton beach",
    "state_code": "FL",
    "placeMasterId": "P02500000FsoEqVPfeAQLOiLeX1BC5BTmvRaDTr1",
    "placeName": "boynton beach",
    "state": "FL"
  },
  {
    "city": "brandon",
    "state_code": "FL",
    "placeMasterId": "P02500000FsoEqMZC2lqYi76TjCpmAhAOwsNehnl",
    "placeName": "brandon",
    "state": "FL"
  },
  {
    "city": "thonotosassa",
    "state_code": "FL",
    "placeMasterId": "P02500000FsoEudxW8fA7K8RhpZCJVOIGFFosmRb",
    "placeName": "thonotosassa",
    "state": "FL"
  },
  {
    "city": "tampa",
    "state_code": "FL",
    "placeMasterId": "P02500000FsoEudxW8fA7K8RhpZCJVOG5RK5OQjD",
    "placeName": "tampa",
    "state": "FL"
  },
  {
    "city": "tampa",
    "state_code": "FL",
    "placeMasterId": "P02500000FsoEudxW8fA7K8RhpZCJVOG5RK5OQjD",
    "placeName": "tampa",
    "state": "FL"
  },
  {
    "city": "clearwater",
    "state_code": "FL",
    "placeMasterId": "P02500000FsoEqn6cqxZuluq08ds1uAGuY1C0NsC",
    "placeName": "clearwater",
    "state": "FL"
  },
  {
    "city": "bartow",
    "state_code": "FL",
    "placeMasterId": "P02500000FsoEqDiiRNGm1VrIvOUMGCo5oHo1o4R",
    "placeName": "bartow",
    "state": "FL"
  },
  {
    "city": "kathleen",
    "state_code": "FL",
    "placeMasterId": "P02500000FsoEsDZOsvLldvHkAlKD13wXV9G1hZi",
    "placeName": "kathleen",
    "state": "FL"
  },
  {
    "city": "sebring",
    "state_code": "FL",
    "placeMasterId": "P02500000FsoEuMGYvs0XwvxMDwVTgPWPurB9bJo",
    "placeName": "sebring",
    "state": "FL"
  },
  {
    "city": "sebring",
    "state_code": "FL",
    "placeMasterId": "P02500000FsoEuMGYvs0XwvxMDwVTgPWPurB9bJo",
    "placeName": "sebring",
    "state": "FL"
  },
  {
    "city": "naples",
    "state_code": "FL",
    "placeMasterId": "P02500000FsoEtDUk6hOGS7zxnRk8OUWxbxM86aZ",
    "placeName": "naples",
    "state": "FL"
  },
  {
    "city": "goodland",
    "state_code": "FL",
    "placeMasterId": "P02500000FsoEreBUTL2ctWJ2xVwXN6V1TMmhEdz",
    "placeName": "goodland",
    "state": "FL"
  },
  {
    "city": "cortez",
    "state_code": "FL",
    "placeMasterId": "P02500000FsoEqvx6SM9hSW5AwSDRoef0N01M6Yb",
    "placeName": "cortez",
    "state": "FL"
  },
  {
    "city": "bradenton beach",
    "state_code": "FL",
    "placeMasterId": "P02500000FsoEqVPfeAQLOiLeX1BC5BUhhPTQbdx",
    "placeName": "bradenton beach",
    "state": "FL"
  },
  {
    "city": "sarasota",
    "state_code": "FL",
    "placeMasterId": "P02500000FsoEu4Zbj4qyZjT0cJodrQpDdnRoRQk",
    "placeName": "sarasota",
    "state": "FL"
  },
  {
    "city": "floral city",
    "state_code": "FL",
    "placeMasterId": "P02500000FsoErDe3f9JGpiZWY4uHddQVbOxhlzU",
    "placeName": "floral city",
    "state": "FL"
  },
  {
    "city": "ocala",
    "state_code": "FL",
    "placeMasterId": "P02500000FsoEtMLDi5y38jF8bG5YIyvCqOZlLNH",
    "placeName": "ocala",
    "state": "FL"
  },
  {
    "city": "new port richey",
    "state_code": "FL",
    "placeMasterId": "P02500000FsoEtDUk6hOGS7zxnRk8OUWxrQqsvbM",
    "placeName": "new port richey",
    "state": "FL"
  },
  {
    "city": "holiday",
    "state_code": "FL",
    "placeMasterId": "P02500000FsoErvsRg8CCGinOZ8dNC5ERxvafhJE",
    "placeName": "holiday",
    "state": "FL"
  },
  {
    "city": "pelham",
    "state_code": "AL",
    "placeMasterId": "P02500000FsoEUxbZZJGle0OLDP15VDTS0cJoDOF",
    "placeName": "pelham",
    "state": "AL"
  },
  {
    "city": "sylacauga",
    "state_code": "AL",
    "placeMasterId": "P02500000FsoEVWzTytZuOPN2QeOl9AuoTq8yLbT",
    "placeName": "sylacauga",
    "state": "AL"
  },
  {
    "city": "birmingham",
    "state_code": "AL",
    "placeMasterId": "P02500000FsoESouPWMbzKzijADpoprrGKsxshig",
    "placeName": "birmingham",
    "state": "AL"
  },
  {
    "city": "northport",
    "state_code": "AL",
    "placeMasterId": "P02500000FsoEUol5xugyxP9APaffaj2sIklJ0pc",
    "placeName": "northport",
    "state": "AL"
  },
  {
    "city": "lexington",
    "state_code": "AL",
    "placeMasterId": "P02500000FsoEUODf9ixctbPe09dPrFwWv6kFizj",
    "placeName": "lexington",
    "state": "AL"
  },
  {
    "city": "dutton",
    "state_code": "AL",
    "placeMasterId": "P02500000FsoETOIJvwv85OhQNTDUTpKpkPdWSNk",
    "placeName": "dutton",
    "state": "AL"
  },
  {
    "city": "huntsville",
    "state_code": "AL",
    "placeMasterId": "P02500000FsoEU6Whwvo3WOvIOWwa2HFC064RRO9",
    "placeName": "huntsville",
    "state": "AL"
  },
  {
    "city": "walnut grove",
    "state_code": "AL",
    "placeMasterId": "P02500000FsoEVogRBgjTlbrO2H5ay9dWubBoTWr",
    "placeName": "walnut grove",
    "state": "AL"
  },
  {
    "city": "autaugaville",
    "state_code": "AL",
    "placeMasterId": "P02500000FsoESouPWMbzKzijADpoprpzHXOdbnP",
    "placeName": "autaugaville",
    "state": "AL"
  },
  {
    "city": "banks",
    "state_code": "AL",
    "placeMasterId": "P02500000FsoESouPWMbzKzijADpoprqSjYZXmNB",
    "placeName": "banks",
    "state": "AL"
  },
  {
    "city": "dozier",
    "state_code": "AL",
    "placeMasterId": "P02500000FsoETOIJvwv85OhQNTDUTpLy3wE3Lhu",
    "placeName": "dozier",
    "state": "AL"
  },
  {
    "city": "marbury",
    "state_code": "AL",
    "placeMasterId": "P02500000FsoEUODf9ixctbPe09dPrFxHfENnxRS",
    "placeName": "marbury",
    "state": "AL"
  },
  {
    "city": "oxford",
    "state_code": "AL",
    "placeMasterId": "P02500000FsoEUxbZZJGle0OLDP15VDQ5bthupfr",
    "placeName": "oxford",
    "state": "AL"
  },
  {
    "city": "wadley",
    "state_code": "AL",
    "placeMasterId": "P02500000FsoEVogRBgjTlbrO2H5ay9eqrzqEgXT",
    "placeName": "wadley",
    "state": "AL"
  },
  {
    "city": "evergreen",
    "state_code": "AL",
    "placeMasterId": "P02500000FsoETX8nXLUulzwbBHYuOJkzwbSw7vX",
    "placeName": "evergreen",
    "state": "AL"
  },
  {
    "city": "coffeeville",
    "state_code": "AL",
    "placeMasterId": "P02500000FsoET6bMj9lYiCD4lqWeeqcrSPqduxG",
    "placeName": "coffeeville",
    "state": "AL"
  },
  {
    "city": "newbern",
    "state_code": "AL",
    "placeMasterId": "P02500000FsoEUol5xugyxP9APaffaj1nQU8CR46",
    "placeName": "newbern",
    "state": "AL"
  },
  {
    "city": "sweet water",
    "state_code": "AL",
    "placeMasterId": "P02500000FsoEVWzTytZuOPN2QeOl9At5h8sjUgA",
    "placeName": "sweet water",
    "state": "AL"
  },
  {
    "city": "opelika",
    "state_code": "AL",
    "placeMasterId": "P02500000FsoEUol5xugyxP9APaffaj5z8CtEQRk",
    "placeName": "opelika",
    "state": "AL"
  },
  {
    "city": "valley",
    "state_code": "AL",
    "placeMasterId": "P02500000FsoEVfpxaI9h50cDESkB3fK1niQe0hK",
    "placeName": "valley",
    "state": "AL"
  },
  {
    "city": "toxey",
    "state_code": "AL",
    "placeMasterId": "P02500000FsoEVfpxaI9h50cDESkB3fGcibPznPH",
    "placeName": "toxey",
    "state": "AL"
  },
  {
    "city": "auburntown",
    "state_code": "TN",
    "placeMasterId": "P02500000FsoGfwJGAJHdeHvBFZoRQckWKVjO1nV",
    "placeName": "auburntown",
    "state": "TN"
  },
  {
    "city": "pleasant view",
    "state_code": "TN",
    "placeMasterId": "P02500000FsoGheSzP4D3tUrGtJxSMVL5hEDUTXF",
    "placeName": "pleasant view",
    "state": "TN"
  },
  {
    "city": "shelbyville",
    "state_code": "TN",
    "placeMasterId": "P02500000FsoGhnJT0Smqa66Rh8IsGzf7WV95LUp",
    "placeName": "shelbyville",
    "state": "TN"
  },
  {
    "city": "nashville",
    "state_code": "TN",
    "placeMasterId": "P02500000FsoGhMm2CH3UWIMvHhGcXWZ0CJVUMa1",
    "placeName": "nashville",
    "state": "TN"
  },
  {
    "city": "tracy city",
    "state_code": "TN",
    "placeMasterId": "P02500000FsoGhw9wbrMdGhLcUweIBU9OLEqlfKi",
    "placeName": "tracy city",
    "state": "TN"
  },
  {
    "city": "coalfield",
    "state_code": "TN",
    "placeMasterId": "P02500000FsoGgE0DN6RD1UPWrCVHFbYXQjBc4cV",
    "placeName": "coalfield",
    "state": "TN"
  },
  {
    "city": "lenoir city",
    "state_code": "TN",
    "placeMasterId": "P02500000FsoGgwEbO5K8SUdOsGEMo3R0VcVGg3k",
    "placeName": "lenoir city",
    "state": "TN"
  },
  {
    "city": "townsend",
    "state_code": "TN",
    "placeMasterId": "P02500000FsoGi50QDFwPxIanIkzi5yLxiOArBNv",
    "placeName": "townsend",
    "state": "TN"
  },
  {
    "city": "friendship",
    "state_code": "TN",
    "placeMasterId": "P02500000FsoGgeXeBIAZ5I93GdXWz4cdDkN5trj",
    "placeName": "friendship",
    "state": "TN"
  },
  {
    "city": "grand junction",
    "state_code": "TN",
    "placeMasterId": "P02500000FsoGgeXeBIAZ5I93GdXWz4jTcMMF0NR",
    "placeName": "grand junction",
    "state": "TN"
  },
  {
    "city": "hornsby",
    "state_code": "TN",
    "placeMasterId": "P02500000FsoGgnO7mgkLltOE4RswtZ744l9C20l",
    "placeName": "hornsby",
    "state": "TN"
  },
  {
    "city": "middleton",
    "state_code": "TN",
    "placeMasterId": "P02500000FsoGhDvYasThph7kTsvCd265TdxLtT2",
    "placeName": "middleton",
    "state": "TN"
  },
  {
    "city": "baxter",
    "state_code": "TN",
    "placeMasterId": "P02500000FsoGfnSmYuhqxgg0RlT1W8WIe1D3FTY",
    "placeName": "baxter",
    "state": "TN"
  },
  {
    "city": "byrdstown",
    "state_code": "TN",
    "placeMasterId": "P02500000FsoGfwJGAJHdeHvBFZoRQctohuPPr6O",
    "placeName": "byrdstown",
    "state": "TN"
  },
  {
    "city": "gainesboro",
    "state_code": "TN",
    "placeMasterId": "P02500000FsoGgVhAZtamOgtsSpC74aTPoMJ3fni",
    "placeName": "gainesboro",
    "state": "TN"
  },
  {
    "city": "blue mountain",
    "state_code": "MS",
    "placeMasterId": "P02500000FsoFgaLwnr5yBygFmPGjdzDD169l8aI",
    "placeName": "blue mountain",
    "state": "MS"
  },
  {
    "city": "dumas",
    "state_code": "MS",
    "placeMasterId": "P02500000FsoFh0tNc2pKFmPmBqIzNSJIYgZdbRn",
    "placeName": "dumas",
    "state": "MS"
  },
  {
    "city": "falkner",
    "state_code": "MS",
    "placeMasterId": "P02500000FsoFh9jrDRP6wNewzeePHwadImP04BX",
    "placeName": "falkner",
    "state": "MS"
  },
  {
    "city": "hollandale",
    "state_code": "MS",
    "placeMasterId": "P02500000FsoFhIaKopytcyu7nSzpCR1KoqCMRot",
    "placeName": "hollandale",
    "state": "MS"
  },
  {
    "city": "rosedale",
    "state_code": "MS",
    "placeMasterId": "P02500000FsoFi9fCRDRbkaNAcL4KfNFx3aSHMhO",
    "placeName": "rosedale",
    "state": "MS"
  },
  {
    "city": "glendora",
    "state_code": "MS",
    "placeMasterId": "P02500000FsoFhIaKopytcyu7nSzpCQwL1f8ab6F",
    "placeName": "glendora",
    "state": "MS"
  },
  {
    "city": "pittsboro",
    "state_code": "MS",
    "placeMasterId": "P02500000FsoFi0oiporp3z7zoWiuksk3GYgQzLQ",
    "placeName": "pittsboro",
    "state": "MS"
  },
  {
    "city": "sumner",
    "state_code": "MS",
    "placeMasterId": "P02500000FsoFiIVg2c1ORBcLQ9PkZrbjOREalkZ",
    "placeName": "sumner",
    "state": "MS"
  },
  {
    "city": "kosciusko",
    "state_code": "MS",
    "placeMasterId": "P02500000FsoFhRQoQEYgJa9IbHLF6vKMcdFbo9j",
    "placeName": "kosciusko",
    "state": "MS"
  },
  {
    "city": "jackson",
    "state_code": "MS",
    "placeMasterId": "P02500000FsoFhRQoQEYgJa9IbHLF6vGkcb3WK7F",
    "placeName": "jackson",
    "state": "MS"
  },
  {
    "city": "jackson",
    "state_code": "MS",
    "placeMasterId": "P02500000FsoFhRQoQEYgJa9IbHLF6vGkcb3WK7F",
    "placeName": "jackson",
    "state": "MS"
  },
  {
    "city": "de kalb",
    "state_code": "MS",
    "placeMasterId": "P02500000FsoFgs2u0eFXZBAbO1xZSxvDBVf8MMx",
    "placeName": "de kalb",
    "state": "MS"
  },
  {
    "city": "hattiesburg",
    "state_code": "MS",
    "placeMasterId": "P02500000FsoFhIaKopytcyu7nSzpCQvLj5UT99P",
    "placeName": "hattiesburg",
    "state": "MS"
  },
  {
    "city": "ellisville",
    "state_code": "MS",
    "placeMasterId": "P02500000FsoFh9jrDRP6wNewzeePHwWOPRNlERP",
    "placeName": "ellisville",
    "state": "MS"
  },
  {
    "city": "new augusta",
    "state_code": "MS",
    "placeMasterId": "P02500000FsoFhryFEQI2NNsp0iNUqORVISXUfFQ",
    "placeName": "new augusta",
    "state": "MS"
  },
  {
    "city": "georgetown",
    "state_code": "GA",
    "placeMasterId": "P02500000FsoEwmegBbotd97JskNaAjpkbQNNxP1",
    "placeName": "georgetown",
    "state": "GA"
  },
  {
    "city": "glenview",
    "state_code": "KY",
    "placeMasterId": "P02500000FsoFOBALzidfYU6m8ehp6nDqESY7CPZ",
    "placeName": "glenview",
    "state": "KY"
  },
  {
    "city": "springfield",
    "state_code": "KY",
    "placeMasterId": "P02500000FsoFPkTbd4zJ75ngyaVQ8BG1InP7TRT",
    "placeName": "springfield",
    "state": "KY"
  },
  {
    "city": "louisville",
    "state_code": "KY",
    "placeMasterId": "P02500000FsoFOkYGPIwoIt5TLu5UkkhkzCsPo64",
    "placeName": "louisville",
    "state": "KY"
  },
  {
    "city": "irvine",
    "state_code": "KY",
    "placeMasterId": "P02500000FsoFOSrJCVnEvgb7kHOevm2IMeUmf5V",
    "placeName": "irvine",
    "state": "KY"
  },
  {
    "city": "coldiron",
    "state_code": "KY",
    "placeMasterId": "P02500000FsoFNbmRa8KWo584vPK9Spe0YPDqBdo",
    "placeName": "coldiron",
    "state": "KY"
  },
  {
    "city": "dry ridge",
    "state_code": "KY",
    "placeMasterId": "P02500000FsoFNtTOmvU6BHcQX20zHoQnTDctKag",
    "placeName": "dry ridge",
    "state": "KY"
  },
  {
    "city": "worthington",
    "state_code": "KY",
    "placeMasterId": "P02500000FsoFQB12RGifAtXDO1XfreKPB0pXTY1",
    "placeName": "worthington",
    "state": "KY"
  },
  {
    "city": "elkhorn city",
    "state_code": "KY",
    "placeMasterId": "P02500000FsoFNtTOmvU6BHcQX20zHoQaw64Xl8w",
    "placeName": "elkhorn city",
    "state": "KY"
  },
  {
    "city": "bowling green",
    "state_code": "KY",
    "placeMasterId": "P02500000FsoFNK5UNLAxQsdjJmdJdqvjbCdesEP",
    "placeName": "bowling green",
    "state": "KY"
  },
  {
    "city": "elkton",
    "state_code": "KY",
    "placeMasterId": "P02500000FsoFNkcvBWuJUgNFjDfZNKBg6KJ0mQ9",
    "placeName": "elkton",
    "state": "KY"
  },
  {
    "city": "russellville",
    "state_code": "KY",
    "placeMasterId": "P02500000FsoFPSmeQHpjjtJLMxoaJCZawRi8jvv",
    "placeName": "russellville",
    "state": "KY"
  },
  {
    "city": "owensboro",
    "state_code": "KY",
    "placeMasterId": "P02500000FsoFPB5hDUgAMgozlL7kUDpZDxmuU7H",
    "placeName": "owensboro",
    "state": "KY"
  },
  {
    "city": "uniontown",
    "state_code": "KY",
    "placeMasterId": "P02500000FsoFPtK5ETZ5nh2rmOqq2fa7Lplvga1",
    "placeName": "uniontown",
    "state": "KY"
  },
  {
    "city": "summersville",
    "state_code": "KY",
    "placeMasterId": "P02500000FsoFPkTbd4zJ75ngyaVQ8BOK47wTg7b",
    "placeName": "summersville",
    "state": "KY"
  },
  {
    "city": "upton",
    "state_code": "KY",
    "placeMasterId": "P02500000FsoFPtK5ETZ5nh2rmOqq2fbNypLLpES",
    "placeName": "upton",
    "state": "KY"
  },
  {
    "city": "fredericktown",
    "state_code": "OH",
    "placeMasterId": "P02500000FsoGEge3xb2ePYAtnTpcP3txcqmJxa8",
    "placeName": "fredericktown",
    "state": "OH"
  },
  {
    "city": "columbus",
    "state_code": "OH",
    "placeMasterId": "P02500000FsoGDyPfwc9iyXx1mQ6Wqc0NMzPNh3d",
    "placeName": "columbus",
    "state": "OH"
  },
  {
    "city": "columbus",
    "state_code": "OH",
    "placeMasterId": "P02500000FsoGDyPfwc9iyXx1mQ6Wqc0NMzPNh3d",
    "placeName": "columbus",
    "state": "OH"
  },
  {
    "city": "cardington",
    "state_code": "OH",
    "placeMasterId": "P02500000FsoGDXsF8QQMukDVMz4H792geG1M4Lf",
    "placeName": "cardington",
    "state": "OH"
  },
  {
    "city": "bowling green",
    "state_code": "OH",
    "placeMasterId": "P02500000FsoGDGBHvdGnXXj9lMNRIAPJFU5NYEd",
    "placeName": "bowling green",
    "state": "OH"
  },
  {
    "city": "oak harbor",
    "state_code": "OH",
    "placeMasterId": "P02500000FsoGHFseojQmmMa2G638nsbmYClILVE",
    "placeName": "oak harbor",
    "state": "OH"
  },
  {
    "city": "walbridge",
    "state_code": "OH",
    "placeMasterId": "P02500000FsoGJ6sresvziAlIheXZeFTNcA3cgou",
    "placeName": "walbridge",
    "state": "OH"
  },
  {
    "city": "custar",
    "state_code": "OH",
    "placeMasterId": "P02500000FsoGE7G9Y0jVf9CCaERwl6LwAuvFBj1",
    "placeName": "custar",
    "state": "OH"
  },
  {
    "city": "ney",
    "state_code": "OH",
    "placeMasterId": "P02500000FsoGH72BDKr05lKrSHhitOEv3Fi9Pbv",
    "placeName": "ney",
    "state": "OH"
  },
  {
    "city": "tontogany",
    "state_code": "OH",
    "placeMasterId": "P02500000FsoGIy2O3UMD1ZW7tqC9jl0ns3UbneM",
    "placeName": "tontogany",
    "state": "OH"
  },
  {
    "city": "toledo",
    "state_code": "OH",
    "placeMasterId": "P02500000FsoGIpBuS5mQKyGx61qjpGheGoHOM1s",
    "placeName": "toledo",
    "state": "OH"
  },
  {
    "city": "fairview",
    "state_code": "OH",
    "placeMasterId": "P02500000FsoGEXnaMCSriwvizfUCUZYVusHS7Yo",
    "placeName": "fairview",
    "state": "OH"
  },
  {
    "city": "warsaw",
    "state_code": "OH",
    "placeMasterId": "P02500000FsoGJFjLGHVmOm0TVSszYjlnSTEMNoI",
    "placeName": "warsaw",
    "state": "OH"
  },
  {
    "city": "clarington",
    "state_code": "OH",
    "placeMasterId": "P02500000FsoGDgiijp09bLSgAnPh1dQ70KmqlyI",
    "placeName": "clarington",
    "state": "OH"
  },
  {
    "city": "glencoe",
    "state_code": "OH",
    "placeMasterId": "P02500000FsoGEpUXYzcR69Q4bIB2JYKkf9A7x1s",
    "placeName": "glencoe",
    "state": "OH"
  },
  {
    "city": "hopedale",
    "state_code": "OH",
    "placeMasterId": "P02500000FsoGFXivZyVMX9dwcLu7s01Je8FXbDe",
    "placeName": "hopedale",
    "state": "OH"
  },
  {
    "city": "austinburg",
    "state_code": "OH",
    "placeMasterId": "P02500000FsoGCpdr7RXRTjzdLvLBYgzO4CronkV",
    "placeName": "austinburg",
    "state": "OH"
  },
  {
    "city": "rome",
    "state_code": "OH",
    "placeMasterId": "P02500000FsoGI6xWR6tUty354y7eGont3T8peJJ",
    "placeName": "rome",
    "state": "OH"
  },
  {
    "city": "strongsville",
    "state_code": "OH",
    "placeMasterId": "P02500000FsoGIgLQqhCdeN1mIDVJumMJ8lPcgjm",
    "placeName": "strongsville",
    "state": "OH"
  },
  {
    "city": "atwater",
    "state_code": "OH",
    "placeMasterId": "P02500000FsoGCpdr7RXRTjzdLvLBYh9RrHucoDC",
    "placeName": "atwater",
    "state": "OH"
  },
  {
    "city": "burbank",
    "state_code": "OH",
    "placeMasterId": "P02500000FsoGDP1lX1qaE8yKZAirCeaFXYc4mSB",
    "placeName": "burbank",
    "state": "OH"
  },
  {
    "city": "akron",
    "state_code": "OH",
    "placeMasterId": "P02500000FsoGCXwtueNs6XVHkIeLjiMh8uljxTa",
    "placeName": "akron",
    "state": "OH"
  },
  {
    "city": "warren",
    "state_code": "OH",
    "placeMasterId": "P02500000FsoGJ6sresvziAlIheXZeFTtb2K3fnj",
    "placeName": "warren",
    "state": "OH"
  },
  {
    "city": "marshallville",
    "state_code": "OH",
    "placeMasterId": "P02500000FsoGGFxJaxOHy9rodPdDQS8PCNB8HDL",
    "placeName": "marshallville",
    "state": "OH"
  },
  {
    "city": "new philadelphia",
    "state_code": "OH",
    "placeMasterId": "P02500000FsoGGyBhbwHDPA5geTMIytzU8zmkp9X",
    "placeName": "new philadelphia",
    "state": "OH"
  },
  {
    "city": "waynesburg",
    "state_code": "OH",
    "placeMasterId": "P02500000FsoGJFjLGHVmOm0TVSszYjvDyh0rJWg",
    "placeName": "waynesburg",
    "state": "OH"
  },
  {
    "city": "attica",
    "state_code": "OH",
    "placeMasterId": "P02500000FsoGCgnNW2xen8kSY6zleCpQI2Jv8Yc",
    "placeName": "attica",
    "state": "OH"
  },
  {
    "city": "crestline",
    "state_code": "OH",
    "placeMasterId": "P02500000FsoGDyPfwc9iyXx1mQ6Wqc5tX1uB5MM",
    "placeName": "crestline",
    "state": "OH"
  },
  {
    "city": "maineville",
    "state_code": "OH",
    "placeMasterId": "P02500000FsoGGFxJaxOHy9rodPdDQS5bUcgpypj",
    "placeName": "maineville",
    "state": "OH"
  },
  {
    "city": "west elkton",
    "state_code": "OH",
    "placeMasterId": "P02500000FsoGJFjLGHVmOm0TVSszYjoTLgb9fbw",
    "placeName": "west elkton",
    "state": "OH"
  },
  {
    "city": "higginsport",
    "state_code": "OH",
    "placeMasterId": "P02500000FsoGFOsRyZvZqYOloXYhxVeXDJnOkZB",
    "placeName": "higginsport",
    "state": "OH"
  },
  {
    "city": "newtonsville",
    "state_code": "OH",
    "placeMasterId": "P02500000FsoGH72BDKr05lKrSHhitOPcDeHC7lo",
    "placeName": "newtonsville",
    "state": "OH"
  },
  {
    "city": "terrace park",
    "state_code": "OH",
    "placeMasterId": "P02500000FsoGIpBuS5mQKyGx61qjpGa1eDPsG1Z",
    "placeName": "terrace park",
    "state": "OH"
  },
  {
    "city": "cincinnati",
    "state_code": "OH",
    "placeMasterId": "P02500000FsoGDpZCLDZwHwhqybl6w7e8Lps6H4x",
    "placeName": "cincinnati",
    "state": "OH"
  },
  {
    "city": "cincinnati",
    "state_code": "OH",
    "placeMasterId": "P02500000FsoGDpZCLDZwHwhqybl6w7e8Lps6H4x",
    "placeName": "cincinnati",
    "state": "OH"
  },
  {
    "city": "farmersville",
    "state_code": "OH",
    "placeMasterId": "P02500000FsoGEXnaMCSriwvizfUCUZUOgg8TMBX",
    "placeName": "farmersville",
    "state": "OH"
  },
  {
    "city": "dayton",
    "state_code": "OH",
    "placeMasterId": "P02500000FsoGE7G9Y0jVf9CCaERwl6OdIDcWstb",
    "placeName": "dayton",
    "state": "OH"
  },
  {
    "city": "dayton",
    "state_code": "OH",
    "placeMasterId": "P02500000FsoGE7G9Y0jVf9CCaERwl6OdIDcWstb",
    "placeName": "dayton",
    "state": "OH"
  },
  {
    "city": "gallipolis",
    "state_code": "OH",
    "placeMasterId": "P02500000FsoGEpUXYzcR69Q4bIB2JYCp7f2kb2b",
    "placeName": "gallipolis",
    "state": "OH"
  },
  {
    "city": "fort recovery",
    "state_code": "OH",
    "placeMasterId": "P02500000FsoGEge3xb2ePYAtnTpcP3ojs3a50Na",
    "placeName": "fort recovery",
    "state": "OH"
  },
  {
    "city": "fortville",
    "state_code": "IN",
    "placeMasterId": "P02500000FsoFACDYss4iDc7hP4qromjZ4ewkioX",
    "placeName": "fortville",
    "state": "IN"
  },
  {
    "city": "mccordsville",
    "state_code": "IN",
    "placeMasterId": "P02500000FsoFAuRwtqxdecLZQ8ZxNEd7JEJng2t",
    "placeName": "mccordsville",
    "state": "IN"
  },
  {
    "city": "indianapolis",
    "state_code": "IN",
    "placeMasterId": "P02500000FsoFAckzh3o4HPrDoVt7YFuCi8MjR1V",
    "placeName": "indianapolis",
    "state": "IN"
  },
  {
    "city": "indianapolis",
    "state_code": "IN",
    "placeMasterId": "P02500000FsoFAckzh3o4HPrDoVt7YFuCi8MjR1V",
    "placeName": "indianapolis",
    "state": "IN"
  },
  {
    "city": "indianapolis",
    "state_code": "IN",
    "placeMasterId": "P02500000FsoFAckzh3o4HPrDoVt7YFuCi8MjR1V",
    "placeName": "indianapolis",
    "state": "IN"
  },
  {
    "city": "gary",
    "state_code": "IN",
    "placeMasterId": "P02500000FsoFAL42UGeUuDMsCtCHjH6C1Ea8Vf2",
    "placeName": "gary",
    "state": "IN"
  },
  {
    "city": "lake station",
    "state_code": "IN",
    "placeMasterId": "P02500000FsoFAlbTISNqy16OcKEXSkIE3YY57ps",
    "placeName": "lake station",
    "state": "IN"
  },
  {
    "city": "pierceton",
    "state_code": "IN",
    "placeMasterId": "P02500000FsoFBlWoWEQLmDocF0eSqAsvkrZhdXA",
    "placeName": "pierceton",
    "state": "IN"
  },
  {
    "city": "shipshewana",
    "state_code": "IN",
    "placeMasterId": "P02500000FsoFCC4FKQ9hq1Y8eRgiZe10p1lnR8R",
    "placeName": "shipshewana",
    "state": "IN"
  },
  {
    "city": "churubusco",
    "state_code": "IN",
    "placeMasterId": "P02500000FsoF9cpeTHlZTD90BpTCApIY0yiIDYL",
    "placeName": "churubusco",
    "state": "IN"
  },
  {
    "city": "akron",
    "state_code": "IN",
    "placeMasterId": "P02500000FsoF8ubGSIse2Cv8Alk6cNQPbaGgAsO",
    "placeName": "akron",
    "state": "IN"
  },
  {
    "city": "macy",
    "state_code": "IN",
    "placeMasterId": "P02500000FsoFB3IQVFXQLDakDwvNHizzvEm9zbU",
    "placeName": "macy",
    "state": "IN"
  },
  {
    "city": "crandall",
    "state_code": "IN",
    "placeMasterId": "P02500000FsoF9lg84gLM9oOAzdoc5JeG3sNUXIB",
    "placeName": "crandall",
    "state": "IN"
  },
  {
    "city": "brownstown",
    "state_code": "IN",
    "placeMasterId": "P02500000FsoF9L8hGUc060eeaCmMLqVwMeOoqft",
    "placeName": "brownstown",
    "state": "IN"
  },
  {
    "city": "crothersville",
    "state_code": "IN",
    "placeMasterId": "P02500000FsoF9lg84gLM9oOAzdoc5JfLsQkEC6Y",
    "placeName": "crothersville",
    "state": "IN"
  },
  {
    "city": "taylorsville",
    "state_code": "IN",
    "placeMasterId": "P02500000FsoFCKuivojUWcnJSG28U8PE5aJys4Z",
    "placeName": "taylorsville",
    "state": "IN"
  },
  {
    "city": "redkey",
    "state_code": "IN",
    "placeMasterId": "P02500000FsoFBuNI7d08Sp3n2ozskfDgfeIIrei",
    "placeName": "redkey",
    "state": "IN"
  },
  {
    "city": "union city",
    "state_code": "IN",
    "placeMasterId": "P02500000FsoFCcbg8bt3tpHf3siyJ73QPZ33LAC",
    "placeName": "union city",
    "state": "IN"
  },
  {
    "city": "cannelton",
    "state_code": "IN",
    "placeMasterId": "P02500000FsoF9TzArtBmmbtpO17mGKs0zQA8Rga",
    "placeName": "cannelton",
    "state": "IN"
  },
  {
    "city": "knightsville",
    "state_code": "IN",
    "placeMasterId": "P02500000FsoFAlbTISNqy16OcKEXSkHSnYGvsct",
    "placeName": "knightsville",
    "state": "IN"
  },
  {
    "city": "newport",
    "state_code": "IN",
    "placeMasterId": "P02500000FsoFBTprJRGmP1KGdNxd1C74P9sbd2u",
    "placeName": "newport",
    "state": "IN"
  },
  {
    "city": "berkley",
    "state_code": "MI",
    "placeMasterId": "P02500000FsoFXJKub5ZvWvlvYcoZQ938JpCkHAF",
    "placeName": "berkley",
    "state": "MI"
  },
  {
    "city": "brighton",
    "state_code": "MI",
    "placeMasterId": "P02500000FsoFXb1rnsjUu8GHAFVPF7goRZbYAji",
    "placeName": "brighton",
    "state": "MI"
  },
  {
    "city": "westland",
    "state_code": "MI",
    "placeMasterId": "P02500000FsoFasUqg00YhwtHdvS1COQSpIBnXjg",
    "placeName": "westland",
    "state": "MI"
  },
  {
    "city": "detroit",
    "state_code": "MI",
    "placeMasterId": "P02500000FsoFY1ZIc4SqxvznZgXeyauoH5nCTkI",
    "placeName": "detroit",
    "state": "MI"
  },
  {
    "city": "detroit",
    "state_code": "MI",
    "placeMasterId": "P02500000FsoFY1ZIc4SqxvznZgXeyauoH5nCTkI",
    "placeName": "detroit",
    "state": "MI"
  },
  {
    "city": "farmington",
    "state_code": "MI",
    "placeMasterId": "P02500000FsoFYJGForcQL8U9BJEUnZXmDCwU1Zs",
    "placeName": "farmington",
    "state": "MI"
  },
  {
    "city": "chesaning",
    "state_code": "MI",
    "placeMasterId": "P02500000FsoFXjsLPHJHajVRy3qp9cB61urWfVL",
    "placeName": "chesaning",
    "state": "MI"
  },
  {
    "city": "gladwin",
    "state_code": "MI",
    "placeMasterId": "P02500000FsoFYaxD1elziKyUmvvKcYK4cZkjpXm",
    "placeName": "gladwin",
    "state": "MI"
  },
  {
    "city": "henderson",
    "state_code": "MI",
    "placeMasterId": "P02500000FsoFYjngd3LmOwDfakGkX2nrYUst97q",
    "placeName": "henderson",
    "state": "MI"
  },
  {
    "city": "hubbardston",
    "state_code": "MI",
    "placeMasterId": "P02500000FsoFYjngd3LmOwDfakGkX2pi4KgsBt5",
    "placeName": "hubbardston",
    "state": "MI"
  },
  {
    "city": "lakeview",
    "state_code": "MI",
    "placeMasterId": "P02500000FsoFZ1UdpqVLm8i1CMxaM1b1cl18mOp",
    "placeName": "lakeview",
    "state": "MI"
  },
  {
    "city": "pewamo",
    "state_code": "MI",
    "placeMasterId": "P02500000FsoFa1Pz3cXqaLQEp3NVjSARicxlMSQ",
    "placeName": "pewamo",
    "state": "MI"
  },
  {
    "city": "webberville",
    "state_code": "MI",
    "placeMasterId": "P02500000FsoFasUqg00YhwtHdvS1COFoEO6twl6",
    "placeName": "webberville",
    "state": "MI"
  },
  {
    "city": "lansing",
    "state_code": "MI",
    "placeMasterId": "P02500000FsoFZAL7RF58SjxC0BJ0GVtzoDUs0q2",
    "placeName": "lansing",
    "state": "MI"
  },
  {
    "city": "kalamazoo",
    "state_code": "MI",
    "placeMasterId": "P02500000FsoFZ1UdpqVLm8i1CMxaM1Y4EtACkYj",
    "placeName": "kalamazoo",
    "state": "MI"
  },
  {
    "city": "augusta",
    "state_code": "MI",
    "placeMasterId": "P02500000FsoFXAUQzh08qKWkkoT9VeaJecHvZan",
    "placeName": "augusta",
    "state": "MI"
  },
  {
    "city": "mattawan",
    "state_code": "MI",
    "placeMasterId": "P02500000FsoFZS24e2EhpwRXbnzq5UkCdbNgJo5",
    "placeName": "mattawan",
    "state": "MI"
  },
  {
    "city": "eau claire",
    "state_code": "MI",
    "placeMasterId": "P02500000FsoFYAPmDT2deXEyNUt4t5BJYvvjQgM",
    "placeName": "eau claire",
    "state": "MI"
  },
  {
    "city": "hesperia",
    "state_code": "MI",
    "placeMasterId": "P02500000FsoFYjngd3LmOwDfakGkX2f9bc8AFvE",
    "placeName": "hesperia",
    "state": "MI"
  },
  {
    "city": "muskegon",
    "state_code": "MI",
    "placeMasterId": "P02500000FsoFZjj1qpOHD8vtDQgfuTK2X8vF9PN",
    "placeName": "muskegon",
    "state": "MI"
  },
  {
    "city": "new era",
    "state_code": "MI",
    "placeMasterId": "P02500000FsoFZjj1qpOHD8vtDQgfuTGegOgBOlV",
    "placeName": "new era",
    "state": "MI"
  },
  {
    "city": "alba",
    "state_code": "MI",
    "placeMasterId": "P02500000FsoFX1dxOIQM9jHZx07jbACMCBUG4Cd",
    "placeName": "alba",
    "state": "MI"
  },
  {
    "city": "alden",
    "state_code": "MI",
    "placeMasterId": "P02500000FsoFX1dxOIQM9jHZx07jbAE6eUEX3s5",
    "placeName": "alden",
    "state": "MI"
  }
]