[
  {
    "city": "hopewell",
    "zip_code": "16650"
  },
  {
    "city": "crosby",
    "zip_code": "16724"
  },
  {
    "city": "julian",
    "zip_code": "16844"
  },
  {
    "city": "karthaus",
    "zip_code": "16845"
  },
  {
    "city": "blossburg",
    "zip_code": "16912"
  },
  {
    "city": "harrison valley",
    "zip_code": "16927"
  },
  {
    "city": "mapleton depot",
    "zip_code": "17052"
  },
  {
    "city": "williamstown",
    "zip_code": "17098"
  },
  {
    "city": "fort littleton",
    "zip_code": "17223"
  },
  {
    "city": "mcconnellsburg",
    "zip_code": "17233"
  },
  {
    "city": "littlestown",
    "zip_code": "17340"
  },
  {
    "city": "orrtanna",
    "zip_code": "17353"
  },
  {
    "city": "maytown",
    "zip_code": "17550"
  },
  {
    "city": "montoursville",
    "zip_code": "17754"
  },
  {
    "city": "lewisburg",
    "zip_code": "17837"
  },
  {
    "city": "paxinos",
    "zip_code": "17860"
  },
  {
    "city": "shamokin",
    "zip_code": "17872"
  },
  {
    "city": "cressona",
    "zip_code": "17929"
  },
  {
    "city": "ringtown",
    "zip_code": "17967"
  },
  {
    "city": "fogelsville",
    "zip_code": "18051"
  },
  {
    "city": "scotrun",
    "zip_code": "18355"
  },
  {
    "city": "clifford",
    "zip_code": "18413"
  },
  {
    "city": "olyphant",
    "zip_code": "18447"
  },
  {
    "city": "paupack",
    "zip_code": "18451"
  },
  {
    "city": "athens",
    "zip_code": "18810"
  },
  {
    "city": "fountainville",
    "zip_code": "18923"
  },
  {
    "city": "ambler",
    "zip_code": "19002"
  },
  {
    "city": "essington",
    "zip_code": "19029"
  },
  {
    "city": "fort washington",
    "zip_code": "19034"
  },
  {
    "city": "philadelphia",
    "zip_code": "19145"
  },
  {
    "city": "atglen",
    "zip_code": "19310"
  },
  {
    "city": "kutztown",
    "zip_code": "19530"
  },
  {
    "city": "harbeson",
    "zip_code": "19951"
  },
  {
    "city": "washington",
    "zip_code": "20002"
  },
  {
    "city": "washington",
    "zip_code": "20052"
  },
  {
    "city": "catharpin",
    "zip_code": "20143"
  },
  {
    "city": "haymarket",
    "zip_code": "20169"
  },
  {
    "city": "the plains",
    "zip_code": "20198"
  },
  {
    "city": "washington",
    "zip_code": "20204"
  },
  {
    "city": "morganza",
    "zip_code": "20660"
  },
  {
    "city": "piney point",
    "zip_code": "20674"
  },
  {
    "city": "ridge",
    "zip_code": "20680"
  },
  {
    "city": "saint marys city",
    "zip_code": "20686"
  },
  {
    "city": "sunderland",
    "zip_code": "20689"
  },
  {
    "city": "bowie",
    "zip_code": "20715"
  },
  {
    "city": "dickerson",
    "zip_code": "20842"
  },
  {
    "city": "gaithersburg",
    "zip_code": "20882"
  },
  {
    "city": "bel air",
    "zip_code": "21014"
  },
  {
    "city": "hunt valley",
    "zip_code": "21031"
  },
  {
    "city": "ellicott city",
    "zip_code": "21042"
  },
  {
    "city": "gibson island",
    "zip_code": "21056"
  },
  {
    "city": "white marsh",
    "zip_code": "21162"
  },
  {
    "city": "baltimore",
    "zip_code": "21202"
  },
  {
    "city": "baltimore",
    "zip_code": "21205"
  },
  {
    "city": "rhodesdale",
    "zip_code": "21659"
  },
  {
    "city": "frederick",
    "zip_code": "21701"
  },
  {
    "city": "saint james",
    "zip_code": "21781"
  },
  {
    "city": "mardela springs",
    "zip_code": "21837"
  },
  {
    "city": "colora",
    "zip_code": "21917"
  },
  {
    "city": "mclean",
    "zip_code": "22101"
  },
  {
    "city": "alexandria",
    "zip_code": "22301"
  },
  {
    "city": "laneview",
    "zip_code": "22504"
  },
  {
    "city": "flint hill",
    "zip_code": "22627"
  },
  {
    "city": "middletown",
    "zip_code": "22645"
  },
  {
    "city": "lyndhurst",
    "zip_code": "22952"
  },
  {
    "city": "millers tavern",
    "zip_code": "23115"
  },
  {
    "city": "state farm",
    "zip_code": "23160"
  },
  {
    "city": "walkerton",
    "zip_code": "23177"
  },
  {
    "city": "water view",
    "zip_code": "23180"
  },
  {
    "city": "montpelier",
    "zip_code": "23192"
  },
  {
    "city": "richmond",
    "zip_code": "23227"
  },
  {
    "city": "richmond",
    "zip_code": "23234"
  },
  {
    "city": "richmond",
    "zip_code": "23236"
  },
  {
    "city": "cape charles",
    "zip_code": "23310"
  },
  {
    "city": "eastville",
    "zip_code": "23347"
  },
  {
    "city": "withams",
    "zip_code": "23488"
  },
  {
    "city": "norfolk",
    "zip_code": "23505"
  },
  {
    "city": "norfolk",
    "zip_code": "23507"
  },
  {
    "city": "fort lee",
    "zip_code": "23801"
  },
  {
    "city": "franklin",
    "zip_code": "23851"
  },
  {
    "city": "farmville",
    "zip_code": "23909"
  },
  {
    "city": "meherrin",
    "zip_code": "23954"
  },
  {
    "city": "randolph",
    "zip_code": "23962"
  },
  {
    "city": "collinsville",
    "zip_code": "24078"
  },
  {
    "city": "abingdon",
    "zip_code": "24211"
  },
  {
    "city": "haysi",
    "zip_code": "24256"
  },
  {
    "city": "jonesville",
    "zip_code": "24263"
  },
  {
    "city": "blue grass",
    "zip_code": "24413"
  },
  {
    "city": "greenville",
    "zip_code": "24440"
  },
  {
    "city": "millboro",
    "zip_code": "24460"
  },
  {
    "city": "monterey",
    "zip_code": "24465"
  },
  {
    "city": "bedford",
    "zip_code": "24523"
  },
  {
    "city": "natural bridge",
    "zip_code": "24578"
  },
  {
    "city": "rustburg",
    "zip_code": "24588"
  },
  {
    "city": "boissevain",
    "zip_code": "24606"
  },
  {
    "city": "buffalo",
    "zip_code": "25033"
  },
  {
    "city": "sharples",
    "zip_code": "25183"
  },
  {
    "city": "van",
    "zip_code": "25206"
  },
  {
    "city": "charleston",
    "zip_code": "25305"
  },
  {
    "city": "charleston",
    "zip_code": "25315"
  },
  {
    "city": "summit point",
    "zip_code": "25446"
  },
  {
    "city": "ashton",
    "zip_code": "25503"
  },
  {
    "city": "ragland",
    "zip_code": "25690"
  },
  {
    "city": "amigo",
    "zip_code": "25811"
  },
  {
    "city": "cool ridge",
    "zip_code": "25825"
  },
  {
    "city": "mount hope",
    "zip_code": "25880"
  },
  {
    "city": "princewick",
    "zip_code": "25908"
  },
  {
    "city": "brohard",
    "zip_code": "26138"
  },
  {
    "city": "fenwick",
    "zip_code": "26202"
  },
  {
    "city": "mabie",
    "zip_code": "26278"
  },
  {
    "city": "masontown",
    "zip_code": "26542"
  },
  {
    "city": "four states",
    "zip_code": "26572"
  },
  {
    "city": "hundred",
    "zip_code": "26575"
  },
  {
    "city": "montana mines",
    "zip_code": "26586"
  },
  {
    "city": "calvin",
    "zip_code": "26660"
  },
  {
    "city": "mount lookout",
    "zip_code": "26678"
  },
  {
    "city": "greensboro",
    "zip_code": "27401"
  },
  {
    "city": "creedmoor",
    "zip_code": "27522"
  },
  {
    "city": "middleburg",
    "zip_code": "27556"
  },
  {
    "city": "raleigh",
    "zip_code": "27607"
  },
  {
    "city": "raleigh",
    "zip_code": "27617"
  },
  {
    "city": "engelhard",
    "zip_code": "27824"
  },
  {
    "city": "macclesfield",
    "zip_code": "27852"
  },
  {
    "city": "tyner",
    "zip_code": "27980"
  },
  {
    "city": "oakboro",
    "zip_code": "28129"
  },
  {
    "city": "wingate",
    "zip_code": "28174"
  },
  {
    "city": "charlotte",
    "zip_code": "28208"
  },
  {
    "city": "charlotte",
    "zip_code": "28211"
  },
  {
    "city": "kenansville",
    "zip_code": "28349"
  },
  {
    "city": "norman",
    "zip_code": "28367"
  },
  {
    "city": "rowland",
    "zip_code": "28383"
  },
  {
    "city": "rose hill",
    "zip_code": "28458"
  },
  {
    "city": "bayboro",
    "zip_code": "28515"
  },
  {
    "city": "beaufort",
    "zip_code": "28516"
  },
  {
    "city": "davis",
    "zip_code": "28524"
  },
  {
    "city": "grantsboro",
    "zip_code": "28529"
  },
  {
    "city": "statesville",
    "zip_code": "28625"
  },
  {
    "city": "brevard",
    "zip_code": "28712"
  },
  {
    "city": "cashiers",
    "zip_code": "28717"
  },
  {
    "city": "mill spring",
    "zip_code": "28756"
  },
  {
    "city": "scaly mountain",
    "zip_code": "28775"
  },
  {
    "city": "sylva",
    "zip_code": "28779"
  },
  {
    "city": "whittier",
    "zip_code": "28789"
  },
  {
    "city": "asheville",
    "zip_code": "28801"
  },
  {
    "city": "murphy",
    "zip_code": "28906"
  },
  {
    "city": "leesville",
    "zip_code": "29070"
  },
  {
    "city": "new zion",
    "zip_code": "29111"
  },
  {
    "city": "clemson",
    "zip_code": "29631"
  },
  {
    "city": "hodges",
    "zip_code": "29653"
  },
  {
    "city": "pendleton",
    "zip_code": "29670"
  },
  {
    "city": "slater",
    "zip_code": "29683"
  },
  {
    "city": "sunset",
    "zip_code": "29685"
  },
  {
    "city": "ware shoals",
    "zip_code": "29692"
  },
  {
    "city": "fort mill",
    "zip_code": "29708"
  },
  {
    "city": "elko",
    "zip_code": "29826"
  },
  {
    "city": "north augusta",
    "zip_code": "29841"
  },
  {
    "city": "islandton",
    "zip_code": "29929"
  },
  {
    "city": "decatur",
    "zip_code": "30034"
  },
  {
    "city": "lawrenceville",
    "zip_code": "30046"
  },
  {
    "city": "newborn",
    "zip_code": "30056"
  },
  {
    "city": "aragon",
    "zip_code": "30104"
  },
  {
    "city": "cedartown",
    "zip_code": "30125"
  },
  {
    "city": "douglasville",
    "zip_code": "30135"
  },
  {
    "city": "tallapoosa",
    "zip_code": "30176"
  },
  {
    "city": "whitesburg",
    "zip_code": "30185"
  },
  {
    "city": "atlanta",
    "zip_code": "30315"
  },
  {
    "city": "atlanta",
    "zip_code": "30332"
  },
  {
    "city": "lyons",
    "zip_code": "30436"
  },
  {
    "city": "buford",
    "zip_code": "30519"
  },
  {
    "city": "commerce",
    "zip_code": "30529"
  },
  {
    "city": "danielsville",
    "zip_code": "30633"
  },
  {
    "city": "royston",
    "zip_code": "30662"
  },
  {
    "city": "washington",
    "zip_code": "30673"
  },
  {
    "city": "flintstone",
    "zip_code": "30725"
  },
  {
    "city": "lyerly",
    "zip_code": "30730"
  },
  {
    "city": "matthews",
    "zip_code": "30818"
  },
  {
    "city": "norwood",
    "zip_code": "30821"
  },
  {
    "city": "butler",
    "zip_code": "31006"
  },
  {
    "city": "eatonton",
    "zip_code": "31024"
  },
  {
    "city": "mcintyre",
    "zip_code": "31054"
  },
  {
    "city": "ludowici",
    "zip_code": "31316"
  },
  {
    "city": "savannah",
    "zip_code": "31411"
  },
  {
    "city": "bristol",
    "zip_code": "31518"
  },
  {
    "city": "jekyll island",
    "zip_code": "31527"
  },
  {
    "city": "sale city",
    "zip_code": "31784"
  },
  {
    "city": "columbus",
    "zip_code": "31903"
  },
  {
    "city": "fort white",
    "zip_code": "32038"
  },
  {
    "city": "ponte vedra",
    "zip_code": "32081"
  },
  {
    "city": "eastlake weir",
    "zip_code": "32133"
  },
  {
    "city": "jacksonville",
    "zip_code": "32220"
  },
  {
    "city": "jacksonville",
    "zip_code": "32227"
  },
  {
    "city": "jacksonville",
    "zip_code": "32257"
  },
  {
    "city": "tallahassee",
    "zip_code": "32305"
  },
  {
    "city": "salem",
    "zip_code": "32356"
  },
  {
    "city": "tallahassee",
    "zip_code": "32399"
  },
  {
    "city": "blountstown",
    "zip_code": "32424"
  },
  {
    "city": "crestview",
    "zip_code": "32536"
  },
  {
    "city": "fort walton beach",
    "zip_code": "32547"
  },
  {
    "city": "winter springs",
    "zip_code": "32708"
  },
  {
    "city": "mims",
    "zip_code": "32754"
  },
  {
    "city": "orange city",
    "zip_code": "32763"
  },
  {
    "city": "orlando",
    "zip_code": "32805"
  },
  {
    "city": "orlando",
    "zip_code": "32826"
  },
  {
    "city": "orlando",
    "zip_code": "32833"
  },
  {
    "city": "melbourne",
    "zip_code": "32904"
  },
  {
    "city": "pompano beach",
    "zip_code": "33066"
  },
  {
    "city": "miami",
    "zip_code": "33157"
  },
  {
    "city": "miami",
    "zip_code": "33175"
  },
  {
    "city": "miami",
    "zip_code": "33178"
  },
  {
    "city": "fort lauderdale",
    "zip_code": "33314"
  },
  {
    "city": "fort lauderdale",
    "zip_code": "33319"
  },
  {
    "city": "fort lauderdale",
    "zip_code": "33322"
  },
  {
    "city": "west palm beach",
    "zip_code": "33403"
  },
  {
    "city": "deerfield beach",
    "zip_code": "33441"
  },
  {
    "city": "south bay",
    "zip_code": "33493"
  },
  {
    "city": "tampa",
    "zip_code": "33613"
  },
  {
    "city": "tampa",
    "zip_code": "33620"
  },
  {
    "city": "indian lake estates",
    "zip_code": "33855"
  },
  {
    "city": "fort myers",
    "zip_code": "33908"
  },
  {
    "city": "lehigh acres",
    "zip_code": "33973"
  },
  {
    "city": "lehigh acres",
    "zip_code": "33976"
  },
  {
    "city": "kissimmee",
    "zip_code": "34759"
  },
  {
    "city": "alexander city",
    "zip_code": "35010"
  },
  {
    "city": "cleveland",
    "zip_code": "35049"
  },
  {
    "city": "rockford",
    "zip_code": "35136"
  },
  {
    "city": "shelby",
    "zip_code": "35143"
  },
  {
    "city": "wilton",
    "zip_code": "35187"
  },
  {
    "city": "birmingham",
    "zip_code": "35216"
  },
  {
    "city": "birmingham",
    "zip_code": "35229"
  },
  {
    "city": "haleyville",
    "zip_code": "35565"
  },
  {
    "city": "millport",
    "zip_code": "35576"
  },
  {
    "city": "decatur",
    "zip_code": "35603"
  },
  {
    "city": "laceys spring",
    "zip_code": "35754"
  },
  {
    "city": "langston",
    "zip_code": "35755"
  },
  {
    "city": "rainbow city",
    "zip_code": "35906"
  },
  {
    "city": "higdon",
    "zip_code": "35979"
  },
  {
    "city": "steele",
    "zip_code": "35987"
  },
  {
    "city": "montgomery",
    "zip_code": "36105"
  },
  {
    "city": "whatley",
    "zip_code": "36482"
  },
  {
    "city": "wagarville",
    "zip_code": "36585"
  },
  {
    "city": "mobile",
    "zip_code": "36602"
  },
  {
    "city": "forkland",
    "zip_code": "36740"
  },
  {
    "city": "greensboro",
    "zip_code": "36744"
  },
  {
    "city": "waverly",
    "zip_code": "36879"
  },
  {
    "city": "bellamy",
    "zip_code": "36901"
  },
  {
    "city": "alexandria",
    "zip_code": "37012"
  },
  {
    "city": "chapel hill",
    "zip_code": "37034"
  },
  {
    "city": "madison",
    "zip_code": "37115"
  },
  {
    "city": "murfreesboro",
    "zip_code": "37132"
  },
  {
    "city": "nolensville",
    "zip_code": "37135"
  },
  {
    "city": "pegram",
    "zip_code": "37143"
  },
  {
    "city": "stewart",
    "zip_code": "37175"
  },
  {
    "city": "harrison",
    "zip_code": "37341"
  },
  {
    "city": "south pittsburg",
    "zip_code": "37380"
  },
  {
    "city": "laurel bloomery",
    "zip_code": "37680"
  },
  {
    "city": "del rio",
    "zip_code": "37727"
  },
  {
    "city": "duff",
    "zip_code": "37729"
  },
  {
    "city": "la follette",
    "zip_code": "37766"
  },
  {
    "city": "moscow",
    "zip_code": "38057"
  },
  {
    "city": "memphis",
    "zip_code": "38115"
  },
  {
    "city": "memphis",
    "zip_code": "38116"
  },
  {
    "city": "bruceton",
    "zip_code": "38317"
  },
  {
    "city": "duck river",
    "zip_code": "38454"
  },
  {
    "city": "pulaski",
    "zip_code": "38478"
  },
  {
    "city": "bloomington springs",
    "zip_code": "38545"
  },
  {
    "city": "pleasant hill",
    "zip_code": "38578"
  },
  {
    "city": "waterford",
    "zip_code": "38685"
  },
  {
    "city": "pelahatchie",
    "zip_code": "39145"
  },
  {
    "city": "pickens",
    "zip_code": "39146"
  },
  {
    "city": "chunky",
    "zip_code": "39323"
  },
  {
    "city": "daleville",
    "zip_code": "39326"
  },
  {
    "city": "toomsuba",
    "zip_code": "39364"
  },
  {
    "city": "bassfield",
    "zip_code": "39421"
  },
  {
    "city": "lumberton",
    "zip_code": "39455"
  },
  {
    "city": "moss point",
    "zip_code": "39563"
  },
  {
    "city": "newton",
    "zip_code": "39870"
  },
  {
    "city": "mount washington",
    "zip_code": "40047"
  },
  {
    "city": "fairdale",
    "zip_code": "40118"
  },
  {
    "city": "louisville",
    "zip_code": "40208"
  },
  {
    "city": "louisville",
    "zip_code": "40218"
  },
  {
    "city": "salvisa",
    "zip_code": "40372"
  },
  {
    "city": "lexington",
    "zip_code": "40516"
  },
  {
    "city": "ages brookside",
    "zip_code": "40801"
  },
  {
    "city": "cawood",
    "zip_code": "40815"
  },
  {
    "city": "harlan",
    "zip_code": "40831"
  },
  {
    "city": "stinnett",
    "zip_code": "40868"
  },
  {
    "city": "flat lick",
    "zip_code": "40935"
  },
  {
    "city": "ft mitchell",
    "zip_code": "41017"
  },
  {
    "city": "sidney",
    "zip_code": "41564"
  },
  {
    "city": "gays creek",
    "zip_code": "41745"
  },
  {
    "city": "linefork",
    "zip_code": "41833"
  },
  {
    "city": "seco",
    "zip_code": "41849"
  },
  {
    "city": "symsonia",
    "zip_code": "42082"
  },
  {
    "city": "austin",
    "zip_code": "42123"
  },
  {
    "city": "cave city",
    "zip_code": "42127"
  },
  {
    "city": "holland",
    "zip_code": "42153"
  },
  {
    "city": "beechmont",
    "zip_code": "42323"
  },
  {
    "city": "cleaton",
    "zip_code": "42332"
  },
  {
    "city": "rockport",
    "zip_code": "42369"
  },
  {
    "city": "corydon",
    "zip_code": "42406"
  },
  {
    "city": "hanson",
    "zip_code": "42413"
  },
  {
    "city": "bronston",
    "zip_code": "42518"
  },
  {
    "city": "whitley city",
    "zip_code": "42653"
  },
  {
    "city": "millwood",
    "zip_code": "42762"
  },
  {
    "city": "white mills",
    "zip_code": "42788"
  },
  {
    "city": "johnstown",
    "zip_code": "43031"
  },
  {
    "city": "reynoldsburg",
    "zip_code": "43068"
  },
  {
    "city": "columbus",
    "zip_code": "43214"
  },
  {
    "city": "columbus",
    "zip_code": "43215"
  },
  {
    "city": "kirby",
    "zip_code": "43330"
  },
  {
    "city": "bradner",
    "zip_code": "43406"
  },
  {
    "city": "kelleys island",
    "zip_code": "43438"
  },
  {
    "city": "bryan",
    "zip_code": "43506"
  },
  {
    "city": "monclova",
    "zip_code": "43542"
  },
  {
    "city": "ridgeville corners",
    "zip_code": "43555"
  },
  {
    "city": "toledo",
    "zip_code": "43615"
  },
  {
    "city": "derwent",
    "zip_code": "43733"
  },
  {
    "city": "woodsfield",
    "zip_code": "43793"
  },
  {
    "city": "nashport",
    "zip_code": "43830"
  },
  {
    "city": "macedonia",
    "zip_code": "44056"
  },
  {
    "city": "eastlake",
    "zip_code": "44095"
  },
  {
    "city": "rocky river",
    "zip_code": "44116"
  },
  {
    "city": "euclid",
    "zip_code": "44132"
  },
  {
    "city": "rittman",
    "zip_code": "44270"
  },
  {
    "city": "hubbard",
    "zip_code": "44425"
  },
  {
    "city": "niles",
    "zip_code": "44446"
  },
  {
    "city": "warren",
    "zip_code": "44485"
  },
  {
    "city": "bloomdale",
    "zip_code": "44817"
  },
  {
    "city": "perrysville",
    "zip_code": "44864"
  },
  {
    "city": "north bend",
    "zip_code": "45052"
  },
  {
    "city": "aberdeen",
    "zip_code": "45101"
  },
  {
    "city": "leesburg",
    "zip_code": "45135"
  },
  {
    "city": "wilmington",
    "zip_code": "45177"
  },
  {
    "city": "cincinnati",
    "zip_code": "45204"
  },
  {
    "city": "botkins",
    "zip_code": "45306"
  },
  {
    "city": "eldorado",
    "zip_code": "45321"
  },
  {
    "city": "new weston",
    "zip_code": "45348"
  },
  {
    "city": "south charleston",
    "zip_code": "45368"
  },
  {
    "city": "vandalia",
    "zip_code": "45377"
  },
  {
    "city": "verona",
    "zip_code": "45378"
  },
  {
    "city": "springfield",
    "zip_code": "45503"
  },
  {
    "city": "wellston",
    "zip_code": "45692"
  },
  {
    "city": "belpre",
    "zip_code": "45714"
  },
  {
    "city": "lima",
    "zip_code": "45804"
  },
  {
    "city": "anderson",
    "zip_code": "46017"
  },
  {
    "city": "ingalls",
    "zip_code": "46048"
  },
  {
    "city": "kirklin",
    "zip_code": "46050"
  },
  {
    "city": "lebanon",
    "zip_code": "46052"
  },
  {
    "city": "indianapolis",
    "zip_code": "46239"
  },
  {
    "city": "highland",
    "zip_code": "46322"
  },
  {
    "city": "san pierre",
    "zip_code": "46374"
  },
  {
    "city": "atwood",
    "zip_code": "46502"
  },
  {
    "city": "lapaz",
    "zip_code": "46537"
  },
  {
    "city": "plymouth",
    "zip_code": "46563"
  },
  {
    "city": "albion",
    "zip_code": "46701"
  },
  {
    "city": "bluffton",
    "zip_code": "46714"
  },
  {
    "city": "huntington",
    "zip_code": "46750"
  },
  {
    "city": "fowlerton",
    "zip_code": "46930"
  },
  {
    "city": "english",
    "zip_code": "47118"
  },
  {
    "city": "clarksville",
    "zip_code": "47129"
  },
  {
    "city": "taswell",
    "zip_code": "47175"
  },
  {
    "city": "bloomfield",
    "zip_code": "47424"
  },
  {
    "city": "dale",
    "zip_code": "47523"
  },
  {
    "city": "odon",
    "zip_code": "47562"
  },
  {
    "city": "ambia",
    "zip_code": "47917"
  },
  {
    "city": "buffalo",
    "zip_code": "47925"
  },
  {
    "city": "crawfordsville",
    "zip_code": "47933"
  },
  {
    "city": "darlington",
    "zip_code": "47940"
  },
  {
    "city": "troy",
    "zip_code": "48084"
  },
  {
    "city": "dexter",
    "zip_code": "48130"
  },
  {
    "city": "taylor",
    "zip_code": "48180"
  },
  {
    "city": "detroit",
    "zip_code": "48208"
  },
  {
    "city": "burt",
    "zip_code": "48417"
  },
  {
    "city": "columbiaville",
    "zip_code": "48421"
  },
  {
    "city": "flint",
    "zip_code": "48507"
  },
  {
    "city": "lake",
    "zip_code": "48632"
  },
  {
    "city": "mio",
    "zip_code": "48647"
  },
  {
    "city": "sanford",
    "zip_code": "48657"
  },
  {
    "city": "clifford",
    "zip_code": "48727"
  },
  {
    "city": "oscoda",
    "zip_code": "48750"
  },
  {
    "city": "haslett",
    "zip_code": "48840"
  },
  {
    "city": "maple rapids",
    "zip_code": "48853"
  },
  {
    "city": "mulliken",
    "zip_code": "48861"
  },
  {
    "city": "portage",
    "zip_code": "49002"
  },
  {
    "city": "centreville",
    "zip_code": "49032"
  },
  {
    "city": "constantine",
    "zip_code": "49042"
  },
  {
    "city": "martin",
    "zip_code": "49070"
  },
  {
    "city": "new buffalo",
    "zip_code": "49117"
  },
  {
    "city": "grant",
    "zip_code": "49327"
  },
  {
    "city": "rothbury",
    "zip_code": "49452"
  },
  {
    "city": "lake leelanau",
    "zip_code": "49653"
  },
  {
    "city": "northport",
    "zip_code": "49670"
  },
  {
    "city": "tustin",
    "zip_code": "49688"
  },
  {
    "city": "saint ignace",
    "zip_code": "49781"
  },
  {
    "city": "rock",
    "zip_code": "49880"
  },
  {
    "city": "south range",
    "zip_code": "49963"
  },
  {
    "city": "allerton",
    "zip_code": "50008"
  },
  {
    "city": "bagley",
    "zip_code": "50026"
  },
  {
    "city": "dawson",
    "zip_code": "50066"
  },
  {
    "city": "new virginia",
    "zip_code": "50210"
  },
  {
    "city": "otley",
    "zip_code": "50214"
  },
  {
    "city": "peru",
    "zip_code": "50222"
  },
  {
    "city": "prairie city",
    "zip_code": "50228"
  },
  {
    "city": "swan",
    "zip_code": "50252"
  },
  {
    "city": "little cedar",
    "zip_code": "50454"
  },
  {
    "city": "rock falls",
    "zip_code": "50467"
  },
  {
    "city": "nashua",
    "zip_code": "50658"
  },
  {
    "city": "waterloo",
    "zip_code": "50702"
  },
  {
    "city": "afton",
    "zip_code": "50830"
  },
  {
    "city": "ireton",
    "zip_code": "51027"
  },
  {
    "city": "lawton",
    "zip_code": "51030"
  },
  {
    "city": "maurice",
    "zip_code": "51036"
  },
  {
    "city": "oto",
    "zip_code": "51044"
  },
  {
    "city": "sheldon",
    "zip_code": "51201"
  },
  {
    "city": "dow city",
    "zip_code": "51528"
  },
  {
    "city": "cascade",
    "zip_code": "52033"
  },
  {
    "city": "edgewood",
    "zip_code": "52042"
  },
  {
    "city": "elkport",
    "zip_code": "52044"
  },
  {
    "city": "farmersburg",
    "zip_code": "52047"
  },
  {
    "city": "baldwin",
    "zip_code": "52207"
  },
  {
    "city": "washington",
    "zip_code": "52353"
  },
  {
    "city": "crawfordsville",
    "zip_code": "52621"
  },
  {
    "city": "wever",
    "zip_code": "52658"
  },
  {
    "city": "brookfield",
    "zip_code": "53045"
  },
  {
    "city": "milwaukee",
    "zip_code": "53233"
  },
  {
    "city": "ridgeway",
    "zip_code": "53582"
  },
  {
    "city": "stoughton",
    "zip_code": "53589"
  },
  {
    "city": "madison",
    "zip_code": "53792"
  },
  {
    "city": "columbus",
    "zip_code": "53925"
  },
  {
    "city": "rock springs",
    "zip_code": "53961"
  },
  {
    "city": "abrams",
    "zip_code": "54101"
  },
  {
    "city": "armstrong creek",
    "zip_code": "54103"
  },
  {
    "city": "athelstane",
    "zip_code": "54104"
  },
  {
    "city": "cecil",
    "zip_code": "54111"
  },
  {
    "city": "fence",
    "zip_code": "54120"
  },
  {
    "city": "egg harbor",
    "zip_code": "54209"
  },
  {
    "city": "green bay",
    "zip_code": "54303"
  },
  {
    "city": "rib lake",
    "zip_code": "54470"
  },
  {
    "city": "white lake",
    "zip_code": "54491"
  },
  {
    "city": "harshaw",
    "zip_code": "54529"
  },
  {
    "city": "la crosse",
    "zip_code": "54603"
  },
  {
    "city": "ferryville",
    "zip_code": "54628"
  },
  {
    "city": "la farge",
    "zip_code": "54639"
  },
  {
    "city": "jim falls",
    "zip_code": "54748"
  },
  {
    "city": "stockholm",
    "zip_code": "54769"
  },
  {
    "city": "almena",
    "zip_code": "54805"
  },
  {
    "city": "marion",
    "zip_code": "54950"
  },
  {
    "city": "afton",
    "zip_code": "55001"
  },
  {
    "city": "hugo",
    "zip_code": "55038"
  },
  {
    "city": "medford",
    "zip_code": "55049"
  },
  {
    "city": "newport",
    "zip_code": "55055"
  },
  {
    "city": "rosemount",
    "zip_code": "55068"
  },
  {
    "city": "south saint paul",
    "zip_code": "55075"
  },
  {
    "city": "saint paul",
    "zip_code": "55107"
  },
  {
    "city": "saint paul",
    "zip_code": "55129"
  },
  {
    "city": "zimmerman",
    "zip_code": "55398"
  },
  {
    "city": "minneapolis",
    "zip_code": "55421"
  },
  {
    "city": "orr",
    "zip_code": "55771"
  },
  {
    "city": "elgin",
    "zip_code": "55932"
  },
  {
    "city": "lewiston",
    "zip_code": "55952"
  },
  {
    "city": "mankato",
    "zip_code": "56003"
  },
  {
    "city": "bricelyn",
    "zip_code": "56014"
  },
  {
    "city": "cleveland",
    "zip_code": "56017"
  },
  {
    "city": "russell",
    "zip_code": "56169"
  },
  {
    "city": "alberta",
    "zip_code": "56207"
  },
  {
    "city": "kerkhoven",
    "zip_code": "56252"
  },
  {
    "city": "milroy",
    "zip_code": "56263"
  },
  {
    "city": "lowry",
    "zip_code": "56349"
  },
  {
    "city": "backus",
    "zip_code": "56435"
  },
  {
    "city": "eagle bend",
    "zip_code": "56446"
  },
  {
    "city": "foxhome",
    "zip_code": "56543"
  },
  {
    "city": "georgetown",
    "zip_code": "56546"
  },
  {
    "city": "thief river falls",
    "zip_code": "56701"
  },
  {
    "city": "east grand forks",
    "zip_code": "56721"
  },
  {
    "city": "colton",
    "zip_code": "57018"
  },
  {
    "city": "harrisburg",
    "zip_code": "57032"
  },
  {
    "city": "jefferson",
    "zip_code": "57038"
  },
  {
    "city": "wentworth",
    "zip_code": "57075"
  },
  {
    "city": "watertown",
    "zip_code": "57201"
  },
  {
    "city": "armour",
    "zip_code": "57313"
  },
  {
    "city": "bridgewater",
    "zip_code": "57319"
  },
  {
    "city": "mount vernon",
    "zip_code": "57363"
  },
  {
    "city": "new holland",
    "zip_code": "57364"
  },
  {
    "city": "stickney",
    "zip_code": "57375"
  },
  {
    "city": "ralph",
    "zip_code": "57650"
  },
  {
    "city": "valley city",
    "zip_code": "58072"
  },
  {
    "city": "hensel",
    "zip_code": "58241"
  },
  {
    "city": "pembina",
    "zip_code": "58271"
  },
  {
    "city": "leeds",
    "zip_code": "58346"
  },
  {
    "city": "penn",
    "zip_code": "58362"
  },
  {
    "city": "starkweather",
    "zip_code": "58377"
  },
  {
    "city": "tokio",
    "zip_code": "58379"
  },
  {
    "city": "coleharbor",
    "zip_code": "58531"
  },
  {
    "city": "fairfield",
    "zip_code": "58627"
  },
  {
    "city": "berthold",
    "zip_code": "58718"
  },
  {
    "city": "maxbass",
    "zip_code": "58760"
  },
  {
    "city": "mohall",
    "zip_code": "58761"
  },
  {
    "city": "ross",
    "zip_code": "58776"
  },
  {
    "city": "ryegate",
    "zip_code": "59074"
  },
  {
    "city": "shepherd",
    "zip_code": "59079"
  },
  {
    "city": "flaxville",
    "zip_code": "59222"
  },
  {
    "city": "glasgow",
    "zip_code": "59230"
  },
  {
    "city": "glentana",
    "zip_code": "59240"
  },
  {
    "city": "hathaway",
    "zip_code": "59333"
  },
  {
    "city": "loma",
    "zip_code": "59460"
  },
  {
    "city": "hays",
    "zip_code": "59527"
  },
  {
    "city": "jackson",
    "zip_code": "59736"
  },
  {
    "city": "mcallister",
    "zip_code": "59740"
  },
  {
    "city": "manhattan",
    "zip_code": "59741"
  },
  {
    "city": "wisdom",
    "zip_code": "59761"
  },
  {
    "city": "florence",
    "zip_code": "59833"
  },
  {
    "city": "highland park",
    "zip_code": "60035"
  },
  {
    "city": "highwood",
    "zip_code": "60040"
  },
  {
    "city": "mchenry",
    "zip_code": "60051"
  },
  {
    "city": "north chicago",
    "zip_code": "60064"
  },
  {
    "city": "buffalo grove",
    "zip_code": "60089"
  },
  {
    "city": "forest park",
    "zip_code": "60130"
  },
  {
    "city": "hanover park",
    "zip_code": "60133"
  },
  {
    "city": "glen ellyn",
    "zip_code": "60137"
  },
  {
    "city": "manhattan",
    "zip_code": "60442"
  },
  {
    "city": "worth",
    "zip_code": "60482"
  },
  {
    "city": "evergreen park",
    "zip_code": "60805"
  },
  {
    "city": "martinton",
    "zip_code": "60951"
  },
  {
    "city": "momence",
    "zip_code": "60954"
  },
  {
    "city": "rankin",
    "zip_code": "60960"
  },
  {
    "city": "woodland",
    "zip_code": "60974"
  },
  {
    "city": "chana",
    "zip_code": "61015"
  },
  {
    "city": "rock island",
    "zip_code": "61201"
  },
  {
    "city": "lyndon",
    "zip_code": "61261"
  },
  {
    "city": "prophetstown",
    "zip_code": "61277"
  },
  {
    "city": "bureau",
    "zip_code": "61315"
  },
  {
    "city": "kasbeer",
    "zip_code": "61328"
  },
  {
    "city": "new bedford",
    "zip_code": "61346"
  },
  {
    "city": "seneca",
    "zip_code": "61360"
  },
  {
    "city": "wenona",
    "zip_code": "61377"
  },
  {
    "city": "camp grove",
    "zip_code": "61424"
  },
  {
    "city": "ellisville",
    "zip_code": "61431"
  },
  {
    "city": "ipava",
    "zip_code": "61441"
  },
  {
    "city": "sciota",
    "zip_code": "61475"
  },
  {
    "city": "viola",
    "zip_code": "61486"
  },
  {
    "city": "green valley",
    "zip_code": "61534"
  },
  {
    "city": "princeville",
    "zip_code": "61559"
  },
  {
    "city": "lawndale",
    "zip_code": "61751"
  },
  {
    "city": "stanford",
    "zip_code": "61774"
  },
  {
    "city": "champaign",
    "zip_code": "61821"
  },
  {
    "city": "charleston",
    "zip_code": "61920"
  },
  {
    "city": "brighton",
    "zip_code": "62012"
  },
  {
    "city": "lovejoy",
    "zip_code": "62059"
  },
  {
    "city": "ramsey",
    "zip_code": "62080"
  },
  {
    "city": "staunton",
    "zip_code": "62088"
  },
  {
    "city": "collinsville",
    "zip_code": "62234"
  },
  {
    "city": "pinckneyville",
    "zip_code": "62274"
  },
  {
    "city": "mason",
    "zip_code": "62443"
  },
  {
    "city": "sainte marie",
    "zip_code": "62459"
  },
  {
    "city": "sigel",
    "zip_code": "62462"
  },
  {
    "city": "mount pulaski",
    "zip_code": "62548"
  },
  {
    "city": "cantrall",
    "zip_code": "62625"
  },
  {
    "city": "jacksonville",
    "zip_code": "62650"
  },
  {
    "city": "lincoln",
    "zip_code": "62656"
  },
  {
    "city": "san jose",
    "zip_code": "62682"
  },
  {
    "city": "browns",
    "zip_code": "62818"
  },
  {
    "city": "christopher",
    "zip_code": "62822"
  },
  {
    "city": "logan",
    "zip_code": "62856"
  },
  {
    "city": "radom",
    "zip_code": "62876"
  },
  {
    "city": "xenia",
    "zip_code": "62899"
  },
  {
    "city": "rosiclare",
    "zip_code": "62982"
  },
  {
    "city": "berger",
    "zip_code": "63014"
  },
  {
    "city": "saint albans",
    "zip_code": "63073"
  },
  {
    "city": "saint louis",
    "zip_code": "63125"
  },
  {
    "city": "saint louis",
    "zip_code": "63141"
  },
  {
    "city": "saint charles",
    "zip_code": "63301"
  },
  {
    "city": "annada",
    "zip_code": "63330"
  },
  {
    "city": "middletown",
    "zip_code": "63359"
  },
  {
    "city": "emden",
    "zip_code": "63439"
  },
  {
    "city": "downing",
    "zip_code": "63536"
  },
  {
    "city": "novinger",
    "zip_code": "63559"
  },
  {
    "city": "rutledge",
    "zip_code": "63563"
  },
  {
    "city": "black",
    "zip_code": "63625"
  },
  {
    "city": "patterson",
    "zip_code": "63956"
  },
  {
    "city": "puxico",
    "zip_code": "63960"
  },
  {
    "city": "oak grove",
    "zip_code": "64075"
  },
  {
    "city": "pleasant hill",
    "zip_code": "64080"
  },
  {
    "city": "strasburg",
    "zip_code": "64090"
  },
  {
    "city": "kansas city",
    "zip_code": "64125"
  },
  {
    "city": "kansas city",
    "zip_code": "64167"
  },
  {
    "city": "burlington junction",
    "zip_code": "64428"
  },
  {
    "city": "cameron",
    "zip_code": "64429"
  },
  {
    "city": "elmo",
    "zip_code": "64445"
  },
  {
    "city": "savannah",
    "zip_code": "64485"
  },
  {
    "city": "worth",
    "zip_code": "64499"
  },
  {
    "city": "humphreys",
    "zip_code": "64646"
  },
  {
    "city": "kingston",
    "zip_code": "64650"
  },
  {
    "city": "mooresville",
    "zip_code": "64664"
  },
  {
    "city": "harrisonville",
    "zip_code": "64701"
  },
  {
    "city": "butler",
    "zip_code": "64730"
  },
  {
    "city": "cleveland",
    "zip_code": "64734"
  },
  {
    "city": "pineville",
    "zip_code": "64856"
  },
  {
    "city": "linn",
    "zip_code": "65051"
  },
  {
    "city": "cairo",
    "zip_code": "65239"
  },
  {
    "city": "renick",
    "zip_code": "65278"
  },
  {
    "city": "otterville",
    "zip_code": "65348"
  },
  {
    "city": "eminence",
    "zip_code": "65466"
  },
  {
    "city": "jadwin",
    "zip_code": "65501"
  },
  {
    "city": "mountain view",
    "zip_code": "65548"
  },
  {
    "city": "roby",
    "zip_code": "65557"
  },
  {
    "city": "chadwick",
    "zip_code": "65629"
  },
  {
    "city": "fordland",
    "zip_code": "65652"
  },
  {
    "city": "graff",
    "zip_code": "65660"
  },
  {
    "city": "louisburg",
    "zip_code": "65685"
  },
  {
    "city": "mount vernon",
    "zip_code": "65712"
  },
  {
    "city": "seligman",
    "zip_code": "65745"
  },
  {
    "city": "vanzant",
    "zip_code": "65768"
  },
  {
    "city": "kincaid",
    "zip_code": "66039"
  },
  {
    "city": "lenexa",
    "zip_code": "66220"
  },
  {
    "city": "bremen",
    "zip_code": "66412"
  },
  {
    "city": "frontenac",
    "zip_code": "66763"
  },
  {
    "city": "americus",
    "zip_code": "66835"
  },
  {
    "city": "hamilton",
    "zip_code": "66853"
  },
  {
    "city": "lincolnville",
    "zip_code": "66858"
  },
  {
    "city": "waverly",
    "zip_code": "66871"
  },
  {
    "city": "palmer",
    "zip_code": "66962"
  },
  {
    "city": "bluff city",
    "zip_code": "67018"
  },
  {
    "city": "spivey",
    "zip_code": "67142"
  },
  {
    "city": "wichita",
    "zip_code": "67204"
  },
  {
    "city": "edna",
    "zip_code": "67342"
  },
  {
    "city": "lincoln",
    "zip_code": "67455"
  },
  {
    "city": "osborne",
    "zip_code": "67473"
  },
  {
    "city": "arnold",
    "zip_code": "67515"
  },
  {
    "city": "buhler",
    "zip_code": "67522"
  },
  {
    "city": "alton",
    "zip_code": "67623"
  },
  {
    "city": "quinter",
    "zip_code": "67752"
  },
  {
    "city": "rexford",
    "zip_code": "67753"
  },
  {
    "city": "garden city",
    "zip_code": "67846"
  },
  {
    "city": "jetmore",
    "zip_code": "67854"
  },
  {
    "city": "ulysses",
    "zip_code": "67880"
  },
  {
    "city": "elkhart",
    "zip_code": "67950"
  },
  {
    "city": "wahoo",
    "zip_code": "68066"
  },
  {
    "city": "omaha",
    "zip_code": "68114"
  },
  {
    "city": "alexandria",
    "zip_code": "68303"
  },
  {
    "city": "shickley",
    "zip_code": "68436"
  },
  {
    "city": "virginia",
    "zip_code": "68458"
  },
  {
    "city": "ames",
    "zip_code": "68621"
  },
  {
    "city": "battle creek",
    "zip_code": "68715"
  },
  {
    "city": "verdigre",
    "zip_code": "68783"
  },
  {
    "city": "wynot",
    "zip_code": "68792"
  },
  {
    "city": "hazard",
    "zip_code": "68844"
  },
  {
    "city": "beaver city",
    "zip_code": "68926"
  },
  {
    "city": "blue hill",
    "zip_code": "68930"
  },
  {
    "city": "kenesaw",
    "zip_code": "68956"
  },
  {
    "city": "loomis",
    "zip_code": "68958"
  },
  {
    "city": "nelson",
    "zip_code": "68961"
  },
  {
    "city": "sutton",
    "zip_code": "68979"
  },
  {
    "city": "upland",
    "zip_code": "68981"
  },
  {
    "city": "lewellen",
    "zip_code": "69147"
  },
  {
    "city": "ainsworth",
    "zip_code": "69210"
  },
  {
    "city": "metairie",
    "zip_code": "70002"
  },
  {
    "city": "metairie",
    "zip_code": "70006"
  },
  {
    "city": "arabi",
    "zip_code": "70032"
  },
  {
    "city": "mount airy",
    "zip_code": "70076"
  },
  {
    "city": "new orleans",
    "zip_code": "70128"
  },
  {
    "city": "franklinton",
    "zip_code": "70438"
  },
  {
    "city": "madisonville",
    "zip_code": "70447"
  },
  {
    "city": "springfield",
    "zip_code": "70462"
  },
  {
    "city": "mandeville",
    "zip_code": "70471"
  },
  {
    "city": "perry",
    "zip_code": "70575"
  },
  {
    "city": "scott",
    "zip_code": "70583"
  },
  {
    "city": "dry creek",
    "zip_code": "70637"
  },
  {
    "city": "oberlin",
    "zip_code": "70655"
  },
  {
    "city": "pitkin",
    "zip_code": "70656"
  },
  {
    "city": "grosse tete",
    "zip_code": "70740"
  },
  {
    "city": "lottie",
    "zip_code": "70756"
  },
  {
    "city": "sunshine",
    "zip_code": "70780"
  },
  {
    "city": "greenwood",
    "zip_code": "71033"
  },
  {
    "city": "princeton",
    "zip_code": "71067"
  },
  {
    "city": "summerfield",
    "zip_code": "71079"
  },
  {
    "city": "vivian",
    "zip_code": "71082"
  },
  {
    "city": "hodge",
    "zip_code": "71247"
  },
  {
    "city": "melrose",
    "zip_code": "71452"
  },
  {
    "city": "natchitoches",
    "zip_code": "71457"
  },
  {
    "city": "fountain hill",
    "zip_code": "71642"
  },
  {
    "city": "hamburg",
    "zip_code": "71646"
  },
  {
    "city": "louann",
    "zip_code": "71751"
  },
  {
    "city": "nashville",
    "zip_code": "71852"
  },
  {
    "city": "wilton",
    "zip_code": "71865"
  },
  {
    "city": "benton",
    "zip_code": "72015"
  },
  {
    "city": "cabot",
    "zip_code": "72023"
  },
  {
    "city": "england",
    "zip_code": "72046"
  },
  {
    "city": "searcy",
    "zip_code": "72143"
  },
  {
    "city": "thida",
    "zip_code": "72165"
  },
  {
    "city": "keiser",
    "zip_code": "72351"
  },
  {
    "city": "wilson",
    "zip_code": "72395"
  },
  {
    "city": "pollard",
    "zip_code": "72456"
  },
  {
    "city": "success",
    "zip_code": "72470"
  },
  {
    "city": "warm springs",
    "zip_code": "72478"
  },
  {
    "city": "williford",
    "zip_code": "72482"
  },
  {
    "city": "bexar",
    "zip_code": "72515"
  },
  {
    "city": "floral",
    "zip_code": "72534"
  },
  {
    "city": "berryville",
    "zip_code": "72616"
  },
  {
    "city": "eureka springs",
    "zip_code": "72632"
  },
  {
    "city": "mount judea",
    "zip_code": "72655"
  },
  {
    "city": "bentonville",
    "zip_code": "72712"
  },
  {
    "city": "hartman",
    "zip_code": "72840"
  },
  {
    "city": "greenwood",
    "zip_code": "72936"
  },
  {
    "city": "amber",
    "zip_code": "73004"
  },
  {
    "city": "guthrie",
    "zip_code": "73044"
  },
  {
    "city": "harrah",
    "zip_code": "73045"
  },
  {
    "city": "norman",
    "zip_code": "73072"
  },
  {
    "city": "spencer",
    "zip_code": "73084"
  },
  {
    "city": "oklahoma city",
    "zip_code": "73122"
  },
  {
    "city": "oklahoma city",
    "zip_code": "73127"
  },
  {
    "city": "mannsville",
    "zip_code": "73447"
  },
  {
    "city": "fort sill",
    "zip_code": "73503"
  },
  {
    "city": "hollister",
    "zip_code": "73551"
  },
  {
    "city": "burlington",
    "zip_code": "73722"
  },
  {
    "city": "jet",
    "zip_code": "73749"
  },
  {
    "city": "laverne",
    "zip_code": "73848"
  },
  {
    "city": "catoosa",
    "zip_code": "74015"
  },
  {
    "city": "claremore",
    "zip_code": "74017"
  },
  {
    "city": "s coffeyville",
    "zip_code": "74072"
  },
  {
    "city": "honobia",
    "zip_code": "74549"
  },
  {
    "city": "kiowa",
    "zip_code": "74553"
  },
  {
    "city": "bokchito",
    "zip_code": "74726"
  },
  {
    "city": "platter",
    "zip_code": "74753"
  },
  {
    "city": "agra",
    "zip_code": "74824"
  },
  {
    "city": "carney",
    "zip_code": "74832"
  },
  {
    "city": "mill creek",
    "zip_code": "74856"
  },
  {
    "city": "paden",
    "zip_code": "74860"
  },
  {
    "city": "spiro",
    "zip_code": "74959"
  },
  {
    "city": "westville",
    "zip_code": "74965"
  },
  {
    "city": "allen",
    "zip_code": "75002"
  },
  {
    "city": "carrollton",
    "zip_code": "75006"
  },
  {
    "city": "garland",
    "zip_code": "75044"
  },
  {
    "city": "grand prairie",
    "zip_code": "75052"
  },
  {
    "city": "grand prairie",
    "zip_code": "75054"
  },
  {
    "city": "mckinney",
    "zip_code": "75069"
  },
  {
    "city": "plano",
    "zip_code": "75075"
  },
  {
    "city": "richardson",
    "zip_code": "75080"
  },
  {
    "city": "forney",
    "zip_code": "75126"
  },
  {
    "city": "red oak",
    "zip_code": "75154"
  },
  {
    "city": "dallas",
    "zip_code": "75231"
  },
  {
    "city": "dallas",
    "zip_code": "75237"
  },
  {
    "city": "brookston",
    "zip_code": "75421"
  },
  {
    "city": "pickton",
    "zip_code": "75471"
  },
  {
    "city": "roxton",
    "zip_code": "75477"
  },
  {
    "city": "beckville",
    "zip_code": "75631"
  },
  {
    "city": "quitman",
    "zip_code": "75783"
  },
  {
    "city": "lufkin",
    "zip_code": "75901"
  },
  {
    "city": "center",
    "zip_code": "75935"
  },
  {
    "city": "jasper",
    "zip_code": "75951"
  },
  {
    "city": "nacogdoches",
    "zip_code": "75965"
  },
  {
    "city": "shelbyville",
    "zip_code": "75973"
  },
  {
    "city": "alvarado",
    "zip_code": "76009"
  },
  {
    "city": "fort worth",
    "zip_code": "76112"
  },
  {
    "city": "goree",
    "zip_code": "76363"
  },
  {
    "city": "newcastle",
    "zip_code": "76372"
  },
  {
    "city": "poolville",
    "zip_code": "76487"
  },
  {
    "city": "clifton",
    "zip_code": "76634"
  },
  {
    "city": "irene",
    "zip_code": "76650"
  },
  {
    "city": "houston",
    "zip_code": "77013"
  },
  {
    "city": "houston",
    "zip_code": "77016"
  },
  {
    "city": "houston",
    "zip_code": "77028"
  },
  {
    "city": "houston",
    "zip_code": "77038"
  },
  {
    "city": "willis",
    "zip_code": "77378"
  },
  {
    "city": "midfield",
    "zip_code": "77458"
  },
  {
    "city": "mont belvieu",
    "zip_code": "77580"
  },
  {
    "city": "rosharon",
    "zip_code": "77583"
  },
  {
    "city": "port arthur",
    "zip_code": "77642"
  },
  {
    "city": "beaumont",
    "zip_code": "77707"
  },
  {
    "city": "bloomington",
    "zip_code": "77951"
  },
  {
    "city": "pearsall",
    "zip_code": "78061"
  },
  {
    "city": "san antonio",
    "zip_code": "78219"
  },
  {
    "city": "san antonio",
    "zip_code": "78258"
  },
  {
    "city": "bayside",
    "zip_code": "78340"
  },
  {
    "city": "brownsville",
    "zip_code": "78520"
  },
  {
    "city": "edinburg",
    "zip_code": "78541"
  },
  {
    "city": "mission",
    "zip_code": "78573"
  },
  {
    "city": "buda",
    "zip_code": "78610"
  },
  {
    "city": "burnet",
    "zip_code": "78611"
  },
  {
    "city": "fischer",
    "zip_code": "78623"
  },
  {
    "city": "lockhart",
    "zip_code": "78644"
  },
  {
    "city": "pflugerville",
    "zip_code": "78660"
  },
  {
    "city": "utopia",
    "zip_code": "78884"
  },
  {
    "city": "giddings",
    "zip_code": "78942"
  },
  {
    "city": "new ulm",
    "zip_code": "78950"
  },
  {
    "city": "boys ranch",
    "zip_code": "79010"
  },
  {
    "city": "cotton center",
    "zip_code": "79021"
  },
  {
    "city": "higgins",
    "zip_code": "79046"
  },
  {
    "city": "mobeetie",
    "zip_code": "79061"
  },
  {
    "city": "tulia",
    "zip_code": "79088"
  },
  {
    "city": "lubbock",
    "zip_code": "79407"
  },
  {
    "city": "hamlin",
    "zip_code": "79520"
  },
  {
    "city": "old glory",
    "zip_code": "79540"
  },
  {
    "city": "rule",
    "zip_code": "79548"
  },
  {
    "city": "midland",
    "zip_code": "79706"
  },
  {
    "city": "gail",
    "zip_code": "79738"
  },
  {
    "city": "garden city",
    "zip_code": "79739"
  },
  {
    "city": "odessa",
    "zip_code": "79762"
  },
  {
    "city": "tornillo",
    "zip_code": "79853"
  },
  {
    "city": "englewood",
    "zip_code": "80113"
  },
  {
    "city": "kremmling",
    "zip_code": "80459"
  },
  {
    "city": "silver plume",
    "zip_code": "80476"
  },
  {
    "city": "weldona",
    "zip_code": "80653"
  },
  {
    "city": "colorado springs",
    "zip_code": "80919"
  },
  {
    "city": "branson",
    "zip_code": "81027"
  },
  {
    "city": "saguache",
    "zip_code": "81149"
  },
  {
    "city": "coaldale",
    "zip_code": "81222"
  },
  {
    "city": "paonia",
    "zip_code": "81428"
  },
  {
    "city": "somerset",
    "zip_code": "81434"
  },
  {
    "city": "grand junction",
    "zip_code": "81503"
  },
  {
    "city": "aspen",
    "zip_code": "81611"
  },
  {
    "city": "hayden",
    "zip_code": "81639"
  },
  {
    "city": "rawlins",
    "zip_code": "82301"
  },
  {
    "city": "saratoga",
    "zip_code": "82331"
  },
  {
    "city": "ralston",
    "zip_code": "82440"
  },
  {
    "city": "kaycee",
    "zip_code": "82639"
  },
  {
    "city": "wilson",
    "zip_code": "83014"
  },
  {
    "city": "basalt",
    "zip_code": "83218"
  },
  {
    "city": "grace",
    "zip_code": "83241"
  },
  {
    "city": "filer",
    "zip_code": "83328"
  },
  {
    "city": "hazelton",
    "zip_code": "83335"
  },
  {
    "city": "elk city",
    "zip_code": "83525"
  },
  {
    "city": "lenore",
    "zip_code": "83541"
  },
  {
    "city": "lowman",
    "zip_code": "83637"
  },
  {
    "city": "meridian",
    "zip_code": "83646"
  },
  {
    "city": "dover",
    "zip_code": "83825"
  },
  {
    "city": "croydon",
    "zip_code": "84018"
  },
  {
    "city": "duchesne",
    "zip_code": "84021"
  },
  {
    "city": "fort duchesne",
    "zip_code": "84026"
  },
  {
    "city": "sandy",
    "zip_code": "84070"
  },
  {
    "city": "talmage",
    "zip_code": "84073"
  },
  {
    "city": "sandy",
    "zip_code": "84094"
  },
  {
    "city": "salt lake city",
    "zip_code": "84113"
  },
  {
    "city": "salt lake city",
    "zip_code": "84123"
  },
  {
    "city": "salt lake city",
    "zip_code": "84124"
  },
  {
    "city": "collinston",
    "zip_code": "84306"
  },
  {
    "city": "plymouth",
    "zip_code": "84330"
  },
  {
    "city": "phoenix",
    "zip_code": "85014"
  },
  {
    "city": "phoenix",
    "zip_code": "85021"
  },
  {
    "city": "scottsdale",
    "zip_code": "85262"
  },
  {
    "city": "glendale",
    "zip_code": "85307"
  },
  {
    "city": "patagonia",
    "zip_code": "85624"
  },
  {
    "city": "saint david",
    "zip_code": "85630"
  },
  {
    "city": "tucson",
    "zip_code": "85708"
  },
  {
    "city": "tucson",
    "zip_code": "85711"
  },
  {
    "city": "tucson",
    "zip_code": "85716"
  },
  {
    "city": "tucson",
    "zip_code": "85742"
  },
  {
    "city": "tucson",
    "zip_code": "85755"
  },
  {
    "city": "flagstaff",
    "zip_code": "86001"
  },
  {
    "city": "petrified forest natl pk",
    "zip_code": "86028"
  },
  {
    "city": "second mesa",
    "zip_code": "86043"
  },
  {
    "city": "prescott valley",
    "zip_code": "86315"
  },
  {
    "city": "fort mohave",
    "zip_code": "86426"
  },
  {
    "city": "crownpoint",
    "zip_code": "87313"
  },
  {
    "city": "el prado",
    "zip_code": "87529"
  },
  {
    "city": "cimarron",
    "zip_code": "87714"
  },
  {
    "city": "maxwell",
    "zip_code": "87728"
  },
  {
    "city": "magdalena",
    "zip_code": "87825"
  },
  {
    "city": "salem",
    "zip_code": "87941"
  },
  {
    "city": "las cruces",
    "zip_code": "88004"
  },
  {
    "city": "la mesa",
    "zip_code": "88044"
  },
  {
    "city": "lordsburg",
    "zip_code": "88045"
  },
  {
    "city": "clovis",
    "zip_code": "88101"
  },
  {
    "city": "melrose",
    "zip_code": "88124"
  },
  {
    "city": "maljamar",
    "zip_code": "88264"
  },
  {
    "city": "encino",
    "zip_code": "88321"
  },
  {
    "city": "sun valley",
    "zip_code": "89433"
  },
  {
    "city": "tacoma",
    "zip_code": "98409"
  },
  {
    "city": "camp murray",
    "zip_code": "98430"
  },
  {
    "city": "tacoma",
    "zip_code": "98445"
  },
  {
    "city": "olympia",
    "zip_code": "98501"
  },
  {
    "city": "elma",
    "zip_code": "98541"
  },
  {
    "city": "oakville",
    "zip_code": "98568"
  },
  {
    "city": "bingen",
    "zip_code": "98605"
  },
  {
    "city": "naselle",
    "zip_code": "98638"
  },
  {
    "city": "vancouver",
    "zip_code": "98661"
  },
  {
    "city": "winthrop",
    "zip_code": "98862"
  },
  {
    "city": "sunnyside",
    "zip_code": "98944"
  },
  {
    "city": "oakesdale",
    "zip_code": "99158"
  },
  {
    "city": "spokane",
    "zip_code": "99201"
  },
  {
    "city": "touchet",
    "zip_code": "99360"
  },
  {
    "city": "port lions",
    "zip_code": "99550"
  },
  {
    "city": "akutan",
    "zip_code": "99553"
  },
  {
    "city": "mekoryuk",
    "zip_code": "99630"
  },
  {
    "city": "quinhagak",
    "zip_code": "99655"
  },
  {
    "city": "russian mission",
    "zip_code": "99657"
  },
  {
    "city": "sterling",
    "zip_code": "99672"
  },
  {
    "city": "tyonek",
    "zip_code": "99682"
  },
  {
    "city": "north pole",
    "zip_code": "99705"
  },
  {
    "city": "teller",
    "zip_code": "99778"
  },
  {
    "city": "ambler",
    "zip_code": "99786"
  },
  {
    "city": "nuiqsut",
    "zip_code": "99789"
  },
  {
    "city": "los angeles",
    "zip_code": "90029"
  },
  {
    "city": "gardena",
    "zip_code": "90247"
  },
  {
    "city": "lawndale",
    "zip_code": "90260"
  },
  {
    "city": "long beach",
    "zip_code": "90807"
  },
  {
    "city": "arcadia",
    "zip_code": "91007"
  },
  {
    "city": "agoura hills",
    "zip_code": "91301"
  },
  {
    "city": "santa clarita",
    "zip_code": "91350"
  },
  {
    "city": "canyon country",
    "zip_code": "91351"
  },
  {
    "city": "baldwin park",
    "zip_code": "91706"
  },
  {
    "city": "chino hills",
    "zip_code": "91709"
  },
  {
    "city": "san dimas",
    "zip_code": "91773"
  },
  {
    "city": "chula vista",
    "zip_code": "91915"
  },
  {
    "city": "pala",
    "zip_code": "92059"
  },
  {
    "city": "san diego",
    "zip_code": "92107"
  },
  {
    "city": "palm springs",
    "zip_code": "92262"
  },
  {
    "city": "ludlow",
    "zip_code": "92338"
  },
  {
    "city": "rimforest",
    "zip_code": "92378"
  },
  {
    "city": "summerland",
    "zip_code": "93067"
  },
  {
    "city": "sugarloaf",
    "zip_code": "92386"
  },
  {
    "city": "menifee",
    "zip_code": "92584"
  },
  {
    "city": "camp nelson",
    "zip_code": "93208"
  },
  {
    "city": "richgrove",
    "zip_code": "93261"
  },
  {
    "city": "three rivers",
    "zip_code": "93271"
  },
  {
    "city": "tulare",
    "zip_code": "93274"
  },
  {
    "city": "morro bay",
    "zip_code": "93442"
  },
  {
    "city": "dinuba",
    "zip_code": "93618"
  },
  {
    "city": "fresno",
    "zip_code": "93650"
  },
  {
    "city": "fresno",
    "zip_code": "93702"
  },
  {
    "city": "fresno",
    "zip_code": "93721"
  },
  {
    "city": "fresno",
    "zip_code": "93722"
  },
  {
    "city": "fresno",
    "zip_code": "93730"
  },
  {
    "city": "gonzales",
    "zip_code": "93926"
  },
  {
    "city": "moss beach",
    "zip_code": "94038"
  },
  {
    "city": "redwood city",
    "zip_code": "94062"
  },
  {
    "city": "san francisco",
    "zip_code": "94110"
  },
  {
    "city": "concord",
    "zip_code": "94520"
  },
  {
    "city": "livermore",
    "zip_code": "94550"
  },
  {
    "city": "martinez",
    "zip_code": "94553"
  },
  {
    "city": "oakley",
    "zip_code": "94561"
  },
  {
    "city": "stockton",
    "zip_code": "95212"
  },
  {
    "city": "campo seco",
    "zip_code": "95226"
  },
  {
    "city": "winton",
    "zip_code": "95388"
  },
  {
    "city": "gualala",
    "zip_code": "95445"
  },
  {
    "city": "sebastopol",
    "zip_code": "95472"
  },
  {
    "city": "rio dell",
    "zip_code": "95562"
  },
  {
    "city": "placerville",
    "zip_code": "95667"
  },
  {
    "city": "dutch flat",
    "zip_code": "95714"
  },
  {
    "city": "sacramento",
    "zip_code": "95837"
  },
  {
    "city": "arbuckle",
    "zip_code": "95912"
  },
  {
    "city": "biggs",
    "zip_code": "95917"
  },
  {
    "city": "dunnigan",
    "zip_code": "95937"
  },
  {
    "city": "strawberry valley",
    "zip_code": "95981"
  },
  {
    "city": "redding",
    "zip_code": "96001"
  },
  {
    "city": "old station",
    "zip_code": "96071"
  },
  {
    "city": "weaverville",
    "zip_code": "96093"
  },
  {
    "city": "olympic valley",
    "zip_code": "96146"
  },
  {
    "city": "south lake tahoe",
    "zip_code": "96150"
  },
  {
    "city": "hana",
    "zip_code": "96713"
  },
  {
    "city": "kekaha",
    "zip_code": "96752"
  },
  {
    "city": "rainier",
    "zip_code": "97048"
  },
  {
    "city": "damascus",
    "zip_code": "97089"
  },
  {
    "city": "tolovana park",
    "zip_code": "97145"
  },
  {
    "city": "portland",
    "zip_code": "97231"
  },
  {
    "city": "salem",
    "zip_code": "97304"
  },
  {
    "city": "cheshire",
    "zip_code": "97419"
  },
  {
    "city": "glendale",
    "zip_code": "97442"
  },
  {
    "city": "rogue river",
    "zip_code": "97537"
  },
  {
    "city": "malin",
    "zip_code": "97632"
  },
  {
    "city": "bend",
    "zip_code": "97701"
  },
  {
    "city": "federal way",
    "zip_code": "98003"
  },
  {
    "city": "enumclaw",
    "zip_code": "98022"
  },
  {
    "city": "mercer island",
    "zip_code": "98040"
  },
  {
    "city": "seattle",
    "zip_code": "98117"
  },
  {
    "city": "deer harbor",
    "zip_code": "98243"
  },
  {
    "city": "marblemount",
    "zip_code": "98267"
  },
  {
    "city": "sedro woolley",
    "zip_code": "98284"
  },
  {
    "city": "silverdale",
    "zip_code": "98315"
  },
  {
    "city": "lakebay",
    "zip_code": "98349"
  },
  {
    "city": "poulsbo",
    "zip_code": "98370"
  },
  {
    "city": "puyallup",
    "zip_code": "98375"
  },
  {
    "city": "seabeck",
    "zip_code": "98380"
  },
  {
    "city": "suquamish",
    "zip_code": "98392"
  },
  {
    "city": "vaughn",
    "zip_code": "98394"
  },
  {
    "city": "union",
    "zip_code": "98592"
  },
  {
    "city": "winlock",
    "zip_code": "98596"
  },
  {
    "city": "chelan",
    "zip_code": "98816"
  },
  {
    "city": "pateros",
    "zip_code": "98846"
  },
  {
    "city": "cusick",
    "zip_code": "99119"
  },
  {
    "city": "malo",
    "zip_code": "99150"
  },
  {
    "city": "orient",
    "zip_code": "99160"
  },
  {
    "city": "washtucna",
    "zip_code": "99371"
  },
  {
    "city": "grayling",
    "zip_code": "99590"
  },
  {
    "city": "holy cross",
    "zip_code": "99602"
  },
  {
    "city": "hooper bay",
    "zip_code": "99604"
  },
  {
    "city": "saint paul island",
    "zip_code": "99660"
  },
  {
    "city": "skwentna",
    "zip_code": "99667"
  },
  {
    "city": "talkeetna",
    "zip_code": "99676"
  },
  {
    "city": "tuluksak",
    "zip_code": "99679"
  },
  {
    "city": "houston",
    "zip_code": "99694"
  },
  {
    "city": "fairbanks",
    "zip_code": "99706"
  },
  {
    "city": "central",
    "zip_code": "99730"
  },
  {
    "city": "minto",
    "zip_code": "99758"
  },
  {
    "city": "gustavus",
    "zip_code": "99826"
  },
  {
    "city": "harrison",
    "zip_code": "31035"
  },
  {
    "city": "hillsboro",
    "zip_code": "31038"
  },
  {
    "city": "pinehurst",
    "zip_code": "31070"
  },
  {
    "city": "warner robins",
    "zip_code": "31088"
  },
  {
    "city": "brunswick",
    "zip_code": "31523"
  },
  {
    "city": "screven",
    "zip_code": "31560"
  },
  {
    "city": "valdosta",
    "zip_code": "31601"
  },
  {
    "city": "dixie",
    "zip_code": "31629"
  },
  {
    "city": "lakeland",
    "zip_code": "31635"
  },
  {
    "city": "naylor",
    "zip_code": "31641"
  },
  {
    "city": "ocilla",
    "zip_code": "31774"
  },
  {
    "city": "weston",
    "zip_code": "31832"
  },
  {
    "city": "lake city",
    "zip_code": "32025"
  },
  {
    "city": "o'brien",
    "zip_code": "32071"
  },
  {
    "city": "orange park",
    "zip_code": "32073"
  },
  {
    "city": "saint augustine",
    "zip_code": "32092"
  },
  {
    "city": "hastings",
    "zip_code": "32145"
  },
  {
    "city": "palm coast",
    "zip_code": "32164"
  },
  {
    "city": "weirsdale",
    "zip_code": "32195"
  },
  {
    "city": "jacksonville",
    "zip_code": "32207"
  },
  {
    "city": "lanark village",
    "zip_code": "32323"
  },
  {
    "city": "hosford",
    "zip_code": "32334"
  },
  {
    "city": "monticello",
    "zip_code": "32344"
  },
  {
    "city": "altha",
    "zip_code": "32421"
  },
  {
    "city": "pensacola",
    "zip_code": "32514"
  },
  {
    "city": "century",
    "zip_code": "32535"
  },
  {
    "city": "trenton",
    "zip_code": "32693"
  },
  {
    "city": "debary",
    "zip_code": "32713"
  },
  {
    "city": "zellwood",
    "zip_code": "32798"
  },
  {
    "city": "hialeah",
    "zip_code": "33015"
  },
  {
    "city": "hollywood",
    "zip_code": "33025"
  },
  {
    "city": "homestead",
    "zip_code": "33030"
  },
  {
    "city": "miami",
    "zip_code": "33179"
  },
  {
    "city": "fort lauderdale",
    "zip_code": "33308"
  },
  {
    "city": "fort lauderdale",
    "zip_code": "33312"
  },
  {
    "city": "fort lauderdale",
    "zip_code": "33321"
  },
  {
    "city": "west palm beach",
    "zip_code": "33404"
  },
  {
    "city": "wellington",
    "zip_code": "33414"
  },
  {
    "city": "jupiter",
    "zip_code": "33477"
  },
  {
    "city": "center hill",
    "zip_code": "33514"
  },
  {
    "city": "lithia",
    "zip_code": "33547"
  },
  {
    "city": "wimauma",
    "zip_code": "33598"
  },
  {
    "city": "tampa",
    "zip_code": "33617"
  },
  {
    "city": "clearwater",
    "zip_code": "33762"
  },
  {
    "city": "sebring",
    "zip_code": "33876"
  },
  {
    "city": "felda",
    "zip_code": "33930"
  },
  {
    "city": "lehigh acres",
    "zip_code": "33974"
  },
  {
    "city": "punta gorda",
    "zip_code": "33980"
  },
  {
    "city": "naples",
    "zip_code": "34119"
  },
  {
    "city": "palmetto",
    "zip_code": "34221"
  },
  {
    "city": "spring hill",
    "zip_code": "34609"
  },
  {
    "city": "childersburg",
    "zip_code": "35044"
  },
  {
    "city": "kellyton",
    "zip_code": "35089"
  },
  {
    "city": "sterrett",
    "zip_code": "35147"
  },
  {
    "city": "echola",
    "zip_code": "35457"
  },
  {
    "city": "eutaw",
    "zip_code": "35462"
  },
  {
    "city": "vance",
    "zip_code": "35490"
  },
  {
    "city": "beaverton",
    "zip_code": "35544"
  },
  {
    "city": "cherokee",
    "zip_code": "35616"
  },
  {
    "city": "grant",
    "zip_code": "35747"
  },
  {
    "city": "cecil",
    "zip_code": "36013"
  },
  {
    "city": "wellington",
    "zip_code": "36279"
  },
  {
    "city": "bellwood",
    "zip_code": "36313"
  },
  {
    "city": "brewton",
    "zip_code": "36426"
  },
  {
    "city": "citronelle",
    "zip_code": "36522"
  },
  {
    "city": "frankville",
    "zip_code": "36538"
  },
  {
    "city": "arlington",
    "zip_code": "36722"
  },
  {
    "city": "lower peach tree",
    "zip_code": "36751"
  },
  {
    "city": "pine hill",
    "zip_code": "36769"
  },
  {
    "city": "auburn",
    "zip_code": "36832"
  },
  {
    "city": "carthage",
    "zip_code": "37030"
  },
  {
    "city": "clarksville",
    "zip_code": "37043"
  },
  {
    "city": "cross plains",
    "zip_code": "37049"
  },
  {
    "city": "vanleer",
    "zip_code": "37181"
  },
  {
    "city": "nashville",
    "zip_code": "37212"
  },
  {
    "city": "elora",
    "zip_code": "37328"
  },
  {
    "city": "estill springs",
    "zip_code": "37330"
  },
  {
    "city": "flintville",
    "zip_code": "37335"
  },
  {
    "city": "normandy",
    "zip_code": "37360"
  },
  {
    "city": "elizabethton",
    "zip_code": "37643"
  },
  {
    "city": "knoxville",
    "zip_code": "37902"
  },
  {
    "city": "finley",
    "zip_code": "38030"
  },
  {
    "city": "whiteville",
    "zip_code": "38075"
  },
  {
    "city": "brush creek",
    "zip_code": "38547"
  },
  {
    "city": "gordonsville",
    "zip_code": "38563"
  },
  {
    "city": "granville",
    "zip_code": "38564"
  },
  {
    "city": "monroe",
    "zip_code": "38573"
  },
  {
    "city": "rock island",
    "zip_code": "38581"
  },
  {
    "city": "spencer",
    "zip_code": "38585"
  },
  {
    "city": "lyon",
    "zip_code": "38645"
  },
  {
    "city": "greenville",
    "zip_code": "38702"
  },
  {
    "city": "blue springs",
    "zip_code": "38828"
  },
  {
    "city": "coffeeville",
    "zip_code": "38922"
  },
  {
    "city": "tillatoba",
    "zip_code": "38961"
  },
  {
    "city": "lena",
    "zip_code": "39094"
  },
  {
    "city": "tougaloo",
    "zip_code": "39174"
  },
  {
    "city": "walnut grove",
    "zip_code": "39189"
  },
  {
    "city": "west",
    "zip_code": "39192"
  },
  {
    "city": "jackson",
    "zip_code": "39206"
  },
  {
    "city": "blanchard",
    "zip_code": "58009"
  },
  {
    "city": "grandin",
    "zip_code": "58038"
  },
  {
    "city": "dunseith",
    "zip_code": "58329"
  },
  {
    "city": "fort totten",
    "zip_code": "58335"
  },
  {
    "city": "jamestown",
    "zip_code": "58405"
  },
  {
    "city": "tuttle",
    "zip_code": "58488"
  },
  {
    "city": "hazen",
    "zip_code": "58545"
  },
  {
    "city": "riverdale",
    "zip_code": "58565"
  },
  {
    "city": "wilton",
    "zip_code": "58579"
  },
  {
    "city": "anamoose",
    "zip_code": "58710"
  },
  {
    "city": "glenburn",
    "zip_code": "58740"
  },
  {
    "city": "sherwood",
    "zip_code": "58782"
  },
  {
    "city": "westhope",
    "zip_code": "58793"
  },
  {
    "city": "tioga",
    "zip_code": "58852"
  },
  {
    "city": "trenton",
    "zip_code": "58853"
  },
  {
    "city": "edgar",
    "zip_code": "59026"
  },
  {
    "city": "harlowton",
    "zip_code": "59036"
  },
  {
    "city": "roberts",
    "zip_code": "59070"
  },
  {
    "city": "shawmut",
    "zip_code": "59078"
  },
  {
    "city": "springdale",
    "zip_code": "59082"
  },
  {
    "city": "dagmar",
    "zip_code": "59219"
  },
  {
    "city": "neihart",
    "zip_code": "59465"
  },
  {
    "city": "sun river",
    "zip_code": "59483"
  },
  {
    "city": "avon",
    "zip_code": "59713"
  },
  {
    "city": "arlee",
    "zip_code": "59821"
  },
  {
    "city": "condon",
    "zip_code": "59826"
  },
  {
    "city": "trout creek",
    "zip_code": "59874"
  },
  {
    "city": "polebridge",
    "zip_code": "59928"
  },
  {
    "city": "winnetka",
    "zip_code": "60093"
  },
  {
    "city": "dundee",
    "zip_code": "60118"
  },
  {
    "city": "river grove",
    "zip_code": "60171"
  },
  {
    "city": "villa park",
    "zip_code": "60181"
  },
  {
    "city": "evanston",
    "zip_code": "60202"
  },
  {
    "city": "blue island",
    "zip_code": "60406"
  },
  {
    "city": "kinsman",
    "zip_code": "60437"
  },
  {
    "city": "hometown",
    "zip_code": "60456"
  },
  {
    "city": "downers grove",
    "zip_code": "60516"
  },
  {
    "city": "earlville",
    "zip_code": "60518"
  },
  {
    "city": "chicago",
    "zip_code": "60611"
  },
  {
    "city": "chicago",
    "zip_code": "60625"
  },
  {
    "city": "chicago",
    "zip_code": "60626"
  },
  {
    "city": "chicago",
    "zip_code": "60637"
  },
  {
    "city": "milford",
    "zip_code": "60953"
  },
  {
    "city": "thawville",
    "zip_code": "60968"
  },
  {
    "city": "garden prairie",
    "zip_code": "61038"
  },
  {
    "city": "seward",
    "zip_code": "61077"
  },
  {
    "city": "atkinson",
    "zip_code": "61235"
  },
  {
    "city": "barstow",
    "zip_code": "61236"
  },
  {
    "city": "carbon cliff",
    "zip_code": "61239"
  },
  {
    "city": "fenton",
    "zip_code": "61251"
  },
  {
    "city": "osco",
    "zip_code": "61274"
  },
  {
    "city": "cedar point",
    "zip_code": "61316"
  },
  {
    "city": "tonica",
    "zip_code": "61370"
  },
  {
    "city": "cameron",
    "zip_code": "61423"
  },
  {
    "city": "prairie city",
    "zip_code": "61470"
  },
  {
    "city": "elmwood",
    "zip_code": "61529"
  },
  {
    "city": "metamora",
    "zip_code": "61548"
  },
  {
    "city": "lexington",
    "zip_code": "61753"
  },
  {
    "city": "strawn",
    "zip_code": "61775"
  },
  {
    "city": "champaign",
    "zip_code": "61822"
  },
  {
    "city": "monticello",
    "zip_code": "61856"
  },
  {
    "city": "savoy",
    "zip_code": "61874"
  },
  {
    "city": "sidney",
    "zip_code": "61877"
  },
  {
    "city": "roxana",
    "zip_code": "62084"
  },
  {
    "city": "effingham",
    "zip_code": "62401"
  },
  {
    "city": "chestnut",
    "zip_code": "62518"
  },
  {
    "city": "waggoner",
    "zip_code": "62572"
  },
  {
    "city": "thayer",
    "zip_code": "62689"
  },
  {
    "city": "ewing",
    "zip_code": "62836"
  },
  {
    "city": "rinard",
    "zip_code": "62878"
  },
  {
    "city": "springerton",
    "zip_code": "62887"
  },
  {
    "city": "valier",
    "zip_code": "62891"
  },
  {
    "city": "vernon",
    "zip_code": "62892"
  },
  {
    "city": "grantsburg",
    "zip_code": "62943"
  },
  {
    "city": "pulaski",
    "zip_code": "62976"
  },
  {
    "city": "de soto",
    "zip_code": "63020"
  },
  {
    "city": "hazelwood",
    "zip_code": "63042"
  },
  {
    "city": "luebbering",
    "zip_code": "63061"
  },
  {
    "city": "saint louis",
    "zip_code": "63111"
  },
  {
    "city": "saint louis",
    "zip_code": "63126"
  },
  {
    "city": "troy",
    "zip_code": "63379"
  },
  {
    "city": "whiteside",
    "zip_code": "63387"
  },
  {
    "city": "center",
    "zip_code": "63436"
  },
  {
    "city": "milan",
    "zip_code": "63556"
  },
  {
    "city": "annapolis",
    "zip_code": "63620"
  },
  {
    "city": "des arc",
    "zip_code": "63636"
  },
  {
    "city": "advance",
    "zip_code": "63730"
  },
  {
    "city": "commerce",
    "zip_code": "63742"
  },
  {
    "city": "mcgee",
    "zip_code": "63763"
  },
  {
    "city": "fairdealing",
    "zip_code": "63939"
  },
  {
    "city": "neelyville",
    "zip_code": "63954"
  },
  {
    "city": "rombauer",
    "zip_code": "63962"
  },
  {
    "city": "silva",
    "zip_code": "63964"
  },
  {
    "city": "craig",
    "zip_code": "64437"
  },
  {
    "city": "new hampton",
    "zip_code": "64471"
  },
  {
    "city": "osborn",
    "zip_code": "64474"
  },
  {
    "city": "rosendale",
    "zip_code": "64483"
  },
  {
    "city": "saint joseph",
    "zip_code": "64504"
  },
  {
    "city": "saint joseph",
    "zip_code": "64507"
  },
  {
    "city": "dawn",
    "zip_code": "64638"
  },
  {
    "city": "mendon",
    "zip_code": "64660"
  },
  {
    "city": "sumner",
    "zip_code": "64681"
  },
  {
    "city": "creighton",
    "zip_code": "64739"
  },
  {
    "city": "lowry city",
    "zip_code": "64763"
  },
  {
    "city": "mindenmines",
    "zip_code": "64769"
  },
  {
    "city": "linn creek",
    "zip_code": "65052"
  },
  {
    "city": "olean",
    "zip_code": "65064"
  },
  {
    "city": "huntsville",
    "zip_code": "65259"
  },
  {
    "city": "climax springs",
    "zip_code": "65324"
  },
  {
    "city": "mora",
    "zip_code": "65345"
  },
  {
    "city": "crocker",
    "zip_code": "65452"
  },
  {
    "city": "hartshorn",
    "zip_code": "65479"
  },
  {
    "city": "leasburg",
    "zip_code": "65535"
  },
  {
    "city": "butterfield",
    "zip_code": "65623"
  },
  {
    "city": "chestnutridge",
    "zip_code": "65630"
  },
  {
    "city": "hollister",
    "zip_code": "65672"
  },
  {
    "city": "shell knob",
    "zip_code": "65747"
  },
  {
    "city": "sparta",
    "zip_code": "65753"
  },
  {
    "city": "springfield",
    "zip_code": "65806"
  },
  {
    "city": "lawrence",
    "zip_code": "66046"
  },
  {
    "city": "kansas city",
    "zip_code": "66115"
  },
  {
    "city": "lenexa",
    "zip_code": "66215"
  },
  {
    "city": "overland park",
    "zip_code": "66223"
  },
  {
    "city": "bern",
    "zip_code": "66408"
  },
  {
    "city": "sabetha",
    "zip_code": "66534"
  },
  {
    "city": "topeka",
    "zip_code": "66604"
  },
  {
    "city": "burns",
    "zip_code": "66840"
  },
  {
    "city": "council grove",
    "zip_code": "66846"
  },
  {
    "city": "lost springs",
    "zip_code": "66859"
  },
  {
    "city": "neal",
    "zip_code": "66863"
  },
  {
    "city": "wilsey",
    "zip_code": "66873"
  },
  {
    "city": "jewell",
    "zip_code": "66949"
  },
  {
    "city": "leon",
    "zip_code": "67074"
  },
  {
    "city": "wichita",
    "zip_code": "67216"
  },
  {
    "city": "chetopa",
    "zip_code": "67336"
  },
  {
    "city": "longton",
    "zip_code": "67352"
  },
  {
    "city": "bennington",
    "zip_code": "67422"
  },
  {
    "city": "clay center",
    "zip_code": "67432"
  },
  {
    "city": "ellsworth",
    "zip_code": "67439"
  },
  {
    "city": "galva",
    "zip_code": "67443"
  },
  {
    "city": "lorraine",
    "zip_code": "67459"
  },
  {
    "city": "south hutchinson",
    "zip_code": "67505"
  },
  {
    "city": "claflin",
    "zip_code": "67525"
  },
  {
    "city": "raymond",
    "zip_code": "67573"
  },
  {
    "city": "kanorado",
    "zip_code": "67741"
  },
  {
    "city": "copeland",
    "zip_code": "67837"
  },
  {
    "city": "nickerson",
    "zip_code": "68044"
  },
  {
    "city": "offutt afb",
    "zip_code": "68113"
  },
  {
    "city": "barneston",
    "zip_code": "68309"
  },
  {
    "city": "lewiston",
    "zip_code": "68380"
  },
  {
    "city": "pawnee city",
    "zip_code": "68420"
  },
  {
    "city": "peru",
    "zip_code": "68421"
  },
  {
    "city": "verdon",
    "zip_code": "68457"
  },
  {
    "city": "lincoln",
    "zip_code": "68504"
  },
  {
    "city": "lincoln",
    "zip_code": "68514"
  },
  {
    "city": "david city",
    "zip_code": "68632"
  },
  {
    "city": "morse bluff",
    "zip_code": "68648"
  },
  {
    "city": "norfolk",
    "zip_code": "68701"
  },
  {
    "city": "beemer",
    "zip_code": "68716"
  },
  {
    "city": "brunswick",
    "zip_code": "68720"
  },
  {
    "city": "butte",
    "zip_code": "68722"
  },
  {
    "city": "ashton",
    "zip_code": "68817"
  },
  {
    "city": "cairo",
    "zip_code": "68824"
  },
  {
    "city": "hordville",
    "zip_code": "68846"
  },
  {
    "city": "harvard",
    "zip_code": "68944"
  },
  {
    "city": "sparks",
    "zip_code": "69220"
  },
  {
    "city": "ashby",
    "zip_code": "69333"
  },
  {
    "city": "harrison",
    "zip_code": "69346"
  },
  {
    "city": "hay springs",
    "zip_code": "69347"
  },
  {
    "city": "belle chasse",
    "zip_code": "70037"
  },
  {
    "city": "houma",
    "zip_code": "70364"
  },
  {
    "city": "labadieville",
    "zip_code": "70372"
  },
  {
    "city": "angie",
    "zip_code": "70426"
  },
  {
    "city": "bush",
    "zip_code": "70431"
  },
  {
    "city": "independence",
    "zip_code": "70443"
  },
  {
    "city": "evangeline",
    "zip_code": "70537"
  },
  {
    "city": "bell city",
    "zip_code": "70630"
  },
  {
    "city": "sulphur",
    "zip_code": "70665"
  },
  {
    "city": "westlake",
    "zip_code": "70669"
  },
  {
    "city": "ethel",
    "zip_code": "70730"
  },
  {
    "city": "clayton",
    "zip_code": "71326"
  },
  {
    "city": "mora",
    "zip_code": "71455"
  },
  {
    "city": "mineral springs",
    "zip_code": "71851"
  },
  {
    "city": "donaldson",
    "zip_code": "71941"
  },
  {
    "city": "bee branch",
    "zip_code": "72013"
  },
  {
    "city": "center ridge",
    "zip_code": "72027"
  },
  {
    "city": "damascus",
    "zip_code": "72039"
  },
  {
    "city": "greenbrier",
    "zip_code": "72058"
  },
  {
    "city": "griffithville",
    "zip_code": "72060"
  },
  {
    "city": "mcrae",
    "zip_code": "72102"
  },
  {
    "city": "perry",
    "zip_code": "72125"
  },
  {
    "city": "solgohachia",
    "zip_code": "72156"
  },
  {
    "city": "little rock",
    "zip_code": "72205"
  },
  {
    "city": "hickory ridge",
    "zip_code": "72347"
  },
  {
    "city": "madison",
    "zip_code": "72359"
  },
  {
    "city": "proctor",
    "zip_code": "72376"
  },
  {
    "city": "turner",
    "zip_code": "72383"
  },
  {
    "city": "cotter",
    "zip_code": "72626"
  },
  {
    "city": "oak grove",
    "zip_code": "72660"
  },
  {
    "city": "elkins",
    "zip_code": "72727"
  },
  {
    "city": "huntsville",
    "zip_code": "72740"
  },
  {
    "city": "hector",
    "zip_code": "72843"
  },
  {
    "city": "alma",
    "zip_code": "72921"
  },
  {
    "city": "edmond",
    "zip_code": "73013"
  },
  {
    "city": "colony",
    "zip_code": "73021"
  },
  {
    "city": "luther",
    "zip_code": "73054"
  },
  {
    "city": "marlow",
    "zip_code": "73055"
  },
  {
    "city": "carmen",
    "zip_code": "73726"
  },
  {
    "city": "nash",
    "zip_code": "73761"
  },
  {
    "city": "broken arrow",
    "zip_code": "74014"
  },
  {
    "city": "dewey",
    "zip_code": "74029"
  },
  {
    "city": "pawhuska",
    "zip_code": "74056"
  },
  {
    "city": "sapulpa",
    "zip_code": "74066"
  },
  {
    "city": "tulsa",
    "zip_code": "74115"
  },
  {
    "city": "tulsa",
    "zip_code": "74130"
  },
  {
    "city": "ketchum",
    "zip_code": "74349"
  },
  {
    "city": "boynton",
    "zip_code": "74422"
  },
  {
    "city": "rattan",
    "zip_code": "74562"
  },
  {
    "city": "wilburton",
    "zip_code": "74578"
  },
  {
    "city": "sawyer",
    "zip_code": "74756"
  },
  {
    "city": "shawnee",
    "zip_code": "74804"
  },
  {
    "city": "moffett",
    "zip_code": "74946"
  },
  {
    "city": "roland",
    "zip_code": "74954"
  },
  {
    "city": "sallisaw",
    "zip_code": "74955"
  },
  {
    "city": "carrollton",
    "zip_code": "75007"
  },
  {
    "city": "denison",
    "zip_code": "75021"
  },
  {
    "city": "wylie",
    "zip_code": "75098"
  },
  {
    "city": "dallas",
    "zip_code": "75228"
  },
  {
    "city": "dallas",
    "zip_code": "75249"
  },
  {
    "city": "whitewright",
    "zip_code": "75491"
  },
  {
    "city": "winfield",
    "zip_code": "75493"
  },
  {
    "city": "overton",
    "zip_code": "75684"
  },
  {
    "city": "jacksonville",
    "zip_code": "75766"
  },
  {
    "city": "lufkin",
    "zip_code": "75904"
  },
  {
    "city": "brookeland",
    "zip_code": "75931"
  },
  {
    "city": "arlington",
    "zip_code": "76018"
  },
  {
    "city": "hurst",
    "zip_code": "76053"
  },
  {
    "city": "myra",
    "zip_code": "76253"
  },
  {
    "city": "sheppard afb",
    "zip_code": "76311"
  },
  {
    "city": "energy",
    "zip_code": "76452"
  },
  {
    "city": "covington",
    "zip_code": "76636"
  },
  {
    "city": "elm mott",
    "zip_code": "76640"
  },
  {
    "city": "goodfellow afb",
    "zip_code": "76908"
  },
  {
    "city": "houston",
    "zip_code": "77057"
  },
  {
    "city": "houston",
    "zip_code": "77083"
  },
  {
    "city": "houston",
    "zip_code": "77094"
  },
  {
    "city": "humble",
    "zip_code": "77396"
  },
  {
    "city": "wallis",
    "zip_code": "77485"
  },
  {
    "city": "wallisville",
    "zip_code": "77597"
  },
  {
    "city": "port bolivar",
    "zip_code": "77650"
  },
  {
    "city": "tivoli",
    "zip_code": "77990"
  },
  {
    "city": "boerne",
    "zip_code": "78006"
  },
  {
    "city": "pleasanton",
    "zip_code": "78064"
  },
  {
    "city": "adkins",
    "zip_code": "78101"
  },
  {
    "city": "floresville",
    "zip_code": "78114"
  },
  {
    "city": "mcqueeney",
    "zip_code": "78123"
  },
  {
    "city": "yorktown",
    "zip_code": "78164"
  },
  {
    "city": "corpus christi",
    "zip_code": "78401"
  },
  {
    "city": "corpus christi",
    "zip_code": "78404"
  },
  {
    "city": "corpus christi",
    "zip_code": "78413"
  },
  {
    "city": "mcallen",
    "zip_code": "78501"
  },
  {
    "city": "san juan",
    "zip_code": "78589"
  },
  {
    "city": "marble falls",
    "zip_code": "78654"
  },
  {
    "city": "austin",
    "zip_code": "78712"
  },
  {
    "city": "austin",
    "zip_code": "78733"
  },
  {
    "city": "austin",
    "zip_code": "78737"
  },
  {
    "city": "austin",
    "zip_code": "78746"
  },
  {
    "city": "austin",
    "zip_code": "78749"
  },
  {
    "city": "uvalde",
    "zip_code": "78801"
  },
  {
    "city": "crystal city",
    "zip_code": "78839"
  },
  {
    "city": "bushland",
    "zip_code": "79012"
  },
  {
    "city": "darrouzett",
    "zip_code": "79024"
  },
  {
    "city": "morse",
    "zip_code": "79062"
  },
  {
    "city": "amarillo",
    "zip_code": "79121"
  },
  {
    "city": "childress",
    "zip_code": "79201"
  },
  {
    "city": "maple",
    "zip_code": "79344"
  },
  {
    "city": "sylvester",
    "zip_code": "79560"
  },
  {
    "city": "pecos",
    "zip_code": "79772"
  },
  {
    "city": "alpine",
    "zip_code": "79830"
  },
  {
    "city": "marfa",
    "zip_code": "79843"
  },
  {
    "city": "el paso",
    "zip_code": "79911"
  },
  {
    "city": "fort bliss",
    "zip_code": "79916"
  },
  {
    "city": "el paso",
    "zip_code": "79925"
  },
  {
    "city": "el paso",
    "zip_code": "79934"
  },
  {
    "city": "arvada",
    "zip_code": "80003"
  },
  {
    "city": "aurora",
    "zip_code": "80014"
  },
  {
    "city": "aurora",
    "zip_code": "80016"
  },
  {
    "city": "broomfield",
    "zip_code": "80020"
  },
  {
    "city": "castle rock",
    "zip_code": "80109"
  },
  {
    "city": "denver",
    "zip_code": "80212"
  },
  {
    "city": "denver",
    "zip_code": "80219"
  },
  {
    "city": "thornton",
    "zip_code": "80241"
  },
  {
    "city": "boulder",
    "zip_code": "80301"
  },
  {
    "city": "central city",
    "zip_code": "80427"
  },
  {
    "city": "morrison",
    "zip_code": "80465"
  },
  {
    "city": "longmont",
    "zip_code": "80503"
  },
  {
    "city": "niwot",
    "zip_code": "80544"
  },
  {
    "city": "arriba",
    "zip_code": "80804"
  },
  {
    "city": "woodland park",
    "zip_code": "80863"
  },
  {
    "city": "colorado springs",
    "zip_code": "80916"
  },
  {
    "city": "colorado springs",
    "zip_code": "80925"
  },
  {
    "city": "colorado springs",
    "zip_code": "80929"
  },
  {
    "city": "pueblo",
    "zip_code": "81004"
  },
  {
    "city": "arlington",
    "zip_code": "81021"
  },
  {
    "city": "campo",
    "zip_code": "81029"
  },
  {
    "city": "holly",
    "zip_code": "81047"
  },
  {
    "city": "walsenburg",
    "zip_code": "81089"
  },
  {
    "city": "hooper",
    "zip_code": "81136"
  },
  {
    "city": "cimarron",
    "zip_code": "81220"
  },
  {
    "city": "hillside",
    "zip_code": "81232"
  },
  {
    "city": "durango",
    "zip_code": "81303"
  },
  {
    "city": "hesperus",
    "zip_code": "81326"
  },
  {
    "city": "pleasant view",
    "zip_code": "81331"
  },
  {
    "city": "eagle",
    "zip_code": "81631"
  },
  {
    "city": "new castle",
    "zip_code": "81647"
  },
  {
    "city": "albin",
    "zip_code": "82050"
  },
  {
    "city": "guernsey",
    "zip_code": "82214"
  },
  {
    "city": "torrington",
    "zip_code": "82240"
  },
  {
    "city": "yoder",
    "zip_code": "82244"
  },
  {
    "city": "basin",
    "zip_code": "82410"
  },
  {
    "city": "meeteetse",
    "zip_code": "82433"
  },
  {
    "city": "thermopolis",
    "zip_code": "82443"
  },
  {
    "city": "beulah",
    "zip_code": "82712"
  },
  {
    "city": "wolf",
    "zip_code": "82844"
  },
  {
    "city": "freedom",
    "zip_code": "83120"
  },
  {
    "city": "hill city",
    "zip_code": "83337"
  },
  {
    "city": "ucon",
    "zip_code": "83454"
  },
  {
    "city": "gibbonsville",
    "zip_code": "83463"
  },
  {
    "city": "cottonwood",
    "zip_code": "83522"
  },
  {
    "city": "greencreek",
    "zip_code": "83533"
  },
  {
    "city": "fruitland",
    "zip_code": "83619"
  },
  {
    "city": "mesa",
    "zip_code": "83643"
  },
  {
    "city": "mountain home afb",
    "zip_code": "83648"
  },
  {
    "city": "star",
    "zip_code": "83669"
  },
  {
    "city": "deary",
    "zip_code": "83823"
  },
  {
    "city": "cedar valley",
    "zip_code": "84013"
  },
  {
    "city": "paradise",
    "zip_code": "84328"
  },
  {
    "city": "provo",
    "zip_code": "84606"
  },
  {
    "city": "oak city",
    "zip_code": "84649"
  },
  {
    "city": "henrieville",
    "zip_code": "84736"
  },
  {
    "city": "rockville",
    "zip_code": "84763"
  },
  {
    "city": "toquerville",
    "zip_code": "84774"
  },
  {
    "city": "phoenix",
    "zip_code": "85016"
  },
  {
    "city": "phoenix",
    "zip_code": "85032"
  },
  {
    "city": "phoenix",
    "zip_code": "85048"
  },
  {
    "city": "superior",
    "zip_code": "85173"
  },
  {
    "city": "mesa",
    "zip_code": "85207"
  },
  {
    "city": "mesa",
    "zip_code": "85213"
  },
  {
    "city": "chandler",
    "zip_code": "85249"
  },
  {
    "city": "scottsdale",
    "zip_code": "85258"
  },
  {
    "city": "tempe",
    "zip_code": "85281"
  },
  {
    "city": "glendale",
    "zip_code": "85301"
  },
  {
    "city": "san luis",
    "zip_code": "85336"
  },
  {
    "city": "san luis",
    "zip_code": "85349"
  },
  {
    "city": "peoria",
    "zip_code": "85382"
  },
  {
    "city": "surprise",
    "zip_code": "85388"
  },
  {
    "city": "sells",
    "zip_code": "85634"
  },
  {
    "city": "tucson",
    "zip_code": "85704"
  },
  {
    "city": "tucson",
    "zip_code": "85726"
  },
  {
    "city": "cameron",
    "zip_code": "86020"
  },
  {
    "city": "joseph city",
    "zip_code": "86032"
  },
  {
    "city": "cornville",
    "zip_code": "86325"
  },
  {
    "city": "seligman",
    "zip_code": "86337"
  },
  {
    "city": "bullhead city",
    "zip_code": "86429"
  },
  {
    "city": "nazlini",
    "zip_code": "86540"
  },
  {
    "city": "casa blanca",
    "zip_code": "87007"
  },
  {
    "city": "peralta",
    "zip_code": "87042"
  },
  {
    "city": "albuquerque",
    "zip_code": "87102"
  },
  {
    "city": "mexican springs",
    "zip_code": "87320"
  },
  {
    "city": "vanderwagen",
    "zip_code": "87326"
  },
  {
    "city": "yatahey",
    "zip_code": "87375"
  },
  {
    "city": "cerro",
    "zip_code": "87519"
  },
  {
    "city": "el rito",
    "zip_code": "87530"
  },
  {
    "city": "columbus",
    "zip_code": "88029"
  },
  {
    "city": "dexter",
    "zip_code": "88230"
  },
  {
    "city": "garita",
    "zip_code": "88421"
  },
  {
    "city": "santa rosa",
    "zip_code": "88435"
  },
  {
    "city": "round mountain",
    "zip_code": "89045"
  },
  {
    "city": "las vegas",
    "zip_code": "89108"
  },
  {
    "city": "las vegas",
    "zip_code": "89120"
  },
  {
    "city": "genoa",
    "zip_code": "89411"
  },
  {
    "city": "luning",
    "zip_code": "89420"
  },
  {
    "city": "sparks",
    "zip_code": "89434"
  },
  {
    "city": "buckatunna",
    "zip_code": "39322"
  },
  {
    "city": "state line",
    "zip_code": "39362"
  },
  {
    "city": "soso",
    "zip_code": "39480"
  },
  {
    "city": "gulfport",
    "zip_code": "39501"
  },
  {
    "city": "long beach",
    "zip_code": "39560"
  },
  {
    "city": "saucier",
    "zip_code": "39574"
  },
  {
    "city": "pascagoula",
    "zip_code": "39581"
  },
  {
    "city": "oak vale",
    "zip_code": "39656"
  },
  {
    "city": "bainbridge",
    "zip_code": "39819"
  },
  {
    "city": "ekron",
    "zip_code": "40117"
  },
  {
    "city": "louisville",
    "zip_code": "40206"
  },
  {
    "city": "louisville",
    "zip_code": "40245"
  },
  {
    "city": "clay city",
    "zip_code": "40312"
  },
  {
    "city": "wilmore",
    "zip_code": "40390"
  },
  {
    "city": "livingston",
    "zip_code": "40445"
  },
  {
    "city": "worthville",
    "zip_code": "41098"
  },
  {
    "city": "boons camp",
    "zip_code": "41204"
  },
  {
    "city": "louisa",
    "zip_code": "41230"
  },
  {
    "city": "mouthcard",
    "zip_code": "41548"
  },
  {
    "city": "tram",
    "zip_code": "41663"
  },
  {
    "city": "fancy farm",
    "zip_code": "42039"
  },
  {
    "city": "new concord",
    "zip_code": "42076"
  },
  {
    "city": "hestand",
    "zip_code": "42151"
  },
  {
    "city": "herndon",
    "zip_code": "42236"
  },
  {
    "city": "owensboro",
    "zip_code": "42303"
  },
  {
    "city": "beech grove",
    "zip_code": "42322"
  },
  {
    "city": "drakesboro",
    "zip_code": "42337"
  },
  {
    "city": "dixon",
    "zip_code": "42409"
  },
  {
    "city": "glens fork",
    "zip_code": "42741"
  },
  {
    "city": "hardyville",
    "zip_code": "42746"
  },
  {
    "city": "bladensburg",
    "zip_code": "43005"
  },
  {
    "city": "hebron",
    "zip_code": "43025"
  },
  {
    "city": "westerville",
    "zip_code": "43081"
  },
  {
    "city": "laurelville",
    "zip_code": "43135"
  },
  {
    "city": "london",
    "zip_code": "43140"
  },
  {
    "city": "columbus",
    "zip_code": "43232"
  },
  {
    "city": "harpster",
    "zip_code": "43323"
  },
  {
    "city": "risingsun",
    "zip_code": "43457"
  },
  {
    "city": "glenford",
    "zip_code": "43739"
  },
  {
    "city": "lore city",
    "zip_code": "43755"
  },
  {
    "city": "jacobsburg",
    "zip_code": "43933"
  },
  {
    "city": "ashtabula",
    "zip_code": "44004"
  },
  {
    "city": "westlake",
    "zip_code": "44145"
  },
  {
    "city": "walnut creek",
    "zip_code": "44687"
  },
  {
    "city": "bloomville",
    "zip_code": "44818"
  },
  {
    "city": "new riegel",
    "zip_code": "44853"
  },
  {
    "city": "hamilton",
    "zip_code": "45013"
  },
  {
    "city": "amelia",
    "zip_code": "45102"
  },
  {
    "city": "milford",
    "zip_code": "45150"
  },
  {
    "city": "sardinia",
    "zip_code": "45171"
  },
  {
    "city": "cincinnati",
    "zip_code": "45209"
  },
  {
    "city": "cincinnati",
    "zip_code": "45239"
  },
  {
    "city": "cincinnati",
    "zip_code": "45249"
  },
  {
    "city": "cincinnati",
    "zip_code": "45252"
  },
  {
    "city": "anna",
    "zip_code": "45302"
  },
  {
    "city": "bellbrook",
    "zip_code": "45305"
  },
  {
    "city": "bourneville",
    "zip_code": "45617"
  },
  {
    "city": "friendship",
    "zip_code": "45630"
  },
  {
    "city": "wilkesville",
    "zip_code": "45695"
  },
  {
    "city": "zaleski",
    "zip_code": "45698"
  },
  {
    "city": "albany",
    "zip_code": "45710"
  },
  {
    "city": "jacksonville",
    "zip_code": "45740"
  },
  {
    "city": "lima",
    "zip_code": "45806"
  },
  {
    "city": "cairo",
    "zip_code": "45820"
  },
  {
    "city": "new bremen",
    "zip_code": "45869"
  },
  {
    "city": "van wert",
    "zip_code": "45891"
  },
  {
    "city": "fishers",
    "zip_code": "46037"
  },
  {
    "city": "bainbridge",
    "zip_code": "46105"
  },
  {
    "city": "greenwood",
    "zip_code": "46143"
  },
  {
    "city": "jamestown",
    "zip_code": "46147"
  },
  {
    "city": "indianapolis",
    "zip_code": "46221"
  },
  {
    "city": "indianapolis",
    "zip_code": "46224"
  },
  {
    "city": "indianapolis",
    "zip_code": "46250"
  },
  {
    "city": "kouts",
    "zip_code": "46347"
  },
  {
    "city": "lowell",
    "zip_code": "46356"
  },
  {
    "city": "wheeler",
    "zip_code": "46393"
  },
  {
    "city": "converse",
    "zip_code": "46919"
  },
  {
    "city": "fredericksburg",
    "zip_code": "47120"
  },
  {
    "city": "grantsburg",
    "zip_code": "47123"
  },
  {
    "city": "flat rock",
    "zip_code": "47234"
  },
  {
    "city": "cambridge city",
    "zip_code": "47327"
  },
  {
    "city": "greens fork",
    "zip_code": "47345"
  },
  {
    "city": "straughn",
    "zip_code": "47387"
  },
  {
    "city": "bloomington",
    "zip_code": "47406"
  },
  {
    "city": "switz city",
    "zip_code": "47465"
  },
  {
    "city": "lamar",
    "zip_code": "47550"
  },
  {
    "city": "saint anthony",
    "zip_code": "47575"
  },
  {
    "city": "evansville",
    "zip_code": "47708"
  },
  {
    "city": "capac",
    "zip_code": "48014"
  },
  {
    "city": "jeddo",
    "zip_code": "48032"
  },
  {
    "city": "romeo",
    "zip_code": "48065"
  },
  {
    "city": "gregory",
    "zip_code": "48137"
  },
  {
    "city": "lakeland",
    "zip_code": "48143"
  },
  {
    "city": "whittaker",
    "zip_code": "48190"
  },
  {
    "city": "detroit",
    "zip_code": "48204"
  },
  {
    "city": "auburn hills",
    "zip_code": "48326"
  },
  {
    "city": "waterford",
    "zip_code": "48327"
  },
  {
    "city": "lake orion",
    "zip_code": "48359"
  },
  {
    "city": "novi",
    "zip_code": "48374"
  },
  {
    "city": "commerce township",
    "zip_code": "48382"
  },
  {
    "city": "atlas",
    "zip_code": "48411"
  },
  {
    "city": "carsonville",
    "zip_code": "48419"
  },
  {
    "city": "saginaw",
    "zip_code": "48604"
  },
  {
    "city": "saginaw",
    "zip_code": "48607"
  },
  {
    "city": "mayville",
    "zip_code": "48744"
  },
  {
    "city": "greenville",
    "zip_code": "48838"
  },
  {
    "city": "holt",
    "zip_code": "48842"
  },
  {
    "city": "owosso",
    "zip_code": "48867"
  },
  {
    "city": "potterville",
    "zip_code": "48876"
  },
  {
    "city": "six lakes",
    "zip_code": "48886"
  },
  {
    "city": "vestaburg",
    "zip_code": "48891"
  },
  {
    "city": "lansing",
    "zip_code": "48906"
  },
  {
    "city": "allegan",
    "zip_code": "49010"
  },
  {
    "city": "delton",
    "zip_code": "49046"
  },
  {
    "city": "leonidas",
    "zip_code": "49066"
  },
  {
    "city": "hillsdale",
    "zip_code": "49242"
  },
  {
    "city": "ottawa lake",
    "zip_code": "49267"
  },
  {
    "city": "conklin",
    "zip_code": "49403"
  },
  {
    "city": "fremont",
    "zip_code": "49412"
  },
  {
    "city": "grand rapids",
    "zip_code": "49546"
  },
  {
    "city": "boon",
    "zip_code": "49618"
  },
  {
    "city": "glen arbor",
    "zip_code": "49636"
  },
  {
    "city": "burt lake",
    "zip_code": "49717"
  },
  {
    "city": "conway",
    "zip_code": "49722"
  },
  {
    "city": "kincheloe",
    "zip_code": "49788"
  },
  {
    "city": "nadeau",
    "zip_code": "49863"
  },
  {
    "city": "copper city",
    "zip_code": "49917"
  },
  {
    "city": "copper harbor",
    "zip_code": "49918"
  },
  {
    "city": "watersmeet",
    "zip_code": "49969"
  },
  {
    "city": "cumming",
    "zip_code": "50061"
  },
  {
    "city": "iowa falls",
    "zip_code": "50126"
  },
  {
    "city": "minburn",
    "zip_code": "50167"
  },
  {
    "city": "des moines",
    "zip_code": "50321"
  },
  {
    "city": "mason city",
    "zip_code": "50401"
  },
  {
    "city": "alexander",
    "zip_code": "50420"
  },
  {
    "city": "sheffield",
    "zip_code": "50475"
  },
  {
    "city": "algona",
    "zip_code": "50511"
  },
  {
    "city": "early",
    "zip_code": "50535"
  },
  {
    "city": "lehigh",
    "zip_code": "50557"
  },
  {
    "city": "sac city",
    "zip_code": "50583"
  },
  {
    "city": "thor",
    "zip_code": "50591"
  },
  {
    "city": "ackley",
    "zip_code": "50601"
  },
  {
    "city": "dike",
    "zip_code": "50624"
  },
  {
    "city": "elma",
    "zip_code": "50628"
  },
  {
    "city": "holland",
    "zip_code": "50642"
  },
  {
    "city": "tripoli",
    "zip_code": "50676"
  },
  {
    "city": "massena",
    "zip_code": "50853"
  },
  {
    "city": "breda",
    "zip_code": "51436"
  },
  {
    "city": "halbur",
    "zip_code": "51444"
  },
  {
    "city": "earling",
    "zip_code": "51530"
  },
  {
    "city": "portsmouth",
    "zip_code": "51565"
  },
  {
    "city": "red oak",
    "zip_code": "51566"
  },
  {
    "city": "new market",
    "zip_code": "51646"
  },
  {
    "city": "epworth",
    "zip_code": "52045"
  },
  {
    "city": "zwingle",
    "zip_code": "52079"
  },
  {
    "city": "dorchester",
    "zip_code": "52140"
  },
  {
    "city": "fort atkinson",
    "zip_code": "52144"
  },
  {
    "city": "chelsea",
    "zip_code": "52215"
  },
  {
    "city": "kalona",
    "zip_code": "52247"
  },
  {
    "city": "keystone",
    "zip_code": "52249"
  },
  {
    "city": "riverside",
    "zip_code": "52327"
  },
  {
    "city": "vining",
    "zip_code": "52348"
  },
  {
    "city": "douds",
    "zip_code": "52551"
  },
  {
    "city": "libertyville",
    "zip_code": "52567"
  },
  {
    "city": "unionville",
    "zip_code": "52594"
  },
  {
    "city": "burlington",
    "zip_code": "52601"
  },
  {
    "city": "morning sun",
    "zip_code": "52640"
  },
  {
    "city": "yarmouth",
    "zip_code": "52660"
  },
  {
    "city": "jackson",
    "zip_code": "53037"
  },
  {
    "city": "lomira",
    "zip_code": "53048"
  },
  {
    "city": "plymouth",
    "zip_code": "53073"
  },
  {
    "city": "bristol",
    "zip_code": "53104"
  },
  {
    "city": "kenosha",
    "zip_code": "53144"
  },
  {
    "city": "twin lakes",
    "zip_code": "53181"
  },
  {
    "city": "browntown",
    "zip_code": "53522"
  },
  {
    "city": "cobb",
    "zip_code": "53526"
  },
  {
    "city": "darlington",
    "zip_code": "53530"
  },
  {
    "city": "windsor",
    "zip_code": "53598"
  },
  {
    "city": "baldwin",
    "zip_code": "54002"
  },
  {
    "city": "saint croix falls",
    "zip_code": "54024"
  },
  {
    "city": "wrightstown",
    "zip_code": "54180"
  },
  {
    "city": "denmark",
    "zip_code": "54208"
  },
  {
    "city": "chili",
    "zip_code": "54420"
  },
  {
    "city": "loyal",
    "zip_code": "54446"
  },
  {
    "city": "long lake",
    "zip_code": "54542"
  },
  {
    "city": "tony",
    "zip_code": "54563"
  },
  {
    "city": "genoa",
    "zip_code": "54632"
  },
  {
    "city": "elmwood",
    "zip_code": "54740"
  },
  {
    "city": "new auburn",
    "zip_code": "54757"
  },
  {
    "city": "bayfield",
    "zip_code": "54814"
  },
  {
    "city": "hawthorne",
    "zip_code": "54842"
  },
  {
    "city": "herbster",
    "zip_code": "54844"
  },
  {
    "city": "stone lake",
    "zip_code": "54876"
  },
  {
    "city": "dennison",
    "zip_code": "55018"
  },
  {
    "city": "saint paul",
    "zip_code": "55113"
  },
  {
    "city": "delano",
    "zip_code": "55328"
  },
  {
    "city": "hanover",
    "zip_code": "55341"
  },
  {
    "city": "hopkins",
    "zip_code": "55343"
  },
  {
    "city": "minneapolis",
    "zip_code": "55408"
  },
  {
    "city": "makinen",
    "zip_code": "55763"
  },
  {
    "city": "moose lake",
    "zip_code": "55767"
  },
  {
    "city": "willow river",
    "zip_code": "55795"
  },
  {
    "city": "chatfield",
    "zip_code": "55923"
  },
  {
    "city": "sargeant",
    "zip_code": "55973"
  },
  {
    "city": "blue earth",
    "zip_code": "56013"
  },
  {
    "city": "elysian",
    "zip_code": "56028"
  },
  {
    "city": "janesville",
    "zip_code": "56048"
  },
  {
    "city": "sanborn",
    "zip_code": "56083"
  },
  {
    "city": "windom",
    "zip_code": "56101"
  },
  {
    "city": "round lake",
    "zip_code": "56167"
  },
  {
    "city": "cosmos",
    "zip_code": "56228"
  },
  {
    "city": "graceville",
    "zip_code": "56240"
  },
  {
    "city": "bowlus",
    "zip_code": "56314"
  },
  {
    "city": "sartell",
    "zip_code": "56377"
  },
  {
    "city": "swanville",
    "zip_code": "56382"
  },
  {
    "city": "pillager",
    "zip_code": "56473"
  },
  {
    "city": "battle lake",
    "zip_code": "56515"
  },
  {
    "city": "elbow lake",
    "zip_code": "56531"
  },
  {
    "city": "naytahwaush",
    "zip_code": "56566"
  },
  {
    "city": "bigfork",
    "zip_code": "56628"
  },
  {
    "city": "blackduck",
    "zip_code": "56630"
  },
  {
    "city": "donaldson",
    "zip_code": "56720"
  },
  {
    "city": "halma",
    "zip_code": "56729"
  },
  {
    "city": "salol",
    "zip_code": "56756"
  },
  {
    "city": "wannaska",
    "zip_code": "56761"
  },
  {
    "city": "freeman",
    "zip_code": "57029"
  },
  {
    "city": "montrose",
    "zip_code": "57048"
  },
  {
    "city": "tea",
    "zip_code": "57064"
  },
  {
    "city": "castlewood",
    "zip_code": "57223"
  },
  {
    "city": "lake city",
    "zip_code": "57247"
  },
  {
    "city": "fulton",
    "zip_code": "57340"
  },
  {
    "city": "lake andes",
    "zip_code": "57356"
  },
  {
    "city": "wessington springs",
    "zip_code": "57382"
  },
  {
    "city": "akaska",
    "zip_code": "57420"
  },
  {
    "city": "amherst",
    "zip_code": "57421"
  },
  {
    "city": "mansfield",
    "zip_code": "57460"
  },
  {
    "city": "orient",
    "zip_code": "57467"
  },
  {
    "city": "ideal",
    "zip_code": "57541"
  },
  {
    "city": "okreek",
    "zip_code": "57563"
  },
  {
    "city": "reva",
    "zip_code": "57651"
  },
  {
    "city": "box elder",
    "zip_code": "57719"
  },
  {
    "city": "lead",
    "zip_code": "57754"
  },
  {
    "city": "pine ridge",
    "zip_code": "57770"
  },
  {
    "city": "quinn",
    "zip_code": "57775"
  },
  {
    "city": "los angeles",
    "zip_code": "90020"
  },
  {
    "city": "los angeles",
    "zip_code": "90026"
  },
  {
    "city": "los angeles",
    "zip_code": "90042"
  },
  {
    "city": "los angeles",
    "zip_code": "90067"
  },
  {
    "city": "whittier",
    "zip_code": "90602"
  },
  {
    "city": "santa fe springs",
    "zip_code": "90670"
  },
  {
    "city": "long beach",
    "zip_code": "90802"
  },
  {
    "city": "long beach",
    "zip_code": "90814"
  },
  {
    "city": "long beach",
    "zip_code": "90831"
  },
  {
    "city": "newhall",
    "zip_code": "91321"
  },
  {
    "city": "reseda",
    "zip_code": "91335"
  },
  {
    "city": "thousand oaks",
    "zip_code": "91362"
  },
  {
    "city": "escondido",
    "zip_code": "92029"
  },
  {
    "city": "indio",
    "zip_code": "92201"
  },
  {
    "city": "joshua tree",
    "zip_code": "92252"
  },
  {
    "city": "whitewater",
    "zip_code": "92282"
  },
  {
    "city": "adelanto",
    "zip_code": "92301"
  },
  {
    "city": "fontana",
    "zip_code": "92336"
  },
  {
    "city": "hesperia",
    "zip_code": "92344"
  },
  {
    "city": "phelan",
    "zip_code": "92371"
  },
  {
    "city": "idyllwild",
    "zip_code": "92549"
  },
  {
    "city": "moreno valley",
    "zip_code": "92553"
  },
  {
    "city": "moreno valley",
    "zip_code": "92555"
  },
  {
    "city": "midway city",
    "zip_code": "92655"
  },
  {
    "city": "mission viejo",
    "zip_code": "92692"
  },
  {
    "city": "brea",
    "zip_code": "92823"
  },
  {
    "city": "ventura",
    "zip_code": "93004"
  },
  {
    "city": "earlimart",
    "zip_code": "93219"
  },
  {
    "city": "bakersfield",
    "zip_code": "93306"
  },
  {
    "city": "lompoc",
    "zip_code": "93436"
  },
  {
    "city": "nipomo",
    "zip_code": "93444"
  },
  {
    "city": "san miguel",
    "zip_code": "93451"
  },
  {
    "city": "pearblossom",
    "zip_code": "93553"
  },
  {
    "city": "big creek",
    "zip_code": "93605"
  },
  {
    "city": "coarsegold",
    "zip_code": "93614"
  },
  {
    "city": "parlier",
    "zip_code": "93648"
  },
  {
    "city": "fresno",
    "zip_code": "93720"
  },
  {
    "city": "big sur",
    "zip_code": "93920"
  },
  {
    "city": "carmel by the sea",
    "zip_code": "93921"
  },
  {
    "city": "mountain view",
    "zip_code": "94040"
  },
  {
    "city": "brentwood",
    "zip_code": "94513"
  },
  {
    "city": "fremont",
    "zip_code": "94536"
  },
  {
    "city": "livermore",
    "zip_code": "94551"
  },
  {
    "city": "albany",
    "zip_code": "94706"
  },
  {
    "city": "fairfax",
    "zip_code": "94930"
  },
  {
    "city": "lagunitas",
    "zip_code": "94938"
  },
  {
    "city": "san jose",
    "zip_code": "95112"
  },
  {
    "city": "san jose",
    "zip_code": "95117"
  },
  {
    "city": "stockton",
    "zip_code": "95204"
  },
  {
    "city": "angels camp",
    "zip_code": "95222"
  },
  {
    "city": "oakdale",
    "zip_code": "95361"
  },
  {
    "city": "dos rios",
    "zip_code": "95429"
  },
  {
    "city": "auburn",
    "zip_code": "95604"
  },
  {
    "city": "brooks",
    "zip_code": "95606"
  },
  {
    "city": "georgetown",
    "zip_code": "95634"
  },
  {
    "city": "pilot hill",
    "zip_code": "95664"
  },
  {
    "city": "rio oso",
    "zip_code": "95674"
  },
  {
    "city": "sutter creek",
    "zip_code": "95685"
  },
  {
    "city": "volcano",
    "zip_code": "95689"
  },
  {
    "city": "emigrant gap",
    "zip_code": "95715"
  },
  {
    "city": "pollock pines",
    "zip_code": "95726"
  },
  {
    "city": "sacramento",
    "zip_code": "95821"
  },
  {
    "city": "sacramento",
    "zip_code": "95822"
  },
  {
    "city": "bangor",
    "zip_code": "95914"
  },
  {
    "city": "oregon house",
    "zip_code": "95962"
  },
  {
    "city": "princeton",
    "zip_code": "95970"
  },
  {
    "city": "castella",
    "zip_code": "96017"
  },
  {
    "city": "fort jones",
    "zip_code": "96032"
  },
  {
    "city": "seiad valley",
    "zip_code": "96086"
  },
  {
    "city": "yreka",
    "zip_code": "96097"
  },
  {
    "city": "keaau",
    "zip_code": "96749"
  },
  {
    "city": "lake oswego",
    "zip_code": "97034"
  },
  {
    "city": "rufus",
    "zip_code": "97050"
  },
  {
    "city": "the dalles",
    "zip_code": "97058"
  },
  {
    "city": "beaver",
    "zip_code": "97108"
  },
  {
    "city": "portland",
    "zip_code": "97227"
  },
  {
    "city": "detroit",
    "zip_code": "97342"
  },
  {
    "city": "tidewater",
    "zip_code": "97390"
  },
  {
    "city": "pleasant hill",
    "zip_code": "97455"
  },
  {
    "city": "riddle",
    "zip_code": "97469"
  },
  {
    "city": "roseburg",
    "zip_code": "97471"
  },
  {
    "city": "dairy",
    "zip_code": "97625"
  },
  {
    "city": "pendleton",
    "zip_code": "97801"
  },
  {
    "city": "canyon city",
    "zip_code": "97820"
  },
  {
    "city": "la grande",
    "zip_code": "97850"
  },
  {
    "city": "seattle",
    "zip_code": "98148"
  },
  {
    "city": "seattle",
    "zip_code": "98199"
  },
  {
    "city": "blaine",
    "zip_code": "98230"
  },
  {
    "city": "hamilton",
    "zip_code": "98255"
  },
  {
    "city": "lopez island",
    "zip_code": "98261"
  },
  {
    "city": "orcas",
    "zip_code": "98280"
  },
  {
    "city": "eatonville",
    "zip_code": "98328"
  },
  {
    "city": "port hadlock",
    "zip_code": "98339"
  },
  {
    "city": "bajadero",
    "zip_code": "616"
  },
  {
    "city": "kingshill",
    "zip_code": "850"
  },
  {
    "city": "guaynabo",
    "zip_code": "968"
  },
  {
    "city": "amherst",
    "zip_code": "1002"
  },
  {
    "city": "chester",
    "zip_code": "1011"
  },
  {
    "city": "granby",
    "zip_code": "1033"
  },
  {
    "city": "woronoco",
    "zip_code": "1097"
  },
  {
    "city": "south egremont",
    "zip_code": "1258"
  },
  {
    "city": "turners falls",
    "zip_code": "1376"
  },
  {
    "city": "pepperell",
    "zip_code": "1463"
  },
  {
    "city": "grafton",
    "zip_code": "1519"
  },
  {
    "city": "worcester",
    "zip_code": "1602"
  },
  {
    "city": "hopkinton",
    "zip_code": "1748"
  },
  {
    "city": "stow",
    "zip_code": "1775"
  },
  {
    "city": "salisbury",
    "zip_code": "1952"
  },
  {
    "city": "topsfield",
    "zip_code": "1983"
  },
  {
    "city": "boston",
    "zip_code": "2163"
  },
  {
    "city": "newton highlands",
    "zip_code": "2461"
  },
  {
    "city": "chatham",
    "zip_code": "2633"
  },
  {
    "city": "acushnet",
    "zip_code": "2743"
  },
  {
    "city": "brookline",
    "zip_code": "3033"
  }
]