[
  {
    "city": "drewsville",
    "zip_code": "3604"
  },
  {
    "city": "plainfield",
    "zip_code": "3781"
  },
  {
    "city": "center ossipee",
    "zip_code": "3814"
  },
  {
    "city": "east hampstead",
    "zip_code": "3826"
  },
  {
    "city": "cape neddick",
    "zip_code": "3902"
  },
  {
    "city": "falmouth",
    "zip_code": "4105"
  },
  {
    "city": "bucksport",
    "zip_code": "4416"
  },
  {
    "city": "greenville",
    "zip_code": "4441"
  },
  {
    "city": "boothbay harbor",
    "zip_code": "4538"
  },
  {
    "city": "jonesboro",
    "zip_code": "4648"
  },
  {
    "city": "machiasport",
    "zip_code": "4655"
  },
  {
    "city": "sargentville",
    "zip_code": "4673"
  },
  {
    "city": "stockholm",
    "zip_code": "4783"
  },
  {
    "city": "thomaston",
    "zip_code": "4861"
  },
  {
    "city": "albion",
    "zip_code": "4910"
  },
  {
    "city": "dixmont",
    "zip_code": "4932"
  },
  {
    "city": "fairlee",
    "zip_code": "5045"
  },
  {
    "city": "mcindoe falls",
    "zip_code": "5050"
  },
  {
    "city": "south ryegate",
    "zip_code": "5069"
  },
  {
    "city": "arlington",
    "zip_code": "5250"
  },
  {
    "city": "burlington",
    "zip_code": "5405"
  },
  {
    "city": "franklin",
    "zip_code": "5457"
  },
  {
    "city": "sheldon",
    "zip_code": "5483"
  },
  {
    "city": "sheldon springs",
    "zip_code": "5485"
  },
  {
    "city": "swanton",
    "zip_code": "5488"
  },
  {
    "city": "lake elmore",
    "zip_code": "5657"
  },
  {
    "city": "morrisville",
    "zip_code": "5661"
  },
  {
    "city": "shoreham",
    "zip_code": "5770"
  },
  {
    "city": "craftsbury common",
    "zip_code": "5827"
  },
  {
    "city": "island pond",
    "zip_code": "5846"
  },
  {
    "city": "burlington",
    "zip_code": "6013"
  },
  {
    "city": "unionville",
    "zip_code": "6085"
  },
  {
    "city": "danielson",
    "zip_code": "6239"
  },
  {
    "city": "portland",
    "zip_code": "6480"
  },
  {
    "city": "danbury",
    "zip_code": "6810"
  },
  {
    "city": "clark",
    "zip_code": "7066"
  },
  {
    "city": "east rutherford",
    "zip_code": "7073"
  },
  {
    "city": "south plainfield",
    "zip_code": "7080"
  },
  {
    "city": "ho ho kus",
    "zip_code": "7423"
  },
  {
    "city": "west milford",
    "zip_code": "7480"
  },
  {
    "city": "paterson",
    "zip_code": "7524"
  },
  {
    "city": "oradell",
    "zip_code": "7649"
  },
  {
    "city": "fair haven",
    "zip_code": "7704"
  },
  {
    "city": "long branch",
    "zip_code": "7740"
  },
  {
    "city": "port murray",
    "zip_code": "7865"
  },
  {
    "city": "vienna",
    "zip_code": "7880"
  },
  {
    "city": "millington",
    "zip_code": "7946"
  },
  {
    "city": "new providence",
    "zip_code": "7974"
  },
  {
    "city": "cherry hill",
    "zip_code": "8003"
  },
  {
    "city": "moorestown",
    "zip_code": "8057"
  },
  {
    "city": "atlantic city",
    "zip_code": "8401"
  },
  {
    "city": "joint base mdl",
    "zip_code": "8640"
  },
  {
    "city": "seaside heights",
    "zip_code": "8751"
  },
  {
    "city": "edison",
    "zip_code": "8837"
  },
  {
    "city": "whitehouse station",
    "zip_code": "8889"
  },
  {
    "city": "new york",
    "zip_code": "10027"
  },
  {
    "city": "new york",
    "zip_code": "10029"
  },
  {
    "city": "new york",
    "zip_code": "10115"
  },
  {
    "city": "bronx",
    "zip_code": "10473"
  },
  {
    "city": "hartsdale",
    "zip_code": "10530"
  },
  {
    "city": "waccabuc",
    "zip_code": "10597"
  },
  {
    "city": "suffern",
    "zip_code": "10901"
  },
  {
    "city": "arden",
    "zip_code": "10910"
  },
  {
    "city": "harriman",
    "zip_code": "10926"
  },
  {
    "city": "new hampton",
    "zip_code": "10958"
  },
  {
    "city": "palisades",
    "zip_code": "10964"
  },
  {
    "city": "great neck",
    "zip_code": "11023"
  },
  {
    "city": "brooklyn",
    "zip_code": "11217"
  },
  {
    "city": "brooklyn",
    "zip_code": "11229"
  },
  {
    "city": "flushing",
    "zip_code": "11358"
  },
  {
    "city": "fresh meadows",
    "zip_code": "11366"
  },
  {
    "city": "glen cove",
    "zip_code": "11542"
  },
  {
    "city": "uniondale",
    "zip_code": "11553"
  },
  {
    "city": "roosevelt",
    "zip_code": "11575"
  },
  {
    "city": "cutchogue",
    "zip_code": "11935"
  },
  {
    "city": "southold",
    "zip_code": "11971"
  },
  {
    "city": "carlisle",
    "zip_code": "12031"
  },
  {
    "city": "east berne",
    "zip_code": "12059"
  },
  {
    "city": "clifton park",
    "zip_code": "12065"
  },
  {
    "city": "north blenheim",
    "zip_code": "12131"
  },
  {
    "city": "spencertown",
    "zip_code": "12165"
  },
  {
    "city": "troy",
    "zip_code": "12182"
  },
  {
    "city": "albany",
    "zip_code": "12205"
  },
  {
    "city": "chichester",
    "zip_code": "12416"
  },
  {
    "city": "esopus",
    "zip_code": "12429"
  },
  {
    "city": "new kingston",
    "zip_code": "12459"
  },
  {
    "city": "ruby",
    "zip_code": "12475"
  },
  {
    "city": "willow",
    "zip_code": "12495"
  },
  {
    "city": "montgomery",
    "zip_code": "12549"
  },
  {
    "city": "bethel",
    "zip_code": "12720"
  },
  {
    "city": "jeffersonville",
    "zip_code": "12748"
  },
  {
    "city": "obernburg",
    "zip_code": "12767"
  },
  {
    "city": "pond eddy",
    "zip_code": "12770"
  },
  {
    "city": "chateaugay",
    "zip_code": "12920"
  },
  {
    "city": "cranberry lake",
    "zip_code": "12927"
  },
  {
    "city": "ellenburg",
    "zip_code": "12933"
  },
  {
    "city": "keene",
    "zip_code": "12942"
  },
  {
    "city": "ray brook",
    "zip_code": "12977"
  },
  {
    "city": "hastings",
    "zip_code": "13076"
  },
  {
    "city": "marcellus",
    "zip_code": "13108"
  },
  {
    "city": "pompey",
    "zip_code": "13138"
  },
  {
    "city": "port byron",
    "zip_code": "13140"
  },
  {
    "city": "sylvan beach",
    "zip_code": "13157"
  },
  {
    "city": "syracuse",
    "zip_code": "13207"
  },
  {
    "city": "clinton",
    "zip_code": "13323"
  },
  {
    "city": "ilion",
    "zip_code": "13357"
  },
  {
    "city": "inlet",
    "zip_code": "13360"
  },
  {
    "city": "brasher falls",
    "zip_code": "13613"
  },
  {
    "city": "massena",
    "zip_code": "13662"
  },
  {
    "city": "norwood",
    "zip_code": "13668"
  },
  {
    "city": "theresa",
    "zip_code": "13691"
  },
  {
    "city": "waddington",
    "zip_code": "13694"
  },
  {
    "city": "oneonta",
    "zip_code": "13820"
  },
  {
    "city": "binghamton",
    "zip_code": "13902"
  },
  {
    "city": "derby",
    "zip_code": "14047"
  },
  {
    "city": "medina",
    "zip_code": "14103"
  },
  {
    "city": "sheridan",
    "zip_code": "14135"
  },
  {
    "city": "buffalo",
    "zip_code": "14225"
  },
  {
    "city": "ionia",
    "zip_code": "14475"
  },
  {
    "city": "black creek",
    "zip_code": "14714"
  },
  {
    "city": "mayville",
    "zip_code": "14757"
  },
  {
    "city": "rushford",
    "zip_code": "14777"
  },
  {
    "city": "glassport",
    "zip_code": "15045"
  },
  {
    "city": "monessen",
    "zip_code": "15062"
  },
  {
    "city": "russellton",
    "zip_code": "15076"
  },
  {
    "city": "mckees rocks",
    "zip_code": "15136"
  },
  {
    "city": "sewickley",
    "zip_code": "15143"
  },
  {
    "city": "pittsburgh",
    "zip_code": "15203"
  },
  {
    "city": "beallsville",
    "zip_code": "15313"
  },
  {
    "city": "new freeport",
    "zip_code": "15352"
  },
  {
    "city": "chalk hill",
    "zip_code": "15421"
  },
  {
    "city": "jacobs creek",
    "zip_code": "15448"
  },
  {
    "city": "smithton",
    "zip_code": "15479"
  },
  {
    "city": "berlin",
    "zip_code": "15530"
  },
  {
    "city": "apollo",
    "zip_code": "15613"
  },
  {
    "city": "crabtree",
    "zip_code": "15624"
  },
  {
    "city": "laughlintown",
    "zip_code": "15655"
  },
  {
    "city": "stahlstown",
    "zip_code": "15687"
  },
  {
    "city": "emeigh",
    "zip_code": "15738"
  },
  {
    "city": "mentcle",
    "zip_code": "15761"
  },
  {
    "city": "corsica",
    "zip_code": "15829"
  },
  {
    "city": "harrisville",
    "zip_code": "16038"
  },
  {
    "city": "todd",
    "zip_code": "16685"
  },
  {
    "city": "hawk run",
    "zip_code": "16840"
  },
  {
    "city": "genesee",
    "zip_code": "16941"
  },
  {
    "city": "carlisle",
    "zip_code": "17015"
  },
  {
    "city": "lykens",
    "zip_code": "17048"
  },
  {
    "city": "marysville",
    "zip_code": "17053"
  },
  {
    "city": "harrisburg",
    "zip_code": "17113"
  },
  {
    "city": "shippensburg",
    "zip_code": "17257"
  },
  {
    "city": "york",
    "zip_code": "17402"
  },
  {
    "city": "akron",
    "zip_code": "17501"
  },
  {
    "city": "kinzers",
    "zip_code": "17535"
  },
  {
    "city": "rheems",
    "zip_code": "17570"
  },
  {
    "city": "muncy",
    "zip_code": "17756"
  },
  {
    "city": "woolrich",
    "zip_code": "17779"
  },
  {
    "city": "dornsife",
    "zip_code": "17823"
  },
  {
    "city": "freeburg",
    "zip_code": "17827"
  },
  {
    "city": "kulpmont",
    "zip_code": "17834"
  },
  {
    "city": "millmont",
    "zip_code": "17845"
  },
  {
    "city": "ashland",
    "zip_code": "17921"
  },
  {
    "city": "girardville",
    "zip_code": "17935"
  },
  {
    "city": "catasauqua",
    "zip_code": "18032"
  },
  {
    "city": "kunkletown",
    "zip_code": "18058"
  },
  {
    "city": "trexlertown",
    "zip_code": "18087"
  },
  {
    "city": "zionsville",
    "zip_code": "18092"
  },
  {
    "city": "nuremberg",
    "zip_code": "18241"
  },
  {
    "city": "gilbert",
    "zip_code": "18331"
  },
  {
    "city": "pocono lake",
    "zip_code": "18347"
  },
  {
    "city": "hamlin",
    "zip_code": "18427"
  },
  {
    "city": "scranton",
    "zip_code": "18519"
  },
  {
    "city": "hillsgrove",
    "zip_code": "18619"
  },
  {
    "city": "noxen",
    "zip_code": "18636"
  },
  {
    "city": "duryea",
    "zip_code": "18642"
  },
  {
    "city": "wilkes barre",
    "zip_code": "18705"
  },
  {
    "city": "monroeton",
    "zip_code": "18832"
  },
  {
    "city": "levittown",
    "zip_code": "19056"
  },
  {
    "city": "wyncote",
    "zip_code": "19095"
  },
  {
    "city": "hatfield",
    "zip_code": "19440"
  },
  {
    "city": "sassamansville",
    "zip_code": "19472"
  },
  {
    "city": "bernville",
    "zip_code": "19506"
  },
  {
    "city": "laurel",
    "zip_code": "19956"
  },
  {
    "city": "seaford",
    "zip_code": "19973"
  },
  {
    "city": "washington",
    "zip_code": "20045"
  },
  {
    "city": "broad run",
    "zip_code": "20137"
  },
  {
    "city": "bushwood",
    "zip_code": "20618"
  },
  {
    "city": "welcome",
    "zip_code": "20693"
  },
  {
    "city": "college park",
    "zip_code": "20740"
  },
  {
    "city": "upper marlboro",
    "zip_code": "20774"
  },
  {
    "city": "glen echo",
    "zip_code": "20812"
  },
  {
    "city": "aberdeen proving ground",
    "zip_code": "21005"
  },
  {
    "city": "darlington",
    "zip_code": "21034"
  },
  {
    "city": "baltimore",
    "zip_code": "21214"
  },
  {
    "city": "piney river",
    "zip_code": "22964"
  },
  {
    "city": "columbia",
    "zip_code": "23038"
  },
  {
    "city": "diggs",
    "zip_code": "23045"
  },
  {
    "city": "gloucester",
    "zip_code": "23061"
  },
  {
    "city": "hartfield",
    "zip_code": "23071"
  },
  {
    "city": "virginia beach",
    "zip_code": "23451"
  },
  {
    "city": "newport news",
    "zip_code": "23608"
  },
  {
    "city": "hampton",
    "zip_code": "23669"
  },
  {
    "city": "portsmouth",
    "zip_code": "23708"
  },
  {
    "city": "rawlings",
    "zip_code": "23876"
  },
  {
    "city": "saxe",
    "zip_code": "23967"
  },
  {
    "city": "skipwith",
    "zip_code": "23968"
  },
  {
    "city": "roanoke",
    "zip_code": "24018"
  },
  {
    "city": "roanoke",
    "zip_code": "24020"
  },
  {
    "city": "bent mountain",
    "zip_code": "24059"
  },
  {
    "city": "goodview",
    "zip_code": "24095"
  },
  {
    "city": "ridgeway",
    "zip_code": "24148"
  },
  {
    "city": "spencer",
    "zip_code": "24165"
  },
  {
    "city": "woolwine",
    "zip_code": "24185"
  },
  {
    "city": "duffield",
    "zip_code": "24244"
  },
  {
    "city": "ewing",
    "zip_code": "24248"
  },
  {
    "city": "weber city",
    "zip_code": "24290"
  },
  {
    "city": "elk creek",
    "zip_code": "24326"
  },
  {
    "city": "max meadows",
    "zip_code": "24360"
  },
  {
    "city": "selma",
    "zip_code": "24474"
  },
  {
    "city": "keeling",
    "zip_code": "24566"
  },
  {
    "city": "lashmeet",
    "zip_code": "24733"
  },
  {
    "city": "cyclone",
    "zip_code": "24827"
  },
  {
    "city": "new richmond",
    "zip_code": "24867"
  },
  {
    "city": "oceana",
    "zip_code": "24870"
  },
  {
    "city": "marlinton",
    "zip_code": "24954"
  },
  {
    "city": "comfort",
    "zip_code": "25049"
  },
  {
    "city": "leon",
    "zip_code": "25123"
  },
  {
    "city": "pinch",
    "zip_code": "25156"
  },
  {
    "city": "southside",
    "zip_code": "25187"
  },
  {
    "city": "mason",
    "zip_code": "25260"
  },
  {
    "city": "wallback",
    "zip_code": "25285"
  },
  {
    "city": "slanesville",
    "zip_code": "25444"
  },
  {
    "city": "harts",
    "zip_code": "25524"
  },
  {
    "city": "kiahsville",
    "zip_code": "25534"
  },
  {
    "city": "huntington",
    "zip_code": "25705"
  },
  {
    "city": "bolt",
    "zip_code": "25817"
  },
  {
    "city": "nimitz",
    "zip_code": "25978"
  },
  {
    "city": "glen dale",
    "zip_code": "26038"
  },
  {
    "city": "parkersburg",
    "zip_code": "26104"
  },
  {
    "city": "macfarlan",
    "zip_code": "26148"
  },
  {
    "city": "craigsville",
    "zip_code": "26205"
  },
  {
    "city": "french creek",
    "zip_code": "26218"
  },
  {
    "city": "independence",
    "zip_code": "26374"
  },
  {
    "city": "lost creek",
    "zip_code": "26385"
  },
  {
    "city": "lumberport",
    "zip_code": "26386"
  },
  {
    "city": "exchange",
    "zip_code": "26619"
  },
  {
    "city": "gassaway",
    "zip_code": "26624"
  },
  {
    "city": "cedar grove",
    "zip_code": "27231"
  },
  {
    "city": "jackson springs",
    "zip_code": "27281"
  },
  {
    "city": "leasburg",
    "zip_code": "27291"
  },
  {
    "city": "lexington",
    "zip_code": "27295"
  },
  {
    "city": "whitsett",
    "zip_code": "27377"
  },
  {
    "city": "knightdale",
    "zip_code": "27545"
  },
  {
    "city": "moncure",
    "zip_code": "27559"
  },
  {
    "city": "princeton",
    "zip_code": "27569"
  },
  {
    "city": "warrenton",
    "zip_code": "27589"
  },
  {
    "city": "como",
    "zip_code": "27818"
  },
  {
    "city": "scranton",
    "zip_code": "27875"
  },
  {
    "city": "belvidere",
    "zip_code": "27919"
  },
  {
    "city": "hobbsville",
    "zip_code": "27946"
  },
  {
    "city": "powells point",
    "zip_code": "27966"
  },
  {
    "city": "shawboro",
    "zip_code": "27973"
  },
  {
    "city": "boiling springs",
    "zip_code": "28017"
  },
  {
    "city": "matthews",
    "zip_code": "28105"
  },
  {
    "city": "charlotte",
    "zip_code": "28262"
  },
  {
    "city": "fayetteville",
    "zip_code": "28314"
  },
  {
    "city": "lumberton",
    "zip_code": "28358"
  },
  {
    "city": "leland",
    "zip_code": "28451"
  },
  {
    "city": "kinston",
    "zip_code": "28504"
  },
  {
    "city": "harkers island",
    "zip_code": "28531"
  },
  {
    "city": "hookerton",
    "zip_code": "28538"
  },
  {
    "city": "oriental",
    "zip_code": "28571"
  },
  {
    "city": "lake junaluska",
    "zip_code": "28745"
  },
  {
    "city": "timmonsville",
    "zip_code": "29161"
  },
  {
    "city": "west columbia",
    "zip_code": "29170"
  },
  {
    "city": "columbia",
    "zip_code": "29203"
  },
  {
    "city": "jonesville",
    "zip_code": "29353"
  },
  {
    "city": "bennettsville",
    "zip_code": "29512"
  },
  {
    "city": "conway",
    "zip_code": "29527"
  },
  {
    "city": "lake city",
    "zip_code": "29560"
  },
  {
    "city": "pamplico",
    "zip_code": "29583"
  },
  {
    "city": "gray court",
    "zip_code": "29645"
  },
  {
    "city": "clover",
    "zip_code": "29710"
  },
  {
    "city": "mcconnells",
    "zip_code": "29726"
  },
  {
    "city": "okatie",
    "zip_code": "29909"
  },
  {
    "city": "cumming",
    "zip_code": "30028"
  },
  {
    "city": "decatur",
    "zip_code": "30035"
  },
  {
    "city": "oxford",
    "zip_code": "30054"
  },
  {
    "city": "acworth",
    "zip_code": "30102"
  },
  {
    "city": "carrollton",
    "zip_code": "30118"
  },
  {
    "city": "flovilla",
    "zip_code": "30216"
  },
  {
    "city": "mcdonough",
    "zip_code": "30252"
  },
  {
    "city": "peachtree city",
    "zip_code": "30269"
  },
  {
    "city": "atlanta",
    "zip_code": "30316"
  },
  {
    "city": "atlanta",
    "zip_code": "30319"
  },
  {
    "city": "gainesville",
    "zip_code": "30507"
  },
  {
    "city": "canon",
    "zip_code": "30520"
  },
  {
    "city": "buckhead",
    "zip_code": "30625"
  },
  {
    "city": "elberton",
    "zip_code": "30635"
  },
  {
    "city": "winterville",
    "zip_code": "30683"
  },
  {
    "city": "blythe",
    "zip_code": "30805"
  },
  {
    "city": "camak",
    "zip_code": "30807"
  },
  {
    "city": "augusta",
    "zip_code": "30903"
  },
  {
    "city": "augusta",
    "zip_code": "30907"
  },
  {
    "city": "sandersville",
    "zip_code": "31082"
  },
  {
    "city": "unadilla",
    "zip_code": "31091"
  },
  {
    "city": "pooler",
    "zip_code": "31322"
  },
  {
    "city": "savannah",
    "zip_code": "31408"
  },
  {
    "city": "waynesville",
    "zip_code": "31566"
  },
  {
    "city": "white oak",
    "zip_code": "31568"
  },
  {
    "city": "bryceville",
    "zip_code": "32009"
  },
  {
    "city": "palatka",
    "zip_code": "32177"
  },
  {
    "city": "welaka",
    "zip_code": "32193"
  },
  {
    "city": "wacissa",
    "zip_code": "32361"
  },
  {
    "city": "panama city",
    "zip_code": "32409"
  },
  {
    "city": "chipley",
    "zip_code": "32428"
  },
  {
    "city": "grand ridge",
    "zip_code": "32442"
  },
  {
    "city": "inlet beach",
    "zip_code": "32461"
  },
  {
    "city": "holt",
    "zip_code": "32564"
  },
  {
    "city": "laurel hill",
    "zip_code": "32567"
  },
  {
    "city": "milton",
    "zip_code": "32570"
  },
  {
    "city": "deland",
    "zip_code": "32720"
  },
  {
    "city": "longwood",
    "zip_code": "32779"
  },
  {
    "city": "orlando",
    "zip_code": "32811"
  },
  {
    "city": "melbourne",
    "zip_code": "32940"
  },
  {
    "city": "rockledge",
    "zip_code": "32955"
  },
  {
    "city": "homestead",
    "zip_code": "33031"
  },
  {
    "city": "key colony beach",
    "zip_code": "33051"
  },
  {
    "city": "miami beach",
    "zip_code": "33140"
  },
  {
    "city": "key biscayne",
    "zip_code": "33149"
  },
  {
    "city": "miami",
    "zip_code": "33187"
  },
  {
    "city": "west palm beach",
    "zip_code": "33401"
  },
  {
    "city": "zephyrhills",
    "zip_code": "33541"
  },
  {
    "city": "sumterville",
    "zip_code": "33585"
  },
  {
    "city": "tampa",
    "zip_code": "33618"
  },
  {
    "city": "saint petersburg",
    "zip_code": "33715"
  },
  {
    "city": "clearwater",
    "zip_code": "33759"
  },
  {
    "city": "largo",
    "zip_code": "33773"
  },
  {
    "city": "largo",
    "zip_code": "33774"
  },
  {
    "city": "indian rocks beach",
    "zip_code": "33785"
  },
  {
    "city": "bowling green",
    "zip_code": "33834"
  },
  {
    "city": "davenport",
    "zip_code": "33896"
  },
  {
    "city": "fort myers",
    "zip_code": "33905"
  },
  {
    "city": "palmdale",
    "zip_code": "33944"
  },
  {
    "city": "port charlotte",
    "zip_code": "33948"
  },
  {
    "city": "cape coral",
    "zip_code": "33991"
  },
  {
    "city": "nocatee",
    "zip_code": "34268"
  },
  {
    "city": "nokomis",
    "zip_code": "34275"
  },
  {
    "city": "dunnellon",
    "zip_code": "34434"
  },
  {
    "city": "tarpon springs",
    "zip_code": "34688"
  },
  {
    "city": "clermont",
    "zip_code": "34715"
  },
  {
    "city": "fort pierce",
    "zip_code": "34945"
  },
  {
    "city": "columbiana",
    "zip_code": "35051"
  },
  {
    "city": "cropwell",
    "zip_code": "35054"
  },
  {
    "city": "cullman",
    "zip_code": "35057"
  },
  {
    "city": "docena",
    "zip_code": "35060"
  },
  {
    "city": "vandiver",
    "zip_code": "35176"
  },
  {
    "city": "parrish",
    "zip_code": "35580"
  },
  {
    "city": "phil campbell",
    "zip_code": "35581"
  },
  {
    "city": "spruce pine",
    "zip_code": "35585"
  },
  {
    "city": "owens cross roads",
    "zip_code": "35763"
  },
  {
    "city": "woodville",
    "zip_code": "35776"
  },
  {
    "city": "greenville",
    "zip_code": "36037"
  },
  {
    "city": "millbrook",
    "zip_code": "36054"
  },
  {
    "city": "prattville",
    "zip_code": "36066"
  },
  {
    "city": "troy",
    "zip_code": "36079"
  },
  {
    "city": "graham",
    "zip_code": "36263"
  },
  {
    "city": "dothan",
    "zip_code": "36301"
  },
  {
    "city": "dothan",
    "zip_code": "36303"
  },
  {
    "city": "ariton",
    "zip_code": "36311"
  },
  {
    "city": "newville",
    "zip_code": "36353"
  },
  {
    "city": "atmore",
    "zip_code": "36502"
  },
  {
    "city": "satsuma",
    "zip_code": "36572"
  },
  {
    "city": "mobile",
    "zip_code": "36616"
  },
  {
    "city": "gallion",
    "zip_code": "36742"
  },
  {
    "city": "sawyerville",
    "zip_code": "36776"
  },
  {
    "city": "fort mitchell",
    "zip_code": "36856"
  },
  {
    "city": "salem",
    "zip_code": "36874"
  },
  {
    "city": "lyles",
    "zip_code": "37098"
  },
  {
    "city": "only",
    "zip_code": "37140"
  },
  {
    "city": "springfield",
    "zip_code": "37172"
  },
  {
    "city": "chattanooga",
    "zip_code": "37421"
  },
  {
    "city": "bristol",
    "zip_code": "37620"
  },
  {
    "city": "chuckey",
    "zip_code": "37641"
  },
  {
    "city": "telford",
    "zip_code": "37690"
  },
  {
    "city": "lenoir city",
    "zip_code": "37771"
  },
  {
    "city": "sevierville",
    "zip_code": "37862"
  },
  {
    "city": "mason",
    "zip_code": "38049"
  },
  {
    "city": "millington",
    "zip_code": "38054"
  },
  {
    "city": "memphis",
    "zip_code": "38104"
  },
  {
    "city": "beech bluff",
    "zip_code": "38313"
  },
  {
    "city": "ramer",
    "zip_code": "38367"
  },
  {
    "city": "shiloh",
    "zip_code": "38376"
  },
  {
    "city": "dellrose",
    "zip_code": "38453"
  },
  {
    "city": "prospect",
    "zip_code": "38477"
  },
  {
    "city": "cookeville",
    "zip_code": "38506"
  },
  {
    "city": "pall mall",
    "zip_code": "38577"
  },
  {
    "city": "rickman",
    "zip_code": "38580"
  },
  {
    "city": "darling",
    "zip_code": "38623"
  },
  {
    "city": "pope",
    "zip_code": "38658"
  },
  {
    "city": "chatham",
    "zip_code": "38731"
  },
  {
    "city": "shaw",
    "zip_code": "38773"
  },
  {
    "city": "houston",
    "zip_code": "38851"
  },
  {
    "city": "calhoun city",
    "zip_code": "38916"
  },
  {
    "city": "coila",
    "zip_code": "38923"
  },
  {
    "city": "morgan city",
    "zip_code": "38946"
  },
  {
    "city": "oakland",
    "zip_code": "38948"
  },
  {
    "city": "rolling fork",
    "zip_code": "39159"
  },
  {
    "city": "purvis",
    "zip_code": "39475"
  },
  {
    "city": "sandersville",
    "zip_code": "39477"
  },
  {
    "city": "wiggins",
    "zip_code": "39577"
  },
  {
    "city": "summit",
    "zip_code": "39666"
  },
  {
    "city": "hamilton",
    "zip_code": "39746"
  },
  {
    "city": "mantee",
    "zip_code": "39751"
  },
  {
    "city": "coleman",
    "zip_code": "39836"
  },
  {
    "city": "damascus",
    "zip_code": "39841"
  },
  {
    "city": "edison",
    "zip_code": "39846"
  },
  {
    "city": "finchville",
    "zip_code": "40022"
  },
  {
    "city": "new castle",
    "zip_code": "40050"
  },
  {
    "city": "turners station",
    "zip_code": "40075"
  },
  {
    "city": "louisville",
    "zip_code": "40211"
  },
  {
    "city": "louisville",
    "zip_code": "40214"
  },
  {
    "city": "louisville",
    "zip_code": "40291"
  },
  {
    "city": "nicholasville",
    "zip_code": "40356"
  },
  {
    "city": "london",
    "zip_code": "40743"
  },
  {
    "city": "warbranch",
    "zip_code": "40874"
  },
  {
    "city": "closplint",
    "zip_code": "40927"
  },
  {
    "city": "trosper",
    "zip_code": "40995"
  },
  {
    "city": "burlington",
    "zip_code": "41005"
  },
  {
    "city": "covington",
    "zip_code": "41014"
  },
  {
    "city": "hillsboro",
    "zip_code": "41049"
  },
  {
    "city": "newport",
    "zip_code": "41099"
  },
  {
    "city": "inez",
    "zip_code": "41224"
  },
  {
    "city": "melvin",
    "zip_code": "41650"
  },
  {
    "city": "kevil",
    "zip_code": "42053"
  },
  {
    "city": "knob lick",
    "zip_code": "42154"
  },
  {
    "city": "cadiz",
    "zip_code": "42211"
  },
  {
    "city": "oak grove",
    "zip_code": "42262"
  },
  {
    "city": "roundhill",
    "zip_code": "42275"
  },
  {
    "city": "columbia",
    "zip_code": "42728"
  },
  {
    "city": "mechanicsburg",
    "zip_code": "43044"
  },
  {
    "city": "jeffersonville",
    "zip_code": "43128"
  },
  {
    "city": "columbus",
    "zip_code": "43227"
  },
  {
    "city": "columbus",
    "zip_code": "43235"
  },
  {
    "city": "lakeview",
    "zip_code": "43331"
  },
  {
    "city": "gibsonburg",
    "zip_code": "43431"
  },
  {
    "city": "port clinton",
    "zip_code": "43452"
  },
  {
    "city": "haskins",
    "zip_code": "43525"
  },
  {
    "city": "toledo",
    "zip_code": "43623"
  },
  {
    "city": "crooksville",
    "zip_code": "43731"
  },
  {
    "city": "newcomerstown",
    "zip_code": "43832"
  },
  {
    "city": "trinway",
    "zip_code": "43842"
  },
  {
    "city": "east liverpool",
    "zip_code": "43920"
  },
  {
    "city": "rayland",
    "zip_code": "43943"
  },
  {
    "city": "chagrin falls",
    "zip_code": "44022"
  },
  {
    "city": "columbia station",
    "zip_code": "44028"
  },
  {
    "city": "wellington",
    "zip_code": "44090"
  },
  {
    "city": "cleveland",
    "zip_code": "44104"
  },
  {
    "city": "brunswick",
    "zip_code": "44212"
  },
  {
    "city": "akron",
    "zip_code": "44333"
  },
  {
    "city": "north benton",
    "zip_code": "44449"
  },
  {
    "city": "warren",
    "zip_code": "44483"
  },
  {
    "city": "west farmington",
    "zip_code": "44491"
  },
  {
    "city": "shreve",
    "zip_code": "44676"
  },
  {
    "city": "new london",
    "zip_code": "44851"
  },
  {
    "city": "cincinnati",
    "zip_code": "45220"
  },
  {
    "city": "eaton",
    "zip_code": "45320"
  },
  {
    "city": "jamestown",
    "zip_code": "45335"
  },
  {
    "city": "west alexandria",
    "zip_code": "45381"
  },
  {
    "city": "yorkshire",
    "zip_code": "45388"
  },
  {
    "city": "dayton",
    "zip_code": "45420"
  },
  {
    "city": "dayton",
    "zip_code": "45433"
  },
  {
    "city": "lynx",
    "zip_code": "45650"
  },
  {
    "city": "latty",
    "zip_code": "45855"
  },
  {
    "city": "anderson",
    "zip_code": "46013"
  },
  {
    "city": "boggstown",
    "zip_code": "46110"
  },
  {
    "city": "clayton",
    "zip_code": "46118"
  },
  {
    "city": "trafalgar",
    "zip_code": "46181"
  },
  {
    "city": "indianapolis",
    "zip_code": "46234"
  },
  {
    "city": "indianapolis",
    "zip_code": "46268"
  },
  {
    "city": "griffith",
    "zip_code": "46319"
  },
  {
    "city": "grovertown",
    "zip_code": "46531"
  },
  {
    "city": "hamlet",
    "zip_code": "46532"
  },
  {
    "city": "north webster",
    "zip_code": "46555"
  },
  {
    "city": "winona lake",
    "zip_code": "46590"
  },
  {
    "city": "wyatt",
    "zip_code": "46595"
  },
  {
    "city": "south bend",
    "zip_code": "46628"
  },
  {
    "city": "avilla",
    "zip_code": "46710"
  },
  {
    "city": "cromwell",
    "zip_code": "46732"
  },
  {
    "city": "harlan",
    "zip_code": "46743"
  },
  {
    "city": "leo",
    "zip_code": "46765"
  },
  {
    "city": "ossian",
    "zip_code": "46777"
  },
  {
    "city": "kewanna",
    "zip_code": "46939"
  },
  {
    "city": "laketon",
    "zip_code": "46943"
  },
  {
    "city": "moores hill",
    "zip_code": "47032"
  },
  {
    "city": "marysville",
    "zip_code": "47141"
  },
  {
    "city": "columbus",
    "zip_code": "47201"
  },
  {
    "city": "butlerville",
    "zip_code": "47223"
  },
  {
    "city": "dunreith",
    "zip_code": "47337"
  },
  {
    "city": "economy",
    "zip_code": "47339"
  },
  {
    "city": "otwell",
    "zip_code": "47564"
  },
  {
    "city": "saint meinrad",
    "zip_code": "47577"
  },
  {
    "city": "fort branch",
    "zip_code": "47648"
  },
  {
    "city": "francisco",
    "zip_code": "47649"
  },
  {
    "city": "terre haute",
    "zip_code": "47803"
  },
  {
    "city": "terre haute",
    "zip_code": "47807"
  },
  {
    "city": "dugger",
    "zip_code": "47848"
  },
  {
    "city": "battle ground",
    "zip_code": "47920"
  },
  {
    "city": "fowler",
    "zip_code": "47944"
  },
  {
    "city": "wolcott",
    "zip_code": "47995"
  },
  {
    "city": "roseville",
    "zip_code": "48066"
  },
  {
    "city": "ann arbor",
    "zip_code": "48103"
  },
  {
    "city": "dundee",
    "zip_code": "48131"
  },
  {
    "city": "romulus",
    "zip_code": "48174"
  },
  {
    "city": "clarkston",
    "zip_code": "48348"
  },
  {
    "city": "harbor beach",
    "zip_code": "48441"
  },
  {
    "city": "breckenridge",
    "zip_code": "48615"
  },
  {
    "city": "greenbush",
    "zip_code": "48738"
  },
  {
    "city": "vassar",
    "zip_code": "48768"
  },
  {
    "city": "alma",
    "zip_code": "48801"
  },
  {
    "city": "bannister",
    "zip_code": "48807"
  },
  {
    "city": "lyons",
    "zip_code": "48851"
  },
  {
    "city": "lansing",
    "zip_code": "48915"
  },
  {
    "city": "lawton",
    "zip_code": "49065"
  },
  {
    "city": "harbert",
    "zip_code": "49115"
  },
  {
    "city": "jackson",
    "zip_code": "49201"
  },
  {
    "city": "hudson",
    "zip_code": "49247"
  },
  {
    "city": "norvell",
    "zip_code": "49263"
  },
  {
    "city": "barryton",
    "zip_code": "49305"
  },
  {
    "city": "branch",
    "zip_code": "49402"
  },
  {
    "city": "scottville",
    "zip_code": "49454"
  },
  {
    "city": "shelby",
    "zip_code": "49455"
  },
  {
    "city": "empire",
    "zip_code": "49630"
  },
  {
    "city": "irons",
    "zip_code": "49644"
  },
  {
    "city": "kingsley",
    "zip_code": "49649"
  },
  {
    "city": "traverse city",
    "zip_code": "49684"
  },
  {
    "city": "cheboygan",
    "zip_code": "49721"
  },
  {
    "city": "mackinac island",
    "zip_code": "49757"
  },
  {
    "city": "oden",
    "zip_code": "49764"
  },
  {
    "city": "walloon lake",
    "zip_code": "49796"
  },
  {
    "city": "rapid river",
    "zip_code": "49878"
  },
  {
    "city": "seney",
    "zip_code": "49883"
  },
  {
    "city": "greenland",
    "zip_code": "49929"
  },
  {
    "city": "nisula",
    "zip_code": "49952"
  },
  {
    "city": "painesdale",
    "zip_code": "49955"
  },
  {
    "city": "audubon",
    "zip_code": "50025"
  },
  {
    "city": "berwick",
    "zip_code": "50032"
  },
  {
    "city": "derby",
    "zip_code": "50068"
  },
  {
    "city": "gilman",
    "zip_code": "50106"
  },
  {
    "city": "lovilia",
    "zip_code": "50150"
  },
  {
    "city": "roland",
    "zip_code": "50236"
  },
  {
    "city": "rockwell",
    "zip_code": "50469"
  },
  {
    "city": "ventura",
    "zip_code": "50482"
  },
  {
    "city": "woolstock",
    "zip_code": "50599"
  },
  {
    "city": "new hartford",
    "zip_code": "50660"
  },
  {
    "city": "winthrop",
    "zip_code": "50682"
  },
  {
    "city": "waterloo",
    "zip_code": "50701"
  },
  {
    "city": "nodaway",
    "zip_code": "50857"
  },
  {
    "city": "hinton",
    "zip_code": "51024"
  },
  {
    "city": "whiting",
    "zip_code": "51063"
  },
  {
    "city": "manilla",
    "zip_code": "51454"
  },
  {
    "city": "manning",
    "zip_code": "51455"
  },
  {
    "city": "council bluffs",
    "zip_code": "51501"
  },
  {
    "city": "dundee",
    "zip_code": "52038"
  },
  {
    "city": "castalia",
    "zip_code": "52133"
  },
  {
    "city": "lansing",
    "zip_code": "52151"
  },
  {
    "city": "ossian",
    "zip_code": "52161"
  },
  {
    "city": "randalia",
    "zip_code": "52164"
  },
  {
    "city": "hills",
    "zip_code": "52235"
  },
  {
    "city": "monmouth",
    "zip_code": "52309"
  },
  {
    "city": "norway",
    "zip_code": "52318"
  },
  {
    "city": "urbana",
    "zip_code": "52345"
  },
  {
    "city": "kirkville",
    "zip_code": "52566"
  },
  {
    "city": "camanche",
    "zip_code": "52730"
  },
  {
    "city": "davenport",
    "zip_code": "52806"
  },
  {
    "city": "cedar grove",
    "zip_code": "53013"
  },
  {
    "city": "cleveland",
    "zip_code": "53015"
  },
  {
    "city": "hartford",
    "zip_code": "53027"
  },
  {
    "city": "ixonia",
    "zip_code": "53036"
  },
  {
    "city": "waukesha",
    "zip_code": "53186"
  },
  {
    "city": "blue mounds",
    "zip_code": "53517"
  },
  {
    "city": "cross plains",
    "zip_code": "53528"
  },
  {
    "city": "merrimac",
    "zip_code": "53561"
  },
  {
    "city": "montfort",
    "zip_code": "53569"
  },
  {
    "city": "potosi",
    "zip_code": "53820"
  },
  {
    "city": "cambria",
    "zip_code": "53923"
  },
  {
    "city": "deer park",
    "zip_code": "54007"
  },
  {
    "city": "combined locks",
    "zip_code": "54113"
  },
  {
    "city": "hilbert",
    "zip_code": "54129"
  },
  {
    "city": "oconto",
    "zip_code": "54153"
  },
  {
    "city": "peshtigo",
    "zip_code": "54157"
  },
  {
    "city": "ellison bay",
    "zip_code": "54210"
  },
  {
    "city": "kewaunee",
    "zip_code": "54216"
  },
  {
    "city": "brokaw",
    "zip_code": "54417"
  },
  {
    "city": "merrill",
    "zip_code": "54452"
  },
  {
    "city": "stevens point",
    "zip_code": "54481"
  },
  {
    "city": "unity",
    "zip_code": "54488"
  },
  {
    "city": "vesper",
    "zip_code": "54489"
  },
  {
    "city": "upson",
    "zip_code": "54565"
  },
  {
    "city": "kendall",
    "zip_code": "54638"
  },
  {
    "city": "bay city",
    "zip_code": "54723"
  },
  {
    "city": "spring valley",
    "zip_code": "54767"
  },
  {
    "city": "exeland",
    "zip_code": "54835"
  },
  {
    "city": "mikana",
    "zip_code": "54857"
  },
  {
    "city": "appleton",
    "zip_code": "54914"
  },
  {
    "city": "neshkoro",
    "zip_code": "54960"
  },
  {
    "city": "webster",
    "zip_code": "55088"
  },
  {
    "city": "hopkins",
    "zip_code": "55305"
  },
  {
    "city": "maple plain",
    "zip_code": "55359"
  },
  {
    "city": "minneapolis",
    "zip_code": "55435"
  },
  {
    "city": "minneapolis",
    "zip_code": "55449"
  },
  {
    "city": "isabella",
    "zip_code": "55607"
  },
  {
    "city": "cotton",
    "zip_code": "55724"
  },
  {
    "city": "floodwood",
    "zip_code": "55736"
  },
  {
    "city": "iron",
    "zip_code": "55751"
  },
  {
    "city": "harmony",
    "zip_code": "55939"
  },
  {
    "city": "kasson",
    "zip_code": "55944"
  },
  {
    "city": "ostrander",
    "zip_code": "55961"
  },
  {
    "city": "peterson",
    "zip_code": "55962"
  },
  {
    "city": "courtland",
    "zip_code": "56021"
  },
  {
    "city": "eagle lake",
    "zip_code": "56024"
  },
  {
    "city": "saint peter",
    "zip_code": "56082"
  },
  {
    "city": "wells",
    "zip_code": "56097"
  },
  {
    "city": "sunburg",
    "zip_code": "56289"
  },
  {
    "city": "burtrum",
    "zip_code": "56318"
  },
  {
    "city": "cold spring",
    "zip_code": "56320"
  },
  {
    "city": "evansville",
    "zip_code": "56326"
  },
  {
    "city": "wahkon",
    "zip_code": "56386"
  },
  {
    "city": "nevis",
    "zip_code": "56467"
  },
  {
    "city": "randall",
    "zip_code": "56475"
  },
  {
    "city": "audubon",
    "zip_code": "56511"
  },
  {
    "city": "vining",
    "zip_code": "56588"
  },
  {
    "city": "lengby",
    "zip_code": "56651"
  },
  {
    "city": "kabetogama",
    "zip_code": "56669"
  },
  {
    "city": "roosevelt",
    "zip_code": "56673"
  },
  {
    "city": "shevlin",
    "zip_code": "56676"
  },
  {
    "city": "tenstrike",
    "zip_code": "56683"
  },
  {
    "city": "hallock",
    "zip_code": "56728"
  },
  {
    "city": "winfred",
    "zip_code": "57076"
  },
  {
    "city": "brandt",
    "zip_code": "57218"
  },
  {
    "city": "roslyn",
    "zip_code": "57261"
  },
  {
    "city": "canova",
    "zip_code": "57321"
  },
  {
    "city": "platte",
    "zip_code": "57369"
  },
  {
    "city": "spencer",
    "zip_code": "57374"
  },
  {
    "city": "ashton",
    "zip_code": "57424"
  },
  {
    "city": "hosmer",
    "zip_code": "57448"
  },
  {
    "city": "leola",
    "zip_code": "57456"
  },
  {
    "city": "westport",
    "zip_code": "57481"
  },
  {
    "city": "long valley",
    "zip_code": "57547"
  },
  {
    "city": "mcintosh",
    "zip_code": "57641"
  },
  {
    "city": "morristown",
    "zip_code": "57645"
  },
  {
    "city": "deadwood",
    "zip_code": "57732"
  },
  {
    "city": "vale",
    "zip_code": "57788"
  },
  {
    "city": "horace",
    "zip_code": "58047"
  },
  {
    "city": "salinas",
    "zip_code": "751"
  },
  {
    "city": "la plata",
    "zip_code": "786"
  },
  {
    "city": "amherst",
    "zip_code": "1003"
  },
  {
    "city": "huntington",
    "zip_code": "1050"
  },
  {
    "city": "savoy",
    "zip_code": "1256"
  },
  {
    "city": "west stockbridge",
    "zip_code": "1266"
  },
  {
    "city": "windsor",
    "zip_code": "1270"
  },
  {
    "city": "south grafton",
    "zip_code": "1560"
  },
  {
    "city": "lawrence",
    "zip_code": "1843"
  },
  {
    "city": "saugus",
    "zip_code": "1906"
  },
  {
    "city": "dorchester center",
    "zip_code": "2124"
  },
  {
    "city": "boston",
    "zip_code": "2210"
  },
  {
    "city": "west newton",
    "zip_code": "2465"
  },
  {
    "city": "osterville",
    "zip_code": "2655"
  },
  {
    "city": "attleboro falls",
    "zip_code": "2763"
  },
  {
    "city": "north scituate",
    "zip_code": "2857"
  },
  {
    "city": "portsmouth",
    "zip_code": "2871"
  },
  {
    "city": "providence",
    "zip_code": "2903"
  },
  {
    "city": "providence",
    "zip_code": "2907"
  },
  {
    "city": "new ipswich",
    "zip_code": "3071"
  },
  {
    "city": "lyndeborough",
    "zip_code": "3082"
  },
  {
    "city": "bedford",
    "zip_code": "3110"
  },
  {
    "city": "franklin",
    "zip_code": "3235"
  },
  {
    "city": "glencliff",
    "zip_code": "3238"
  },
  {
    "city": "suncook",
    "zip_code": "3275"
  },
  {
    "city": "randolph",
    "zip_code": "3593"
  },
  {
    "city": "meriden",
    "zip_code": "3770"
  },
  {
    "city": "eaton center",
    "zip_code": "3832"
  },
  {
    "city": "newfields",
    "zip_code": "3856"
  },
  {
    "city": "somersworth",
    "zip_code": "3878"
  },
  {
    "city": "brownfield",
    "zip_code": "4010"
  },
  {
    "city": "sanford",
    "zip_code": "4073"
  },
  {
    "city": "norway",
    "zip_code": "4268"
  },
  {
    "city": "exeter",
    "zip_code": "4435"
  },
  {
    "city": "kingman",
    "zip_code": "4451"
  },
  {
    "city": "monson",
    "zip_code": "4464"
  },
  {
    "city": "stetson",
    "zip_code": "4488"
  },
  {
    "city": "west boothbay harbor",
    "zip_code": "4575"
  },
  {
    "city": "gouldsboro",
    "zip_code": "4607"
  },
  {
    "city": "east blue hill",
    "zip_code": "4629"
  },
  {
    "city": "bethel",
    "zip_code": "5032"
  },
  {
    "city": "bridgewater",
    "zip_code": "5034"
  },
  {
    "city": "south woodstock",
    "zip_code": "5071"
  },
  {
    "city": "strafford",
    "zip_code": "5072"
  },
  {
    "city": "bellows falls",
    "zip_code": "5101"
  },
  {
    "city": "cavendish",
    "zip_code": "5142"
  },
  {
    "city": "ludlow",
    "zip_code": "5149"
  },
  {
    "city": "peru",
    "zip_code": "5152"
  },
  {
    "city": "springfield",
    "zip_code": "5156"
  },
  {
    "city": "jamaica",
    "zip_code": "5343"
  },
  {
    "city": "newfane",
    "zip_code": "5345"
  },
  {
    "city": "stamford",
    "zip_code": "5352"
  },
  {
    "city": "vernon",
    "zip_code": "5354"
  },
  {
    "city": "bakersfield",
    "zip_code": "5441"
  },
  {
    "city": "saint albans bay",
    "zip_code": "5481"
  },
  {
    "city": "wolcott",
    "zip_code": "5680"
  },
  {
    "city": "hardwick",
    "zip_code": "5843"
  },
  {
    "city": "colebrook",
    "zip_code": "6021"
  },
  {
    "city": "hartford",
    "zip_code": "6105"
  },
  {
    "city": "west hartford",
    "zip_code": "6107"
  },
  {
    "city": "storrs mansfield",
    "zip_code": "6268"
  },
  {
    "city": "thompson",
    "zip_code": "6277"
  },
  {
    "city": "essex",
    "zip_code": "6426"
  },
  {
    "city": "stratford",
    "zip_code": "6615"
  },
  {
    "city": "danbury",
    "zip_code": "6811"
  },
  {
    "city": "cedar grove",
    "zip_code": "7009"
  },
  {
    "city": "garfield",
    "zip_code": "7026"
  },
  {
    "city": "maplewood",
    "zip_code": "7040"
  },
  {
    "city": "north bergen",
    "zip_code": "7047"
  },
  {
    "city": "mountainside",
    "zip_code": "7092"
  },
  {
    "city": "elizabeth",
    "zip_code": "7202"
  },
  {
    "city": "hasbrouck heights",
    "zip_code": "7604"
  },
  {
    "city": "ridgefield",
    "zip_code": "7657"
  },
  {
    "city": "oceanport",
    "zip_code": "7757"
  },
  {
    "city": "west long branch",
    "zip_code": "7764"
  },
  {
    "city": "denville",
    "zip_code": "7834"
  },
  {
    "city": "hammonton",
    "zip_code": "8037"
  },
  {
    "city": "lumberton",
    "zip_code": "8048"
  },
  {
    "city": "quinton",
    "zip_code": "8072"
  },
  {
    "city": "woodbury",
    "zip_code": "8096"
  },
  {
    "city": "merchantville",
    "zip_code": "8109"
  },
  {
    "city": "cape may",
    "zip_code": "8204"
  },
  {
    "city": "cape may court house",
    "zip_code": "8210"
  },
  {
    "city": "cape may point",
    "zip_code": "8212"
  },
  {
    "city": "marmora",
    "zip_code": "8223"
  },
  {
    "city": "dorchester",
    "zip_code": "8316"
  },
  {
    "city": "shiloh",
    "zip_code": "8353"
  },
  {
    "city": "vineland",
    "zip_code": "8361"
  },
  {
    "city": "kingston",
    "zip_code": "8528"
  },
  {
    "city": "lambertville",
    "zip_code": "8530"
  },
  {
    "city": "sayreville",
    "zip_code": "8872"
  },
  {
    "city": "new york",
    "zip_code": "10013"
  },
  {
    "city": "new york",
    "zip_code": "10075"
  },
  {
    "city": "bronx",
    "zip_code": "10474"
  },
  {
    "city": "cross river",
    "zip_code": "10518"
  },
  {
    "city": "new rochelle",
    "zip_code": "10801"
  },
  {
    "city": "blooming grove",
    "zip_code": "10914"
  },
  {
    "city": "howells",
    "zip_code": "10932"
  },
  {
    "city": "tomkins cove",
    "zip_code": "10986"
  },
  {
    "city": "elmont",
    "zip_code": "11003"
  },
  {
    "city": "east elmhurst",
    "zip_code": "11370"
  },
  {
    "city": "maspeth",
    "zip_code": "11378"
  },
  {
    "city": "jamaica",
    "zip_code": "11433"
  },
  {
    "city": "garden city",
    "zip_code": "11530"
  },
  {
    "city": "lynbrook",
    "zip_code": "11563"
  },
  {
    "city": "roslyn",
    "zip_code": "11576"
  },
  {
    "city": "sea cliff",
    "zip_code": "11579"
  },
  {
    "city": "copiague",
    "zip_code": "11726"
  },
  {
    "city": "farmingville",
    "zip_code": "11738"
  },
  {
    "city": "islip terrace",
    "zip_code": "11752"
  },
  {
    "city": "sayville",
    "zip_code": "11782"
  },
  {
    "city": "selden",
    "zip_code": "11784"
  },
  {
    "city": "shoreham",
    "zip_code": "11786"
  },
  {
    "city": "old bethpage",
    "zip_code": "11804"
  },
  {
    "city": "sagaponack",
    "zip_code": "11962"
  },
  {
    "city": "climax",
    "zip_code": "12042"
  },
  {
    "city": "maryland",
    "zip_code": "12116"
  },
  {
    "city": "mechanicville",
    "zip_code": "12118"
  },
  {
    "city": "albany",
    "zip_code": "12209"
  },
  {
    "city": "schenectady",
    "zip_code": "12308"
  },
  {
    "city": "saugerties",
    "zip_code": "12477"
  },
  {
    "city": "clinton corners",
    "zip_code": "12514"
  },
  {
    "city": "tivoli",
    "zip_code": "12583"
  },
  {
    "city": "monticello",
    "zip_code": "12701"
  },
  {
    "city": "glen wild",
    "zip_code": "12738"
  },
  {
    "city": "huguenot",
    "zip_code": "12746"
  },
  {
    "city": "argyle",
    "zip_code": "12809"
  },
  {
    "city": "malone",
    "zip_code": "12953"
  },
  {
    "city": "cayuga",
    "zip_code": "13034"
  },
  {
    "city": "cincinnatus",
    "zip_code": "13040"
  },
  {
    "city": "pulaski",
    "zip_code": "13142"
  },
  {
    "city": "red creek",
    "zip_code": "13143"
  },
  {
    "city": "eaton",
    "zip_code": "13334"
  },
  {
    "city": "forestport",
    "zip_code": "13338"
  },
  {
    "city": "glenfield",
    "zip_code": "13343"
  },
  {
    "city": "hinckley",
    "zip_code": "13352"
  },
  {
    "city": "smyrna",
    "zip_code": "13464"
  },
  {
    "city": "whitesboro",
    "zip_code": "13492"
  },
  {
    "city": "williamstown",
    "zip_code": "13493"
  },
  {
    "city": "chippewa bay",
    "zip_code": "13623"
  },
  {
    "city": "apalachin",
    "zip_code": "13732"
  },
  {
    "city": "bainbridge",
    "zip_code": "13733"
  },
  {
    "city": "chenango forks",
    "zip_code": "13746"
  },
  {
    "city": "conklin",
    "zip_code": "13748"
  },
  {
    "city": "treadwell",
    "zip_code": "13846"
  },
  {
    "city": "binghamton",
    "zip_code": "13904"
  },
  {
    "city": "chaffee",
    "zip_code": "14030"
  },
  {
    "city": "olcott",
    "zip_code": "14126"
  },
  {
    "city": "le roy",
    "zip_code": "14482"
  },
  {
    "city": "sinclairville",
    "zip_code": "14782"
  },
  {
    "city": "canisteo",
    "zip_code": "14823"
  },
  {
    "city": "hector",
    "zip_code": "14841"
  },
  {
    "city": "himrod",
    "zip_code": "14842"
  },
  {
    "city": "hunt",
    "zip_code": "14846"
  },
  {
    "city": "elmira",
    "zip_code": "14905"
  },
  {
    "city": "sturgeon",
    "zip_code": "15082"
  },
  {
    "city": "pittsburgh",
    "zip_code": "15209"
  },
  {
    "city": "pittsburgh",
    "zip_code": "15210"
  },
  {
    "city": "pittsburgh",
    "zip_code": "15234"
  },
  {
    "city": "pittsburgh",
    "zip_code": "15236"
  },
  {
    "city": "pittsburgh",
    "zip_code": "15237"
  },
  {
    "city": "meadow lands",
    "zip_code": "15347"
  },
  {
    "city": "mount morris",
    "zip_code": "15349"
  },
  {
    "city": "rices landing",
    "zip_code": "15357"
  },
  {
    "city": "vestaburg",
    "zip_code": "15368"
  },
  {
    "city": "melcroft",
    "zip_code": "15462"
  },
  {
    "city": "larimer",
    "zip_code": "15647"
  },
  {
    "city": "new alexandria",
    "zip_code": "15670"
  },
  {
    "city": "coral",
    "zip_code": "15731"
  },
  {
    "city": "nicktown",
    "zip_code": "15762"
  },
  {
    "city": "du bois",
    "zip_code": "15801"
  },
  {
    "city": "johnsonburg",
    "zip_code": "15845"
  },
  {
    "city": "summerville",
    "zip_code": "15864"
  },
  {
    "city": "troutville",
    "zip_code": "15866"
  },
  {
    "city": "new florence",
    "zip_code": "15944"
  },
  {
    "city": "south fork",
    "zip_code": "15956"
  },
  {
    "city": "forestville",
    "zip_code": "16035"
  },
  {
    "city": "harmony",
    "zip_code": "16037"
  },
  {
    "city": "new wilmington",
    "zip_code": "16142"
  },
  {
    "city": "callensburg",
    "zip_code": "16213"
  },
  {
    "city": "vowinckel",
    "zip_code": "16260"
  },
  {
    "city": "oil city",
    "zip_code": "16301"
  },
  {
    "city": "irvine",
    "zip_code": "16329"
  },
  {
    "city": "townville",
    "zip_code": "16360"
  },
  {
    "city": "harborcreek",
    "zip_code": "16421"
  },
  {
    "city": "mckean",
    "zip_code": "16426"
  },
  {
    "city": "erie",
    "zip_code": "16501"
  },
  {
    "city": "madera",
    "zip_code": "16661"
  },
  {
    "city": "patton",
    "zip_code": "16668"
  },
  {
    "city": "queen",
    "zip_code": "16670"
  },
  {
    "city": "waterfall",
    "zip_code": "16689"
  },
  {
    "city": "derrick city",
    "zip_code": "16727"
  },
  {
    "city": "rixford",
    "zip_code": "16745"
  },
  {
    "city": "ulysses",
    "zip_code": "16948"
  },
  {
    "city": "mifflin",
    "zip_code": "17058"
  },
  {
    "city": "thompsontown",
    "zip_code": "17094"
  },
  {
    "city": "harrisburg",
    "zip_code": "17103"
  },
  {
    "city": "fannettsburg",
    "zip_code": "17221"
  },
  {
    "city": "newville",
    "zip_code": "17241"
  },
  {
    "city": "orrstown",
    "zip_code": "17244"
  },
  {
    "city": "mount joy",
    "zip_code": "17552"
  },
  {
    "city": "waterville",
    "zip_code": "17776"
  },
  {
    "city": "catawissa",
    "zip_code": "17820"
  },
  {
    "city": "danville",
    "zip_code": "17821"
  },
  {
    "city": "shamokin dam",
    "zip_code": "17876"
  },
  {
    "city": "auburn",
    "zip_code": "17922"
  },
  {
    "city": "hellertown",
    "zip_code": "18055"
  },
  {
    "city": "milnesville",
    "zip_code": "18239"
  },
  {
    "city": "pocono summit",
    "zip_code": "18346"
  },
  {
    "city": "portland",
    "zip_code": "18351"
  },
  {
    "city": "saylorsburg",
    "zip_code": "18353"
  },
  {
    "city": "starlight",
    "zip_code": "18461"
  },
  {
    "city": "scranton",
    "zip_code": "18505"
  },
  {
    "city": "scranton",
    "zip_code": "18509"
  },
  {
    "city": "laceyville",
    "zip_code": "18623"
  },
  {
    "city": "brackney",
    "zip_code": "18812"
  },
  {
    "city": "dimock",
    "zip_code": "18816"
  },
  {
    "city": "wysox",
    "zip_code": "18854"
  },
  {
    "city": "cheltenham",
    "zip_code": "19012"
  },
  {
    "city": "chester",
    "zip_code": "19013"
  },
  {
    "city": "levittown",
    "zip_code": "19057"
  },
  {
    "city": "philadelphia",
    "zip_code": "19132"
  },
  {
    "city": "philadelphia",
    "zip_code": "19137"
  },
  {
    "city": "philadelphia",
    "zip_code": "19149"
  },
  {
    "city": "coatesville",
    "zip_code": "19320"
  },
  {
    "city": "honey brook",
    "zip_code": "19344"
  },
  {
    "city": "oxford",
    "zip_code": "19363"
  },
  {
    "city": "west chester",
    "zip_code": "19380"
  },
  {
    "city": "bechtelsville",
    "zip_code": "19505"
  },
  {
    "city": "reading",
    "zip_code": "19607"
  },
  {
    "city": "newark",
    "zip_code": "19702"
  },
  {
    "city": "washington",
    "zip_code": "20004"
  },
  {
    "city": "washington",
    "zip_code": "20064"
  },
  {
    "city": "middleburg",
    "zip_code": "20118"
  },
  {
    "city": "benedict",
    "zip_code": "20612"
  },
  {
    "city": "saint inigoes",
    "zip_code": "20684"
  },
  {
    "city": "temple hills",
    "zip_code": "20748"
  },
  {
    "city": "greenbelt",
    "zip_code": "20770"
  },
  {
    "city": "barnesville",
    "zip_code": "20838"
  },
  {
    "city": "elkridge",
    "zip_code": "21075"
  },
  {
    "city": "westminster",
    "zip_code": "21157"
  },
  {
    "city": "middle river",
    "zip_code": "21220"
  },
  {
    "city": "baltimore",
    "zip_code": "21223"
  },
  {
    "city": "hague",
    "zip_code": "22469"
  },
  {
    "city": "irvington",
    "zip_code": "22480"
  },
  {
    "city": "rhoadesville",
    "zip_code": "22542"
  },
  {
    "city": "newburg",
    "zip_code": "58762"
  },
  {
    "city": "parshall",
    "zip_code": "58770"
  },
  {
    "city": "ryder",
    "zip_code": "58779"
  },
  {
    "city": "kinsey",
    "zip_code": "59338"
  },
  {
    "city": "great falls",
    "zip_code": "59405"
  },
  {
    "city": "hilger",
    "zip_code": "59451"
  },
  {
    "city": "roy",
    "zip_code": "59471"
  },
  {
    "city": "winifred",
    "zip_code": "59489"
  },
  {
    "city": "butte",
    "zip_code": "59701"
  },
  {
    "city": "noxon",
    "zip_code": "59853"
  },
  {
    "city": "eureka",
    "zip_code": "59917"
  },
  {
    "city": "olney",
    "zip_code": "59927"
  },
  {
    "city": "ingleside",
    "zip_code": "60041"
  },
  {
    "city": "mount prospect",
    "zip_code": "60056"
  },
  {
    "city": "ringwood",
    "zip_code": "60072"
  },
  {
    "city": "skokie",
    "zip_code": "60077"
  },
  {
    "city": "franklin park",
    "zip_code": "60131"
  },
  {
    "city": "marengo",
    "zip_code": "60152"
  },
  {
    "city": "schaumburg",
    "zip_code": "60193"
  },
  {
    "city": "crest hill",
    "zip_code": "60403"
  },
  {
    "city": "romeoville",
    "zip_code": "60446"
  },
  {
    "city": "verona",
    "zip_code": "60479"
  },
  {
    "city": "aurora",
    "zip_code": "60506"
  },
  {
    "city": "chicago",
    "zip_code": "60606"
  },
  {
    "city": "chicago",
    "zip_code": "60609"
  },
  {
    "city": "chicago",
    "zip_code": "60629"
  },
  {
    "city": "campus",
    "zip_code": "60920"
  },
  {
    "city": "kempton",
    "zip_code": "60946"
  },
  {
    "city": "onarga",
    "zip_code": "60955"
  },
  {
    "city": "dakota",
    "zip_code": "61018"
  },
  {
    "city": "oregon",
    "zip_code": "61061"
  },
  {
    "city": "south beloit",
    "zip_code": "61080"
  },
  {
    "city": "machesney park",
    "zip_code": "61115"
  },
  {
    "city": "hillsdale",
    "zip_code": "61257"
  },
  {
    "city": "joy",
    "zip_code": "61260"
  },
  {
    "city": "sherrard",
    "zip_code": "61281"
  },
  {
    "city": "dalzell",
    "zip_code": "61320"
  },
  {
    "city": "alpha",
    "zip_code": "61413"
  },
  {
    "city": "fairview",
    "zip_code": "61432"
  },
  {
    "city": "gladstone",
    "zip_code": "61437"
  },
  {
    "city": "kewanee",
    "zip_code": "61443"
  },
  {
    "city": "canton",
    "zip_code": "61520"
  },
  {
    "city": "la rose",
    "zip_code": "61541"
  },
  {
    "city": "lewistown",
    "zip_code": "61542"
  },
  {
    "city": "gridley",
    "zip_code": "61744"
  },
  {
    "city": "saybrook",
    "zip_code": "61770"
  },
  {
    "city": "weldon",
    "zip_code": "61882"
  },
  {
    "city": "metcalf",
    "zip_code": "61940"
  },
  {
    "city": "alton",
    "zip_code": "62002"
  },
  {
    "city": "benld",
    "zip_code": "62009"
  },
  {
    "city": "dow",
    "zip_code": "62022"
  },
  {
    "city": "new douglas",
    "zip_code": "62074"
  },
  {
    "city": "taylor springs",
    "zip_code": "62089"
  },
  {
    "city": "addieville",
    "zip_code": "62214"
  },
  {
    "city": "dupo",
    "zip_code": "62239"
  },
  {
    "city": "loraine",
    "zip_code": "62349"
  },
  {
    "city": "sutter",
    "zip_code": "62373"
  },
  {
    "city": "greenup",
    "zip_code": "62428"
  },
  {
    "city": "toledo",
    "zip_code": "62468"
  },
  {
    "city": "emden",
    "zip_code": "62635"
  },
  {
    "city": "waverly",
    "zip_code": "62692"
  },
  {
    "city": "flora",
    "zip_code": "62839"
  },
  {
    "city": "keenes",
    "zip_code": "62851"
  },
  {
    "city": "dongola",
    "zip_code": "62926"
  },
  {
    "city": "high ridge",
    "zip_code": "63049"
  },
  {
    "city": "kimmswick",
    "zip_code": "63053"
  },
  {
    "city": "pevely",
    "zip_code": "63070"
  },
  {
    "city": "saint louis",
    "zip_code": "63103"
  },
  {
    "city": "bowling green",
    "zip_code": "63334"
  },
  {
    "city": "eolia",
    "zip_code": "63344"
  },
  {
    "city": "marthasville",
    "zip_code": "63357"
  },
  {
    "city": "wright city",
    "zip_code": "63390"
  },
  {
    "city": "newark",
    "zip_code": "63458"
  },
  {
    "city": "marble hill",
    "zip_code": "63764"
  },
  {
    "city": "perkins",
    "zip_code": "63774"
  },
  {
    "city": "steele",
    "zip_code": "63877"
  },
  {
    "city": "whiteoak",
    "zip_code": "63880"
  },
  {
    "city": "qulin",
    "zip_code": "63961"
  },
  {
    "city": "independence",
    "zip_code": "64050"
  },
  {
    "city": "lone jack",
    "zip_code": "64070"
  },
  {
    "city": "kansas city",
    "zip_code": "64119"
  },
  {
    "city": "kansas city",
    "zip_code": "64146"
  },
  {
    "city": "lathrop",
    "zip_code": "64465"
  },
  {
    "city": "pickering",
    "zip_code": "64476"
  },
  {
    "city": "saint joseph",
    "zip_code": "64505"
  },
  {
    "city": "coffey",
    "zip_code": "64636"
  },
  {
    "city": "galt",
    "zip_code": "64641"
  },
  {
    "city": "lock springs",
    "zip_code": "64654"
  },
  {
    "city": "amoret",
    "zip_code": "64722"
  },
  {
    "city": "oronogo",
    "zip_code": "64855"
  },
  {
    "city": "wentworth",
    "zip_code": "64873"
  },
  {
    "city": "bonnots mill",
    "zip_code": "65016"
  },
  {
    "city": "chamois",
    "zip_code": "65024"
  },
  {
    "city": "saint elizabeth",
    "zip_code": "65075"
  },
  {
    "city": "tuscumbia",
    "zip_code": "65082"
  },
  {
    "city": "boonville",
    "zip_code": "65233"
  },
  {
    "city": "florence",
    "zip_code": "65329"
  },
  {
    "city": "lebanon",
    "zip_code": "65536"
  },
  {
    "city": "summersville",
    "zip_code": "65571"
  },
  {
    "city": "yukon",
    "zip_code": "65589"
  },
  {
    "city": "isabella",
    "zip_code": "65676"
  },
  {
    "city": "lockwood",
    "zip_code": "65682"
  },
  {
    "city": "miller",
    "zip_code": "65707"
  },
  {
    "city": "preston",
    "zip_code": "65732"
  },
  {
    "city": "rantoul",
    "zip_code": "66079"
  },
  {
    "city": "wathena",
    "zip_code": "66090"
  },
  {
    "city": "fort riley",
    "zip_code": "66442"
  },
  {
    "city": "saint marys",
    "zip_code": "66536"
  },
  {
    "city": "topeka",
    "zip_code": "66621"
  },
  {
    "city": "la harpe",
    "zip_code": "66751"
  },
  {
    "city": "weir",
    "zip_code": "66781"
  },
  {
    "city": "athol",
    "zip_code": "66932"
  },
  {
    "city": "andover",
    "zip_code": "67002"
  },
  {
    "city": "belle plaine",
    "zip_code": "67013"
  },
  {
    "city": "haviland",
    "zip_code": "67059"
  },
  {
    "city": "wichita",
    "zip_code": "67213"
  },
  {
    "city": "rozel",
    "zip_code": "67574"
  },
  {
    "city": "cedar bluffs",
    "zip_code": "68015"
  },
  {
    "city": "elkhorn",
    "zip_code": "68022"
  },
  {
    "city": "malmo",
    "zip_code": "68040"
  },
  {
    "city": "crete",
    "zip_code": "68333"
  },
  {
    "city": "dunbar",
    "zip_code": "68346"
  },
  {
    "city": "fairmont",
    "zip_code": "68354"
  },
  {
    "city": "lincoln",
    "zip_code": "68521"
  },
  {
    "city": "brainard",
    "zip_code": "68626"
  },
  {
    "city": "bloomfield",
    "zip_code": "68718"
  },
  {
    "city": "newcastle",
    "zip_code": "68757"
  },
  {
    "city": "anselmo",
    "zip_code": "68813"
  },
  {
    "city": "callaway",
    "zip_code": "68825"
  },
  {
    "city": "elba",
    "zip_code": "68835"
  },
  {
    "city": "oconto",
    "zip_code": "68860"
  },
  {
    "city": "sumner",
    "zip_code": "68878"
  },
  {
    "city": "ayr",
    "zip_code": "68925"
  },
  {
    "city": "red cloud",
    "zip_code": "68970"
  },
  {
    "city": "broadwater",
    "zip_code": "69125"
  },
  {
    "city": "grant",
    "zip_code": "69140"
  },
  {
    "city": "keystone",
    "zip_code": "69144"
  },
  {
    "city": "madrid",
    "zip_code": "69150"
  },
  {
    "city": "maxwell",
    "zip_code": "69151"
  },
  {
    "city": "minatare",
    "zip_code": "69356"
  },
  {
    "city": "gramercy",
    "zip_code": "70052"
  },
  {
    "city": "new orleans",
    "zip_code": "70139"
  },
  {
    "city": "mathews",
    "zip_code": "70375"
  },
  {
    "city": "merryville",
    "zip_code": "70653"
  },
  {
    "city": "baton rouge",
    "zip_code": "70805"
  },
  {
    "city": "doyline",
    "zip_code": "71023"
  },
  {
    "city": "ringgold",
    "zip_code": "71068"
  },
  {
    "city": "shreveport",
    "zip_code": "71104"
  },
  {
    "city": "bossier city",
    "zip_code": "71112"
  },
  {
    "city": "downsville",
    "zip_code": "71234"
  },
  {
    "city": "grambling",
    "zip_code": "71245"
  },
  {
    "city": "provencal",
    "zip_code": "71468"
  },
  {
    "city": "simpson",
    "zip_code": "71474"
  },
  {
    "city": "moscow",
    "zip_code": "71659"
  },
  {
    "city": "wilmot",
    "zip_code": "71676"
  },
  {
    "city": "hope",
    "zip_code": "71801"
  },
  {
    "city": "dierks",
    "zip_code": "71833"
  },
  {
    "city": "amagon",
    "zip_code": "72005"
  },
  {
    "city": "lonoke",
    "zip_code": "72086"
  },
  {
    "city": "mayflower",
    "zip_code": "72106"
  },
  {
    "city": "north little rock",
    "zip_code": "72117"
  },
  {
    "city": "ravenden",
    "zip_code": "72459"
  },
  {
    "city": "sage",
    "zip_code": "72573"
  },
  {
    "city": "gassville",
    "zip_code": "72635"
  },
  {
    "city": "onia",
    "zip_code": "72663"
  },
  {
    "city": "pettigrew",
    "zip_code": "72752"
  },
  {
    "city": "blue mountain",
    "zip_code": "72826"
  },
  {
    "city": "london",
    "zip_code": "72847"
  },
  {
    "city": "lavaca",
    "zip_code": "72941"
  },
  {
    "city": "waldron",
    "zip_code": "72958"
  },
  {
    "city": "bethany",
    "zip_code": "73008"
  },
  {
    "city": "oklahoma city",
    "zip_code": "73114"
  },
  {
    "city": "madill",
    "zip_code": "73446"
  },
  {
    "city": "gould",
    "zip_code": "73544"
  },
  {
    "city": "indiahoma",
    "zip_code": "73552"
  },
  {
    "city": "kenton",
    "zip_code": "73946"
  },
  {
    "city": "slick",
    "zip_code": "74071"
  },
  {
    "city": "stillwater",
    "zip_code": "74074"
  },
  {
    "city": "terlton",
    "zip_code": "74081"
  },
  {
    "city": "red oak",
    "zip_code": "74563"
  },
  {
    "city": "fort towson",
    "zip_code": "74735"
  },
  {
    "city": "wright city",
    "zip_code": "74766"
  },
  {
    "city": "frisco",
    "zip_code": "75034"
  },
  {
    "city": "ferris",
    "zip_code": "75125"
  },
  {
    "city": "caddo mills",
    "zip_code": "75135"
  },
  {
    "city": "mesquite",
    "zip_code": "75149"
  },
  {
    "city": "trinidad",
    "zip_code": "75163"
  },
  {
    "city": "sunnyvale",
    "zip_code": "75182"
  },
  {
    "city": "dallas",
    "zip_code": "75203"
  },
  {
    "city": "melissa",
    "zip_code": "75454"
  },
  {
    "city": "randolph",
    "zip_code": "75475"
  },
  {
    "city": "annona",
    "zip_code": "75550"
  },
  {
    "city": "tyler",
    "zip_code": "75702"
  },
  {
    "city": "larue",
    "zip_code": "75770"
  },
  {
    "city": "centerville",
    "zip_code": "75833"
  },
  {
    "city": "leona",
    "zip_code": "75850"
  },
  {
    "city": "streetman",
    "zip_code": "75859"
  },
  {
    "city": "camden",
    "zip_code": "75934"
  },
  {
    "city": "etoile",
    "zip_code": "75944"
  },
  {
    "city": "aledo",
    "zip_code": "76008"
  },
  {
    "city": "grandview",
    "zip_code": "76050"
  },
  {
    "city": "hurst",
    "zip_code": "76054"
  },
  {
    "city": "kennedale",
    "zip_code": "76060"
  },
  {
    "city": "lillian",
    "zip_code": "76061"
  },
  {
    "city": "mansfield",
    "zip_code": "76063"
  },
  {
    "city": "newark",
    "zip_code": "76071"
  },
  {
    "city": "fort worth",
    "zip_code": "76123"
  },
  {
    "city": "denton",
    "zip_code": "76201"
  },
  {
    "city": "bowie",
    "zip_code": "76230"
  },
  {
    "city": "cross plains",
    "zip_code": "76443"
  },
  {
    "city": "avalon",
    "zip_code": "76623"
  },
  {
    "city": "hubbard",
    "zip_code": "76648"
  },
  {
    "city": "ballinger",
    "zip_code": "76821"
  },
  {
    "city": "mason",
    "zip_code": "76856"
  },
  {
    "city": "miles",
    "zip_code": "76861"
  },
  {
    "city": "paint rock",
    "zip_code": "76866"
  },
  {
    "city": "richland springs",
    "zip_code": "76871"
  },
  {
    "city": "vancourt",
    "zip_code": "76955"
  },
  {
    "city": "water valley",
    "zip_code": "76958"
  },
  {
    "city": "houston",
    "zip_code": "77020"
  },
  {
    "city": "houston",
    "zip_code": "77041"
  },
  {
    "city": "houston",
    "zip_code": "77086"
  },
  {
    "city": "houston",
    "zip_code": "77090"
  },
  {
    "city": "houston",
    "zip_code": "77099"
  },
  {
    "city": "montgomery",
    "zip_code": "77316"
  },
  {
    "city": "riverside",
    "zip_code": "77367"
  },
  {
    "city": "conroe",
    "zip_code": "77384"
  },
  {
    "city": "richmond",
    "zip_code": "77406"
  },
  {
    "city": "chappell hill",
    "zip_code": "77426"
  },
  {
    "city": "louise",
    "zip_code": "77455"
  },
  {
    "city": "matagorda",
    "zip_code": "77457"
  },
  {
    "city": "palacios",
    "zip_code": "77465"
  },
  {
    "city": "high island",
    "zip_code": "77623"
  },
  {
    "city": "beaumont",
    "zip_code": "77705"
  },
  {
    "city": "hallettsville",
    "zip_code": "77964"
  },
  {
    "city": "shiner",
    "zip_code": "77984"
  },
  {
    "city": "rio medina",
    "zip_code": "78066"
  },
  {
    "city": "converse",
    "zip_code": "78109"
  },
  {
    "city": "new braunfels",
    "zip_code": "78130"
  },
  {
    "city": "universal city",
    "zip_code": "78148"
  },
  {
    "city": "san antonio",
    "zip_code": "78225"
  },
  {
    "city": "aransas pass",
    "zip_code": "78335"
  },
  {
    "city": "fulton",
    "zip_code": "78358"
  },
  {
    "city": "sandia",
    "zip_code": "78383"
  },
  {
    "city": "rio grande city",
    "zip_code": "78582"
  },
  {
    "city": "dripping springs",
    "zip_code": "78620"
  },
  {
    "city": "kingsbury",
    "zip_code": "78638"
  },
  {
    "city": "austin",
    "zip_code": "78717"
  },
  {
    "city": "austin",
    "zip_code": "78747"
  },
  {
    "city": "austin",
    "zip_code": "78751"
  },
  {
    "city": "brackettville",
    "zip_code": "78832"
  },
  {
    "city": "catarina",
    "zip_code": "78836"
  },
  {
    "city": "schulenburg",
    "zip_code": "78956"
  },
  {
    "city": "canadian",
    "zip_code": "79014"
  },
  {
    "city": "farnsworth",
    "zip_code": "79033"
  },
  {
    "city": "amarillo",
    "zip_code": "79104"
  },
  {
    "city": "amarillo",
    "zip_code": "79108"
  },
  {
    "city": "afton",
    "zip_code": "79220"
  },
  {
    "city": "dougherty",
    "zip_code": "79231"
  },
  {
    "city": "mcadoo",
    "zip_code": "79243"
  },
  {
    "city": "clyde",
    "zip_code": "79510"
  },
  {
    "city": "denver",
    "zip_code": "80221"
  },
  {
    "city": "denver",
    "zip_code": "80228"
  },
  {
    "city": "denver",
    "zip_code": "80232"
  },
  {
    "city": "denver",
    "zip_code": "80249"
  },
  {
    "city": "hot sulphur springs",
    "zip_code": "80451"
  },
  {
    "city": "fort collins",
    "zip_code": "80528"
  },
  {
    "city": "ault",
    "zip_code": "80610"
  },
  {
    "city": "carr",
    "zip_code": "80612"
  },
  {
    "city": "brush",
    "zip_code": "80723"
  },
  {
    "city": "arboles",
    "zip_code": "81121"
  },
  {
    "city": "almont",
    "zip_code": "81210"
  },
  {
    "city": "cotopaxi",
    "zip_code": "81223"
  },
  {
    "city": "dove creek",
    "zip_code": "81324"
  },
  {
    "city": "aspen",
    "zip_code": "81612"
  },
  {
    "city": "rifle",
    "zip_code": "81650"
  },
  {
    "city": "cheyenne",
    "zip_code": "82009"
  },
  {
    "city": "granite canon",
    "zip_code": "82059"
  },
  {
    "city": "laramie",
    "zip_code": "82073"
  },
  {
    "city": "wheatland",
    "zip_code": "82201"
  },
  {
    "city": "sinclair",
    "zip_code": "82334"
  },
  {
    "city": "ten sleep",
    "zip_code": "82442"
  },
  {
    "city": "hudson",
    "zip_code": "82515"
  },
  {
    "city": "mills",
    "zip_code": "82644"
  },
  {
    "city": "evanston",
    "zip_code": "82930"
  },
  {
    "city": "clayton",
    "zip_code": "83227"
  },
  {
    "city": "soda springs",
    "zip_code": "83276"
  },
  {
    "city": "gooding",
    "zip_code": "83330"
  },
  {
    "city": "island park",
    "zip_code": "83429"
  },
  {
    "city": "grand view",
    "zip_code": "83624"
  },
  {
    "city": "kuna",
    "zip_code": "83634"
  },
  {
    "city": "ola",
    "zip_code": "83657"
  },
  {
    "city": "parma",
    "zip_code": "83660"
  },
  {
    "city": "boise",
    "zip_code": "83713"
  },
  {
    "city": "harvard",
    "zip_code": "83834"
  },
  {
    "city": "hope",
    "zip_code": "83836"
  },
  {
    "city": "murray",
    "zip_code": "83874"
  },
  {
    "city": "bluebell",
    "zip_code": "84007"
  },
  {
    "city": "centerville",
    "zip_code": "84014"
  },
  {
    "city": "lehi",
    "zip_code": "84043"
  },
  {
    "city": "orem",
    "zip_code": "84097"
  },
  {
    "city": "salt lake city",
    "zip_code": "84109"
  },
  {
    "city": "hyrum",
    "zip_code": "84319"
  },
  {
    "city": "bluff",
    "zip_code": "84512"
  },
  {
    "city": "green river",
    "zip_code": "84525"
  },
  {
    "city": "moroni",
    "zip_code": "84646"
  },
  {
    "city": "antimony",
    "zip_code": "84712"
  },
  {
    "city": "cedar city",
    "zip_code": "84720"
  },
  {
    "city": "central",
    "zip_code": "84722"
  },
  {
    "city": "glendale",
    "zip_code": "84729"
  },
  {
    "city": "scottsdale",
    "zip_code": "85257"
  },
  {
    "city": "cibola",
    "zip_code": "85328"
  },
  {
    "city": "dateland",
    "zip_code": "85333"
  },
  {
    "city": "wellton",
    "zip_code": "85356"
  },
  {
    "city": "yuma",
    "zip_code": "85364"
  },
  {
    "city": "bylas",
    "zip_code": "85530"
  },
  {
    "city": "peridot",
    "zip_code": "85542"
  },
  {
    "city": "marana",
    "zip_code": "85653"
  },
  {
    "city": "tucson",
    "zip_code": "85723"
  },
  {
    "city": "parks",
    "zip_code": "86018"
  },
  {
    "city": "prescott",
    "zip_code": "86303"
  },
  {
    "city": "crown king",
    "zip_code": "86343"
  },
  {
    "city": "la jara",
    "zip_code": "87027"
  },
  {
    "city": "san ysidro",
    "zip_code": "87053"
  },
  {
    "city": "tijeras",
    "zip_code": "87059"
  },
  {
    "city": "santa fe",
    "zip_code": "87506"
  },
  {
    "city": "alcalde",
    "zip_code": "87511"
  },
  {
    "city": "lamy",
    "zip_code": "87540"
  },
  {
    "city": "pecos",
    "zip_code": "87552"
  },
  {
    "city": "cleveland",
    "zip_code": "87715"
  },
  {
    "city": "white sands missile range",
    "zip_code": "88002"
  },
  {
    "city": "fort sumner",
    "zip_code": "88119"
  },
  {
    "city": "milnesand",
    "zip_code": "88125"
  },
  {
    "city": "pep",
    "zip_code": "88126"
  },
  {
    "city": "tinnie",
    "zip_code": "88351"
  },
  {
    "city": "ruidoso",
    "zip_code": "88355"
  },
  {
    "city": "las vegas",
    "zip_code": "89128"
  },
  {
    "city": "las vegas",
    "zip_code": "89131"
  },
  {
    "city": "las vegas",
    "zip_code": "89166"
  },
  {
    "city": "eureka",
    "zip_code": "89316"
  },
  {
    "city": "mcgill",
    "zip_code": "89318"
  },
  {
    "city": "lamoille",
    "zip_code": "89828"
  },
  {
    "city": "wells",
    "zip_code": "89835"
  },
  {
    "city": "los angeles",
    "zip_code": "90028"
  },
  {
    "city": "los angeles",
    "zip_code": "90031"
  },
  {
    "city": "los angeles",
    "zip_code": "90065"
  },
  {
    "city": "los angeles",
    "zip_code": "90071"
  },
  {
    "city": "downey",
    "zip_code": "90241"
  },
  {
    "city": "downey",
    "zip_code": "90242"
  },
  {
    "city": "torrance",
    "zip_code": "90502"
  },
  {
    "city": "harbor city",
    "zip_code": "90710"
  },
  {
    "city": "lakewood",
    "zip_code": "90713"
  },
  {
    "city": "surfside",
    "zip_code": "90743"
  },
  {
    "city": "glendale",
    "zip_code": "91205"
  },
  {
    "city": "chatsworth",
    "zip_code": "91311"
  },
  {
    "city": "pomona",
    "zip_code": "91768"
  },
  {
    "city": "national city",
    "zip_code": "91950"
  },
  {
    "city": "oceanside",
    "zip_code": "92057"
  },
  {
    "city": "poway",
    "zip_code": "92064"
  },
  {
    "city": "san diego",
    "zip_code": "92120"
  },
  {
    "city": "san diego",
    "zip_code": "92154"
  },
  {
    "city": "earp",
    "zip_code": "92242"
  },
  {
    "city": "westmorland",
    "zip_code": "92281"
  },
  {
    "city": "post",
    "zip_code": "97752"
  },
  {
    "city": "halfway",
    "zip_code": "97834"
  },
  {
    "city": "north bend",
    "zip_code": "98045"
  },
  {
    "city": "woodinville",
    "zip_code": "98072"
  },
  {
    "city": "brooklyn",
    "zip_code": "21225"
  },
  {
    "city": "still pond",
    "zip_code": "21667"
  },
  {
    "city": "buckeystown",
    "zip_code": "21717"
  },
  {
    "city": "elkton",
    "zip_code": "21921"
  },
  {
    "city": "quantico",
    "zip_code": "22134"
  },
  {
    "city": "vienna",
    "zip_code": "22180"
  },
  {
    "city": "pratts",
    "zip_code": "22731"
  },
  {
    "city": "timberville",
    "zip_code": "22853"
  },
  {
    "city": "cartersville",
    "zip_code": "23027"
  },
  {
    "city": "dutton",
    "zip_code": "23050"
  },
  {
    "city": "gloucester point",
    "zip_code": "23062"
  },
  {
    "city": "manquin",
    "zip_code": "23106"
  },
  {
    "city": "mathews",
    "zip_code": "23109"
  },
  {
    "city": "quinton",
    "zip_code": "23141"
  },
  {
    "city": "williamsburg",
    "zip_code": "23188"
  },
  {
    "city": "richmond",
    "zip_code": "23220"
  },
  {
    "city": "richmond",
    "zip_code": "23237"
  },
  {
    "city": "chesapeake",
    "zip_code": "23325"
  },
  {
    "city": "mappsville",
    "zip_code": "23407"
  },
  {
    "city": "parksley",
    "zip_code": "23421"
  },
  {
    "city": "windsor",
    "zip_code": "23487"
  },
  {
    "city": "dendron",
    "zip_code": "23839"
  },
  {
    "city": "drewryville",
    "zip_code": "23844"
  },
  {
    "city": "freeman",
    "zip_code": "23856"
  },
  {
    "city": "white plains",
    "zip_code": "23893"
  },
  {
    "city": "yale",
    "zip_code": "23897"
  },
  {
    "city": "elliston",
    "zip_code": "24087"
  },
  {
    "city": "ferrum",
    "zip_code": "24088"
  },
  {
    "city": "glade spring",
    "zip_code": "24340"
  },
  {
    "city": "alton",
    "zip_code": "24520"
  },
  {
    "city": "danville",
    "zip_code": "24541"
  },
  {
    "city": "beeson",
    "zip_code": "24714"
  },
  {
    "city": "nemours",
    "zip_code": "24738"
  },
  {
    "city": "hanover",
    "zip_code": "24839"
  },
  {
    "city": "hensley",
    "zip_code": "24843"
  },
  {
    "city": "lynco",
    "zip_code": "24857"
  },
  {
    "city": "frankford",
    "zip_code": "24938"
  },
  {
    "city": "smoot",
    "zip_code": "24977"
  },
  {
    "city": "dorothy",
    "zip_code": "25060"
  },
  {
    "city": "miami",
    "zip_code": "25134"
  },
  {
    "city": "nebo",
    "zip_code": "25141"
  },
  {
    "city": "martinsburg",
    "zip_code": "25405"
  },
  {
    "city": "ranson",
    "zip_code": "25438"
  },
  {
    "city": "hurricane",
    "zip_code": "25526"
  },
  {
    "city": "lesage",
    "zip_code": "25537"
  },
  {
    "city": "kermit",
    "zip_code": "25674"
  },
  {
    "city": "ravencliff",
    "zip_code": "25913"
  },
  {
    "city": "rhodell",
    "zip_code": "25915"
  },
  {
    "city": "winona",
    "zip_code": "25942"
  },
  {
    "city": "camden on gauley",
    "zip_code": "26208"
  },
  {
    "city": "pickens",
    "zip_code": "26230"
  },
  {
    "city": "belington",
    "zip_code": "26250"
  },
  {
    "city": "bowden",
    "zip_code": "26254"
  },
  {
    "city": "valley head",
    "zip_code": "26294"
  },
  {
    "city": "bergoo",
    "zip_code": "26298"
  },
  {
    "city": "birch river",
    "zip_code": "26610"
  },
  {
    "city": "capon bridge",
    "zip_code": "26711"
  },
  {
    "city": "terra alta",
    "zip_code": "26764"
  },
  {
    "city": "hamptonville",
    "zip_code": "27020"
  },
  {
    "city": "mount gilead",
    "zip_code": "27306"
  },
  {
    "city": "robbins",
    "zip_code": "27325"
  },
  {
    "city": "angier",
    "zip_code": "27501"
  },
  {
    "city": "henderson",
    "zip_code": "27536"
  },
  {
    "city": "raleigh",
    "zip_code": "27612"
  },
  {
    "city": "aulander",
    "zip_code": "27805"
  },
  {
    "city": "edward",
    "zip_code": "27821"
  },
  {
    "city": "gaston",
    "zip_code": "27832"
  },
  {
    "city": "saratoga",
    "zip_code": "27873"
  },
  {
    "city": "woodland",
    "zip_code": "27897"
  },
  {
    "city": "barco",
    "zip_code": "27917"
  },
  {
    "city": "nags head",
    "zip_code": "27959"
  },
  {
    "city": "mount olive",
    "zip_code": "28365"
  },
  {
    "city": "lowland",
    "zip_code": "28552"
  },
  {
    "city": "boomer",
    "zip_code": "28606"
  },
  {
    "city": "crumpler",
    "zip_code": "28617"
  },
  {
    "city": "drexel",
    "zip_code": "28619"
  },
  {
    "city": "rutherford college",
    "zip_code": "28671"
  },
  {
    "city": "sparta",
    "zip_code": "28675"
  },
  {
    "city": "glenville",
    "zip_code": "28736"
  },
  {
    "city": "asheville",
    "zip_code": "28805"
  },
  {
    "city": "eastover",
    "zip_code": "29044"
  },
  {
    "city": "jenkinsville",
    "zip_code": "29065"
  },
  {
    "city": "north",
    "zip_code": "29112"
  },
  {
    "city": "columbia",
    "zip_code": "29207"
  },
  {
    "city": "columbia",
    "zip_code": "29210"
  },
  {
    "city": "clinton",
    "zip_code": "29325"
  },
  {
    "city": "charleston afb",
    "zip_code": "29404"
  },
  {
    "city": "adams run",
    "zip_code": "29426"
  },
  {
    "city": "green pond",
    "zip_code": "29446"
  },
  {
    "city": "round o",
    "zip_code": "29474"
  },
  {
    "city": "aynor",
    "zip_code": "29511"
  },
  {
    "city": "pawleys island",
    "zip_code": "29585"
  },
  {
    "city": "easley",
    "zip_code": "29642"
  },
  {
    "city": "blacksburg",
    "zip_code": "29702"
  },
  {
    "city": "lancaster",
    "zip_code": "29720"
  },
  {
    "city": "ulmer",
    "zip_code": "29849"
  },
  {
    "city": "pineland",
    "zip_code": "29934"
  },
  {
    "city": "port royal",
    "zip_code": "29935"
  },
  {
    "city": "decatur",
    "zip_code": "30030"
  },
  {
    "city": "cumming",
    "zip_code": "30040"
  },
  {
    "city": "snellville",
    "zip_code": "30078"
  },
  {
    "city": "carrollton",
    "zip_code": "30117"
  },
  {
    "city": "lithia springs",
    "zip_code": "30122"
  },
  {
    "city": "kennesaw",
    "zip_code": "30144"
  },
  {
    "city": "palmetto",
    "zip_code": "30268"
  },
  {
    "city": "union city",
    "zip_code": "30291"
  },
  {
    "city": "metter",
    "zip_code": "30439"
  },
  {
    "city": "cherry log",
    "zip_code": "30522"
  },
  {
    "city": "rabun gap",
    "zip_code": "30568"
  },
  {
    "city": "athens",
    "zip_code": "30601"
  },
  {
    "city": "hull",
    "zip_code": "30646"
  },
  {
    "city": "union point",
    "zip_code": "30669"
  },
  {
    "city": "appling",
    "zip_code": "30802"
  },
  {
    "city": "waynesboro",
    "zip_code": "30830"
  },
  {
    "city": "augusta",
    "zip_code": "30906"
  },
  {
    "city": "santa ana",
    "zip_code": "92701"
  },
  {
    "city": "tustin",
    "zip_code": "92780"
  },
  {
    "city": "corcoran",
    "zip_code": "93212"
  },
  {
    "city": "ivanhoe",
    "zip_code": "93235"
  },
  {
    "city": "ahwahnee",
    "zip_code": "93601"
  },
  {
    "city": "raymond",
    "zip_code": "93653"
  },
  {
    "city": "chualar",
    "zip_code": "93925"
  },
  {
    "city": "belmont",
    "zip_code": "94002"
  },
  {
    "city": "daly city",
    "zip_code": "94015"
  },
  {
    "city": "half moon bay",
    "zip_code": "94019"
  },
  {
    "city": "san francisco",
    "zip_code": "94130"
  },
  {
    "city": "alameda",
    "zip_code": "94502"
  },
  {
    "city": "byron",
    "zip_code": "94514"
  },
  {
    "city": "hercules",
    "zip_code": "94547"
  },
  {
    "city": "dublin",
    "zip_code": "94568"
  },
  {
    "city": "rutherford",
    "zip_code": "94573"
  },
  {
    "city": "emeryville",
    "zip_code": "94608"
  },
  {
    "city": "oakland",
    "zip_code": "94610"
  },
  {
    "city": "richmond",
    "zip_code": "94801"
  },
  {
    "city": "richmond",
    "zip_code": "94804"
  },
  {
    "city": "los gatos",
    "zip_code": "95033"
  },
  {
    "city": "san jose",
    "zip_code": "95134"
  },
  {
    "city": "stockton",
    "zip_code": "95202"
  },
  {
    "city": "stockton",
    "zip_code": "95203"
  },
  {
    "city": "stockton",
    "zip_code": "95206"
  },
  {
    "city": "stockton",
    "zip_code": "95211"
  },
  {
    "city": "lodi",
    "zip_code": "95240"
  },
  {
    "city": "mountain ranch",
    "zip_code": "95246"
  },
  {
    "city": "stevinson",
    "zip_code": "95374"
  },
  {
    "city": "turlock",
    "zip_code": "95380"
  },
  {
    "city": "annapolis",
    "zip_code": "95412"
  },
  {
    "city": "boonville",
    "zip_code": "95415"
  },
  {
    "city": "fulton",
    "zip_code": "95439"
  },
  {
    "city": "graton",
    "zip_code": "95444"
  },
  {
    "city": "somes bar",
    "zip_code": "95568"
  },
  {
    "city": "redcrest",
    "zip_code": "95569"
  },
  {
    "city": "elk grove",
    "zip_code": "95757"
  },
  {
    "city": "sacramento",
    "zip_code": "95828"
  },
  {
    "city": "sacramento",
    "zip_code": "95838"
  },
  {
    "city": "browns valley",
    "zip_code": "95918"
  },
  {
    "city": "brownsville",
    "zip_code": "95919"
  },
  {
    "city": "grimes",
    "zip_code": "95950"
  },
  {
    "city": "north san juan",
    "zip_code": "95960"
  },
  {
    "city": "palermo",
    "zip_code": "95968"
  },
  {
    "city": "taylorsville",
    "zip_code": "95983"
  },
  {
    "city": "forks of salmon",
    "zip_code": "96031"
  },
  {
    "city": "klamath river",
    "zip_code": "96050"
  },
  {
    "city": "palo cedro",
    "zip_code": "96073"
  },
  {
    "city": "shingletown",
    "zip_code": "96088"
  },
  {
    "city": "cedarville",
    "zip_code": "96104"
  },
  {
    "city": "chilcoot",
    "zip_code": "96105"
  },
  {
    "city": "floriston",
    "zip_code": "96111"
  },
  {
    "city": "kapaa",
    "zip_code": "96746"
  },
  {
    "city": "kihei",
    "zip_code": "96753"
  },
  {
    "city": "waianae",
    "zip_code": "96792"
  },
  {
    "city": "waipahu",
    "zip_code": "96797"
  },
  {
    "city": "jbphh",
    "zip_code": "96853"
  },
  {
    "city": "hubbard",
    "zip_code": "97032"
  },
  {
    "city": "molalla",
    "zip_code": "97038"
  },
  {
    "city": "portland",
    "zip_code": "97203"
  },
  {
    "city": "portland",
    "zip_code": "97208"
  },
  {
    "city": "brownsville",
    "zip_code": "97327"
  },
  {
    "city": "lebanon",
    "zip_code": "97355"
  },
  {
    "city": "mount angel",
    "zip_code": "97362"
  },
  {
    "city": "mehama",
    "zip_code": "97384"
  },
  {
    "city": "junction city",
    "zip_code": "97448"
  },
  {
    "city": "lakeside",
    "zip_code": "97449"
  },
  {
    "city": "port orford",
    "zip_code": "97465"
  },
  {
    "city": "chiloquin",
    "zip_code": "97624"
  },
  {
    "city": "new pine creek",
    "zip_code": "97635"
  },
  {
    "city": "seattle",
    "zip_code": "98121"
  },
  {
    "city": "snohomish",
    "zip_code": "98296"
  },
  {
    "city": "forks",
    "zip_code": "98331"
  },
  {
    "city": "nordland",
    "zip_code": "98358"
  },
  {
    "city": "puyallup",
    "zip_code": "98372"
  },
  {
    "city": "mooreton",
    "zip_code": "58061"
  },
  {
    "city": "wahpeton",
    "zip_code": "58076"
  },
  {
    "city": "forest river",
    "zip_code": "58233"
  },
  {
    "city": "northwood",
    "zip_code": "58267"
  },
  {
    "city": "park river",
    "zip_code": "58270"
  },
  {
    "city": "pisek",
    "zip_code": "58273"
  },
  {
    "city": "sharon",
    "zip_code": "58277"
  },
  {
    "city": "devils lake",
    "zip_code": "58301"
  },
  {
    "city": "mylo",
    "zip_code": "58353"
  },
  {
    "city": "fessenden",
    "zip_code": "58438"
  },
  {
    "city": "streeter",
    "zip_code": "58483"
  },
  {
    "city": "sutton",
    "zip_code": "58484"
  },
  {
    "city": "bismarck",
    "zip_code": "58505"
  },
  {
    "city": "braddock",
    "zip_code": "58524"
  },
  {
    "city": "moffit",
    "zip_code": "58560"
  },
  {
    "city": "bowman",
    "zip_code": "58623"
  },
  {
    "city": "mott",
    "zip_code": "58646"
  },
  {
    "city": "minot",
    "zip_code": "58701"
  },
  {
    "city": "minot",
    "zip_code": "58707"
  },
  {
    "city": "antler",
    "zip_code": "58711"
  },
  {
    "city": "des lacs",
    "zip_code": "58733"
  },
  {
    "city": "mcchord afb",
    "zip_code": "98438"
  },
  {
    "city": "allyn",
    "zip_code": "98524"
  },
  {
    "city": "centralia",
    "zip_code": "98531"
  },
  {
    "city": "quinault",
    "zip_code": "98575"
  },
  {
    "city": "ilwaco",
    "zip_code": "98624"
  },
  {
    "city": "kalama",
    "zip_code": "98625"
  },
  {
    "city": "ridgefield",
    "zip_code": "98642"
  },
  {
    "city": "vancouver",
    "zip_code": "98683"
  },
  {
    "city": "palisades",
    "zip_code": "98845"
  },
  {
    "city": "grandview",
    "zip_code": "98930"
  },
  {
    "city": "wapato",
    "zip_code": "98951"
  },
  {
    "city": "albion",
    "zip_code": "99102"
  },
  {
    "city": "ione",
    "zip_code": "99139"
  },
  {
    "city": "usk",
    "zip_code": "99180"
  },
  {
    "city": "jber",
    "zip_code": "99505"
  },
  {
    "city": "jber",
    "zip_code": "99506"
  },
  {
    "city": "anchorage",
    "zip_code": "99516"
  },
  {
    "city": "kasilof",
    "zip_code": "99610"
  },
  {
    "city": "sutton",
    "zip_code": "99674"
  },
  {
    "city": "tatitlek",
    "zip_code": "99677"
  },
  {
    "city": "clear",
    "zip_code": "99704"
  },
  {
    "city": "allakaket",
    "zip_code": "99720"
  },
  {
    "city": "circle",
    "zip_code": "99733"
  },
  {
    "city": "galena",
    "zip_code": "99741"
  },
  {
    "city": "kobuk",
    "zip_code": "99751"
  },
  {
    "city": "noatak",
    "zip_code": "99761"
  },
  {
    "city": "rampart",
    "zip_code": "99767"
  },
  {
    "city": "woodbridge",
    "zip_code": "7095"
  },
  {
    "city": "bergenfield",
    "zip_code": "7621"
  },
  {
    "city": "englewood",
    "zip_code": "7631"
  },
  {
    "city": "marlboro",
    "zip_code": "7746"
  },
  {
    "city": "blairstown",
    "zip_code": "7825"
  },
  {
    "city": "hopatcong",
    "zip_code": "7843"
  },
  {
    "city": "oxford",
    "zip_code": "7863"
  },
  {
    "city": "basking ridge",
    "zip_code": "7920"
  },
  {
    "city": "mendham",
    "zip_code": "7945"
  },
  {
    "city": "princeton",
    "zip_code": "8542"
  },
  {
    "city": "new windsor",
    "zip_code": "21776"
  },
  {
    "city": "arlington",
    "zip_code": "22214"
  },
  {
    "city": "montross",
    "zip_code": "22520"
  },
  {
    "city": "spotsylvania",
    "zip_code": "22553"
  },
  {
    "city": "stafford",
    "zip_code": "22554"
  },
  {
    "city": "toms brook",
    "zip_code": "22660"
  },
  {
    "city": "woodville",
    "zip_code": "22749"
  },
  {
    "city": "quicksburg",
    "zip_code": "22847"
  },
  {
    "city": "max",
    "zip_code": "58759"
  },
  {
    "city": "new town",
    "zip_code": "58763"
  },
  {
    "city": "alexander",
    "zip_code": "58831"
  },
  {
    "city": "cooke city",
    "zip_code": "59020"
  },
  {
    "city": "lame deer",
    "zip_code": "59043"
  },
  {
    "city": "antelope",
    "zip_code": "59211"
  },
  {
    "city": "froid",
    "zip_code": "59226"
  },
  {
    "city": "colstrip",
    "zip_code": "59323"
  },
  {
    "city": "ledger",
    "zip_code": "59456"
  },
  {
    "city": "chinook",
    "zip_code": "59523"
  },
  {
    "city": "basin",
    "zip_code": "59631"
  },
  {
    "city": "east helena",
    "zip_code": "59635"
  },
  {
    "city": "deer lodge",
    "zip_code": "59722"
  },
  {
    "city": "hall",
    "zip_code": "59837"
  },
  {
    "city": "hamilton",
    "zip_code": "59840"
  },
  {
    "city": "heron",
    "zip_code": "59844"
  },
  {
    "city": "milltown",
    "zip_code": "59851"
  },
  {
    "city": "elk grove village",
    "zip_code": "60007"
  },
  {
    "city": "island lake",
    "zip_code": "60042"
  },
  {
    "city": "round lake",
    "zip_code": "60073"
  },
  {
    "city": "cortland",
    "zip_code": "60112"
  },
  {
    "city": "genoa",
    "zip_code": "60135"
  },
  {
    "city": "kaneville",
    "zip_code": "60144"
  },
  {
    "city": "hoffman estates",
    "zip_code": "60192"
  },
  {
    "city": "calumet city",
    "zip_code": "60409"
  },
  {
    "city": "elwood",
    "zip_code": "60421"
  },
  {
    "city": "north aurora",
    "zip_code": "60542"
  },
  {
    "city": "sandwich",
    "zip_code": "60548"
  },
  {
    "city": "chicago",
    "zip_code": "60641"
  },
  {
    "city": "lincolnwood",
    "zip_code": "60712"
  },
  {
    "city": "cicero",
    "zip_code": "60804"
  },
  {
    "city": "kankakee",
    "zip_code": "60901"
  },
  {
    "city": "loda",
    "zip_code": "60948"
  },
  {
    "city": "belvidere",
    "zip_code": "61008"
  },
  {
    "city": "davis junction",
    "zip_code": "61020"
  },
  {
    "city": "franklin grove",
    "zip_code": "61031"
  },
  {
    "city": "galena",
    "zip_code": "61036"
  },
  {
    "city": "shannon",
    "zip_code": "61078"
  },
  {
    "city": "rockford",
    "zip_code": "61101"
  },
  {
    "city": "rockford",
    "zip_code": "61102"
  },
  {
    "city": "coal valley",
    "zip_code": "61240"
  },
  {
    "city": "east moline",
    "zip_code": "61244"
  },
  {
    "city": "manlius",
    "zip_code": "61338"
  },
  {
    "city": "rutland",
    "zip_code": "61358"
  },
  {
    "city": "castleton",
    "zip_code": "61426"
  },
  {
    "city": "cuba",
    "zip_code": "61427"
  },
  {
    "city": "kirkwood",
    "zip_code": "61447"
  },
  {
    "city": "monmouth",
    "zip_code": "61462"
  },
  {
    "city": "vermont",
    "zip_code": "61484"
  },
  {
    "city": "morton",
    "zip_code": "61550"
  },
  {
    "city": "atlanta",
    "zip_code": "61723"
  },
  {
    "city": "tuscola",
    "zip_code": "61953"
  },
  {
    "city": "hardin",
    "zip_code": "62047"
  },
  {
    "city": "roodhouse",
    "zip_code": "62082"
  },
  {
    "city": "aviston",
    "zip_code": "62216"
  },
  {
    "city": "prairie du rocher",
    "zip_code": "62277"
  },
  {
    "city": "huntsville",
    "zip_code": "62344"
  },
  {
    "city": "milton",
    "zip_code": "62352"
  },
  {
    "city": "perry",
    "zip_code": "62362"
  },
  {
    "city": "annapolis",
    "zip_code": "62413"
  },
  {
    "city": "shumway",
    "zip_code": "62461"
  },
  {
    "city": "macon",
    "zip_code": "62544"
  },
  {
    "city": "rochester",
    "zip_code": "62563"
  },
  {
    "city": "stonington",
    "zip_code": "62567"
  },
  {
    "city": "cisne",
    "zip_code": "62823"
  },
  {
    "city": "keensburg",
    "zip_code": "62852"
  },
  {
    "city": "richview",
    "zip_code": "62877"
  },
  {
    "city": "stonefort",
    "zip_code": "62987"
  },
  {
    "city": "saint louis",
    "zip_code": "63134"
  },
  {
    "city": "saint louis",
    "zip_code": "63144"
  },
  {
    "city": "monroe city",
    "zip_code": "63456"
  },
  {
    "city": "novelty",
    "zip_code": "63460"
  },
  {
    "city": "green city",
    "zip_code": "63545"
  },
  {
    "city": "farmington",
    "zip_code": "63640"
  },
  {
    "city": "fredericktown",
    "zip_code": "63645"
  },
  {
    "city": "potosi",
    "zip_code": "63664"
  },
  {
    "city": "zalma",
    "zip_code": "63787"
  },
  {
    "city": "campbell",
    "zip_code": "63933"
  },
  {
    "city": "grandin",
    "zip_code": "63943"
  },
  {
    "city": "mill spring",
    "zip_code": "63952"
  },
  {
    "city": "piedmont",
    "zip_code": "63957"
  },
  {
    "city": "concordia",
    "zip_code": "64020"
  },
  {
    "city": "excelsior springs",
    "zip_code": "64024"
  },
  {
    "city": "richmond",
    "zip_code": "64085"
  },
  {
    "city": "kansas city",
    "zip_code": "64120"
  },
  {
    "city": "kansas city",
    "zip_code": "64128"
  },
  {
    "city": "golden city",
    "zip_code": "64748"
  },
  {
    "city": "owensville",
    "zip_code": "65066"
  },
  {
    "city": "jefferson city",
    "zip_code": "65101"
  },
  {
    "city": "columbia",
    "zip_code": "65215"
  },
  {
    "city": "syracuse",
    "zip_code": "65354"
  },
  {
    "city": "dixon",
    "zip_code": "65459"
  },
  {
    "city": "success",
    "zip_code": "65570"
  },
  {
    "city": "garrison",
    "zip_code": "65657"
  },
  {
    "city": "kimberling city",
    "zip_code": "65686"
  },
  {
    "city": "pleasant hope",
    "zip_code": "65725"
  },
  {
    "city": "seymour",
    "zip_code": "65746"
  },
  {
    "city": "theodosia",
    "zip_code": "65761"
  },
  {
    "city": "wheatland",
    "zip_code": "65779"
  },
  {
    "city": "lawrence",
    "zip_code": "66044"
  },
  {
    "city": "kansas city",
    "zip_code": "66103"
  },
  {
    "city": "topeka",
    "zip_code": "66616"
  },
  {
    "city": "crestline",
    "zip_code": "66728"
  },
  {
    "city": "iola",
    "zip_code": "66749"
  },
  {
    "city": "piqua",
    "zip_code": "66761"
  },
  {
    "city": "matfield green",
    "zip_code": "66862"
  },
  {
    "city": "augusta",
    "zip_code": "67010"
  },
  {
    "city": "dexter",
    "zip_code": "67038"
  },
  {
    "city": "eureka",
    "zip_code": "67045"
  },
  {
    "city": "moundridge",
    "zip_code": "67107"
  },
  {
    "city": "wichita",
    "zip_code": "67202"
  },
  {
    "city": "wichita",
    "zip_code": "67215"
  },
  {
    "city": "canton",
    "zip_code": "67428"
  },
  {
    "city": "minneapolis",
    "zip_code": "67467"
  },
  {
    "city": "ellinwood",
    "zip_code": "67526"
  },
  {
    "city": "garfield",
    "zip_code": "67529"
  },
  {
    "city": "haven",
    "zip_code": "67543"
  },
  {
    "city": "agra",
    "zip_code": "67621"
  },
  {
    "city": "almena",
    "zip_code": "67622"
  },
  {
    "city": "blair",
    "zip_code": "68008"
  },
  {
    "city": "craig",
    "zip_code": "68019"
  },
  {
    "city": "scribner",
    "zip_code": "68057"
  },
  {
    "city": "endicott",
    "zip_code": "68350"
  },
  {
    "city": "odell",
    "zip_code": "68415"
  },
  {
    "city": "seward",
    "zip_code": "68434"
  },
  {
    "city": "lincoln",
    "zip_code": "68516"
  },
  {
    "city": "concord",
    "zip_code": "68728"
  },
  {
    "city": "hartington",
    "zip_code": "68739"
  },
  {
    "city": "bartley",
    "zip_code": "69020"
  },
  {
    "city": "gurley",
    "zip_code": "69141"
  },
  {
    "city": "crookston",
    "zip_code": "69212"
  },
  {
    "city": "kilgore",
    "zip_code": "69216"
  },
  {
    "city": "bridgeport",
    "zip_code": "69336"
  },
  {
    "city": "lyman",
    "zip_code": "69352"
  },
  {
    "city": "rushville",
    "zip_code": "69360"
  },
  {
    "city": "metairie",
    "zip_code": "70003"
  },
  {
    "city": "empire",
    "zip_code": "70050"
  },
  {
    "city": "hammond",
    "zip_code": "70403"
  },
  {
    "city": "mandeville",
    "zip_code": "70448"
  },
  {
    "city": "lafayette",
    "zip_code": "70503"
  },
  {
    "city": "basile",
    "zip_code": "70515"
  },
  {
    "city": "cade",
    "zip_code": "70519"
  },
  {
    "city": "gueydan",
    "zip_code": "70542"
  },
  {
    "city": "erwinville",
    "zip_code": "70729"
  },
  {
    "city": "french settlement",
    "zip_code": "70733"
  },
  {
    "city": "livingston",
    "zip_code": "70754"
  },
  {
    "city": "rougon",
    "zip_code": "70773"
  },
  {
    "city": "slaughter",
    "zip_code": "70777"
  },
  {
    "city": "baton rouge",
    "zip_code": "70816"
  },
  {
    "city": "coushatta",
    "zip_code": "71019"
  },
  {
    "city": "logansport",
    "zip_code": "71049"
  },
  {
    "city": "acme",
    "zip_code": "71316"
  },
  {
    "city": "clarence",
    "zip_code": "71414"
  },
  {
    "city": "otis",
    "zip_code": "71466"
  },
  {
    "city": "winnfield",
    "zip_code": "71483"
  },
  {
    "city": "zwolle",
    "zip_code": "71486"
  },
  {
    "city": "huttig",
    "zip_code": "71747"
  },
  {
    "city": "ogden",
    "zip_code": "71853"
  },
  {
    "city": "taylor",
    "zip_code": "71861"
  },
  {
    "city": "brinkley",
    "zip_code": "72021"
  },
  {
    "city": "jefferson",
    "zip_code": "72079"
  },
  {
    "city": "paron",
    "zip_code": "72122"
  },
  {
    "city": "roland",
    "zip_code": "72135"
  },
  {
    "city": "saint charles",
    "zip_code": "72140"
  },
  {
    "city": "sheridan",
    "zip_code": "72150"
  },
  {
    "city": "burdette",
    "zip_code": "72321"
  },
  {
    "city": "elaine",
    "zip_code": "72333"
  },
  {
    "city": "beech grove",
    "zip_code": "72412"
  },
  {
    "city": "desha",
    "zip_code": "72527"
  },
  {
    "city": "big flat",
    "zip_code": "72617"
  },
  {
    "city": "bull shoals",
    "zip_code": "72619"
  },
  {
    "city": "marble falls",
    "zip_code": "72648"
  },
  {
    "city": "summit",
    "zip_code": "72677"
  },
  {
    "city": "bluffton",
    "zip_code": "72827"
  },
  {
    "city": "hinton",
    "zip_code": "73047"
  },
  {
    "city": "oklahoma city",
    "zip_code": "73115"
  },
  {
    "city": "blair",
    "zip_code": "73526"
  },
  {
    "city": "elgin",
    "zip_code": "73538"
  },
  {
    "city": "elmer",
    "zip_code": "73539"
  },
  {
    "city": "geronimo",
    "zip_code": "73543"
  },
  {
    "city": "granite",
    "zip_code": "73547"
  },
  {
    "city": "hastings",
    "zip_code": "73548"
  },
  {
    "city": "cleo springs",
    "zip_code": "73729"
  },
  {
    "city": "hominy",
    "zip_code": "74035"
  },
  {
    "city": "oilton",
    "zip_code": "74052"
  },
  {
    "city": "skiatook",
    "zip_code": "74070"
  },
  {
    "city": "sperry",
    "zip_code": "74073"
  },
  {
    "city": "big cabin",
    "zip_code": "74332"
  },
  {
    "city": "strang",
    "zip_code": "74367"
  },
  {
    "city": "stigler",
    "zip_code": "74462"
  },
  {
    "city": "wagoner",
    "zip_code": "74477"
  },
  {
    "city": "haileyville",
    "zip_code": "74546"
  },
  {
    "city": "lehigh",
    "zip_code": "74556"
  },
  {
    "city": "tupelo",
    "zip_code": "74572"
  },
  {
    "city": "newkirk",
    "zip_code": "74647"
  },
  {
    "city": "hugo",
    "zip_code": "74743"
  },
  {
    "city": "millerton",
    "zip_code": "74750"
  },
  {
    "city": "byars",
    "zip_code": "74831"
  },
  {
    "city": "castle",
    "zip_code": "74833"
  },
  {
    "city": "wanette",
    "zip_code": "74878"
  },
  {
    "city": "muse",
    "zip_code": "74949"
  },
  {
    "city": "vian",
    "zip_code": "74962"
  },
  {
    "city": "carrollton",
    "zip_code": "75010"
  },
  {
    "city": "denison",
    "zip_code": "75020"
  },
  {
    "city": "garland",
    "zip_code": "75040"
  },
  {
    "city": "eustace",
    "zip_code": "75124"
  },
  {
    "city": "nevada",
    "zip_code": "75173"
  },
  {
    "city": "dallas",
    "zip_code": "75227"
  },
  {
    "city": "dallas",
    "zip_code": "75238"
  },
  {
    "city": "pattonville",
    "zip_code": "75468"
  },
  {
    "city": "van alstyne",
    "zip_code": "75495"
  },
  {
    "city": "carthage",
    "zip_code": "75633"
  },
  {
    "city": "long branch",
    "zip_code": "75669"
  },
  {
    "city": "white oak",
    "zip_code": "75693"
  },
  {
    "city": "groveton",
    "zip_code": "75845"
  },
  {
    "city": "wells",
    "zip_code": "75976"
  },
  {
    "city": "woodville",
    "zip_code": "75979"
  },
  {
    "city": "azle",
    "zip_code": "76020"
  },
  {
    "city": "paradise",
    "zip_code": "76073"
  },
  {
    "city": "north richland hills",
    "zip_code": "76180"
  },
  {
    "city": "wichita falls",
    "zip_code": "76308"
  },
  {
    "city": "jermyn",
    "zip_code": "76459"
  },
  {
    "city": "kempner",
    "zip_code": "76539"
  },
  {
    "city": "morgan",
    "zip_code": "76671"
  },
  {
    "city": "richland",
    "zip_code": "76681"
  },
  {
    "city": "walnut springs",
    "zip_code": "76690"
  },
  {
    "city": "fort mckavett",
    "zip_code": "76841"
  },
  {
    "city": "houston",
    "zip_code": "77095"
  },
  {
    "city": "plantersville",
    "zip_code": "77363"
  },
  {
    "city": "spring",
    "zip_code": "77379"
  },
  {
    "city": "galveston",
    "zip_code": "77554"
  },
  {
    "city": "lake jackson",
    "zip_code": "77566"
  },
  {
    "city": "liverpool",
    "zip_code": "77577"
  },
  {
    "city": "pearland",
    "zip_code": "77581"
  },
  {
    "city": "fred",
    "zip_code": "77616"
  },
  {
    "city": "college station",
    "zip_code": "77840"
  },
  {
    "city": "la salle",
    "zip_code": "77969"
  },
  {
    "city": "ingram",
    "zip_code": "78025"
  },
  {
    "city": "natalia",
    "zip_code": "78059"
  },
  {
    "city": "san antonio",
    "zip_code": "78264"
  },
  {
    "city": "taft",
    "zip_code": "78390"
  },
  {
    "city": "corpus christi",
    "zip_code": "78416"
  },
  {
    "city": "olmito",
    "zip_code": "78575"
  },
  {
    "city": "luling",
    "zip_code": "78648"
  },
  {
    "city": "bleiblerville",
    "zip_code": "78931"
  },
  {
    "city": "carmine",
    "zip_code": "78932"
  },
  {
    "city": "round top",
    "zip_code": "78954"
  },
  {
    "city": "nazareth",
    "zip_code": "79063"
  },
  {
    "city": "texline",
    "zip_code": "79087"
  },
  {
    "city": "amarillo",
    "zip_code": "79107"
  },
  {
    "city": "quanah",
    "zip_code": "79252"
  },
  {
    "city": "seminole",
    "zip_code": "79360"
  },
  {
    "city": "smyer",
    "zip_code": "79367"
  },
  {
    "city": "lubbock",
    "zip_code": "79413"
  },
  {
    "city": "benjamin",
    "zip_code": "79505"
  },
  {
    "city": "goldsboro",
    "zip_code": "79519"
  },
  {
    "city": "loraine",
    "zip_code": "79532"
  },
  {
    "city": "midkiff",
    "zip_code": "79755"
  },
  {
    "city": "gardendale",
    "zip_code": "79758"
  },
  {
    "city": "salt flat",
    "zip_code": "79847"
  },
  {
    "city": "valentine",
    "zip_code": "79854"
  },
  {
    "city": "el paso",
    "zip_code": "79903"
  },
  {
    "city": "agate",
    "zip_code": "80101"
  },
  {
    "city": "golden",
    "zip_code": "80401"
  },
  {
    "city": "greeley",
    "zip_code": "80631"
  },
  {
    "city": "hillrose",
    "zip_code": "80733"
  },
  {
    "city": "kit carson",
    "zip_code": "80825"
  },
  {
    "city": "simla",
    "zip_code": "80835"
  },
  {
    "city": "vona",
    "zip_code": "80861"
  },
  {
    "city": "colorado springs",
    "zip_code": "80903"
  },
  {
    "city": "colorado springs",
    "zip_code": "80910"
  },
  {
    "city": "colorado springs",
    "zip_code": "80922"
  },
  {
    "city": "gardner",
    "zip_code": "81040"
  },
  {
    "city": "manzanola",
    "zip_code": "81058"
  },
  {
    "city": "wiley",
    "zip_code": "81092"
  },
  {
    "city": "blanca",
    "zip_code": "81123"
  },
  {
    "city": "grand junction",
    "zip_code": "81504"
  },
  {
    "city": "van tassell",
    "zip_code": "82242"
  },
  {
    "city": "medicine bow",
    "zip_code": "82329"
  },
  {
    "city": "four corners",
    "zip_code": "82715"
  },
  {
    "city": "teton village",
    "zip_code": "83025"
  },
  {
    "city": "cokeville",
    "zip_code": "83114"
  },
  {
    "city": "paris",
    "zip_code": "83261"
  },
  {
    "city": "almo",
    "zip_code": "83312"
  },
  {
    "city": "idaho falls",
    "zip_code": "83402"
  },
  {
    "city": "indian valley",
    "zip_code": "83632"
  },
  {
    "city": "melba",
    "zip_code": "83641"
  },
  {
    "city": "middleton",
    "zip_code": "83644"
  },
  {
    "city": "boise",
    "zip_code": "83702"
  },
  {
    "city": "careywood",
    "zip_code": "83809"
  },
  {
    "city": "clark fork",
    "zip_code": "83811"
  },
  {
    "city": "kingston",
    "zip_code": "83839"
  },
  {
    "city": "naples",
    "zip_code": "83847"
  },
  {
    "city": "post falls",
    "zip_code": "83854"
  },
  {
    "city": "worley",
    "zip_code": "83876"
  },
  {
    "city": "peoa",
    "zip_code": "84061"
  },
  {
    "city": "mendon",
    "zip_code": "84325"
  },
  {
    "city": "logan",
    "zip_code": "84341"
  },
  {
    "city": "aurora",
    "zip_code": "84620"
  },
  {
    "city": "la verkin",
    "zip_code": "84745"
  },
  {
    "city": "new harmony",
    "zip_code": "84757"
  },
  {
    "city": "phoenix",
    "zip_code": "85003"
  },
  {
    "city": "coolidge",
    "zip_code": "85128"
  },
  {
    "city": "paradise valley",
    "zip_code": "85253"
  },
  {
    "city": "gilbert",
    "zip_code": "85298"
  },
  {
    "city": "arlington",
    "zip_code": "85322"
  },
  {
    "city": "buckeye",
    "zip_code": "85326"
  },
  {
    "city": "roll",
    "zip_code": "85347"
  },
  {
    "city": "globe",
    "zip_code": "85501"
  },
  {
    "city": "pine",
    "zip_code": "85544"
  },
  {
    "city": "cochise",
    "zip_code": "85606"
  },
  {
    "city": "elgin",
    "zip_code": "85611"
  }
]