[
  {
    "city": "wrightwood",
    "zip_code": "92397"
  },
  {
    "city": "moreno valley",
    "zip_code": "92551"
  },
  {
    "city": "wildomar",
    "zip_code": "92595"
  },
  {
    "city": "irvine",
    "zip_code": "92603"
  },
  {
    "city": "irvine",
    "zip_code": "92604"
  },
  {
    "city": "newport beach",
    "zip_code": "92661"
  },
  {
    "city": "santa ana",
    "zip_code": "92705"
  },
  {
    "city": "anaheim",
    "zip_code": "92804"
  },
  {
    "city": "simi valley",
    "zip_code": "93063"
  },
  {
    "city": "santa barbara",
    "zip_code": "93110"
  },
  {
    "city": "alpaugh",
    "zip_code": "93201"
  },
  {
    "city": "frazier park",
    "zip_code": "93225"
  },
  {
    "city": "hanford",
    "zip_code": "93230"
  },
  {
    "city": "onyx",
    "zip_code": "93255"
  },
  {
    "city": "bakersfield",
    "zip_code": "93305"
  },
  {
    "city": "bakersfield",
    "zip_code": "93308"
  },
  {
    "city": "auberry",
    "zip_code": "93602"
  },
  {
    "city": "chowchilla",
    "zip_code": "93610"
  },
  {
    "city": "clovis",
    "zip_code": "93612"
  },
  {
    "city": "tollhouse",
    "zip_code": "93667"
  },
  {
    "city": "tranquillity",
    "zip_code": "93668"
  },
  {
    "city": "fresno",
    "zip_code": "93703"
  },
  {
    "city": "pebble beach",
    "zip_code": "93953"
  },
  {
    "city": "burlingame",
    "zip_code": "94010"
  },
  {
    "city": "south san francisco",
    "zip_code": "94080"
  },
  {
    "city": "sunnyvale",
    "zip_code": "94087"
  },
  {
    "city": "san francisco",
    "zip_code": "94133"
  },
  {
    "city": "birds landing",
    "zip_code": "94512"
  },
  {
    "city": "fairfield",
    "zip_code": "94534"
  },
  {
    "city": "rio vista",
    "zip_code": "94571"
  },
  {
    "city": "tomales",
    "zip_code": "94971"
  },
  {
    "city": "capitola",
    "zip_code": "95010"
  },
  {
    "city": "hollister",
    "zip_code": "95023"
  },
  {
    "city": "santa cruz",
    "zip_code": "95062"
  },
  {
    "city": "hilmar",
    "zip_code": "95324"
  },
  {
    "city": "ripon",
    "zip_code": "95366"
  },
  {
    "city": "waterford",
    "zip_code": "95386"
  },
  {
    "city": "branscomb",
    "zip_code": "95417"
  },
  {
    "city": "guerneville",
    "zip_code": "95446"
  },
  {
    "city": "lakeport",
    "zip_code": "95453"
  },
  {
    "city": "eureka",
    "zip_code": "95501"
  },
  {
    "city": "willow creek",
    "zip_code": "95573"
  },
  {
    "city": "newcastle",
    "zip_code": "95658"
  },
  {
    "city": "granite bay",
    "zip_code": "95746"
  },
  {
    "city": "sacramento",
    "zip_code": "95817"
  },
  {
    "city": "sacramento",
    "zip_code": "95864"
  },
  {
    "city": "goodyears bar",
    "zip_code": "95944"
  },
  {
    "city": "hamilton city",
    "zip_code": "95951"
  },
  {
    "city": "magalia",
    "zip_code": "95954"
  },
  {
    "city": "paradise",
    "zip_code": "95969"
  },
  {
    "city": "anderson",
    "zip_code": "96007"
  },
  {
    "city": "douglas city",
    "zip_code": "96024"
  },
  {
    "city": "trinity center",
    "zip_code": "96091"
  },
  {
    "city": "haiku",
    "zip_code": "96708"
  },
  {
    "city": "kailua kona",
    "zip_code": "96740"
  },
  {
    "city": "kaumakani",
    "zip_code": "96747"
  },
  {
    "city": "koloa",
    "zip_code": "96756"
  },
  {
    "city": "honolulu",
    "zip_code": "96817"
  },
  {
    "city": "barrigada",
    "zip_code": "96913"
  },
  {
    "city": "banks",
    "zip_code": "97106"
  },
  {
    "city": "timber",
    "zip_code": "97144"
  },
  {
    "city": "portland",
    "zip_code": "97222"
  },
  {
    "city": "portland",
    "zip_code": "97229"
  },
  {
    "city": "noti",
    "zip_code": "97461"
  },
  {
    "city": "veneta",
    "zip_code": "97487"
  },
  {
    "city": "eagle point",
    "zip_code": "97524"
  },
  {
    "city": "grants pass",
    "zip_code": "97527"
  },
  {
    "city": "kerby",
    "zip_code": "97531"
  },
  {
    "city": "brothers",
    "zip_code": "97712"
  },
  {
    "city": "frenchglen",
    "zip_code": "97736"
  },
  {
    "city": "adams",
    "zip_code": "97810"
  },
  {
    "city": "oxbow",
    "zip_code": "97840"
  },
  {
    "city": "issaquah",
    "zip_code": "98027"
  },
  {
    "city": "maple valley",
    "zip_code": "98038"
  },
  {
    "city": "renton",
    "zip_code": "98059"
  },
  {
    "city": "seattle",
    "zip_code": "98177"
  },
  {
    "city": "shaw island",
    "zip_code": "98286"
  },
  {
    "city": "chimacum",
    "zip_code": "98325"
  },
  {
    "city": "sekiu",
    "zip_code": "98381"
  },
  {
    "city": "tacoma",
    "zip_code": "98465"
  },
  {
    "city": "tenino",
    "zip_code": "98589"
  },
  {
    "city": "toledo",
    "zip_code": "98591"
  },
  {
    "city": "ardenvoir",
    "zip_code": "98811"
  },
  {
    "city": "ephrata",
    "zip_code": "98823"
  },
  {
    "city": "mabton",
    "zip_code": "98935"
  },
  {
    "city": "south cle elum",
    "zip_code": "98943"
  },
  {
    "city": "white swan",
    "zip_code": "98952"
  },
  {
    "city": "edwall",
    "zip_code": "99008"
  },
  {
    "city": "liberty lake",
    "zip_code": "99019"
  },
  {
    "city": "nine mile falls",
    "zip_code": "99026"
  },
  {
    "city": "spokane",
    "zip_code": "99205"
  },
  {
    "city": "lind",
    "zip_code": "99341"
  },
  {
    "city": "aniak",
    "zip_code": "99557"
  },
  {
    "city": "false pass",
    "zip_code": "99583"
  },
  {
    "city": "whittier",
    "zip_code": "99693"
  },
  {
    "city": "prudhoe bay",
    "zip_code": "99734"
  },
  {
    "city": "kivalina",
    "zip_code": "99750"
  },
  {
    "city": "stevens village",
    "zip_code": "99774"
  },
  {
    "city": "tanana",
    "zip_code": "99777"
  },
  {
    "city": "livingston",
    "zip_code": "7039"
  },
  {
    "city": "wood ridge",
    "zip_code": "7075"
  },
  {
    "city": "nutley",
    "zip_code": "7110"
  },
  {
    "city": "jersey city",
    "zip_code": "7305"
  },
  {
    "city": "highland lakes",
    "zip_code": "7422"
  },
  {
    "city": "westwood",
    "zip_code": "7675"
  },
  {
    "city": "augusta",
    "zip_code": "7822"
  },
  {
    "city": "cookstown",
    "zip_code": "8511"
  },
  {
    "city": "florence",
    "zip_code": "8518"
  },
  {
    "city": "ringoes",
    "zip_code": "8551"
  },
  {
    "city": "trenton",
    "zip_code": "8608"
  },
  {
    "city": "new york",
    "zip_code": "10001"
  },
  {
    "city": "new york",
    "zip_code": "10014"
  },
  {
    "city": "new york",
    "zip_code": "10024"
  },
  {
    "city": "new york",
    "zip_code": "10033"
  },
  {
    "city": "new york",
    "zip_code": "10154"
  },
  {
    "city": "staten island",
    "zip_code": "10310"
  },
  {
    "city": "cold spring",
    "zip_code": "10516"
  },
  {
    "city": "mohegan lake",
    "zip_code": "10547"
  },
  {
    "city": "montrose",
    "zip_code": "10548"
  },
  {
    "city": "purchase",
    "zip_code": "10577"
  },
  {
    "city": "scarsdale",
    "zip_code": "10583"
  },
  {
    "city": "valhalla",
    "zip_code": "10595"
  },
  {
    "city": "yonkers",
    "zip_code": "10703"
  },
  {
    "city": "haverstraw",
    "zip_code": "10927"
  },
  {
    "city": "sterling forest",
    "zip_code": "10979"
  },
  {
    "city": "brooklyn",
    "zip_code": "11207"
  },
  {
    "city": "brooklyn",
    "zip_code": "11226"
  },
  {
    "city": "brooklyn",
    "zip_code": "11232"
  },
  {
    "city": "bayside",
    "zip_code": "11359"
  },
  {
    "city": "little neck",
    "zip_code": "11362"
  },
  {
    "city": "howard beach",
    "zip_code": "11414"
  },
  {
    "city": "queens village",
    "zip_code": "11427"
  },
  {
    "city": "greenvale",
    "zip_code": "11548"
  },
  {
    "city": "merrick",
    "zip_code": "11566"
  },
  {
    "city": "centerport",
    "zip_code": "11721"
  },
  {
    "city": "melville",
    "zip_code": "11747"
  },
  {
    "city": "wantagh",
    "zip_code": "11793"
  },
  {
    "city": "stony brook",
    "zip_code": "11794"
  },
  {
    "city": "west sayville",
    "zip_code": "11796"
  },
  {
    "city": "orient",
    "zip_code": "11957"
  },
  {
    "city": "south jamesport",
    "zip_code": "11970"
  },
  {
    "city": "upton",
    "zip_code": "11973"
  },
  {
    "city": "water mill",
    "zip_code": "11976"
  },
  {
    "city": "berne",
    "zip_code": "12023"
  },
  {
    "city": "fort johnson",
    "zip_code": "12070"
  },
  {
    "city": "malden bridge",
    "zip_code": "12115"
  },
  {
    "city": "medusa",
    "zip_code": "12120"
  },
  {
    "city": "rensselaer",
    "zip_code": "12144"
  },
  {
    "city": "waterford",
    "zip_code": "12188"
  },
  {
    "city": "albany",
    "zip_code": "12203"
  },
  {
    "city": "albany",
    "zip_code": "12222"
  },
  {
    "city": "hensonville",
    "zip_code": "12439"
  },
  {
    "city": "south cairo",
    "zip_code": "12482"
  },
  {
    "city": "windham",
    "zip_code": "12496"
  },
  {
    "city": "millerton",
    "zip_code": "12546"
  },
  {
    "city": "stormville",
    "zip_code": "12582"
  },
  {
    "city": "wallkill",
    "zip_code": "12589"
  },
  {
    "city": "neversink",
    "zip_code": "12765"
  },
  {
    "city": "constable",
    "zip_code": "12926"
  },
  {
    "city": "moriah",
    "zip_code": "12960"
  },
  {
    "city": "west chazy",
    "zip_code": "12992"
  },
  {
    "city": "wilmington",
    "zip_code": "12997"
  },
  {
    "city": "cato",
    "zip_code": "13033"
  },
  {
    "city": "north bay",
    "zip_code": "13123"
  },
  {
    "city": "beaver falls",
    "zip_code": "13305"
  },
  {
    "city": "taberg",
    "zip_code": "13471"
  },
  {
    "city": "evans mills",
    "zip_code": "13637"
  },
  {
    "city": "wellesley island",
    "zip_code": "13640"
  },
  {
    "city": "madrid",
    "zip_code": "13660"
  },
  {
    "city": "bovina center",
    "zip_code": "13740"
  },
  {
    "city": "candor",
    "zip_code": "13743"
  },
  {
    "city": "davenport center",
    "zip_code": "13751"
  },
  {
    "city": "guilford",
    "zip_code": "13780"
  },
  {
    "city": "tonawanda",
    "zip_code": "14150"
  },
  {
    "city": "buffalo",
    "zip_code": "14219"
  },
  {
    "city": "niagara falls",
    "zip_code": "14302"
  },
  {
    "city": "port gibson",
    "zip_code": "14537"
  },
  {
    "city": "west henrietta",
    "zip_code": "14586"
  },
  {
    "city": "rochester",
    "zip_code": "14613"
  },
  {
    "city": "cherry creek",
    "zip_code": "14723"
  },
  {
    "city": "interlaken",
    "zip_code": "14847"
  },
  {
    "city": "pine city",
    "zip_code": "14871"
  },
  {
    "city": "cuddy",
    "zip_code": "15031"
  },
  {
    "city": "elizabeth",
    "zip_code": "15037"
  },
  {
    "city": "gibsonia",
    "zip_code": "15044"
  },
  {
    "city": "harwick",
    "zip_code": "15049"
  },
  {
    "city": "rochester",
    "zip_code": "15074"
  },
  {
    "city": "pittsburgh",
    "zip_code": "15205"
  },
  {
    "city": "canonsburg",
    "zip_code": "15317"
  },
  {
    "city": "hopwood",
    "zip_code": "15445"
  },
  {
    "city": "alum bank",
    "zip_code": "15521"
  },
  {
    "city": "boswell",
    "zip_code": "15531"
  },
  {
    "city": "adamsburg",
    "zip_code": "15611"
  },
  {
    "city": "jones mills",
    "zip_code": "15646"
  },
  {
    "city": "glen campbell",
    "zip_code": "15742"
  },
  {
    "city": "heilwood",
    "zip_code": "15745"
  },
  {
    "city": "falls creek",
    "zip_code": "15840"
  },
  {
    "city": "saint marys",
    "zip_code": "15857"
  },
  {
    "city": "darlington",
    "zip_code": "16115"
  },
  {
    "city": "new bedford",
    "zip_code": "16140"
  },
  {
    "city": "cooksburg",
    "zip_code": "16217"
  },
  {
    "city": "smicksburg",
    "zip_code": "16256"
  },
  {
    "city": "west springfield",
    "zip_code": "16443"
  },
  {
    "city": "erie",
    "zip_code": "16504"
  },
  {
    "city": "sandy ridge",
    "zip_code": "16677"
  },
  {
    "city": "smithmill",
    "zip_code": "16680"
  },
  {
    "city": "blanchard",
    "zip_code": "16826"
  },
  {
    "city": "hyde",
    "zip_code": "16843"
  },
  {
    "city": "pennsylvania furnace",
    "zip_code": "16865"
  },
  {
    "city": "columbia cross roads",
    "zip_code": "16914"
  },
  {
    "city": "covington",
    "zip_code": "16917"
  },
  {
    "city": "tioga",
    "zip_code": "16946"
  },
  {
    "city": "annville",
    "zip_code": "17003"
  },
  {
    "city": "elliottsburg",
    "zip_code": "17024"
  },
  {
    "city": "richland",
    "zip_code": "17087"
  },
  {
    "city": "schaefferstown",
    "zip_code": "17088"
  },
  {
    "city": "harrisburg",
    "zip_code": "17110"
  },
  {
    "city": "waynesboro",
    "zip_code": "17268"
  },
  {
    "city": "mount wolf",
    "zip_code": "17347"
  },
  {
    "city": "new oxford",
    "zip_code": "17350"
  },
  {
    "city": "marietta",
    "zip_code": "17547"
  },
  {
    "city": "peach bottom",
    "zip_code": "17563"
  },
  {
    "city": "cogan station",
    "zip_code": "17728"
  },
  {
    "city": "turbotville",
    "zip_code": "17772"
  },
  {
    "city": "beaver springs",
    "zip_code": "17812"
  },
  {
    "city": "mifflinburg",
    "zip_code": "17844"
  },
  {
    "city": "gilberton",
    "zip_code": "17934"
  },
  {
    "city": "minersville",
    "zip_code": "17954"
  },
  {
    "city": "alburtis",
    "zip_code": "18011"
  },
  {
    "city": "cherryville",
    "zip_code": "18035"
  },
  {
    "city": "hereford",
    "zip_code": "18056"
  },
  {
    "city": "long pond",
    "zip_code": "18334"
  },
  {
    "city": "sciota",
    "zip_code": "18354"
  },
  {
    "city": "gouldsboro",
    "zip_code": "18424"
  },
  {
    "city": "lakewood",
    "zip_code": "18439"
  },
  {
    "city": "south montrose",
    "zip_code": "18843"
  },
  {
    "city": "philadelphia",
    "zip_code": "19107"
  },
  {
    "city": "philadelphia",
    "zip_code": "19150"
  },
  {
    "city": "bridgeport",
    "zip_code": "19405"
  },
  {
    "city": "kimberton",
    "zip_code": "19442"
  },
  {
    "city": "geigertown",
    "zip_code": "19523"
  },
  {
    "city": "lenhartsville",
    "zip_code": "19534"
  },
  {
    "city": "limekiln",
    "zip_code": "19535"
  },
  {
    "city": "delaware city",
    "zip_code": "19706"
  },
  {
    "city": "montchanin",
    "zip_code": "19710"
  },
  {
    "city": "rockland",
    "zip_code": "19732"
  },
  {
    "city": "washington",
    "zip_code": "20003"
  },
  {
    "city": "washington",
    "zip_code": "20008"
  },
  {
    "city": "washington",
    "zip_code": "20018"
  },
  {
    "city": "centreville",
    "zip_code": "20121"
  },
  {
    "city": "waldorf",
    "zip_code": "20603"
  },
  {
    "city": "brandywine",
    "zip_code": "20613"
  },
  {
    "city": "capitol heights",
    "zip_code": "20743"
  },
  {
    "city": "savage",
    "zip_code": "20763"
  },
  {
    "city": "hyattsville",
    "zip_code": "20781"
  },
  {
    "city": "derwood",
    "zip_code": "20855"
  },
  {
    "city": "silver spring",
    "zip_code": "20903"
  },
  {
    "city": "reisterstown",
    "zip_code": "21136"
  },
  {
    "city": "riva",
    "zip_code": "21140"
  },
  {
    "city": "upperco",
    "zip_code": "21155"
  },
  {
    "city": "baltimore",
    "zip_code": "21217"
  },
  {
    "city": "annapolis",
    "zip_code": "21401"
  },
  {
    "city": "bloomington",
    "zip_code": "21523"
  },
  {
    "city": "friendsville",
    "zip_code": "21531"
  },
  {
    "city": "fishing creek",
    "zip_code": "21634"
  },
  {
    "city": "preston",
    "zip_code": "21655"
  },
  {
    "city": "cascade",
    "zip_code": "21719"
  },
  {
    "city": "hancock",
    "zip_code": "21750"
  },
  {
    "city": "walkersville",
    "zip_code": "21793"
  },
  {
    "city": "falls church",
    "zip_code": "22041"
  },
  {
    "city": "arlington",
    "zip_code": "22204"
  },
  {
    "city": "alexandria",
    "zip_code": "22305"
  },
  {
    "city": "clear brook",
    "zip_code": "22624"
  },
  {
    "city": "basye",
    "zip_code": "22810"
  },
  {
    "city": "orkney springs",
    "zip_code": "22845"
  },
  {
    "city": "charlottesville",
    "zip_code": "22903"
  },
  {
    "city": "charlottesville",
    "zip_code": "22911"
  },
  {
    "city": "rockville",
    "zip_code": "23146"
  },
  {
    "city": "accomac",
    "zip_code": "23301"
  },
  {
    "city": "capeville",
    "zip_code": "23313"
  },
  {
    "city": "carrsville",
    "zip_code": "23315"
  },
  {
    "city": "chincoteague island",
    "zip_code": "23336"
  },
  {
    "city": "hacksneck",
    "zip_code": "23358"
  },
  {
    "city": "oak hall",
    "zip_code": "23416"
  },
  {
    "city": "norfolk",
    "zip_code": "23502"
  },
  {
    "city": "norfolk",
    "zip_code": "23510"
  },
  {
    "city": "newport news",
    "zip_code": "23602"
  },
  {
    "city": "hampton",
    "zip_code": "23661"
  },
  {
    "city": "dinwiddie",
    "zip_code": "23841"
  },
  {
    "city": "surry",
    "zip_code": "23883"
  },
  {
    "city": "baskerville",
    "zip_code": "23915"
  },
  {
    "city": "chase city",
    "zip_code": "23924"
  },
  {
    "city": "crewe",
    "zip_code": "23930"
  },
  {
    "city": "victoria",
    "zip_code": "23974"
  },
  {
    "city": "bristol",
    "zip_code": "24202"
  },
  {
    "city": "whitetop",
    "zip_code": "24292"
  },
  {
    "city": "galax",
    "zip_code": "24333"
  },
  {
    "city": "montebello",
    "zip_code": "24464"
  },
  {
    "city": "port republic",
    "zip_code": "24471"
  },
  {
    "city": "south boston",
    "zip_code": "24592"
  },
  {
    "city": "rowe",
    "zip_code": "24646"
  },
  {
    "city": "premier",
    "zip_code": "24878"
  },
  {
    "city": "wyoming",
    "zip_code": "24898"
  },
  {
    "city": "bartow",
    "zip_code": "24920"
  },
  {
    "city": "crawley",
    "zip_code": "24931"
  },
  {
    "city": "clay",
    "zip_code": "25043"
  },
  {
    "city": "east bank",
    "zip_code": "25067"
  },
  {
    "city": "hernshaw",
    "zip_code": "25107"
  },
  {
    "city": "berkeley springs",
    "zip_code": "25411"
  },
  {
    "city": "points",
    "zip_code": "25437"
  },
  {
    "city": "west hamlin",
    "zip_code": "25571"
  },
  {
    "city": "meadow bridge",
    "zip_code": "25976"
  },
  {
    "city": "white oak",
    "zip_code": "25989"
  },
  {
    "city": "benwood",
    "zip_code": "26031"
  },
  {
    "city": "parkersburg",
    "zip_code": "26101"
  },
  {
    "city": "big bend",
    "zip_code": "26136"
  },
  {
    "city": "davis",
    "zip_code": "26260"
  },
  {
    "city": "richwood",
    "zip_code": "26261"
  },
  {
    "city": "ellamore",
    "zip_code": "26267"
  },
  {
    "city": "mill creek",
    "zip_code": "26280"
  },
  {
    "city": "glenville",
    "zip_code": "26351"
  },
  {
    "city": "pennsboro",
    "zip_code": "26415"
  },
  {
    "city": "barrackville",
    "zip_code": "26559"
  },
  {
    "city": "rachel",
    "zip_code": "26587"
  },
  {
    "city": "wana",
    "zip_code": "26590"
  },
  {
    "city": "flatwoods",
    "zip_code": "26621"
  },
  {
    "city": "nettie",
    "zip_code": "26681"
  },
  {
    "city": "winston salem",
    "zip_code": "27106"
  },
  {
    "city": "staley",
    "zip_code": "27355"
  },
  {
    "city": "broadway",
    "zip_code": "27505"
  },
  {
    "city": "henderson",
    "zip_code": "27537"
  },
  {
    "city": "new hill",
    "zip_code": "27562"
  },
  {
    "city": "zebulon",
    "zip_code": "27597"
  },
  {
    "city": "durham",
    "zip_code": "27705"
  },
  {
    "city": "greenville",
    "zip_code": "27834"
  },
  {
    "city": "nashville",
    "zip_code": "27856"
  },
  {
    "city": "pendleton",
    "zip_code": "27862"
  },
  {
    "city": "sims",
    "zip_code": "27880"
  },
  {
    "city": "mineral springs",
    "zip_code": "28108"
  },
  {
    "city": "new london",
    "zip_code": "28127"
  },
  {
    "city": "spencer",
    "zip_code": "28159"
  },
  {
    "city": "stanfield",
    "zip_code": "28163"
  },
  {
    "city": "vale",
    "zip_code": "28168"
  },
  {
    "city": "fayetteville",
    "zip_code": "28306"
  },
  {
    "city": "vass",
    "zip_code": "28394"
  },
  {
    "city": "currie",
    "zip_code": "28435"
  },
  {
    "city": "evergreen",
    "zip_code": "28438"
  },
  {
    "city": "collettsville",
    "zip_code": "28611"
  },
  {
    "city": "fleetwood",
    "zip_code": "28626"
  },
  {
    "city": "scottville",
    "zip_code": "28672"
  },
  {
    "city": "black mountain",
    "zip_code": "28711"
  },
  {
    "city": "clyde",
    "zip_code": "28721"
  },
  {
    "city": "fontana dam",
    "zip_code": "28733"
  },
  {
    "city": "franklin",
    "zip_code": "28734"
  },
  {
    "city": "alcolu",
    "zip_code": "29001"
  },
  {
    "city": "cassatt",
    "zip_code": "29032"
  },
  {
    "city": "chesnee",
    "zip_code": "29323"
  },
  {
    "city": "cross anchor",
    "zip_code": "29331"
  },
  {
    "city": "lockhart",
    "zip_code": "29364"
  },
  {
    "city": "isle of palms",
    "zip_code": "29451"
  },
  {
    "city": "ladson",
    "zip_code": "29456"
  },
  {
    "city": "summerville",
    "zip_code": "29485"
  },
  {
    "city": "charleston",
    "zip_code": "29492"
  },
  {
    "city": "scranton",
    "zip_code": "29591"
  },
  {
    "city": "greenville",
    "zip_code": "29609"
  },
  {
    "city": "cleveland",
    "zip_code": "29635"
  },
  {
    "city": "barnwell",
    "zip_code": "29812"
  },
  {
    "city": "windsor",
    "zip_code": "29856"
  },
  {
    "city": "rome",
    "zip_code": "30164"
  },
  {
    "city": "grantville",
    "zip_code": "30220"
  },
  {
    "city": "griffin",
    "zip_code": "30224"
  },
  {
    "city": "milner",
    "zip_code": "30257"
  },
  {
    "city": "molena",
    "zip_code": "30258"
  },
  {
    "city": "sharpsburg",
    "zip_code": "30277"
  },
  {
    "city": "atlanta",
    "zip_code": "30308"
  },
  {
    "city": "atlanta",
    "zip_code": "30346"
  },
  {
    "city": "twin city",
    "zip_code": "30471"
  },
  {
    "city": "lakemont",
    "zip_code": "30552"
  },
  {
    "city": "athens",
    "zip_code": "30607"
  },
  {
    "city": "madison",
    "zip_code": "30650"
  },
  {
    "city": "monroe",
    "zip_code": "30656"
  },
  {
    "city": "calhoun",
    "zip_code": "30701"
  },
  {
    "city": "augusta",
    "zip_code": "30901"
  },
  {
    "city": "ponce",
    "zip_code": "728"
  },
  {
    "city": "coto laurel",
    "zip_code": "780"
  },
  {
    "city": "san juan",
    "zip_code": "936"
  },
  {
    "city": "toa baja",
    "zip_code": "949"
  },
  {
    "city": "belchertown",
    "zip_code": "1007"
  },
  {
    "city": "monson",
    "zip_code": "1057"
  },
  {
    "city": "springfield",
    "zip_code": "1105"
  },
  {
    "city": "charlemont",
    "zip_code": "1339"
  },
  {
    "city": "northfield",
    "zip_code": "1360"
  },
  {
    "city": "royalston",
    "zip_code": "1368"
  },
  {
    "city": "hubbardston",
    "zip_code": "1452"
  },
  {
    "city": "marlborough",
    "zip_code": "1752"
  },
  {
    "city": "gloucester",
    "zip_code": "1930"
  },
  {
    "city": "cohasset",
    "zip_code": "2025"
  },
  {
    "city": "melrose",
    "zip_code": "2176"
  },
  {
    "city": "brockton",
    "zip_code": "2301"
  },
  {
    "city": "halifax",
    "zip_code": "2338"
  },
  {
    "city": "needham heights",
    "zip_code": "2494"
  },
  {
    "city": "eastham",
    "zip_code": "2642"
  },
  {
    "city": "harwich port",
    "zip_code": "2646"
  },
  {
    "city": "ashaway",
    "zip_code": "2804"
  },
  {
    "city": "chester",
    "zip_code": "3036"
  },
  {
    "city": "campton",
    "zip_code": "3223"
  },
  {
    "city": "bow",
    "zip_code": "3304"
  },
  {
    "city": "alstead",
    "zip_code": "3602"
  },
  {
    "city": "monroe",
    "zip_code": "3771"
  },
  {
    "city": "newport",
    "zip_code": "3773"
  },
  {
    "city": "strafford",
    "zip_code": "3884"
  },
  {
    "city": "biddeford pool",
    "zip_code": "4006"
  },
  {
    "city": "lebanon",
    "zip_code": "4027"
  },
  {
    "city": "scarborough",
    "zip_code": "4074"
  },
  {
    "city": "standish",
    "zip_code": "4084"
  },
  {
    "city": "bryant pond",
    "zip_code": "4219"
  },
  {
    "city": "south paris",
    "zip_code": "4281"
  },
  {
    "city": "winthrop",
    "zip_code": "4364"
  },
  {
    "city": "brewer",
    "zip_code": "4412"
  },
  {
    "city": "bristol",
    "zip_code": "4539"
  },
  {
    "city": "wiscasset",
    "zip_code": "4578"
  },
  {
    "city": "dennysville",
    "zip_code": "4628"
  },
  {
    "city": "hancock",
    "zip_code": "4640"
  },
  {
    "city": "frenchville",
    "zip_code": "4745"
  },
  {
    "city": "grand isle",
    "zip_code": "4746"
  },
  {
    "city": "matinicus",
    "zip_code": "4851"
  },
  {
    "city": "china village",
    "zip_code": "4926"
  },
  {
    "city": "detroit",
    "zip_code": "4929"
  },
  {
    "city": "garland",
    "zip_code": "4939"
  },
  {
    "city": "smithfield",
    "zip_code": "4978"
  },
  {
    "city": "troy",
    "zip_code": "4987"
  },
  {
    "city": "fairfax",
    "zip_code": "5454"
  },
  {
    "city": "underhill",
    "zip_code": "5489"
  },
  {
    "city": "northfield",
    "zip_code": "5663"
  },
  {
    "city": "east middlebury",
    "zip_code": "5740"
  },
  {
    "city": "barton",
    "zip_code": "5822"
  },
  {
    "city": "west danville",
    "zip_code": "5873"
  },
  {
    "city": "vernon rockville",
    "zip_code": "6066"
  },
  {
    "city": "enfield",
    "zip_code": "6082"
  },
  {
    "city": "west hartford",
    "zip_code": "6110"
  },
  {
    "city": "brooklyn",
    "zip_code": "6234"
  },
  {
    "city": "oneco",
    "zip_code": "6373"
  },
  {
    "city": "stonington",
    "zip_code": "6378"
  },
  {
    "city": "waterford",
    "zip_code": "6385"
  },
  {
    "city": "meriden",
    "zip_code": "6451"
  },
  {
    "city": "old saybrook",
    "zip_code": "6475"
  },
  {
    "city": "westbrook",
    "zip_code": "6498"
  },
  {
    "city": "west cornwall",
    "zip_code": "6796"
  },
  {
    "city": "stamford",
    "zip_code": "6906"
  },
  {
    "city": "avenel",
    "zip_code": "7001"
  },
  {
    "city": "butler",
    "zip_code": "7405"
  },
  {
    "city": "randolph",
    "zip_code": "7869"
  },
  {
    "city": "berlin",
    "zip_code": "8009"
  },
  {
    "city": "glassboro",
    "zip_code": "8028"
  },
  {
    "city": "sea isle city",
    "zip_code": "8243"
  },
  {
    "city": "newtonville",
    "zip_code": "8346"
  },
  {
    "city": "richland",
    "zip_code": "8350"
  },
  {
    "city": "manasquan",
    "zip_code": "8736"
  },
  {
    "city": "decker",
    "zip_code": "59025"
  },
  {
    "city": "fishtail",
    "zip_code": "59028"
  },
  {
    "city": "homestead",
    "zip_code": "59242"
  },
  {
    "city": "lindsay",
    "zip_code": "59339"
  },
  {
    "city": "wibaux",
    "zip_code": "59353"
  },
  {
    "city": "dutton",
    "zip_code": "59433"
  },
  {
    "city": "sand coulee",
    "zip_code": "59472"
  },
  {
    "city": "chester",
    "zip_code": "59522"
  },
  {
    "city": "fort harrison",
    "zip_code": "59636"
  },
  {
    "city": "clinton",
    "zip_code": "59825"
  },
  {
    "city": "marion",
    "zip_code": "59925"
  },
  {
    "city": "proctor",
    "zip_code": "59929"
  },
  {
    "city": "grayslake",
    "zip_code": "60030"
  },
  {
    "city": "gurnee",
    "zip_code": "60031"
  },
  {
    "city": "hebron",
    "zip_code": "60034"
  },
  {
    "city": "wauconda",
    "zip_code": "60084"
  },
  {
    "city": "oak forest",
    "zip_code": "60452"
  },
  {
    "city": "oswego",
    "zip_code": "60543"
  },
  {
    "city": "sheridan",
    "zip_code": "60551"
  },
  {
    "city": "steward",
    "zip_code": "60553"
  },
  {
    "city": "chicago",
    "zip_code": "60607"
  },
  {
    "city": "chicago",
    "zip_code": "60634"
  },
  {
    "city": "chicago",
    "zip_code": "60654"
  },
  {
    "city": "bonfield",
    "zip_code": "60913"
  },
  {
    "city": "buckley",
    "zip_code": "60918"
  },
  {
    "city": "saint anne",
    "zip_code": "60964"
  },
  {
    "city": "kent",
    "zip_code": "61044"
  },
  {
    "city": "mcconnell",
    "zip_code": "61050"
  },
  {
    "city": "mount morris",
    "zip_code": "61054"
  },
  {
    "city": "albany",
    "zip_code": "61230"
  },
  {
    "city": "hampton",
    "zip_code": "61256"
  },
  {
    "city": "malden",
    "zip_code": "61337"
  },
  {
    "city": "marseilles",
    "zip_code": "61341"
  },
  {
    "city": "east galesburg",
    "zip_code": "61430"
  },
  {
    "city": "la harpe",
    "zip_code": "61450"
  },
  {
    "city": "wyoming",
    "zip_code": "61491"
  },
  {
    "city": "norris",
    "zip_code": "61553"
  },
  {
    "city": "peoria",
    "zip_code": "61606"
  },
  {
    "city": "bloomington",
    "zip_code": "61701"
  },
  {
    "city": "wapella",
    "zip_code": "61777"
  },
  {
    "city": "seymour",
    "zip_code": "61875"
  },
  {
    "city": "atwood",
    "zip_code": "61913"
  },
  {
    "city": "oakland",
    "zip_code": "61943"
  },
  {
    "city": "paris",
    "zip_code": "61944"
  },
  {
    "city": "eagarville",
    "zip_code": "62023"
  },
  {
    "city": "east alton",
    "zip_code": "62024"
  },
  {
    "city": "glen carbon",
    "zip_code": "62034"
  },
  {
    "city": "nokomis",
    "zip_code": "62075"
  },
  {
    "city": "east saint louis",
    "zip_code": "62206"
  },
  {
    "city": "ellis grove",
    "zip_code": "62241"
  },
  {
    "city": "fults",
    "zip_code": "62244"
  },
  {
    "city": "nebo",
    "zip_code": "62355"
  },
  {
    "city": "claremont",
    "zip_code": "62421"
  },
  {
    "city": "mode",
    "zip_code": "62444"
  },
  {
    "city": "olney",
    "zip_code": "62450"
  },
  {
    "city": "boody",
    "zip_code": "62514"
  },
  {
    "city": "tovey",
    "zip_code": "62570"
  },
  {
    "city": "franklin",
    "zip_code": "62638"
  },
  {
    "city": "dix",
    "zip_code": "62830"
  },
  {
    "city": "geff",
    "zip_code": "62842"
  },
  {
    "city": "mount vernon",
    "zip_code": "62864"
  },
  {
    "city": "wayne city",
    "zip_code": "62895"
  },
  {
    "city": "carrier mills",
    "zip_code": "62917"
  },
  {
    "city": "thebes",
    "zip_code": "62990"
  },
  {
    "city": "willisville",
    "zip_code": "62997"
  },
  {
    "city": "chesterfield",
    "zip_code": "63005"
  },
  {
    "city": "florissant",
    "zip_code": "63033"
  },
  {
    "city": "new haven",
    "zip_code": "63068"
  },
  {
    "city": "sullivan",
    "zip_code": "63080"
  },
  {
    "city": "saint louis",
    "zip_code": "63102"
  },
  {
    "city": "saint louis",
    "zip_code": "63130"
  },
  {
    "city": "saint louis",
    "zip_code": "63133"
  },
  {
    "city": "foristell",
    "zip_code": "63348"
  },
  {
    "city": "o'fallon",
    "zip_code": "63366"
  },
  {
    "city": "hunnewell",
    "zip_code": "63443"
  },
  {
    "city": "la belle",
    "zip_code": "63447"
  },
  {
    "city": "callao",
    "zip_code": "63534"
  },
  {
    "city": "reynolds",
    "zip_code": "63666"
  },
  {
    "city": "leopold",
    "zip_code": "63760"
  },
  {
    "city": "clubb",
    "zip_code": "63934"
  },
  {
    "city": "independence",
    "zip_code": "64052"
  },
  {
    "city": "odessa",
    "zip_code": "64076"
  },
  {
    "city": "kansas city",
    "zip_code": "64138"
  },
  {
    "city": "kansas city",
    "zip_code": "64154"
  },
  {
    "city": "edgerton",
    "zip_code": "64444"
  },
  {
    "city": "rea",
    "zip_code": "64480"
  },
  {
    "city": "laredo",
    "zip_code": "64652"
  },
  {
    "city": "el dorado springs",
    "zip_code": "64744"
  },
  {
    "city": "fairview",
    "zip_code": "64842"
  },
  {
    "city": "osage beach",
    "zip_code": "65065"
  },
  {
    "city": "auxvasse",
    "zip_code": "65231"
  },
  {
    "city": "fayette",
    "zip_code": "65248"
  },
  {
    "city": "bakersfield",
    "zip_code": "65609"
  },
  {
    "city": "bruner",
    "zip_code": "65620"
  },
  {
    "city": "eagle rock",
    "zip_code": "65641"
  },
  {
    "city": "springfield",
    "zip_code": "65802"
  },
  {
    "city": "westphalia",
    "zip_code": "66093"
  },
  {
    "city": "leawood",
    "zip_code": "66211"
  },
  {
    "city": "overland park",
    "zip_code": "66212"
  },
  {
    "city": "havensville",
    "zip_code": "66432"
  },
  {
    "city": "home",
    "zip_code": "66438"
  },
  {
    "city": "lyndon",
    "zip_code": "66451"
  },
  {
    "city": "milford",
    "zip_code": "66514"
  },
  {
    "city": "oketo",
    "zip_code": "66518"
  },
  {
    "city": "paxico",
    "zip_code": "66526"
  },
  {
    "city": "seneca",
    "zip_code": "66538"
  },
  {
    "city": "soldier",
    "zip_code": "66540"
  },
  {
    "city": "topeka",
    "zip_code": "66615"
  },
  {
    "city": "humboldt",
    "zip_code": "66748"
  },
  {
    "city": "scammon",
    "zip_code": "66773"
  },
  {
    "city": "gridley",
    "zip_code": "66852"
  },
  {
    "city": "le roy",
    "zip_code": "66857"
  },
  {
    "city": "esbon",
    "zip_code": "66941"
  },
  {
    "city": "jamestown",
    "zip_code": "66948"
  },
  {
    "city": "webber",
    "zip_code": "66970"
  },
  {
    "city": "colwich",
    "zip_code": "67030"
  },
  {
    "city": "derby",
    "zip_code": "67037"
  },
  {
    "city": "iuka",
    "zip_code": "67066"
  },
  {
    "city": "nashville",
    "zip_code": "67112"
  },
  {
    "city": "havana",
    "zip_code": "67347"
  },
  {
    "city": "gypsum",
    "zip_code": "67448"
  },
  {
    "city": "tescott",
    "zip_code": "67484"
  },
  {
    "city": "windom",
    "zip_code": "67491"
  },
  {
    "city": "natoma",
    "zip_code": "67651"
  },
  {
    "city": "palco",
    "zip_code": "67657"
  },
  {
    "city": "penokee",
    "zip_code": "67659"
  },
  {
    "city": "phillipsburg",
    "zip_code": "67661"
  },
  {
    "city": "selden",
    "zip_code": "67757"
  },
  {
    "city": "marienthal",
    "zip_code": "67863"
  },
  {
    "city": "richfield",
    "zip_code": "67953"
  },
  {
    "city": "ithaca",
    "zip_code": "68033"
  },
  {
    "city": "valley",
    "zip_code": "68064"
  },
  {
    "city": "winslow",
    "zip_code": "68072"
  },
  {
    "city": "omaha",
    "zip_code": "68157"
  },
  {
    "city": "blue springs",
    "zip_code": "68318"
  },
  {
    "city": "clatonia",
    "zip_code": "68328"
  },
  {
    "city": "cook",
    "zip_code": "68329"
  },
  {
    "city": "dawson",
    "zip_code": "68337"
  },
  {
    "city": "eagle",
    "zip_code": "68347"
  },
  {
    "city": "greenwood",
    "zip_code": "68366"
  },
  {
    "city": "ohiowa",
    "zip_code": "68416"
  },
  {
    "city": "otoe",
    "zip_code": "68417"
  },
  {
    "city": "pleasant dale",
    "zip_code": "68423"
  },
  {
    "city": "staplehurst",
    "zip_code": "68439"
  },
  {
    "city": "table rock",
    "zip_code": "68447"
  },
  {
    "city": "amelia",
    "zip_code": "68711"
  },
  {
    "city": "stuart",
    "zip_code": "68780"
  },
  {
    "city": "shelton",
    "zip_code": "68876"
  },
  {
    "city": "arapahoe",
    "zip_code": "68922"
  },
  {
    "city": "bertrand",
    "zip_code": "68927"
  },
  {
    "city": "lakeside",
    "zip_code": "69351"
  },
  {
    "city": "plattenville",
    "zip_code": "70393"
  },
  {
    "city": "slidell",
    "zip_code": "70458"
  },
  {
    "city": "church point",
    "zip_code": "70525"
  },
  {
    "city": "delcambre",
    "zip_code": "70528"
  },
  {
    "city": "ville platte",
    "zip_code": "70586"
  },
  {
    "city": "cameron",
    "zip_code": "70631"
  },
  {
    "city": "hayes",
    "zip_code": "70646"
  },
  {
    "city": "mittie",
    "zip_code": "70654"
  },
  {
    "city": "glynn",
    "zip_code": "70736"
  },
  {
    "city": "new roads",
    "zip_code": "70760"
  },
  {
    "city": "tunica",
    "zip_code": "70782"
  },
  {
    "city": "shreveport",
    "zip_code": "71108"
  },
  {
    "city": "bonita",
    "zip_code": "71223"
  },
  {
    "city": "delta",
    "zip_code": "71233"
  },
  {
    "city": "ruston",
    "zip_code": "71272"
  },
  {
    "city": "anacoco",
    "zip_code": "71403"
  },
  {
    "city": "boyce",
    "zip_code": "71409"
  },
  {
    "city": "hornbeck",
    "zip_code": "71439"
  },
  {
    "city": "white hall",
    "zip_code": "71602"
  },
  {
    "city": "emerson",
    "zip_code": "71740"
  },
  {
    "city": "harrell",
    "zip_code": "71745"
  },
  {
    "city": "rosston",
    "zip_code": "71858"
  },
  {
    "city": "cove",
    "zip_code": "71937"
  },
  {
    "city": "arkadelphia",
    "zip_code": "71999"
  },
  {
    "city": "cleveland",
    "zip_code": "72030"
  },
  {
    "city": "edgemont",
    "zip_code": "72044"
  },
  {
    "city": "prim",
    "zip_code": "72130"
  },
  {
    "city": "tupelo",
    "zip_code": "72169"
  },
  {
    "city": "caldwell",
    "zip_code": "72322"
  },
  {
    "city": "black rock",
    "zip_code": "72415"
  },
  {
    "city": "bono",
    "zip_code": "72416"
  },
  {
    "city": "fisher",
    "zip_code": "72429"
  },
  {
    "city": "lake city",
    "zip_code": "72437"
  },
  {
    "city": "evening shade",
    "zip_code": "72532"
  },
  {
    "city": "pleasant grove",
    "zip_code": "72567"
  },
  {
    "city": "bella vista",
    "zip_code": "72714"
  },
  {
    "city": "hindsville",
    "zip_code": "72738"
  },
  {
    "city": "rogers",
    "zip_code": "72756"
  },
  {
    "city": "russellville",
    "zip_code": "72801"
  },
  {
    "city": "gravelly",
    "zip_code": "72838"
  },
  {
    "city": "magazine",
    "zip_code": "72943"
  },
  {
    "city": "carnegie",
    "zip_code": "73015"
  },
  {
    "city": "eakly",
    "zip_code": "73033"
  },
  {
    "city": "gotebo",
    "zip_code": "73041"
  },
  {
    "city": "orlando",
    "zip_code": "73073"
  },
  {
    "city": "oklahoma city",
    "zip_code": "73111"
  },
  {
    "city": "oklahoma city",
    "zip_code": "73165"
  },
  {
    "city": "loco",
    "zip_code": "73442"
  },
  {
    "city": "hennepin",
    "zip_code": "73444"
  },
  {
    "city": "thackerville",
    "zip_code": "73459"
  },
  {
    "city": "manitou",
    "zip_code": "73555"
  },
  {
    "city": "temple",
    "zip_code": "73568"
  },
  {
    "city": "sayre",
    "zip_code": "73662"
  },
  {
    "city": "garber",
    "zip_code": "73738"
  },
  {
    "city": "goltry",
    "zip_code": "73739"
  },
  {
    "city": "bartlesville",
    "zip_code": "74003"
  },
  {
    "city": "tulsa",
    "zip_code": "74132"
  },
  {
    "city": "salina",
    "zip_code": "74365"
  },
  {
    "city": "fort gibson",
    "zip_code": "74434"
  },
  {
    "city": "webbers falls",
    "zip_code": "74470"
  },
  {
    "city": "burbank",
    "zip_code": "74633"
  },
  {
    "city": "calera",
    "zip_code": "74730"
  },
  {
    "city": "boley",
    "zip_code": "74829"
  },
  {
    "city": "chandler",
    "zip_code": "74834"
  },
  {
    "city": "tryon",
    "zip_code": "74875"
  },
  {
    "city": "wetumka",
    "zip_code": "74883"
  },
  {
    "city": "irving",
    "zip_code": "75063"
  },
  {
    "city": "bardwell",
    "zip_code": "75101"
  },
  {
    "city": "rice",
    "zip_code": "75155"
  },
  {
    "city": "dallas",
    "zip_code": "75216"
  },
  {
    "city": "dallas",
    "zip_code": "75244"
  },
  {
    "city": "dallas",
    "zip_code": "75246"
  },
  {
    "city": "bailey",
    "zip_code": "75413"
  },
  {
    "city": "scroggins",
    "zip_code": "75480"
  },
  {
    "city": "longview",
    "zip_code": "75604"
  },
  {
    "city": "rusk",
    "zip_code": "75785"
  },
  {
    "city": "arlington",
    "zip_code": "76001"
  },
  {
    "city": "nemo",
    "zip_code": "76070"
  },
  {
    "city": "fort worth",
    "zip_code": "76103"
  },
  {
    "city": "denton",
    "zip_code": "76210"
  },
  {
    "city": "era",
    "zip_code": "76238"
  },
  {
    "city": "forestburg",
    "zip_code": "76239"
  },
  {
    "city": "lindsay",
    "zip_code": "76250"
  },
  {
    "city": "byers",
    "zip_code": "76357"
  },
  {
    "city": "eastland",
    "zip_code": "76448"
  },
  {
    "city": "palo pinto",
    "zip_code": "76484"
  },
  {
    "city": "temple",
    "zip_code": "76502"
  },
  {
    "city": "killeen",
    "zip_code": "76541"
  },
  {
    "city": "killeen",
    "zip_code": "76542"
  },
  {
    "city": "killeen",
    "zip_code": "76543"
  },
  {
    "city": "salado",
    "zip_code": "76571"
  },
  {
    "city": "aquilla",
    "zip_code": "76622"
  },
  {
    "city": "houston",
    "zip_code": "77005"
  },
  {
    "city": "houston",
    "zip_code": "77025"
  },
  {
    "city": "houston",
    "zip_code": "77047"
  },
  {
    "city": "houston",
    "zip_code": "77068"
  },
  {
    "city": "houston",
    "zip_code": "77070"
  },
  {
    "city": "houston",
    "zip_code": "77074"
  },
  {
    "city": "huffman",
    "zip_code": "77336"
  },
  {
    "city": "kingwood",
    "zip_code": "77345"
  },
  {
    "city": "sugar land",
    "zip_code": "77498"
  },
  {
    "city": "galveston",
    "zip_code": "77551"
  },
  {
    "city": "evadale",
    "zip_code": "77615"
  },
  {
    "city": "stowell",
    "zip_code": "77661"
  },
  {
    "city": "marquez",
    "zip_code": "77865"
  },
  {
    "city": "port o'connor",
    "zip_code": "77982"
  },
  {
    "city": "seadrift",
    "zip_code": "77983"
  },
  {
    "city": "mountain home",
    "zip_code": "78058"
  },
  {
    "city": "saint hedwig",
    "zip_code": "78152"
  },
  {
    "city": "san antonio",
    "zip_code": "78208"
  },
  {
    "city": "armstrong",
    "zip_code": "78338"
  },
  {
    "city": "woodsboro",
    "zip_code": "78393"
  },
  {
    "city": "corpus christi",
    "zip_code": "78412"
  },
  {
    "city": "lyford",
    "zip_code": "78569"
  },
  {
    "city": "san benito",
    "zip_code": "78586"
  },
  {
    "city": "santa rosa",
    "zip_code": "78593"
  },
  {
    "city": "bastrop",
    "zip_code": "78602"
  },
  {
    "city": "georgetown",
    "zip_code": "78628"
  },
  {
    "city": "kyle",
    "zip_code": "78640"
  },
  {
    "city": "wimberley",
    "zip_code": "78676"
  },
  {
    "city": "austin",
    "zip_code": "78727"
  },
  {
    "city": "austin",
    "zip_code": "78752"
  },
  {
    "city": "laughlin afb",
    "zip_code": "78843"
  },
  {
    "city": "flatonia",
    "zip_code": "78941"
  },
  {
    "city": "canyon",
    "zip_code": "79016"
  },
  {
    "city": "amarillo",
    "zip_code": "79110"
  },
  {
    "city": "dickens",
    "zip_code": "79229"
  },
  {
    "city": "farwell",
    "zip_code": "79325"
  },
  {
    "city": "plains",
    "zip_code": "79355"
  },
  {
    "city": "ralls",
    "zip_code": "79357"
  },
  {
    "city": "ransom canyon",
    "zip_code": "79366"
  },
  {
    "city": "maryneal",
    "zip_code": "79535"
  },
  {
    "city": "odessa",
    "zip_code": "79764"
  },
  {
    "city": "aurora",
    "zip_code": "80013"
  },
  {
    "city": "denver",
    "zip_code": "80246"
  },
  {
    "city": "denver",
    "zip_code": "80260"
  },
  {
    "city": "burns",
    "zip_code": "80426"
  },
  {
    "city": "shawnee",
    "zip_code": "80475"
  },
  {
    "city": "longmont",
    "zip_code": "80504"
  },
  {
    "city": "loveland",
    "zip_code": "80538"
  },
  {
    "city": "fort lupton",
    "zip_code": "80621"
  },
  {
    "city": "hudson",
    "zip_code": "80642"
  },
  {
    "city": "eckley",
    "zip_code": "80727"
  },
  {
    "city": "fleming",
    "zip_code": "80728"
  },
  {
    "city": "bethune",
    "zip_code": "80805"
  },
  {
    "city": "seibert",
    "zip_code": "80834"
  },
  {
    "city": "colorado springs",
    "zip_code": "80902"
  },
  {
    "city": "pueblo",
    "zip_code": "81007"
  },
  {
    "city": "lamar",
    "zip_code": "81052"
  },
  {
    "city": "springfield",
    "zip_code": "81073"
  },
  {
    "city": "canon city",
    "zip_code": "81212"
  },
  {
    "city": "monarch",
    "zip_code": "81227"
  },
  {
    "city": "dinosaur",
    "zip_code": "81610"
  },
  {
    "city": "lingle",
    "zip_code": "82223"
  },
  {
    "city": "pavillion",
    "zip_code": "82523"
  },
  {
    "city": "alcova",
    "zip_code": "82620"
  },
  {
    "city": "may",
    "zip_code": "83253"
  },
  {
    "city": "declo",
    "zip_code": "83323"
  },
  {
    "city": "hagerman",
    "zip_code": "83332"
  },
  {
    "city": "idaho falls",
    "zip_code": "83404"
  },
  {
    "city": "felt",
    "zip_code": "83424"
  },
  {
    "city": "grangeville",
    "zip_code": "83530"
  },
  {
    "city": "yellow pine",
    "zip_code": "83677"
  },
  {
    "city": "boise",
    "zip_code": "83709"
  },
  {
    "city": "boise",
    "zip_code": "83712"
  },
  {
    "city": "laketown",
    "zip_code": "84038"
  },
  {
    "city": "layton",
    "zip_code": "84041"
  },
  {
    "city": "randolph",
    "zip_code": "84064"
  },
  {
    "city": "woods cross",
    "zip_code": "84087"
  },
  {
    "city": "salt lake city",
    "zip_code": "84112"
  },
  {
    "city": "ogden",
    "zip_code": "84401"
  },
  {
    "city": "elsinore",
    "zip_code": "84724"
  },
  {
    "city": "minersville",
    "zip_code": "84752"
  },
  {
    "city": "phoenix",
    "zip_code": "85022"
  },
  {
    "city": "scottsdale",
    "zip_code": "85256"
  },
  {
    "city": "glendale",
    "zip_code": "85308"
  },
  {
    "city": "avondale",
    "zip_code": "85323"
  },
  {
    "city": "tonopah",
    "zip_code": "85354"
  },
  {
    "city": "yarnell",
    "zip_code": "85362"
  },
  {
    "city": "sun city",
    "zip_code": "85373"
  },
  {
    "city": "wickenburg",
    "zip_code": "85390"
  },
  {
    "city": "payson",
    "zip_code": "85541"
  },
  {
    "city": "huachuca city",
    "zip_code": "85616"
  },
  {
    "city": "tucson",
    "zip_code": "85715"
  },
  {
    "city": "saint johns",
    "zip_code": "85936"
  },
  {
    "city": "ash fork",
    "zip_code": "86320"
  },
  {
    "city": "paulden",
    "zip_code": "86334"
  },
  {
    "city": "lake havasu city",
    "zip_code": "86403"
  },
  {
    "city": "albuquerque",
    "zip_code": "87112"
  },
  {
    "city": "fort wingate",
    "zip_code": "87316"
  },
  {
    "city": "pinehill",
    "zip_code": "87357"
  },
  {
    "city": "santa teresa",
    "zip_code": "88008"
  },
  {
    "city": "hobbs",
    "zip_code": "88242"
  },
  {
    "city": "alamo",
    "zip_code": "89001"
  },
  {
    "city": "henderson",
    "zip_code": "89002"
  },
  {
    "city": "baker",
    "zip_code": "89311"
  },
  {
    "city": "hawthorne",
    "zip_code": "89415"
  },
  {
    "city": "minden",
    "zip_code": "89423"
  },
  {
    "city": "nixon",
    "zip_code": "89424"
  },
  {
    "city": "reno",
    "zip_code": "89502"
  },
  {
    "city": "owyhee",
    "zip_code": "89832"
  },
  {
    "city": "dry branch",
    "zip_code": "31020"
  },
  {
    "city": "hawkinsville",
    "zip_code": "31036"
  },
  {
    "city": "lilly",
    "zip_code": "31051"
  },
  {
    "city": "milan",
    "zip_code": "31060"
  },
  {
    "city": "reynolds",
    "zip_code": "31076"
  },
  {
    "city": "ambrose",
    "zip_code": "31512"
  },
  {
    "city": "baxley",
    "zip_code": "31513"
  },
  {
    "city": "woodbine",
    "zip_code": "31569"
  },
  {
    "city": "cecil",
    "zip_code": "31627"
  },
  {
    "city": "stockton",
    "zip_code": "31649"
  },
  {
    "city": "coolidge",
    "zip_code": "31738"
  },
  {
    "city": "plains",
    "zip_code": "31780"
  },
  {
    "city": "ellerslie",
    "zip_code": "31807"
  },
  {
    "city": "fortson",
    "zip_code": "31808"
  },
  {
    "city": "upatoi",
    "zip_code": "31829"
  },
  {
    "city": "middleburg",
    "zip_code": "32068"
  },
  {
    "city": "saint augustine",
    "zip_code": "32080"
  },
  {
    "city": "sanderson",
    "zip_code": "32087"
  },
  {
    "city": "bunnell",
    "zip_code": "32110"
  },
  {
    "city": "hollister",
    "zip_code": "32147"
  },
  {
    "city": "ormond beach",
    "zip_code": "32176"
  },
  {
    "city": "jacksonville",
    "zip_code": "32256"
  },
  {
    "city": "alford",
    "zip_code": "32420"
  },
  {
    "city": "bonifay",
    "zip_code": "32425"
  },
  {
    "city": "marianna",
    "zip_code": "32446"
  },
  {
    "city": "gainesville",
    "zip_code": "32607"
  },
  {
    "city": "gulf hammock",
    "zip_code": "32639"
  },
  {
    "city": "geneva",
    "zip_code": "32732"
  },
  {
    "city": "tavares",
    "zip_code": "32778"
  },
  {
    "city": "orlando",
    "zip_code": "32801"
  },
  {
    "city": "orlando",
    "zip_code": "32807"
  },
  {
    "city": "orlando",
    "zip_code": "32817"
  },
  {
    "city": "melbourne",
    "zip_code": "32934"
  },
  {
    "city": "hialeah",
    "zip_code": "33010"
  },
  {
    "city": "hialeah",
    "zip_code": "33018"
  },
  {
    "city": "big pine key",
    "zip_code": "33043"
  },
  {
    "city": "miami",
    "zip_code": "33122"
  },
  {
    "city": "miami",
    "zip_code": "33127"
  },
  {
    "city": "fort lauderdale",
    "zip_code": "33316"
  },
  {
    "city": "fort lauderdale",
    "zip_code": "33351"
  },
  {
    "city": "tampa",
    "zip_code": "33610"
  },
  {
    "city": "tampa",
    "zip_code": "33626"
  },
  {
    "city": "saint petersburg",
    "zip_code": "33705"
  },
  {
    "city": "auburndale",
    "zip_code": "33823"
  },
  {
    "city": "mulberry",
    "zip_code": "33860"
  },
  {
    "city": "fort myers",
    "zip_code": "33966"
  },
  {
    "city": "naples",
    "zip_code": "34120"
  },
  {
    "city": "dunnellon",
    "zip_code": "34431"
  },
  {
    "city": "kissimmee",
    "zip_code": "34758"
  },
  {
    "city": "stuart",
    "zip_code": "34994"
  },
  {
    "city": "hayden",
    "zip_code": "35079"
  },
  {
    "city": "vinemont",
    "zip_code": "35179"
  },
  {
    "city": "gainesville",
    "zip_code": "35464"
  },
  {
    "city": "jasper",
    "zip_code": "35501"
  },
  {
    "city": "hackleburg",
    "zip_code": "35564"
  },
  {
    "city": "meridianville",
    "zip_code": "35759"
  },
  {
    "city": "pisgah",
    "zip_code": "35765"
  },
  {
    "city": "boaz",
    "zip_code": "35956"
  },
  {
    "city": "crossville",
    "zip_code": "35962"
  },
  {
    "city": "coosada",
    "zip_code": "36020"
  },
  {
    "city": "troy",
    "zip_code": "36082"
  },
  {
    "city": "daviston",
    "zip_code": "36256"
  },
  {
    "city": "cottonwood",
    "zip_code": "36320"
  },
  {
    "city": "skipperville",
    "zip_code": "36374"
  },
  {
    "city": "andalusia",
    "zip_code": "36420"
  },
  {
    "city": "beatrice",
    "zip_code": "36425"
  },
  {
    "city": "castleberry",
    "zip_code": "36432"
  },
  {
    "city": "dickinson",
    "zip_code": "36436"
  },
  {
    "city": "kinston",
    "zip_code": "36453"
  },
  {
    "city": "uriah",
    "zip_code": "36480"
  },
  {
    "city": "fruitdale",
    "zip_code": "36539"
  },
  {
    "city": "little river",
    "zip_code": "36550"
  },
  {
    "city": "perdido",
    "zip_code": "36562"
  },
  {
    "city": "sunflower",
    "zip_code": "36581"
  },
  {
    "city": "mobile",
    "zip_code": "36607"
  },
  {
    "city": "selma",
    "zip_code": "36701"
  },
  {
    "city": "marion",
    "zip_code": "36756"
  },
  {
    "city": "minter",
    "zip_code": "36761"
  },
  {
    "city": "pine apple",
    "zip_code": "36768"
  },
  {
    "city": "jacksons gap",
    "zip_code": "36861"
  },
  {
    "city": "loachapoka",
    "zip_code": "36865"
  },
  {
    "city": "antioch",
    "zip_code": "37013"
  },
  {
    "city": "castalian springs",
    "zip_code": "37031"
  },
  {
    "city": "cumberland city",
    "zip_code": "37050"
  },
  {
    "city": "hurricane mills",
    "zip_code": "37078"
  },
  {
    "city": "la vergne",
    "zip_code": "37086"
  },
  {
    "city": "mcminnville",
    "zip_code": "37110"
  },
  {
    "city": "nashville",
    "zip_code": "37211"
  },
  {
    "city": "birchwood",
    "zip_code": "37308"
  },
  {
    "city": "lynchburg",
    "zip_code": "37352"
  },
  {
    "city": "huntsville",
    "zip_code": "37756"
  },
  {
    "city": "morristown",
    "zip_code": "37814"
  },
  {
    "city": "powder springs",
    "zip_code": "37848"
  },
  {
    "city": "robbins",
    "zip_code": "37852"
  },
  {
    "city": "rogersville",
    "zip_code": "37857"
  },
  {
    "city": "atoka",
    "zip_code": "38004"
  },
  {
    "city": "oakland",
    "zip_code": "38060"
  },
  {
    "city": "stanton",
    "zip_code": "38069"
  },
  {
    "city": "memphis",
    "zip_code": "38111"
  },
  {
    "city": "memphis",
    "zip_code": "38134"
  },
  {
    "city": "monterey",
    "zip_code": "38574"
  },
  {
    "city": "holly springs",
    "zip_code": "38635"
  },
  {
    "city": "amory",
    "zip_code": "38821"
  },
  {
    "city": "guntown",
    "zip_code": "38849"
  },
  {
    "city": "saltillo",
    "zip_code": "38866"
  },
  {
    "city": "smithville",
    "zip_code": "38870"
  },
  {
    "city": "cresbard",
    "zip_code": "57435"
  },
  {
    "city": "onida",
    "zip_code": "57564"
  },
  {
    "city": "hot springs",
    "zip_code": "57747"
  },
  {
    "city": "spearfish",
    "zip_code": "57783"
  },
  {
    "city": "wounded knee",
    "zip_code": "57794"
  },
  {
    "city": "barney",
    "zip_code": "58008"
  },
  {
    "city": "wahpeton",
    "zip_code": "58075"
  },
  {
    "city": "churchs ferry",
    "zip_code": "58325"
  },
  {
    "city": "lakota",
    "zip_code": "58344"
  },
  {
    "city": "rocklake",
    "zip_code": "58365"
  },
  {
    "city": "pingree",
    "zip_code": "58476"
  },
  {
    "city": "new leipzig",
    "zip_code": "58562"
  },
  {
    "city": "raleigh",
    "zip_code": "58564"
  },
  {
    "city": "verona",
    "zip_code": "38879"
  },
  {
    "city": "banner",
    "zip_code": "38913"
  },
  {
    "city": "florence",
    "zip_code": "39073"
  },
  {
    "city": "magee",
    "zip_code": "39111"
  },
  {
    "city": "pattison",
    "zip_code": "39144"
  },
  {
    "city": "wesson",
    "zip_code": "39191"
  },
  {
    "city": "jackson",
    "zip_code": "39211"
  },
  {
    "city": "flowood",
    "zip_code": "39232"
  },
  {
    "city": "union",
    "zip_code": "39365"
  },
  {
    "city": "brooklyn",
    "zip_code": "39425"
  },
  {
    "city": "mclain",
    "zip_code": "39456"
  },
  {
    "city": "meadville",
    "zip_code": "39653"
  },
  {
    "city": "sturgis",
    "zip_code": "39769"
  },
  {
    "city": "bluffton",
    "zip_code": "39824"
  },
  {
    "city": "fort gaines",
    "zip_code": "39851"
  },
  {
    "city": "coxs creek",
    "zip_code": "40013"
  },
  {
    "city": "eminence",
    "zip_code": "40019"
  },
  {
    "city": "waddy",
    "zip_code": "40076"
  },
  {
    "city": "burgin",
    "zip_code": "40310"
  },
  {
    "city": "helton",
    "zip_code": "40840"
  },
  {
    "city": "hulen",
    "zip_code": "40845"
  },
  {
    "city": "loyall",
    "zip_code": "40854"
  },
  {
    "city": "pineville",
    "zip_code": "40977"
  },
  {
    "city": "florence",
    "zip_code": "41042"
  },
  {
    "city": "warsaw",
    "zip_code": "41095"
  },
  {
    "city": "olive hill",
    "zip_code": "41164"
  },
  {
    "city": "beauty",
    "zip_code": "41203"
  },
  {
    "city": "tutor key",
    "zip_code": "41263"
  },
  {
    "city": "vancleve",
    "zip_code": "41385"
  },
  {
    "city": "royalton",
    "zip_code": "41464"
  },
  {
    "city": "shelby gap",
    "zip_code": "41563"
  },
  {
    "city": "prestonsburg",
    "zip_code": "41653"
  },
  {
    "city": "bear branch",
    "zip_code": "41714"
  },
  {
    "city": "cornettsville",
    "zip_code": "41731"
  },
  {
    "city": "adolphus",
    "zip_code": "42120"
  },
  {
    "city": "fordsville",
    "zip_code": "42343"
  },
  {
    "city": "sacramento",
    "zip_code": "42372"
  },
  {
    "city": "sturgis",
    "zip_code": "42459"
  },
  {
    "city": "liberty",
    "zip_code": "42539"
  },
  {
    "city": "bonnieville",
    "zip_code": "42713"
  },
  {
    "city": "mannsville",
    "zip_code": "42758"
  },
  {
    "city": "blacklick",
    "zip_code": "43004"
  },
  {
    "city": "granville",
    "zip_code": "43023"
  },
  {
    "city": "bremen",
    "zip_code": "43107"
  },
  {
    "city": "sedalia",
    "zip_code": "43151"
  },
  {
    "city": "clyde",
    "zip_code": "43410"
  },
  {
    "city": "harbor view",
    "zip_code": "43434"
  },
  {
    "city": "grand rapids",
    "zip_code": "43522"
  },
  {
    "city": "grelton",
    "zip_code": "43523"
  },
  {
    "city": "lyons",
    "zip_code": "43533"
  },
  {
    "city": "montpelier",
    "zip_code": "43543"
  },
  {
    "city": "neapolis",
    "zip_code": "43547"
  },
  {
    "city": "toledo",
    "zip_code": "43620"
  },
  {
    "city": "mount perry",
    "zip_code": "43760"
  },
  {
    "city": "barton",
    "zip_code": "43905"
  },
  {
    "city": "dillonvale",
    "zip_code": "43917"
  },
  {
    "city": "hammondsville",
    "zip_code": "43930"
  },
  {
    "city": "lafferty",
    "zip_code": "43951"
  },
  {
    "city": "cleveland",
    "zip_code": "44113"
  },
  {
    "city": "cleveland",
    "zip_code": "44114"
  },
  {
    "city": "north royalton",
    "zip_code": "44133"
  },
  {
    "city": "lakemore",
    "zip_code": "44250"
  },
  {
    "city": "westfield center",
    "zip_code": "44251"
  },
  {
    "city": "valley city",
    "zip_code": "44280"
  },
  {
    "city": "wadsworth",
    "zip_code": "44281"
  },
  {
    "city": "akron",
    "zip_code": "44320"
  },
  {
    "city": "negley",
    "zip_code": "44441"
  },
  {
    "city": "north lima",
    "zip_code": "44452"
  },
  {
    "city": "youngstown",
    "zip_code": "44512"
  },
  {
    "city": "mineral city",
    "zip_code": "44656"
  },
  {
    "city": "canton",
    "zip_code": "44703"
  },
  {
    "city": "bellevue",
    "zip_code": "44811"
  },
  {
    "city": "bellville",
    "zip_code": "44813"
  },
  {
    "city": "castalia",
    "zip_code": "44824"
  },
  {
    "city": "savannah",
    "zip_code": "44874"
  },
  {
    "city": "somerville",
    "zip_code": "45064"
  },
  {
    "city": "midland",
    "zip_code": "45148"
  },
  {
    "city": "cincinnati",
    "zip_code": "45248"
  },
  {
    "city": "maplewood",
    "zip_code": "45340"
  },
  {
    "city": "dayton",
    "zip_code": "45424"
  },
  {
    "city": "dayton",
    "zip_code": "45439"
  },
  {
    "city": "blue creek",
    "zip_code": "45616"
  },
  {
    "city": "kingston",
    "zip_code": "45644"
  },
  {
    "city": "newport",
    "zip_code": "45768"
  },
  {
    "city": "reedsville",
    "zip_code": "45772"
  },
  {
    "city": "bluffton",
    "zip_code": "45817"
  },
  {
    "city": "minster",
    "zip_code": "45865"
  },
  {
    "city": "ohio city",
    "zip_code": "45874"
  },
  {
    "city": "rawson",
    "zip_code": "45881"
  },
  {
    "city": "spencerville",
    "zip_code": "45887"
  },
  {
    "city": "forest",
    "zip_code": "46039"
  },
  {
    "city": "sheridan",
    "zip_code": "46069"
  },
  {
    "city": "north salem",
    "zip_code": "46165"
  },
  {
    "city": "indianapolis",
    "zip_code": "46225"
  },
  {
    "city": "south bend",
    "zip_code": "46617"
  },
  {
    "city": "arcola",
    "zip_code": "46704"
  },
  {
    "city": "lagrange",
    "zip_code": "46761"
  },
  {
    "city": "mongo",
    "zip_code": "46771"
  },
  {
    "city": "burlington",
    "zip_code": "46915"
  },
  {
    "city": "swayzee",
    "zip_code": "46986"
  },
  {
    "city": "wabash",
    "zip_code": "46992"
  },
  {
    "city": "dillsboro",
    "zip_code": "47018"
  },
  {
    "city": "eckerty",
    "zip_code": "47116"
  },
  {
    "city": "sellersburg",
    "zip_code": "47172"
  },
  {
    "city": "hope",
    "zip_code": "47246"
  },
  {
    "city": "jonesville",
    "zip_code": "47247"
  },
  {
    "city": "vallonia",
    "zip_code": "47281"
  },
  {
    "city": "ridgeville",
    "zip_code": "47380"
  },
  {
    "city": "winchester",
    "zip_code": "47394"
  },
  {
    "city": "bloomington",
    "zip_code": "47404"
  },
  {
    "city": "gosport",
    "zip_code": "47433"
  },
  {
    "city": "newberry",
    "zip_code": "47449"
  },
  {
    "city": "oolitic",
    "zip_code": "47451"
  },
  {
    "city": "washington",
    "zip_code": "47501"
  },
  {
    "city": "winslow",
    "zip_code": "47598"
  },
  {
    "city": "poseyville",
    "zip_code": "47633"
  },
  {
    "city": "evansville",
    "zip_code": "47715"
  },
  {
    "city": "bridgeton",
    "zip_code": "47836"
  },
  {
    "city": "hillsdale",
    "zip_code": "47854"
  },
  {
    "city": "montezuma",
    "zip_code": "47862"
  },
  {
    "city": "covington",
    "zip_code": "47932"
  },
  {
    "city": "earl park",
    "zip_code": "47942"
  },
  {
    "city": "oxford",
    "zip_code": "47971"
  },
  {
    "city": "west lebanon",
    "zip_code": "47991"
  },
  {
    "city": "saint clair shores",
    "zip_code": "48082"
  },
  {
    "city": "garden city",
    "zip_code": "48135"
  },
  {
    "city": "milan",
    "zip_code": "48160"
  },
  {
    "city": "rockwood",
    "zip_code": "48173"
  },
  {
    "city": "detroit",
    "zip_code": "48202"
  },
  {
    "city": "keego harbor",
    "zip_code": "48320"
  },
  {
    "city": "waterford",
    "zip_code": "48328"
  },
  {
    "city": "flint",
    "zip_code": "48502"
  },
  {
    "city": "flint",
    "zip_code": "48506"
  },
  {
    "city": "saginaw",
    "zip_code": "48609"
  },
  {
    "city": "pigeon",
    "zip_code": "48755"
  },
  {
    "city": "fowlerville",
    "zip_code": "48836"
  },
  {
    "city": "dowagiac",
    "zip_code": "49047"
  },
  {
    "city": "watervliet",
    "zip_code": "49098"
  },
  {
    "city": "union pier",
    "zip_code": "49129"
  },
  {
    "city": "blanchard",
    "zip_code": "49310"
  },
  {
    "city": "white cloud",
    "zip_code": "49349"
  },
  {
    "city": "luther",
    "zip_code": "49656"
  },
  {
    "city": "reed city",
    "zip_code": "49677"
  },
  {
    "city": "eben junction",
    "zip_code": "49825"
  },
  {
    "city": "baraga",
    "zip_code": "49908"
  },
  {
    "city": "bruce crossing",
    "zip_code": "49912"
  },
  {
    "city": "ewen",
    "zip_code": "49925"
  },
  {
    "city": "van meter",
    "zip_code": "50261"
  },
  {
    "city": "des moines",
    "zip_code": "50311"
  },
  {
    "city": "goodell",
    "zip_code": "50439"
  },
  {
    "city": "latimer",
    "zip_code": "50452"
  },
  {
    "city": "meservey",
    "zip_code": "50457"
  },
  {
    "city": "badger",
    "zip_code": "50516"
  },
  {
    "city": "cylinder",
    "zip_code": "50528"
  },
  {
    "city": "dayton",
    "zip_code": "50530"
  },
  {
    "city": "varina",
    "zip_code": "50593"
  },
  {
    "city": "buckingham",
    "zip_code": "50612"
  },
  {
    "city": "clarksville",
    "zip_code": "50619"
  },
  {
    "city": "sumner",
    "zip_code": "50674"
  },
  {
    "city": "bronson",
    "zip_code": "51007"
  },
  {
    "city": "cushing",
    "zip_code": "51018"
  },
  {
    "city": "hawarden",
    "zip_code": "51023"
  },
  {
    "city": "linn grove",
    "zip_code": "51033"
  },
  {
    "city": "sergeant bluff",
    "zip_code": "51054"
  },
  {
    "city": "dickens",
    "zip_code": "51333"
  },
  {
    "city": "charter oak",
    "zip_code": "51439"
  },
  {
    "city": "griswold",
    "zip_code": "51535"
  },
  {
    "city": "henderson",
    "zip_code": "51541"
  },
  {
    "city": "lewis",
    "zip_code": "51544"
  },
  {
    "city": "mcclelland",
    "zip_code": "51548"
  },
  {
    "city": "neola",
    "zip_code": "51559"
  },
  {
    "city": "underwood",
    "zip_code": "51576"
  },
  {
    "city": "braddyville",
    "zip_code": "51631"
  },
  {
    "city": "saint olaf",
    "zip_code": "52072"
  },
  {
    "city": "center junction",
    "zip_code": "52212"
  },
  {
    "city": "middle amana",
    "zip_code": "52307"
  },
  {
    "city": "cedar rapids",
    "zip_code": "52404"
  },
  {
    "city": "west burlington",
    "zip_code": "52655"
  },
  {
    "city": "blue grass",
    "zip_code": "52726"
  },
  {
    "city": "butler",
    "zip_code": "53007"
  },
  {
    "city": "delafield",
    "zip_code": "53018"
  },
  {
    "city": "mequon",
    "zip_code": "53092"
  },
  {
    "city": "salem",
    "zip_code": "53168"
  },
  {
    "city": "wilmot",
    "zip_code": "53192"
  },
  {
    "city": "milwaukee",
    "zip_code": "53202"
  },
  {
    "city": "black earth",
    "zip_code": "53515"
  },
  {
    "city": "evansville",
    "zip_code": "53536"
  },
  {
    "city": "janesville",
    "zip_code": "53545"
  },
  {
    "city": "lone rock",
    "zip_code": "53556"
  },
  {
    "city": "muscoda",
    "zip_code": "53573"
  },
  {
    "city": "madison",
    "zip_code": "53704"
  },
  {
    "city": "madison",
    "zip_code": "53718"
  },
  {
    "city": "hillpoint",
    "zip_code": "53937"
  },
  {
    "city": "ellsworth",
    "zip_code": "54011"
  },
  {
    "city": "suamico",
    "zip_code": "54173"
  },
  {
    "city": "athens",
    "zip_code": "54411"
  },
  {
    "city": "gleason",
    "zip_code": "54435"
  },
  {
    "city": "plover",
    "zip_code": "54467"
  },
  {
    "city": "hurley",
    "zip_code": "54534"
  },
  {
    "city": "black river falls",
    "zip_code": "54615"
  },
  {
    "city": "blair",
    "zip_code": "54616"
  },
  {
    "city": "millston",
    "zip_code": "54643"
  },
  {
    "city": "seneca",
    "zip_code": "54654"
  },
  {
    "city": "wilton",
    "zip_code": "54670"
  },
  {
    "city": "spooner",
    "zip_code": "54801"
  },
  {
    "city": "cameron",
    "zip_code": "54822"
  },
  {
    "city": "milltown",
    "zip_code": "54858"
  },
  {
    "city": "cottage grove",
    "zip_code": "55016"
  },
  {
    "city": "goodhue",
    "zip_code": "55027"
  },
  {
    "city": "hinckley",
    "zip_code": "55037"
  },
  {
    "city": "shafer",
    "zip_code": "55074"
  },
  {
    "city": "inver grove heights",
    "zip_code": "55077"
  },
  {
    "city": "saint paul",
    "zip_code": "55111"
  },
  {
    "city": "saint paul",
    "zip_code": "55115"
  },
  {
    "city": "saint paul",
    "zip_code": "55122"
  },
  {
    "city": "saint paul",
    "zip_code": "55128"
  },
  {
    "city": "new auburn",
    "zip_code": "55366"
  },
  {
    "city": "waconia",
    "zip_code": "55387"
  },
  {
    "city": "minneapolis",
    "zip_code": "55414"
  },
  {
    "city": "minneapolis",
    "zip_code": "55438"
  },
  {
    "city": "beaver bay",
    "zip_code": "55601"
  },
  {
    "city": "schroeder",
    "zip_code": "55613"
  },
  {
    "city": "pengilly",
    "zip_code": "55775"
  },
  {
    "city": "duluth",
    "zip_code": "55802"
  },
  {
    "city": "duluth",
    "zip_code": "55806"
  },
  {
    "city": "brownsdale",
    "zip_code": "55918"
  },
  {
    "city": "kenyon",
    "zip_code": "55946"
  },
  {
    "city": "belle plaine",
    "zip_code": "56011"
  },
  {
    "city": "madelia",
    "zip_code": "56062"
  },
  {
    "city": "montgomery",
    "zip_code": "56069"
  },
  {
    "city": "waterville",
    "zip_code": "56096"
  },
  {
    "city": "jackson",
    "zip_code": "56143"
  },
  {
    "city": "woodstock",
    "zip_code": "56186"
  },
  {
    "city": "milan",
    "zip_code": "56262"
  },
  {
    "city": "wabasso",
    "zip_code": "56293"
  },
  {
    "city": "wanda",
    "zip_code": "56294"
  },
  {
    "city": "elrosa",
    "zip_code": "56325"
  },
  {
    "city": "glenwood",
    "zip_code": "56334"
  },
  {
    "city": "hillman",
    "zip_code": "56338"
  },
  {
    "city": "sauk centre",
    "zip_code": "56378"
  },
  {
    "city": "verndale",
    "zip_code": "56481"
  },
  {
    "city": "dent",
    "zip_code": "56528"
  },
  {
    "city": "deer river",
    "zip_code": "56636"
  },
  {
    "city": "kelliher",
    "zip_code": "56650"
  },
  {
    "city": "trail",
    "zip_code": "56684"
  },
  {
    "city": "middle river",
    "zip_code": "56737"
  },
  {
    "city": "alcester",
    "zip_code": "57001"
  },
  {
    "city": "fullerton",
    "zip_code": "92835"
  },
  {
    "city": "salinas",
    "zip_code": "93901"
  },
  {
    "city": "san carlos",
    "zip_code": "94070"
  },
  {
    "city": "fairfield",
    "zip_code": "94533"
  },
  {
    "city": "moraga",
    "zip_code": "94575"
  },
  {
    "city": "oakland",
    "zip_code": "94603"
  },
  {
    "city": "petaluma",
    "zip_code": "94952"
  },
  {
    "city": "los gatos",
    "zip_code": "95030"
  },
  {
    "city": "los gatos",
    "zip_code": "95032"
  },
  {
    "city": "moss landing",
    "zip_code": "95039"
  },
  {
    "city": "mount hermon",
    "zip_code": "95041"
  },
  {
    "city": "watsonville",
    "zip_code": "95076"
  },
  {
    "city": "copperopolis",
    "zip_code": "95228"
  },
  {
    "city": "murphys",
    "zip_code": "95247"
  },
  {
    "city": "navarro",
    "zip_code": "95463"
  },
  {
    "city": "nice",
    "zip_code": "95464"
  },
  {
    "city": "point arena",
    "zip_code": "95468"
  },
  {
    "city": "bayside",
    "zip_code": "95524"
  },
  {
    "city": "mad river",
    "zip_code": "95552"
  },
  {
    "city": "cool",
    "zip_code": "95614"
  },
  {
    "city": "foresthill",
    "zip_code": "95631"
  },
  {
    "city": "rio linda",
    "zip_code": "95673"
  },
  {
    "city": "roseville",
    "zip_code": "95747"
  },
  {
    "city": "sacramento",
    "zip_code": "95829"
  },
  {
    "city": "quincy",
    "zip_code": "95971"
  },
  {
    "city": "redding",
    "zip_code": "96002"
  },
  {
    "city": "cassel",
    "zip_code": "96016"
  },
  {
    "city": "beckwourth",
    "zip_code": "96129"
  },
  {
    "city": "ninole",
    "zip_code": "96773"
  },
  {
    "city": "wahiawa",
    "zip_code": "96786"
  },
  {
    "city": "mount hood parkdale",
    "zip_code": "97041"
  },
  {
    "city": "tualatin",
    "zip_code": "97062"
  },
  {
    "city": "wasco",
    "zip_code": "97065"
  },
  {
    "city": "nehalem",
    "zip_code": "97131"
  },
  {
    "city": "langlois",
    "zip_code": "97450"
  },
  {
    "city": "baring",
    "zip_code": "98224"
  },
  {
    "city": "clinton",
    "zip_code": "98236"
  },
  {
    "city": "friday harbor",
    "zip_code": "98250"
  },
  {
    "city": "stanwood",
    "zip_code": "98292"
  },
  {
    "city": "bremerton",
    "zip_code": "98337"
  },
  {
    "city": "milton",
    "zip_code": "98354"
  },
  {
    "city": "los angeles",
    "zip_code": "90047"
  },
  {
    "city": "los angeles",
    "zip_code": "90057"
  },
  {
    "city": "los angeles",
    "zip_code": "90062"
  },
  {
    "city": "hermosa beach",
    "zip_code": "90254"
  },
  {
    "city": "whittier",
    "zip_code": "90601"
  },
  {
    "city": "lakewood",
    "zip_code": "90712"
  },
  {
    "city": "carson",
    "zip_code": "90745"
  },
  {
    "city": "long beach",
    "zip_code": "90815"
  },
  {
    "city": "glendale",
    "zip_code": "91210"
  },
  {
    "city": "north hills",
    "zip_code": "91343"
  },
  {
    "city": "south el monte",
    "zip_code": "91733"
  },
  {
    "city": "west covina",
    "zip_code": "91791"
  },
  {
    "city": "chula vista",
    "zip_code": "91913"
  },
  {
    "city": "carlsbad",
    "zip_code": "92008"
  },
  {
    "city": "la jolla",
    "zip_code": "92037"
  },
  {
    "city": "san diego",
    "zip_code": "92119"
  },
  {
    "city": "blythe",
    "zip_code": "92225"
  },
  {
    "city": "amboy",
    "zip_code": "92304"
  },
  {
    "city": "big bear lake",
    "zip_code": "92315"
  },
  {
    "city": "cedarpines park",
    "zip_code": "92322"
  },
  {
    "city": "crestline",
    "zip_code": "92325"
  },
  {
    "city": "victorville",
    "zip_code": "92392"
  },
  {
    "city": "menifee",
    "zip_code": "92587"
  },
  {
    "city": "huntington beach",
    "zip_code": "92646"
  },
  {
    "city": "santa ana",
    "zip_code": "92706"
  },
  {
    "city": "fountain valley",
    "zip_code": "92708"
  },
  {
    "city": "fullerton",
    "zip_code": "92832"
  },
  {
    "city": "corona",
    "zip_code": "92879"
  },
  {
    "city": "oxnard",
    "zip_code": "93036"
  },
  {
    "city": "piru",
    "zip_code": "93040"
  },
  {
    "city": "wofford heights",
    "zip_code": "93285"
  },
  {
    "city": "guadalupe",
    "zip_code": "93434"
  },
  {
    "city": "santa ynez",
    "zip_code": "93460"
  },
  {
    "city": "solvang",
    "zip_code": "93463"
  },
  {
    "city": "lee vining",
    "zip_code": "93541"
  },
  {
    "city": "kingsburg",
    "zip_code": "93631"
  },
  {
    "city": "miramonte",
    "zip_code": "93641"
  },
  {
    "city": "fresno",
    "zip_code": "93710"
  },
  {
    "city": "portland",
    "zip_code": "97266"
  },
  {
    "city": "salem",
    "zip_code": "97305"
  },
  {
    "city": "lyons",
    "zip_code": "97358"
  },
  {
    "city": "sheridan",
    "zip_code": "97378"
  },
  {
    "city": "dorena",
    "zip_code": "97434"
  },
  {
    "city": "scottsburg",
    "zip_code": "97473"
  },
  {
    "city": "powell butte",
    "zip_code": "97753"
  },
  {
    "city": "prineville",
    "zip_code": "97754"
  },
  {
    "city": "seneca",
    "zip_code": "97873"
  },
  {
    "city": "bellevue",
    "zip_code": "98004"
  },
  {
    "city": "seattle",
    "zip_code": "98136"
  },
  {
    "city": "wilkeson",
    "zip_code": "98396"
  },
  {
    "city": "rosburg",
    "zip_code": "98643"
  },
  {
    "city": "wishram",
    "zip_code": "98673"
  },
  {
    "city": "yakima",
    "zip_code": "98908"
  },
  {
    "city": "outlook",
    "zip_code": "98938"
  },
  {
    "city": "latah",
    "zip_code": "99018"
  },
  {
    "city": "gifford",
    "zip_code": "99131"
  },
  {
    "city": "ritzville",
    "zip_code": "99169"
  },
  {
    "city": "asotin",
    "zip_code": "99402"
  },
  {
    "city": "anchorage",
    "zip_code": "99508"
  },
  {
    "city": "clam gulch",
    "zip_code": "99568"
  },
  {
    "city": "naknek",
    "zip_code": "99633"
  },
  {
    "city": "nome",
    "zip_code": "99762"
  },
  {
    "city": "noorvik",
    "zip_code": "99763"
  },
  {
    "city": "tacoma",
    "zip_code": "98416"
  },
  {
    "city": "aberdeen",
    "zip_code": "98520"
  },
  {
    "city": "tahuya",
    "zip_code": "98588"
  },
  {
    "city": "battle ground",
    "zip_code": "98604"
  },
  {
    "city": "conconully",
    "zip_code": "98819"
  },
  {
    "city": "malaga",
    "zip_code": "98828"
  },
  {
    "city": "malott",
    "zip_code": "98829"
  },
  {
    "city": "cowiche",
    "zip_code": "98923"
  },
  {
    "city": "sprague",
    "zip_code": "99032"
  },
  {
    "city": "spokane",
    "zip_code": "99212"
  },
  {
    "city": "walla walla",
    "zip_code": "99362"
  },
  {
    "city": "clarkston",
    "zip_code": "99403"
  },
  {
    "city": "chignik lagoon",
    "zip_code": "99565"
  },
  {
    "city": "kodiak",
    "zip_code": "99615"
  },
  {
    "city": "perryville",
    "zip_code": "99648"
  },
  {
    "city": "delta junction",
    "zip_code": "99737"
  },
  {
    "city": "hydaburg",
    "zip_code": "99922"
  },
  {
    "city": "punta santiago",
    "zip_code": "741"
  },
  {
    "city": "rio grande",
    "zip_code": "745"
  },
  {
    "city": "santa isabel",
    "zip_code": "757"
  },
  {
    "city": "coamo",
    "zip_code": "769"
  },
  {
    "city": "juncos",
    "zip_code": "777"
  },
  {
    "city": "st john",
    "zip_code": "831"
  },
  {
    "city": "carolina",
    "zip_code": "983"
  },
  {
    "city": "springfield",
    "zip_code": "1128"
  },
  {
    "city": "brookfield",
    "zip_code": "1506"
  },
  {
    "city": "nahant",
    "zip_code": "1908"
  },
  {
    "city": "beverly",
    "zip_code": "1915"
  },
  {
    "city": "marblehead",
    "zip_code": "1945"
  },
  {
    "city": "marshfield",
    "zip_code": "2050"
  },
  {
    "city": "stoughton",
    "zip_code": "2072"
  },
  {
    "city": "cambridge",
    "zip_code": "2140"
  },
  {
    "city": "somerville",
    "zip_code": "2145"
  },
  {
    "city": "malden",
    "zip_code": "2148"
  },
  {
    "city": "revere",
    "zip_code": "2151"
  },
  {
    "city": "hanson",
    "zip_code": "2341"
  },
  {
    "city": "arlington",
    "zip_code": "2476"
  },
  {
    "city": "nantucket",
    "zip_code": "2554"
  },
  {
    "city": "east orleans",
    "zip_code": "2643"
  },
  {
    "city": "truro",
    "zip_code": "2666"
  },
  {
    "city": "middletown",
    "zip_code": "2842"
  },
  {
    "city": "providence",
    "zip_code": "2905"
  },
  {
    "city": "merrimack",
    "zip_code": "3054"
  },
  {
    "city": "canterbury",
    "zip_code": "3224"
  },
  {
    "city": "dublin",
    "zip_code": "3444"
  },
  {
    "city": "gilsum",
    "zip_code": "3448"
  },
  {
    "city": "jaffrey",
    "zip_code": "3452"
  },
  {
    "city": "errol",
    "zip_code": "3579"
  },
  {
    "city": "sugar hill",
    "zip_code": "3586"
  },
  {
    "city": "portsmouth",
    "zip_code": "3801"
  },
  {
    "city": "alton bay",
    "zip_code": "3810"
  },
  {
    "city": "newmarket",
    "zip_code": "3857"
  },
  {
    "city": "berwick",
    "zip_code": "3901"
  },
  {
    "city": "hollis center",
    "zip_code": "4042"
  },
  {
    "city": "north monmouth",
    "zip_code": "4265"
  },
  {
    "city": "charleston",
    "zip_code": "4422"
  },
  {
    "city": "levant",
    "zip_code": "4456"
  },
  {
    "city": "robbinston",
    "zip_code": "4671"
  },
  {
    "city": "saint agatha",
    "zip_code": "4772"
  },
  {
    "city": "fairfield",
    "zip_code": "4937"
  },
  {
    "city": "saxtons river",
    "zip_code": "5154"
  },
  {
    "city": "wardsboro",
    "zip_code": "5355"
  },
  {
    "city": "belvidere center",
    "zip_code": "5442"
  },
  {
    "city": "richmond",
    "zip_code": "5477"
  },
  {
    "city": "east wallingford",
    "zip_code": "5742"
  },
  {
    "city": "north clarendon",
    "zip_code": "5759"
  },
  {
    "city": "pawlet",
    "zip_code": "5761"
  },
  {
    "city": "wallingford",
    "zip_code": "5773"
  },
  {
    "city": "west rutland",
    "zip_code": "5777"
  },
  {
    "city": "canton",
    "zip_code": "6019"
  },
  {
    "city": "west hartford",
    "zip_code": "6117"
  },
  {
    "city": "hartford",
    "zip_code": "6120"
  },
  {
    "city": "north windham",
    "zip_code": "6256"
  },
  {
    "city": "baltic",
    "zip_code": "6330"
  },
  {
    "city": "north haven",
    "zip_code": "6473"
  },
  {
    "city": "middlebury",
    "zip_code": "6762"
  },
  {
    "city": "northfield",
    "zip_code": "6778"
  },
  {
    "city": "washington depot",
    "zip_code": "6794"
  },
  {
    "city": "ridgefield",
    "zip_code": "6877"
  },
  {
    "city": "vauxhall",
    "zip_code": "7088"
  },
  {
    "city": "west new york",
    "zip_code": "7093"
  },
  {
    "city": "riverdale",
    "zip_code": "7457"
  },
  {
    "city": "hillsdale",
    "zip_code": "7642"
  },
  {
    "city": "monmouth beach",
    "zip_code": "7750"
  },
  {
    "city": "maple shade",
    "zip_code": "8052"
  },
  {
    "city": "palmyra",
    "zip_code": "8065"
  },
  {
    "city": "westville",
    "zip_code": "8093"
  },
  {
    "city": "brigantine",
    "zip_code": "8203"
  },
  {
    "city": "bridgeton",
    "zip_code": "8302"
  },
  {
    "city": "dorothy",
    "zip_code": "8317"
  },
  {
    "city": "port elizabeth",
    "zip_code": "8348"
  },
  {
    "city": "mantoloking",
    "zip_code": "8738"
  },
  {
    "city": "perth amboy",
    "zip_code": "8861"
  },
  {
    "city": "somerville",
    "zip_code": "8876"
  },
  {
    "city": "three bridges",
    "zip_code": "8887"
  },
  {
    "city": "new york",
    "zip_code": "10168"
  },
  {
    "city": "new york",
    "zip_code": "10174"
  },
  {
    "city": "croton falls",
    "zip_code": "10519"
  },
  {
    "city": "verplanck",
    "zip_code": "10596"
  },
  {
    "city": "nyack",
    "zip_code": "10960"
  },
  {
    "city": "brooklyn",
    "zip_code": "11209"
  },
  {
    "city": "brooklyn",
    "zip_code": "11237"
  },
  {
    "city": "nesconset",
    "zip_code": "11767"
  },
  {
    "city": "coeymans",
    "zip_code": "12045"
  },
  {
    "city": "galway",
    "zip_code": "12074"
  },
  {
    "city": "new baltimore",
    "zip_code": "12124"
  },
  {
    "city": "schodack landing",
    "zip_code": "12156"
  },
  {
    "city": "west coxsackie",
    "zip_code": "12192"
  },
  {
    "city": "port ewen",
    "zip_code": "12466"
  },
  {
    "city": "west shokan",
    "zip_code": "12494"
  },
  {
    "city": "poughkeepsie",
    "zip_code": "12601"
  },
  {
    "city": "callicoon",
    "zip_code": "12723"
  },
  {
    "city": "harris",
    "zip_code": "12742"
  },
  {
    "city": "kenoza lake",
    "zip_code": "12750"
  },
  {
    "city": "fort edward",
    "zip_code": "12828"
  },
  {
    "city": "middle grove",
    "zip_code": "12850"
  },
  {
    "city": "keene valley",
    "zip_code": "12943"
  },
  {
    "city": "lyon mountain",
    "zip_code": "12955"
  },
  {
    "city": "nicholville",
    "zip_code": "12965"
  },
  {
    "city": "delphi falls",
    "zip_code": "13051"
  },
  {
    "city": "homer",
    "zip_code": "13077"
  },
  {
    "city": "jamesville",
    "zip_code": "13078"
  },
  {
    "city": "tully",
    "zip_code": "13159"
  },
  {
    "city": "syracuse",
    "zip_code": "13212"
  },
  {
    "city": "brookfield",
    "zip_code": "13314"
  },
  {
    "city": "cassville",
    "zip_code": "13318"
  },
  {
    "city": "eagle bay",
    "zip_code": "13331"
  },
  {
    "city": "jordanville",
    "zip_code": "13361"
  },
  {
    "city": "new hartford",
    "zip_code": "13413"
  },
  {
    "city": "dexter",
    "zip_code": "13634"
  },
  {
    "city": "newton falls",
    "zip_code": "13666"
  },
  {
    "city": "parishville",
    "zip_code": "13672"
  },
  {
    "city": "russell",
    "zip_code": "13684"
  },
  {
    "city": "harford",
    "zip_code": "13784"
  },
  {
    "city": "otego",
    "zip_code": "13825"
  },
  {
    "city": "south kortright",
    "zip_code": "13842"
  },
  {
    "city": "vestal",
    "zip_code": "13850"
  },
  {
    "city": "willseyville",
    "zip_code": "13864"
  },
  {
    "city": "appleton",
    "zip_code": "14008"
  },
  {
    "city": "east bethany",
    "zip_code": "14054"
  },
  {
    "city": "holland",
    "zip_code": "14080"
  },
  {
    "city": "varysburg",
    "zip_code": "14167"
  },
  {
    "city": "buffalo",
    "zip_code": "14202"
  },
  {
    "city": "buffalo",
    "zip_code": "14218"
  },
  {
    "city": "canandaigua",
    "zip_code": "14424"
  },
  {
    "city": "rush",
    "zip_code": "14543"
  },
  {
    "city": "scottsburg",
    "zip_code": "14545"
  },
  {
    "city": "allegany",
    "zip_code": "14706"
  },
  {
    "city": "little valley",
    "zip_code": "14755"
  },
  {
    "city": "portland",
    "zip_code": "14769"
  },
  {
    "city": "arkport",
    "zip_code": "14807"
  },
  {
    "city": "erin",
    "zip_code": "14838"
  },
  {
    "city": "jacksonville",
    "zip_code": "14854"
  },
  {
    "city": "pulteney",
    "zip_code": "14874"
  },
  {
    "city": "lansing",
    "zip_code": "14882"
  },
  {
    "city": "hookstown",
    "zip_code": "15050"
  },
  {
    "city": "pittsburgh",
    "zip_code": "15211"
  },
  {
    "city": "pittsburgh",
    "zip_code": "15214"
  },
  {
    "city": "pittsburgh",
    "zip_code": "15260"
  },
  {
    "city": "bentleyville",
    "zip_code": "15314"
  },
  {
    "city": "mather",
    "zip_code": "15346"
  },
  {
    "city": "venetia",
    "zip_code": "15367"
  },
  {
    "city": "gibbon glade",
    "zip_code": "15440"
  },
  {
    "city": "normalville",
    "zip_code": "15469"
  },
  {
    "city": "donegal",
    "zip_code": "15628"
  },
  {
    "city": "east vandergrift",
    "zip_code": "15629"
  },
  {
    "city": "murrysville",
    "zip_code": "15668"
  },
  {
    "city": "marion center",
    "zip_code": "15759"
  },
  {
    "city": "starford",
    "zip_code": "15777"
  },
  {
    "city": "johnstown",
    "zip_code": "15909"
  },
  {
    "city": "summerhill",
    "zip_code": "15958"
  },
  {
    "city": "new castle",
    "zip_code": "16105"
  },
  {
    "city": "wampum",
    "zip_code": "16157"
  },
  {
    "city": "sligo",
    "zip_code": "16255"
  },
  {
    "city": "tylersburg",
    "zip_code": "16361"
  },
  {
    "city": "cambridge springs",
    "zip_code": "16403"
  },
  {
    "city": "fairview",
    "zip_code": "16415"
  },
  {
    "city": "union city",
    "zip_code": "16438"
  },
  {
    "city": "blandburg",
    "zip_code": "16619"
  },
  {
    "city": "brisbin",
    "zip_code": "16620"
  },
  {
    "city": "cassville",
    "zip_code": "16623"
  },
  {
    "city": "gallitzin",
    "zip_code": "16641"
  },
  {
    "city": "fleming",
    "zip_code": "16835"
  },
  {
    "city": "pine grove mills",
    "zip_code": "16868"
  },
  {
    "city": "pottersdale",
    "zip_code": "16871"
  },
  {
    "city": "highspire",
    "zip_code": "17034"
  },
  {
    "city": "lebanon",
    "zip_code": "17042"
  },
  {
    "city": "quentin",
    "zip_code": "17083"
  },
  {
    "city": "hustontown",
    "zip_code": "17229"
  },
  {
    "city": "neelyton",
    "zip_code": "17239"
  },
  {
    "city": "orbisonia",
    "zip_code": "17243"
  },
  {
    "city": "scotland",
    "zip_code": "17254"
  },
  {
    "city": "aspers",
    "zip_code": "17304"
  },
  {
    "city": "emigsville",
    "zip_code": "17318"
  },
  {
    "city": "landisville",
    "zip_code": "17538"
  },
  {
    "city": "cammal",
    "zip_code": "17723"
  },
  {
    "city": "roaring branch",
    "zip_code": "17765"
  },
  {
    "city": "port trevorton",
    "zip_code": "17864"
  },
  {
    "city": "weikert",
    "zip_code": "17885"
  },
  {
    "city": "mcadoo",
    "zip_code": "18237"
  },
  {
    "city": "lake ariel",
    "zip_code": "18436"
  },
  {
    "city": "dushore",
    "zip_code": "18614"
  },
  {
    "city": "hallstead",
    "zip_code": "18822"
  },
  {
    "city": "susquehanna",
    "zip_code": "18847"
  },
  {
    "city": "erwinna",
    "zip_code": "18920"
  },
  {
    "city": "richlandtown",
    "zip_code": "18955"
  },
  {
    "city": "ridley park",
    "zip_code": "19078"
  },
  {
    "city": "philadelphia",
    "zip_code": "19118"
  },
  {
    "city": "philadelphia",
    "zip_code": "19147"
  },
  {
    "city": "thornton",
    "zip_code": "19373"
  },
  {
    "city": "skippack",
    "zip_code": "19474"
  },
  {
    "city": "bally",
    "zip_code": "19503"
  },
  {
    "city": "barto",
    "zip_code": "19504"
  },
  {
    "city": "reading",
    "zip_code": "19601"
  },
  {
    "city": "newark",
    "zip_code": "19716"
  },
  {
    "city": "wilmington",
    "zip_code": "19808"
  },
  {
    "city": "washington",
    "zip_code": "20020"
  },
  {
    "city": "ashburn",
    "zip_code": "20147"
  },
  {
    "city": "lovettsville",
    "zip_code": "20180"
  },
  {
    "city": "reston",
    "zip_code": "20190"
  },
  {
    "city": "callaway",
    "zip_code": "20620"
  },
  {
    "city": "riverdale",
    "zip_code": "20737"
  },
  {
    "city": "suitland",
    "zip_code": "20746"
  },
  {
    "city": "rockville",
    "zip_code": "20852"
  },
  {
    "city": "gaithersburg",
    "zip_code": "20879"
  },
  {
    "city": "kensington",
    "zip_code": "20895"
  },
  {
    "city": "lutherville timonium",
    "zip_code": "21093"
  },
  {
    "city": "westminster",
    "zip_code": "21158"
  },
  {
    "city": "baltimore",
    "zip_code": "21201"
  },
  {
    "city": "baltimore",
    "zip_code": "21231"
  },
  {
    "city": "greensboro",
    "zip_code": "21639"
  },
  {
    "city": "salisbury",
    "zip_code": "21802"
  },
  {
    "city": "salisbury",
    "zip_code": "21804"
  },
  {
    "city": "bishopville",
    "zip_code": "21813"
  },
  {
    "city": "girdletree",
    "zip_code": "21829"
  },
  {
    "city": "parsonsburg",
    "zip_code": "21849"
  },
  {
    "city": "alexandria",
    "zip_code": "22311"
  },
  {
    "city": "reedville",
    "zip_code": "22539"
  },
  {
    "city": "stafford",
    "zip_code": "22556"
  },
  {
    "city": "warsaw",
    "zip_code": "22572"
  },
  {
    "city": "fort valley",
    "zip_code": "22652"
  },
  {
    "city": "stephenson",
    "zip_code": "22656"
  },
  {
    "city": "washington",
    "zip_code": "22747"
  },
  {
    "city": "orange",
    "zip_code": "22960"
  },
  {
    "city": "somerset",
    "zip_code": "22972"
  },
  {
    "city": "jamaica",
    "zip_code": "23079"
  },
  {
    "city": "moseley",
    "zip_code": "23120"
  },
  {
    "city": "newtown",
    "zip_code": "23126"
  },
  {
    "city": "sandy hook",
    "zip_code": "23153"
  },
  {
    "city": "topping",
    "zip_code": "23169"
  },
  {
    "city": "horntown",
    "zip_code": "23395"
  },
  {
    "city": "saxis",
    "zip_code": "23427"
  },
  {
    "city": "hampton",
    "zip_code": "23663"
  },
  {
    "city": "hopewell",
    "zip_code": "23860"
  },
  {
    "city": "warfield",
    "zip_code": "23889"
  },
  {
    "city": "dundas",
    "zip_code": "23938"
  },
  {
    "city": "meadows of dan",
    "zip_code": "24120"
  },
  {
    "city": "thaxton",
    "zip_code": "24174"
  },
  {
    "city": "appomattox",
    "zip_code": "24522"
  },
  {
    "city": "danville",
    "zip_code": "24540"
  },
  {
    "city": "sweet briar",
    "zip_code": "24595"
  },
  {
    "city": "jewell ridge",
    "zip_code": "24622"
  },
  {
    "city": "hiawatha",
    "zip_code": "24729"
  },
  {
    "city": "mohawk",
    "zip_code": "24862"
  },
  {
    "city": "dunmore",
    "zip_code": "24934"
  },
  {
    "city": "renick",
    "zip_code": "24966"
  },
  {
    "city": "ronceverte",
    "zip_code": "24970"
  },
  {
    "city": "blair",
    "zip_code": "25022"
  },
  {
    "city": "glen",
    "zip_code": "25088"
  },
  {
    "city": "indore",
    "zip_code": "25111"
  },
  {
    "city": "peytona",
    "zip_code": "25154"
  },
  {
    "city": "whitesville",
    "zip_code": "25209"
  },
  {
    "city": "ceredo",
    "zip_code": "25507"
  },
  {
    "city": "culloden",
    "zip_code": "25510"
  },
  {
    "city": "kistler",
    "zip_code": "25628"
  },
  {
    "city": "lorado",
    "zip_code": "25630"
  },
  {
    "city": "lyburn",
    "zip_code": "25632"
  },
  {
    "city": "peach creek",
    "zip_code": "25639"
  },
  {
    "city": "coal city",
    "zip_code": "25823"
  },
  {
    "city": "minden",
    "zip_code": "25879"
  },
  {
    "city": "colliers",
    "zip_code": "26035"
  },
  {
    "city": "newell",
    "zip_code": "26050"
  },
  {
    "city": "west liberty",
    "zip_code": "26074"
  },
  {
    "city": "diana",
    "zip_code": "26217"
  },
  {
    "city": "hendricks",
    "zip_code": "26271"
  },
  {
    "city": "crawford",
    "zip_code": "26343"
  },
  {
    "city": "hepzibah",
    "zip_code": "26369"
  },
  {
    "city": "pullman",
    "zip_code": "26421"
  },
  {
    "city": "morgantown",
    "zip_code": "26508"
  },
  {
    "city": "littleton",
    "zip_code": "26581"
  },
  {
    "city": "gormania",
    "zip_code": "26720"
  },
  {
    "city": "east bend",
    "zip_code": "27018"
  },
  {
    "city": "siloam",
    "zip_code": "27047"
  },
  {
    "city": "stoneville",
    "zip_code": "27048"
  },
  {
    "city": "alamance",
    "zip_code": "27201"
  },
  {
    "city": "browns summit",
    "zip_code": "27214"
  },
  {
    "city": "graham",
    "zip_code": "27253"
  },
  {
    "city": "summerfield",
    "zip_code": "27358"
  },
  {
    "city": "cary",
    "zip_code": "27511"
  },
  {
    "city": "jamesville",
    "zip_code": "27846"
  },
  {
    "city": "swanquarter",
    "zip_code": "27885"
  },
  {
    "city": "wilson",
    "zip_code": "27896"
  },
  {
    "city": "ahoskie",
    "zip_code": "27910"
  },
  {
    "city": "corapeake",
    "zip_code": "27926"
  },
  {
    "city": "stumpy point",
    "zip_code": "27978"
  },
  {
    "city": "cherryville",
    "zip_code": "28021"
  },
  {
    "city": "high shoals",
    "zip_code": "28077"
  },
  {
    "city": "charlotte",
    "zip_code": "28209"
  },
  {
    "city": "charlotte",
    "zip_code": "28226"
  },
  {
    "city": "elizabethtown",
    "zip_code": "28337"
  },
  {
    "city": "southern pines",
    "zip_code": "28387"
  },
  {
    "city": "turkey",
    "zip_code": "28393"
  },
  {
    "city": "kelly",
    "zip_code": "28448"
  },
  {
    "city": "riegelwood",
    "zip_code": "28456"
  },
  {
    "city": "oak island",
    "zip_code": "28465"
  },
  {
    "city": "atlantic",
    "zip_code": "28511"
  },
  {
    "city": "pink hill",
    "zip_code": "28572"
  },
  {
    "city": "salter path",
    "zip_code": "28575"
  },
  {
    "city": "stonewall",
    "zip_code": "28583"
  },
  {
    "city": "blowing rock",
    "zip_code": "28605"
  },
  {
    "city": "chimney rock",
    "zip_code": "28720"
  },
  {
    "city": "hot springs",
    "zip_code": "28743"
  },
  {
    "city": "otto",
    "zip_code": "28763"
  },
  {
    "city": "robbinsville",
    "zip_code": "28771"
  },
  {
    "city": "waynesville",
    "zip_code": "28786"
  },
  {
    "city": "hayesville",
    "zip_code": "28904"
  },
  {
    "city": "elloree",
    "zip_code": "29047"
  },
  {
    "city": "saint matthews",
    "zip_code": "29135"
  },
  {
    "city": "sumter",
    "zip_code": "29153"
  },
  {
    "city": "startex",
    "zip_code": "29377"
  },
  {
    "city": "woodruff",
    "zip_code": "29388"
  },
  {
    "city": "charleston",
    "zip_code": "29401"
  },
  {
    "city": "charleston",
    "zip_code": "29423"
  },
  {
    "city": "cottageville",
    "zip_code": "29435"
  },
  {
    "city": "georgetown",
    "zip_code": "29440"
  },
  {
    "city": "huger",
    "zip_code": "29450"
  },
  {
    "city": "pinopolis",
    "zip_code": "29469"
  },
  {
    "city": "kingstree",
    "zip_code": "29556"
  },
  {
    "city": "longs",
    "zip_code": "29568"
  },
  {
    "city": "tatum",
    "zip_code": "29594"
  },
  {
    "city": "greenville",
    "zip_code": "29614"
  },
  {
    "city": "six mile",
    "zip_code": "29682"
  },
  {
    "city": "gloverville",
    "zip_code": "29828"
  },
  {
    "city": "johnston",
    "zip_code": "29832"
  },
  {
    "city": "furman",
    "zip_code": "29921"
  },
  {
    "city": "norcross",
    "zip_code": "30093"
  },
  {
    "city": "rome",
    "zip_code": "30161"
  },
  {
    "city": "woodbury",
    "zip_code": "30293"
  },
  {
    "city": "millen",
    "zip_code": "30442"
  },
  {
    "city": "oliver",
    "zip_code": "30449"
  },
  {
    "city": "clarkesville",
    "zip_code": "30523"
  },
  {
    "city": "morganton",
    "zip_code": "30560"
  },
  {
    "city": "athens",
    "zip_code": "30606"
  },
  {
    "city": "dearing",
    "zip_code": "30808"
  },
  {
    "city": "gracewood",
    "zip_code": "30812"
  },
  {
    "city": "adrian",
    "zip_code": "31002"
  },
  {
    "city": "bentonia",
    "zip_code": "39040"
  },
  {
    "city": "pulaski",
    "zip_code": "39152"
  },
  {
    "city": "taylorsville",
    "zip_code": "39168"
  },
  {
    "city": "perkinston",
    "zip_code": "39573"
  },
  {
    "city": "tylertown",
    "zip_code": "39667"
  },
  {
    "city": "brooksville",
    "zip_code": "39739"
  },
  {
    "city": "dawson",
    "zip_code": "39842"
  },
  {
    "city": "morgan",
    "zip_code": "39866"
  },
  {
    "city": "bloomfield",
    "zip_code": "40008"
  },
  {
    "city": "louisville",
    "zip_code": "40220"
  },
  {
    "city": "louisville",
    "zip_code": "40229"
  },
  {
    "city": "gravel switch",
    "zip_code": "40328"
  },
  {
    "city": "versailles",
    "zip_code": "40383"
  },
  {
    "city": "lexington",
    "zip_code": "40504"
  },
  {
    "city": "lexington",
    "zip_code": "40517"
  },
  {
    "city": "lynch",
    "zip_code": "40855"
  },
  {
    "city": "south portsmouth",
    "zip_code": "41174"
  },
  {
    "city": "adams",
    "zip_code": "41201"
  },
  {
    "city": "rogers",
    "zip_code": "41365"
  },
  {
    "city": "zoe",
    "zip_code": "41397"
  },
  {
    "city": "stone",
    "zip_code": "41567"
  },
  {
    "city": "harold",
    "zip_code": "41635"
  },
  {
    "city": "wheelwright",
    "zip_code": "41669"
  },
  {
    "city": "chavies",
    "zip_code": "41727"
  },
  {
    "city": "littcarr",
    "zip_code": "41834"
  },
  {
    "city": "arlington",
    "zip_code": "42021"
  },
  {
    "city": "franklin",
    "zip_code": "42134"
  },
  {
    "city": "center",
    "zip_code": "42214"
  },
  {
    "city": "bremen",
    "zip_code": "42325"
  },
  {
    "city": "calhoun",
    "zip_code": "42327"
  },
  {
    "city": "somerset",
    "zip_code": "42501"
  },
  {
    "city": "buckeye lake",
    "zip_code": "43008"
  },
  {
    "city": "raymond",
    "zip_code": "43067"
  },
  {
    "city": "thornville",
    "zip_code": "43076"
  },
  {
    "city": "amanda",
    "zip_code": "43102"
  },
  {
    "city": "milledgeville",
    "zip_code": "43142"
  },
  {
    "city": "columbus",
    "zip_code": "43230"
  },
  {
    "city": "bellefontaine",
    "zip_code": "43311"
  },
  {
    "city": "middleburg",
    "zip_code": "43336"
  },
  {
    "city": "russells point",
    "zip_code": "43348"
  },
  {
    "city": "bowling green",
    "zip_code": "43402"
  },
  {
    "city": "malinta",
    "zip_code": "43535"
  },
  {
    "city": "swanton",
    "zip_code": "43558"
  },
  {
    "city": "toledo",
    "zip_code": "43608"
  },
  {
    "city": "barnesville",
    "zip_code": "43713"
  },
  {
    "city": "cumberland",
    "zip_code": "43732"
  },
  {
    "city": "fresno",
    "zip_code": "43824"
  },
  {
    "city": "stone creek",
    "zip_code": "43840"
  },
  {
    "city": "mingo junction",
    "zip_code": "43938"
  },
  {
    "city": "berea",
    "zip_code": "44017"
  },
  {
    "city": "cleveland",
    "zip_code": "44115"
  },
  {
    "city": "beachwood",
    "zip_code": "44122"
  },
  {
    "city": "stow",
    "zip_code": "44224"
  },
  {
    "city": "munroe falls",
    "zip_code": "44262"
  },
  {
    "city": "sharon center",
    "zip_code": "44274"
  },
  {
    "city": "diamond",
    "zip_code": "44412"
  },
  {
    "city": "lisbon",
    "zip_code": "44432"
  },
  {
    "city": "mcdonald",
    "zip_code": "44437"
  },
  {
    "city": "winona",
    "zip_code": "44493"
  },
  {
    "city": "youngstown",
    "zip_code": "44503"
  },
  {
    "city": "augusta",
    "zip_code": "44607"
  },
  {
    "city": "zoar",
    "zip_code": "44697"
  },
  {
    "city": "tippecanoe",
    "zip_code": "44699"
  },
  {
    "city": "mansfield",
    "zip_code": "44906"
  },
  {
    "city": "miamiville",
    "zip_code": "45147"
  },
  {
    "city": "cincinnati",
    "zip_code": "45213"
  },
  {
    "city": "cincinnati",
    "zip_code": "45217"
  },
  {
    "city": "new lebanon",
    "zip_code": "45345"
  },
  {
    "city": "south vienna",
    "zip_code": "45369"
  },
  {
    "city": "west manchester",
    "zip_code": "45382"
  },
  {
    "city": "dayton",
    "zip_code": "45404"
  },
  {
    "city": "otway",
    "zip_code": "45657"
  },
  {
    "city": "athens",
    "zip_code": "45701"
  },
  {
    "city": "celina",
    "zip_code": "45822"
  },
  {
    "city": "mendon",
    "zip_code": "45862"
  },
  {
    "city": "oakwood",
    "zip_code": "45873"
  },
  {
    "city": "brownsburg",
    "zip_code": "46112"
  },
  {
    "city": "glenwood",
    "zip_code": "46133"
  },
  {
    "city": "pittsboro",
    "zip_code": "46167"
  },
  {
    "city": "reelsville",
    "zip_code": "46171"
  },
  {
    "city": "russellville",
    "zip_code": "46175"
  },
  {
    "city": "shelbyville",
    "zip_code": "46176"
  },
  {
    "city": "indianapolis",
    "zip_code": "46204"
  },
  {
    "city": "indianapolis",
    "zip_code": "46260"
  },
  {
    "city": "saint john",
    "zip_code": "46373"
  },
  {
    "city": "valparaiso",
    "zip_code": "46383"
  },
  {
    "city": "mentone",
    "zip_code": "46539"
  },
  {
    "city": "woodburn",
    "zip_code": "46797"
  },
  {
    "city": "galveston",
    "zip_code": "46932"
  },
  {
    "city": "lagro",
    "zip_code": "46941"
  },
  {
    "city": "lucerne",
    "zip_code": "46950"
  },
  {
    "city": "roann",
    "zip_code": "46974"
  },
  {
    "city": "hagerstown",
    "zip_code": "47346"
  },
  {
    "city": "heltonville",
    "zip_code": "47436"
  },
  {
    "city": "grandview",
    "zip_code": "47615"
  },
  {
    "city": "oakland city",
    "zip_code": "47660"
  },
  {
    "city": "cory",
    "zip_code": "47846"
  },
  {
    "city": "marshall",
    "zip_code": "47859"
  },
  {
    "city": "kingman",
    "zip_code": "47952"
  },
  {
    "city": "ladoga",
    "zip_code": "47954"
  },
  {
    "city": "medaryville",
    "zip_code": "47957"
  },
  {
    "city": "mount ayr",
    "zip_code": "47964"
  },
  {
    "city": "romney",
    "zip_code": "47981"
  },
  {
    "city": "harrison township",
    "zip_code": "48045"
  },
  {
    "city": "richmond",
    "zip_code": "48062"
  },
  {
    "city": "columbus",
    "zip_code": "48063"
  },
  {
    "city": "pleasant ridge",
    "zip_code": "48069"
  },
  {
    "city": "livonia",
    "zip_code": "48152"
  },
  {
    "city": "detroit",
    "zip_code": "48214"
  },
  {
    "city": "brown city",
    "zip_code": "48416"
  },
  {
    "city": "new lothrop",
    "zip_code": "48460"
  },
  {
    "city": "coleman",
    "zip_code": "48618"
  },
  {
    "city": "fairview",
    "zip_code": "48621"
  },
  {
    "city": "luzerne",
    "zip_code": "48636"
  },
  {
    "city": "unionville",
    "zip_code": "48767"
  },
  {
    "city": "dansville",
    "zip_code": "48819"
  },
  {
    "city": "eagle",
    "zip_code": "48822"
  },
  {
    "city": "battle creek",
    "zip_code": "49017"
  },
  {
    "city": "portage",
    "zip_code": "49024"
  },
  {
    "city": "nazareth",
    "zip_code": "49074"
  },
  {
    "city": "nottawa",
    "zip_code": "49075"
  },
  {
    "city": "saint joseph",
    "zip_code": "49085"
  },
  {
    "city": "bridgman",
    "zip_code": "49106"
  },
  {
    "city": "horton",
    "zip_code": "49246"
  },
  {
    "city": "caledonia",
    "zip_code": "49316"
  },
  {
    "city": "sparta",
    "zip_code": "49345"
  },
  {
    "city": "fountain",
    "zip_code": "49410"
  },
  {
    "city": "elberta",
    "zip_code": "49628"
  },
  {
    "city": "elk rapids",
    "zip_code": "49629"
  },
  {
    "city": "harrietta",
    "zip_code": "49638"
  },
  {
    "city": "hersey",
    "zip_code": "49639"
  },
  {
    "city": "idlewild",
    "zip_code": "49642"
  },
  {
    "city": "leroy",
    "zip_code": "49655"
  },
  {
    "city": "lewiston",
    "zip_code": "49756"
  },
  {
    "city": "paradise",
    "zip_code": "49768"
  },
  {
    "city": "spalding",
    "zip_code": "49886"
  },
  {
    "city": "ontonagon",
    "zip_code": "49953"
  },
  {
    "city": "wakefield",
    "zip_code": "49968"
  },
  {
    "city": "ames",
    "zip_code": "50011"
  },
  {
    "city": "lorimor",
    "zip_code": "50149"
  },
  {
    "city": "menlo",
    "zip_code": "50164"
  },
  {
    "city": "popejoy",
    "zip_code": "50227"
  },
  {
    "city": "des moines",
    "zip_code": "50316"
  },
  {
    "city": "des moines",
    "zip_code": "50317"
  },
  {
    "city": "dougherty",
    "zip_code": "50433"
  },
  {
    "city": "barnum",
    "zip_code": "50518"
  },
  {
    "city": "manson",
    "zip_code": "50563"
  },
  {
    "city": "west bend",
    "zip_code": "50597"
  },
  {
    "city": "westgate",
    "zip_code": "50681"
  },
  {
    "city": "waterloo",
    "zip_code": "50703"
  },
  {
    "city": "grant",
    "zip_code": "50847"
  },
  {
    "city": "sioux city",
    "zip_code": "51101"
  },
  {
    "city": "george",
    "zip_code": "51237"
  },
  {
    "city": "greenville",
    "zip_code": "51343"
  },
  {
    "city": "westside",
    "zip_code": "51467"
  },
  {
    "city": "council bluffs",
    "zip_code": "51503"
  },
  {
    "city": "carson",
    "zip_code": "51525"
  },
  {
    "city": "marne",
    "zip_code": "51552"
  },
  {
    "city": "luana",
    "zip_code": "52156"
  },
  {
    "city": "mcgregor",
    "zip_code": "52157"
  },
  {
    "city": "waterville",
    "zip_code": "52170"
  },
  {
    "city": "dysart",
    "zip_code": "52224"
  },
  {
    "city": "martelle",
    "zip_code": "52305"
  },
  {
    "city": "west branch",
    "zip_code": "52358"
  },
  {
    "city": "melrose",
    "zip_code": "52569"
  },
  {
    "city": "saint paul",
    "zip_code": "52657"
  },
  {
    "city": "letts",
    "zip_code": "52754"
  },
  {
    "city": "new liberty",
    "zip_code": "52765"
  },
  {
    "city": "menomonee falls",
    "zip_code": "53051"
  },
  {
    "city": "oostburg",
    "zip_code": "53070"
  },
  {
    "city": "stockbridge",
    "zip_code": "53088"
  },
  {
    "city": "waukesha",
    "zip_code": "53189"
  },
  {
    "city": "milwaukee",
    "zip_code": "53228"
  },
  {
    "city": "racine",
    "zip_code": "53405"
  },
  {
    "city": "dodgeville",
    "zip_code": "53533"
  },
  {
    "city": "new glarus",
    "zip_code": "53574"
  },
  {
    "city": "plain",
    "zip_code": "53577"
  },
  {
    "city": "richland center",
    "zip_code": "53581"
  },
  {
    "city": "boscobel",
    "zip_code": "53805"
  },
  {
    "city": "mount hope",
    "zip_code": "53816"
  },
  {
    "city": "adams",
    "zip_code": "53910"
  },
  {
    "city": "friendship",
    "zip_code": "53934"
  },
  {
    "city": "loganville",
    "zip_code": "53943"
  },
  {
    "city": "rio",
    "zip_code": "53960"
  },
  {
    "city": "green bay",
    "zip_code": "54311"
  },
  {
    "city": "mercer",
    "zip_code": "54547"
  },
  {
    "city": "arkdale",
    "zip_code": "54613"
  },
  {
    "city": "ontario",
    "zip_code": "54651"
  },
  {
    "city": "altoona",
    "zip_code": "54720"
  },
  {
    "city": "humbird",
    "zip_code": "54746"
  },
  {
    "city": "maiden rock",
    "zip_code": "54750"
  },
  {
    "city": "ridgeland",
    "zip_code": "54763"
  },
  {
    "city": "ashland",
    "zip_code": "54806"
  },
  {
    "city": "marengo",
    "zip_code": "54855"
  },
  {
    "city": "solon springs",
    "zip_code": "54873"
  },
  {
    "city": "neenah",
    "zip_code": "54956"
  },
  {
    "city": "bethel",
    "zip_code": "55005"
  },
  {
    "city": "lake elmo",
    "zip_code": "55042"
  }
]