[
  {
    "city": "danbury",
    "zip_code": "3230"
  },
  {
    "city": "salisbury",
    "zip_code": "3268"
  },
  {
    "city": "sanbornton",
    "zip_code": "3269"
  },
  {
    "city": "washington",
    "zip_code": "3280"
  },
  {
    "city": "franconia",
    "zip_code": "3580"
  },
  {
    "city": "west stewartstown",
    "zip_code": "3597"
  },
  {
    "city": "cornish",
    "zip_code": "3745"
  },
  {
    "city": "seabrook",
    "zip_code": "3874"
  },
  {
    "city": "effingham",
    "zip_code": "3882"
  },
  {
    "city": "wolfeboro",
    "zip_code": "3894"
  },
  {
    "city": "newfield",
    "zip_code": "4056"
  },
  {
    "city": "south portland",
    "zip_code": "4106"
  },
  {
    "city": "east wilton",
    "zip_code": "4234"
  },
  {
    "city": "hebron",
    "zip_code": "4238"
  },
  {
    "city": "east winthrop",
    "zip_code": "4343"
  },
  {
    "city": "kenduskeag",
    "zip_code": "4450"
  },
  {
    "city": "cranberry isles",
    "zip_code": "4625"
  },
  {
    "city": "whiting",
    "zip_code": "4691"
  },
  {
    "city": "island falls",
    "zip_code": "4747"
  },
  {
    "city": "port clyde",
    "zip_code": "4855"
  },
  {
    "city": "spruce head",
    "zip_code": "4859"
  },
  {
    "city": "vinalhaven",
    "zip_code": "4863"
  },
  {
    "city": "belgrade",
    "zip_code": "4917"
  },
  {
    "city": "brookfield",
    "zip_code": "5036"
  },
  {
    "city": "east thetford",
    "zip_code": "5043"
  },
  {
    "city": "plymouth",
    "zip_code": "5056"
  },
  {
    "city": "westminster",
    "zip_code": "5158"
  },
  {
    "city": "bondville",
    "zip_code": "5340"
  },
  {
    "city": "east dover",
    "zip_code": "5341"
  },
  {
    "city": "charlotte",
    "zip_code": "5445"
  },
  {
    "city": "graniteville",
    "zip_code": "5654"
  },
  {
    "city": "waterbury",
    "zip_code": "5676"
  },
  {
    "city": "woodbury",
    "zip_code": "5681"
  },
  {
    "city": "chittenden",
    "zip_code": "5737"
  },
  {
    "city": "west rupert",
    "zip_code": "5776"
  },
  {
    "city": "east charleston",
    "zip_code": "5833"
  },
  {
    "city": "hartford",
    "zip_code": "6114"
  },
  {
    "city": "amston",
    "zip_code": "6231"
  },
  {
    "city": "new london",
    "zip_code": "6320"
  },
  {
    "city": "clinton",
    "zip_code": "6413"
  },
  {
    "city": "plantsville",
    "zip_code": "6479"
  },
  {
    "city": "harwinton",
    "zip_code": "6791"
  },
  {
    "city": "washington",
    "zip_code": "6793"
  },
  {
    "city": "bethel",
    "zip_code": "6801"
  },
  {
    "city": "fort lee",
    "zip_code": "7024"
  },
  {
    "city": "millburn",
    "zip_code": "7041"
  },
  {
    "city": "verona",
    "zip_code": "7044"
  },
  {
    "city": "parsippany",
    "zip_code": "7054"
  },
  {
    "city": "plainfield",
    "zip_code": "7063"
  },
  {
    "city": "pompton lakes",
    "zip_code": "7442"
  },
  {
    "city": "ringwood",
    "zip_code": "7456"
  },
  {
    "city": "sussex",
    "zip_code": "7461"
  },
  {
    "city": "maywood",
    "zip_code": "7607"
  },
  {
    "city": "norwood",
    "zip_code": "7648"
  },
  {
    "city": "shrewsbury",
    "zip_code": "7702"
  },
  {
    "city": "hazlet",
    "zip_code": "7730"
  },
  {
    "city": "leonardo",
    "zip_code": "7737"
  },
  {
    "city": "kenvil",
    "zip_code": "7847"
  },
  {
    "city": "lafayette",
    "zip_code": "7848"
  },
  {
    "city": "mount tabor",
    "zip_code": "7878"
  },
  {
    "city": "chatham",
    "zip_code": "7928"
  },
  {
    "city": "green village",
    "zip_code": "7935"
  },
  {
    "city": "barnegat",
    "zip_code": "8005"
  },
  {
    "city": "burlington",
    "zip_code": "8016"
  },
  {
    "city": "ocean view",
    "zip_code": "8230"
  },
  {
    "city": "fairton",
    "zip_code": "8320"
  },
  {
    "city": "monroeville",
    "zip_code": "8343"
  },
  {
    "city": "lakewood",
    "zip_code": "8701"
  },
  {
    "city": "lakehurst",
    "zip_code": "8733"
  },
  {
    "city": "flemington",
    "zip_code": "8822"
  },
  {
    "city": "milltown",
    "zip_code": "8850"
  },
  {
    "city": "south river",
    "zip_code": "8882"
  },
  {
    "city": "new york",
    "zip_code": "10037"
  },
  {
    "city": "new york",
    "zip_code": "10039"
  },
  {
    "city": "new york",
    "zip_code": "10152"
  },
  {
    "city": "staten island",
    "zip_code": "10305"
  },
  {
    "city": "port chester",
    "zip_code": "10573"
  },
  {
    "city": "white plains",
    "zip_code": "10601"
  },
  {
    "city": "campbell hall",
    "zip_code": "10916"
  },
  {
    "city": "florida",
    "zip_code": "10921"
  },
  {
    "city": "tuxedo park",
    "zip_code": "10987"
  },
  {
    "city": "brooklyn",
    "zip_code": "11223"
  },
  {
    "city": "ozone park",
    "zip_code": "11416"
  },
  {
    "city": "jamaica",
    "zip_code": "11430"
  },
  {
    "city": "malverne",
    "zip_code": "11565"
  },
  {
    "city": "oceanside",
    "zip_code": "11572"
  },
  {
    "city": "arverne",
    "zip_code": "11692"
  },
  {
    "city": "west babylon",
    "zip_code": "11704"
  },
  {
    "city": "ronkonkoma",
    "zip_code": "11779"
  },
  {
    "city": "saint james",
    "zip_code": "11780"
  },
  {
    "city": "riverhead",
    "zip_code": "11901"
  },
  {
    "city": "greenport",
    "zip_code": "11944"
  },
  {
    "city": "coeymans hollow",
    "zip_code": "12046"
  },
  {
    "city": "delanson",
    "zip_code": "12053"
  },
  {
    "city": "eagle bridge",
    "zip_code": "12057"
  },
  {
    "city": "east chatham",
    "zip_code": "12060"
  },
  {
    "city": "jefferson",
    "zip_code": "12093"
  },
  {
    "city": "nassau",
    "zip_code": "12123"
  },
  {
    "city": "old chatham",
    "zip_code": "12136"
  },
  {
    "city": "rotterdam junction",
    "zip_code": "12150"
  },
  {
    "city": "speculator",
    "zip_code": "12164"
  },
  {
    "city": "worcester",
    "zip_code": "12197"
  },
  {
    "city": "salt point",
    "zip_code": "12578"
  },
  {
    "city": "wappingers falls",
    "zip_code": "12590"
  },
  {
    "city": "glen spey",
    "zip_code": "12737"
  },
  {
    "city": "summitville",
    "zip_code": "12781"
  },
  {
    "city": "gansevoort",
    "zip_code": "12831"
  },
  {
    "city": "lyon mountain",
    "zip_code": "12952"
  },
  {
    "city": "upper jay",
    "zip_code": "12987"
  },
  {
    "city": "aurora",
    "zip_code": "13026"
  },
  {
    "city": "cortland",
    "zip_code": "13045"
  },
  {
    "city": "fair haven",
    "zip_code": "13064"
  },
  {
    "city": "mcgraw",
    "zip_code": "13101"
  },
  {
    "city": "syracuse",
    "zip_code": "13202"
  },
  {
    "city": "syracuse",
    "zip_code": "13224"
  },
  {
    "city": "altmar",
    "zip_code": "13302"
  },
  {
    "city": "ava",
    "zip_code": "13303"
  },
  {
    "city": "deansboro",
    "zip_code": "13328"
  },
  {
    "city": "morrisville",
    "zip_code": "13408"
  },
  {
    "city": "hammond",
    "zip_code": "13646"
  },
  {
    "city": "hermon",
    "zip_code": "13652"
  },
  {
    "city": "davenport",
    "zip_code": "13750"
  },
  {
    "city": "owego",
    "zip_code": "13827"
  },
  {
    "city": "binghamton",
    "zip_code": "13903"
  },
  {
    "city": "west valley",
    "zip_code": "14171"
  },
  {
    "city": "buffalo",
    "zip_code": "14212"
  },
  {
    "city": "buffalo",
    "zip_code": "14217"
  },
  {
    "city": "perry",
    "zip_code": "14530"
  },
  {
    "city": "alma",
    "zip_code": "14708"
  },
  {
    "city": "portville",
    "zip_code": "14770"
  },
  {
    "city": "greenwood",
    "zip_code": "14839"
  },
  {
    "city": "painted post",
    "zip_code": "14870"
  },
  {
    "city": "clinton",
    "zip_code": "15026"
  },
  {
    "city": "wexford",
    "zip_code": "15090"
  },
  {
    "city": "oakmont",
    "zip_code": "15139"
  },
  {
    "city": "pittsburgh",
    "zip_code": "15219"
  },
  {
    "city": "pittsburgh",
    "zip_code": "15235"
  },
  {
    "city": "cecil",
    "zip_code": "15321"
  },
  {
    "city": "finleyville",
    "zip_code": "15332"
  },
  {
    "city": "west middletown",
    "zip_code": "15379"
  },
  {
    "city": "wind ridge",
    "zip_code": "15380"
  },
  {
    "city": "uniontown",
    "zip_code": "15401"
  },
  {
    "city": "addison",
    "zip_code": "15411"
  },
  {
    "city": "denbo",
    "zip_code": "15429"
  },
  {
    "city": "east millsboro",
    "zip_code": "15433"
  },
  {
    "city": "newell",
    "zip_code": "15466"
  },
  {
    "city": "oliver",
    "zip_code": "15472"
  },
  {
    "city": "west leisenring",
    "zip_code": "15489"
  },
  {
    "city": "calumet",
    "zip_code": "15621"
  },
  {
    "city": "derry",
    "zip_code": "15627"
  },
  {
    "city": "hannastown",
    "zip_code": "15635"
  },
  {
    "city": "spring church",
    "zip_code": "15686"
  },
  {
    "city": "youngwood",
    "zip_code": "15697"
  },
  {
    "city": "creekside",
    "zip_code": "15732"
  },
  {
    "city": "sprankle mills",
    "zip_code": "15776"
  },
  {
    "city": "torrance",
    "zip_code": "15779"
  },
  {
    "city": "brockway",
    "zip_code": "15824"
  },
  {
    "city": "kittanning",
    "zip_code": "16201"
  },
  {
    "city": "leeper",
    "zip_code": "16233"
  },
  {
    "city": "emlenton",
    "zip_code": "16373"
  },
  {
    "city": "erie",
    "zip_code": "16506"
  },
  {
    "city": "flinton",
    "zip_code": "16640"
  },
  {
    "city": "new enterprise",
    "zip_code": "16664"
  },
  {
    "city": "osceola mills",
    "zip_code": "16666"
  },
  {
    "city": "robertsdale",
    "zip_code": "16674"
  },
  {
    "city": "duke center",
    "zip_code": "16729"
  },
  {
    "city": "hazel hurst",
    "zip_code": "16733"
  },
  {
    "city": "new millport",
    "zip_code": "16861"
  },
  {
    "city": "newton hamilton",
    "zip_code": "17075"
  },
  {
    "city": "pillow",
    "zip_code": "17080"
  },
  {
    "city": "mont alto",
    "zip_code": "17237"
  },
  {
    "city": "etters",
    "zip_code": "17319"
  },
  {
    "city": "thomasville",
    "zip_code": "17364"
  },
  {
    "city": "drumore",
    "zip_code": "17518"
  },
  {
    "city": "gap",
    "zip_code": "17527"
  },
  {
    "city": "new providence",
    "zip_code": "17560"
  },
  {
    "city": "williamsport",
    "zip_code": "17701"
  },
  {
    "city": "cross fork",
    "zip_code": "17729"
  },
  {
    "city": "eagles mere",
    "zip_code": "17731"
  },
  {
    "city": "loganton",
    "zip_code": "17747"
  },
  {
    "city": "renovo",
    "zip_code": "17764"
  },
  {
    "city": "bloomsburg",
    "zip_code": "17815"
  },
  {
    "city": "hartleton",
    "zip_code": "17829"
  },
  {
    "city": "swengel",
    "zip_code": "17880"
  },
  {
    "city": "new ringgold",
    "zip_code": "17960"
  },
  {
    "city": "bethlehem",
    "zip_code": "18015"
  },
  {
    "city": "emmaus",
    "zip_code": "18049"
  },
  {
    "city": "red hill",
    "zip_code": "18076"
  },
  {
    "city": "allentown",
    "zip_code": "18101"
  },
  {
    "city": "drifton",
    "zip_code": "18221"
  },
  {
    "city": "rock glen",
    "zip_code": "18246"
  },
  {
    "city": "kresgeville",
    "zip_code": "18333"
  },
  {
    "city": "fleetville",
    "zip_code": "18420"
  },
  {
    "city": "pleasant mount",
    "zip_code": "18453"
  },
  {
    "city": "waverly",
    "zip_code": "18471"
  },
  {
    "city": "scranton",
    "zip_code": "18503"
  },
  {
    "city": "laporte",
    "zip_code": "18626"
  },
  {
    "city": "nanticoke",
    "zip_code": "18634"
  },
  {
    "city": "east smithfield",
    "zip_code": "18817"
  },
  {
    "city": "pipersville",
    "zip_code": "18947"
  },
  {
    "city": "warminster",
    "zip_code": "18974"
  },
  {
    "city": "broomall",
    "zip_code": "19008"
  },
  {
    "city": "wynnewood",
    "zip_code": "19096"
  },
  {
    "city": "philadelphia",
    "zip_code": "19151"
  },
  {
    "city": "schwenksville",
    "zip_code": "19473"
  },
  {
    "city": "spring house",
    "zip_code": "19477"
  },
  {
    "city": "port clinton",
    "zip_code": "19549"
  },
  {
    "city": "kenton",
    "zip_code": "19955"
  },
  {
    "city": "rehoboth beach",
    "zip_code": "19971"
  },
  {
    "city": "washington",
    "zip_code": "20017"
  },
  {
    "city": "washington",
    "zip_code": "20390"
  },
  {
    "city": "owings",
    "zip_code": "20736"
  },
  {
    "city": "cabin john",
    "zip_code": "20818"
  },
  {
    "city": "gaithersburg",
    "zip_code": "20878"
  },
  {
    "city": "pikesville",
    "zip_code": "21208"
  },
  {
    "city": "baltimore",
    "zip_code": "21240"
  },
  {
    "city": "annapolis",
    "zip_code": "21403"
  },
  {
    "city": "henderson",
    "zip_code": "21640"
  },
  {
    "city": "neavitt",
    "zip_code": "21652"
  },
  {
    "city": "taylors island",
    "zip_code": "21669"
  },
  {
    "city": "hagerstown",
    "zip_code": "21742"
  },
  {
    "city": "hagerstown",
    "zip_code": "21746"
  },
  {
    "city": "maugansville",
    "zip_code": "21767"
  },
  {
    "city": "middletown",
    "zip_code": "21769"
  },
  {
    "city": "sykesville",
    "zip_code": "21784"
  },
  {
    "city": "deal island",
    "zip_code": "21821"
  },
  {
    "city": "eden",
    "zip_code": "21822"
  },
  {
    "city": "fruitland",
    "zip_code": "21826"
  },
  {
    "city": "tylerton",
    "zip_code": "21866"
  },
  {
    "city": "annandale",
    "zip_code": "22003"
  },
  {
    "city": "fairfax",
    "zip_code": "22030"
  },
  {
    "city": "arlington",
    "zip_code": "22209"
  },
  {
    "city": "fredericksburg",
    "zip_code": "22401"
  },
  {
    "city": "farnham",
    "zip_code": "22460"
  },
  {
    "city": "linville",
    "zip_code": "22834"
  },
  {
    "city": "ruckersville",
    "zip_code": "22968"
  },
  {
    "city": "shipman",
    "zip_code": "22971"
  },
  {
    "city": "new church",
    "zip_code": "23415"
  },
  {
    "city": "willis wharf",
    "zip_code": "23486"
  },
  {
    "city": "newport news",
    "zip_code": "23605"
  },
  {
    "city": "hampton",
    "zip_code": "23664"
  },
  {
    "city": "waverly",
    "zip_code": "23891"
  },
  {
    "city": "ararat",
    "zip_code": "24053"
  },
  {
    "city": "callaway",
    "zip_code": "24067"
  },
  {
    "city": "fincastle",
    "zip_code": "24090"
  },
  {
    "city": "glade hill",
    "zip_code": "24092"
  },
  {
    "city": "radford",
    "zip_code": "24142"
  },
  {
    "city": "sandy level",
    "zip_code": "24161"
  },
  {
    "city": "staffordsville",
    "zip_code": "24167"
  },
  {
    "city": "wirtz",
    "zip_code": "24184"
  },
  {
    "city": "nora",
    "zip_code": "24272"
  },
  {
    "city": "saint paul",
    "zip_code": "24283"
  },
  {
    "city": "chilhowie",
    "zip_code": "24319"
  },
  {
    "city": "fort defiance",
    "zip_code": "24437"
  },
  {
    "city": "steeles tavern",
    "zip_code": "24476"
  },
  {
    "city": "vesuvius",
    "zip_code": "24483"
  },
  {
    "city": "weyers cave",
    "zip_code": "24486"
  },
  {
    "city": "lynchburg",
    "zip_code": "24503"
  },
  {
    "city": "amherst",
    "zip_code": "24521"
  },
  {
    "city": "itmann",
    "zip_code": "24847"
  },
  {
    "city": "northfork",
    "zip_code": "24868"
  },
  {
    "city": "talcott",
    "zip_code": "24981"
  },
  {
    "city": "turtle creek",
    "zip_code": "25203"
  },
  {
    "city": "wharton",
    "zip_code": "25208"
  },
  {
    "city": "chloe",
    "zip_code": "25235"
  },
  {
    "city": "glenwood",
    "zip_code": "25520"
  },
  {
    "city": "wilsondale",
    "zip_code": "25699"
  },
  {
    "city": "saulsville",
    "zip_code": "25876"
  },
  {
    "city": "scarbro",
    "zip_code": "25917"
  },
  {
    "city": "wheeling",
    "zip_code": "26003"
  },
  {
    "city": "proctor",
    "zip_code": "26055"
  },
  {
    "city": "weirton",
    "zip_code": "26062"
  },
  {
    "city": "paden city",
    "zip_code": "26159"
  },
  {
    "city": "waverly",
    "zip_code": "26184"
  },
  {
    "city": "volga",
    "zip_code": "26238"
  },
  {
    "city": "gypsy",
    "zip_code": "26361"
  },
  {
    "city": "ireland",
    "zip_code": "26376"
  },
  {
    "city": "linn",
    "zip_code": "26384"
  },
  {
    "city": "newburg",
    "zip_code": "26410"
  },
  {
    "city": "walkersville",
    "zip_code": "26447"
  },
  {
    "city": "sutton",
    "zip_code": "26601"
  },
  {
    "city": "eglon",
    "zip_code": "26716"
  },
  {
    "city": "petersburg",
    "zip_code": "26847"
  },
  {
    "city": "winston salem",
    "zip_code": "27104"
  },
  {
    "city": "thomasville",
    "zip_code": "27360"
  },
  {
    "city": "apex",
    "zip_code": "27502"
  },
  {
    "city": "bunn",
    "zip_code": "27508"
  },
  {
    "city": "willow spring",
    "zip_code": "27592"
  },
  {
    "city": "raleigh",
    "zip_code": "27615"
  },
  {
    "city": "raleigh",
    "zip_code": "27616"
  },
  {
    "city": "durham",
    "zip_code": "27703"
  },
  {
    "city": "durham",
    "zip_code": "27704"
  },
  {
    "city": "lucama",
    "zip_code": "27851"
  },
  {
    "city": "weldon",
    "zip_code": "27890"
  },
  {
    "city": "coinjock",
    "zip_code": "27923"
  },
  {
    "city": "columbia",
    "zip_code": "27925"
  },
  {
    "city": "gatesville",
    "zip_code": "27938"
  },
  {
    "city": "manns harbor",
    "zip_code": "27953"
  },
  {
    "city": "badin",
    "zip_code": "28009"
  },
  {
    "city": "kannapolis",
    "zip_code": "28083"
  },
  {
    "city": "mooresville",
    "zip_code": "28117"
  },
  {
    "city": "charlotte",
    "zip_code": "28269"
  },
  {
    "city": "fairmont",
    "zip_code": "28340"
  },
  {
    "city": "linden",
    "zip_code": "28356"
  },
  {
    "city": "pinehurst",
    "zip_code": "28374"
  },
  {
    "city": "salemburg",
    "zip_code": "28385"
  },
  {
    "city": "chadbourn",
    "zip_code": "28431"
  },
  {
    "city": "jacksonville",
    "zip_code": "28540"
  },
  {
    "city": "merritt",
    "zip_code": "28556"
  },
  {
    "city": "jefferson",
    "zip_code": "28640"
  },
  {
    "city": "todd",
    "zip_code": "28684"
  },
  {
    "city": "barnardsville",
    "zip_code": "28709"
  },
  {
    "city": "cameron",
    "zip_code": "29030"
  },
  {
    "city": "hopkins",
    "zip_code": "29061"
  },
  {
    "city": "little mountain",
    "zip_code": "29075"
  },
  {
    "city": "saluda",
    "zip_code": "29138"
  },
  {
    "city": "west columbia",
    "zip_code": "29169"
  },
  {
    "city": "columbia",
    "zip_code": "29223"
  },
  {
    "city": "columbia",
    "zip_code": "29225"
  },
  {
    "city": "cowpens",
    "zip_code": "29330"
  },
  {
    "city": "joanna",
    "zip_code": "29351"
  },
  {
    "city": "landrum",
    "zip_code": "29356"
  },
  {
    "city": "charleston",
    "zip_code": "29409"
  },
  {
    "city": "charleston",
    "zip_code": "29412"
  },
  {
    "city": "north charleston",
    "zip_code": "29420"
  },
  {
    "city": "ruffin",
    "zip_code": "29475"
  },
  {
    "city": "cheraw",
    "zip_code": "29520"
  },
  {
    "city": "green sea",
    "zip_code": "29545"
  },
  {
    "city": "marion",
    "zip_code": "29571"
  },
  {
    "city": "murrells inlet",
    "zip_code": "29576"
  },
  {
    "city": "mountain rest",
    "zip_code": "29664"
  },
  {
    "city": "fort mill",
    "zip_code": "29715"
  },
  {
    "city": "rock hill",
    "zip_code": "29733"
  },
  {
    "city": "trenton",
    "zip_code": "29847"
  },
  {
    "city": "williston",
    "zip_code": "29853"
  },
  {
    "city": "north augusta",
    "zip_code": "29860"
  },
  {
    "city": "gifford",
    "zip_code": "29923"
  },
  {
    "city": "sheldon",
    "zip_code": "29941"
  },
  {
    "city": "alpharetta",
    "zip_code": "30004"
  },
  {
    "city": "alpharetta",
    "zip_code": "30022"
  },
  {
    "city": "douglasville",
    "zip_code": "30134"
  },
  {
    "city": "mount berry",
    "zip_code": "30149"
  },
  {
    "city": "fairburn",
    "zip_code": "30213"
  },
  {
    "city": "lagrange",
    "zip_code": "30241"
  },
  {
    "city": "forest park",
    "zip_code": "30297"
  },
  {
    "city": "atlanta",
    "zip_code": "30331"
  },
  {
    "city": "register",
    "zip_code": "30452"
  },
  {
    "city": "blairsville",
    "zip_code": "30512"
  },
  {
    "city": "carnesville",
    "zip_code": "30521"
  },
  {
    "city": "lula",
    "zip_code": "30554"
  },
  {
    "city": "bethlehem",
    "zip_code": "30620"
  },
  {
    "city": "ringgold",
    "zip_code": "30736"
  },
  {
    "city": "varnell",
    "zip_code": "30756"
  },
  {
    "city": "augusta",
    "zip_code": "30904"
  },
  {
    "city": "covesville",
    "zip_code": "22931"
  },
  {
    "city": "lovingston",
    "zip_code": "22949"
  },
  {
    "city": "beaverdam",
    "zip_code": "23015"
  },
  {
    "city": "doswell",
    "zip_code": "23047"
  },
  {
    "city": "hayes",
    "zip_code": "23072"
  },
  {
    "city": "richmond",
    "zip_code": "23219"
  },
  {
    "city": "battery park",
    "zip_code": "23304"
  },
  {
    "city": "suffolk",
    "zip_code": "23434"
  },
  {
    "city": "virginia beach",
    "zip_code": "23454"
  },
  {
    "city": "newport news",
    "zip_code": "23607"
  },
  {
    "city": "prince george",
    "zip_code": "23875"
  },
  {
    "city": "dillwyn",
    "zip_code": "23936"
  },
  {
    "city": "pamplin",
    "zip_code": "23958"
  },
  {
    "city": "fieldale",
    "zip_code": "24089"
  },
  {
    "city": "huddleston",
    "zip_code": "24104"
  },
  {
    "city": "moneta",
    "zip_code": "24121"
  },
  {
    "city": "paint bank",
    "zip_code": "24131"
  },
  {
    "city": "castlewood",
    "zip_code": "24224"
  },
  {
    "city": "clintwood",
    "zip_code": "24228"
  },
  {
    "city": "honaker",
    "zip_code": "24260"
  },
  {
    "city": "wise",
    "zip_code": "24293"
  },
  {
    "city": "troutdale",
    "zip_code": "24378"
  },
  {
    "city": "low moor",
    "zip_code": "24457"
  },
  {
    "city": "mcdowell",
    "zip_code": "24458"
  },
  {
    "city": "middlebrook",
    "zip_code": "24459"
  },
  {
    "city": "blairs",
    "zip_code": "24527"
  },
  {
    "city": "crystal hill",
    "zip_code": "24539"
  },
  {
    "city": "long island",
    "zip_code": "24569"
  },
  {
    "city": "maxie",
    "zip_code": "24628"
  },
  {
    "city": "covel",
    "zip_code": "24719"
  },
  {
    "city": "panther",
    "zip_code": "24872"
  },
  {
    "city": "williamsburg",
    "zip_code": "24991"
  },
  {
    "city": "artie",
    "zip_code": "25008"
  },
  {
    "city": "eleanor",
    "zip_code": "25070"
  },
  {
    "city": "hugheston",
    "zip_code": "25110"
  },
  {
    "city": "orgas",
    "zip_code": "25148"
  },
  {
    "city": "poca",
    "zip_code": "25159"
  },
  {
    "city": "sylvester",
    "zip_code": "25193"
  },
  {
    "city": "uneeda",
    "zip_code": "25205"
  },
  {
    "city": "martinsburg",
    "zip_code": "25401"
  },
  {
    "city": "kearneysville",
    "zip_code": "25430"
  },
  {
    "city": "paw paw",
    "zip_code": "25434"
  },
  {
    "city": "east lynn",
    "zip_code": "25512"
  },
  {
    "city": "lavalette",
    "zip_code": "25535"
  },
  {
    "city": "omar",
    "zip_code": "25638"
  },
  {
    "city": "whitman",
    "zip_code": "25652"
  },
  {
    "city": "edgarton",
    "zip_code": "25672"
  },
  {
    "city": "ansted",
    "zip_code": "25812"
  },
  {
    "city": "hico",
    "zip_code": "25854"
  },
  {
    "city": "oak hill",
    "zip_code": "25901"
  },
  {
    "city": "rupert",
    "zip_code": "25984"
  },
  {
    "city": "petroleum",
    "zip_code": "26161"
  },
  {
    "city": "metz",
    "zip_code": "26585"
  },
  {
    "city": "pool",
    "zip_code": "26684"
  },
  {
    "city": "springfield",
    "zip_code": "26763"
  },
  {
    "city": "wiley ford",
    "zip_code": "26767"
  },
  {
    "city": "wardensville",
    "zip_code": "26851"
  },
  {
    "city": "sandy ridge",
    "zip_code": "27046"
  },
  {
    "city": "reidsville",
    "zip_code": "27320"
  },
  {
    "city": "west end",
    "zip_code": "27376"
  },
  {
    "city": "cary",
    "zip_code": "27518"
  },
  {
    "city": "clayton",
    "zip_code": "27527"
  },
  {
    "city": "macon",
    "zip_code": "27551"
  },
  {
    "city": "roxboro",
    "zip_code": "27573"
  },
  {
    "city": "smithfield",
    "zip_code": "27577"
  },
  {
    "city": "blounts creek",
    "zip_code": "27814"
  },
  {
    "city": "littleton",
    "zip_code": "27850"
  },
  {
    "city": "stantonsburg",
    "zip_code": "27883"
  },
  {
    "city": "stokes",
    "zip_code": "27884"
  },
  {
    "city": "kitty hawk",
    "zip_code": "27949"
  },
  {
    "city": "merry hill",
    "zip_code": "27957"
  },
  {
    "city": "rodanthe",
    "zip_code": "27968"
  },
  {
    "city": "bostic",
    "zip_code": "28018"
  },
  {
    "city": "dallas",
    "zip_code": "28034"
  },
  {
    "city": "fayetteville",
    "zip_code": "28301"
  },
  {
    "city": "lumber bridge",
    "zip_code": "28357"
  },
  {
    "city": "wagram",
    "zip_code": "28396"
  },
  {
    "city": "fair bluff",
    "zip_code": "28439"
  },
  {
    "city": "deep run",
    "zip_code": "28525"
  },
  {
    "city": "winterville",
    "zip_code": "28590"
  },
  {
    "city": "claremont",
    "zip_code": "28610"
  },
  {
    "city": "creston",
    "zip_code": "28615"
  },
  {
    "city": "hildebran",
    "zip_code": "28637"
  },
  {
    "city": "bakersville",
    "zip_code": "28705"
  },
  {
    "city": "bryson city",
    "zip_code": "28713"
  },
  {
    "city": "cherokee",
    "zip_code": "28719"
  },
  {
    "city": "mars hill",
    "zip_code": "28754"
  },
  {
    "city": "hendersonville",
    "zip_code": "28792"
  },
  {
    "city": "gadsden",
    "zip_code": "29052"
  },
  {
    "city": "lydia",
    "zip_code": "29079"
  },
  {
    "city": "pomaria",
    "zip_code": "29126"
  },
  {
    "city": "state park",
    "zip_code": "29147"
  },
  {
    "city": "wagener",
    "zip_code": "29164"
  },
  {
    "city": "ward",
    "zip_code": "29166"
  },
  {
    "city": "winnsboro",
    "zip_code": "29180"
  },
  {
    "city": "drayton",
    "zip_code": "29333"
  },
  {
    "city": "duncan",
    "zip_code": "29334"
  },
  {
    "city": "reidville",
    "zip_code": "29375"
  },
  {
    "city": "cross",
    "zip_code": "29436"
  },
  {
    "city": "jamestown",
    "zip_code": "29453"
  },
  {
    "city": "pineville",
    "zip_code": "29468"
  },
  {
    "city": "clio",
    "zip_code": "29525"
  },
  {
    "city": "hemingway",
    "zip_code": "29554"
  },
  {
    "city": "myrtle beach",
    "zip_code": "29579"
  },
  {
    "city": "nesmith",
    "zip_code": "29580"
  },
  {
    "city": "anderson",
    "zip_code": "29621"
  },
  {
    "city": "easley",
    "zip_code": "29640"
  },
  {
    "city": "edgemoor",
    "zip_code": "29712"
  },
  {
    "city": "smyrna",
    "zip_code": "29743"
  },
  {
    "city": "aiken",
    "zip_code": "29805"
  },
  {
    "city": "bath",
    "zip_code": "29816"
  },
  {
    "city": "coosawhatchie",
    "zip_code": "29912"
  },
  {
    "city": "suwanee",
    "zip_code": "30024"
  },
  {
    "city": "social circle",
    "zip_code": "30025"
  },
  {
    "city": "loganville",
    "zip_code": "30052"
  },
  {
    "city": "ball ground",
    "zip_code": "30107"
  },
  {
    "city": "kingston",
    "zip_code": "30145"
  },
  {
    "city": "jackson",
    "zip_code": "30233"
  },
  {
    "city": "atlanta",
    "zip_code": "30336"
  },
  {
    "city": "atlanta",
    "zip_code": "30350"
  },
  {
    "city": "statesboro",
    "zip_code": "30458"
  },
  {
    "city": "statesboro",
    "zip_code": "30460"
  },
  {
    "city": "dahlonega",
    "zip_code": "30533"
  },
  {
    "city": "martin",
    "zip_code": "30557"
  },
  {
    "city": "stephens",
    "zip_code": "30667"
  },
  {
    "city": "grovetown",
    "zip_code": "30813"
  },
  {
    "city": "keysville",
    "zip_code": "30816"
  },
  {
    "city": "abbeville",
    "zip_code": "31001"
  },
  {
    "city": "cordele",
    "zip_code": "31015"
  },
  {
    "city": "mcrae helena",
    "zip_code": "31055"
  },
  {
    "city": "montezuma",
    "zip_code": "31063"
  },
  {
    "city": "hortense",
    "zip_code": "31543"
  },
  {
    "city": "lumber city",
    "zip_code": "31549"
  },
  {
    "city": "west green",
    "zip_code": "31567"
  },
  {
    "city": "morven",
    "zip_code": "31638"
  },
  {
    "city": "pearson",
    "zip_code": "31642"
  },
  {
    "city": "moody afb",
    "zip_code": "31699"
  },
  {
    "city": "andersonville",
    "zip_code": "31711"
  },
  {
    "city": "meigs",
    "zip_code": "31765"
  },
  {
    "city": "hamilton",
    "zip_code": "31811"
  },
  {
    "city": "omaha",
    "zip_code": "31821"
  },
  {
    "city": "the villages",
    "zip_code": "32162"
  },
  {
    "city": "jacksonville",
    "zip_code": "32277"
  },
  {
    "city": "mary esther",
    "zip_code": "32569"
  },
  {
    "city": "mcintosh",
    "zip_code": "32664"
  },
  {
    "city": "worthington springs",
    "zip_code": "32697"
  },
  {
    "city": "sanford",
    "zip_code": "32773"
  },
  {
    "city": "melbourne",
    "zip_code": "32901"
  },
  {
    "city": "palm bay",
    "zip_code": "32908"
  },
  {
    "city": "grant",
    "zip_code": "32949"
  },
  {
    "city": "melbourne beach",
    "zip_code": "32951"
  },
  {
    "city": "sebastian",
    "zip_code": "32976"
  },
  {
    "city": "hallandale",
    "zip_code": "33009"
  },
  {
    "city": "hollywood",
    "zip_code": "33029"
  },
  {
    "city": "miami",
    "zip_code": "33146"
  },
  {
    "city": "miami",
    "zip_code": "33194"
  },
  {
    "city": "boynton beach",
    "zip_code": "33436"
  },
  {
    "city": "lake worth beach",
    "zip_code": "33460"
  },
  {
    "city": "brandon",
    "zip_code": "33511"
  },
  {
    "city": "thonotosassa",
    "zip_code": "33592"
  },
  {
    "city": "tampa",
    "zip_code": "33637"
  },
  {
    "city": "tampa",
    "zip_code": "33647"
  },
  {
    "city": "saint petersburg",
    "zip_code": "33702"
  },
  {
    "city": "clearwater",
    "zip_code": "33764"
  },
  {
    "city": "bartow",
    "zip_code": "33830"
  },
  {
    "city": "kathleen",
    "zip_code": "33849"
  },
  {
    "city": "sebring",
    "zip_code": "33872"
  },
  {
    "city": "sebring",
    "zip_code": "33875"
  },
  {
    "city": "naples",
    "zip_code": "34110"
  },
  {
    "city": "goodland",
    "zip_code": "34140"
  },
  {
    "city": "cortez",
    "zip_code": "34215"
  },
  {
    "city": "bradenton beach",
    "zip_code": "34217"
  },
  {
    "city": "sarasota",
    "zip_code": "34242"
  },
  {
    "city": "floral city",
    "zip_code": "34436"
  },
  {
    "city": "ocala",
    "zip_code": "34472"
  },
  {
    "city": "new port richey",
    "zip_code": "34653"
  },
  {
    "city": "crystal beach",
    "zip_code": "34681"
  },
  {
    "city": "holiday",
    "zip_code": "34691"
  },
  {
    "city": "port saint lucie",
    "zip_code": "34953"
  },
  {
    "city": "dolomite",
    "zip_code": "35061"
  },
  {
    "city": "green pond",
    "zip_code": "35074"
  },
  {
    "city": "pelham",
    "zip_code": "35124"
  },
  {
    "city": "sylacauga",
    "zip_code": "35151"
  },
  {
    "city": "birmingham",
    "zip_code": "35228"
  },
  {
    "city": "northport",
    "zip_code": "35476"
  },
  {
    "city": "lexington",
    "zip_code": "35648"
  },
  {
    "city": "dutton",
    "zip_code": "35744"
  },
  {
    "city": "huntsville",
    "zip_code": "35808"
  },
  {
    "city": "walnut grove",
    "zip_code": "35990"
  },
  {
    "city": "autaugaville",
    "zip_code": "36003"
  },
  {
    "city": "banks",
    "zip_code": "36005"
  },
  {
    "city": "dozier",
    "zip_code": "36028"
  },
  {
    "city": "forest home",
    "zip_code": "36030"
  },
  {
    "city": "marbury",
    "zip_code": "36051"
  },
  {
    "city": "oxford",
    "zip_code": "36203"
  },
  {
    "city": "wadley",
    "zip_code": "36276"
  },
  {
    "city": "evergreen",
    "zip_code": "36401"
  },
  {
    "city": "coffeeville",
    "zip_code": "36524"
  },
  {
    "city": "irvington",
    "zip_code": "36544"
  },
  {
    "city": "newbern",
    "zip_code": "36765"
  },
  {
    "city": "sweet water",
    "zip_code": "36782"
  },
  {
    "city": "tyler",
    "zip_code": "36785"
  },
  {
    "city": "opelika",
    "zip_code": "36804"
  },
  {
    "city": "valley",
    "zip_code": "36854"
  },
  {
    "city": "toxey",
    "zip_code": "36921"
  },
  {
    "city": "auburntown",
    "zip_code": "37016"
  },
  {
    "city": "bradyville",
    "zip_code": "37026"
  },
  {
    "city": "pleasant view",
    "zip_code": "37146"
  },
  {
    "city": "riddleton",
    "zip_code": "37151"
  },
  {
    "city": "shelbyville",
    "zip_code": "37160"
  },
  {
    "city": "nashville",
    "zip_code": "37218"
  },
  {
    "city": "belvidere",
    "zip_code": "37306"
  },
  {
    "city": "old fort",
    "zip_code": "37362"
  },
  {
    "city": "sequatchie",
    "zip_code": "37374"
  },
  {
    "city": "tracy city",
    "zip_code": "37387"
  },
  {
    "city": "piney flats",
    "zip_code": "37686"
  },
  {
    "city": "coalfield",
    "zip_code": "37719"
  },
  {
    "city": "heiskell",
    "zip_code": "37754"
  },
  {
    "city": "lenoir city",
    "zip_code": "37772"
  },
  {
    "city": "powell",
    "zip_code": "37849"
  },
  {
    "city": "townsend",
    "zip_code": "37882"
  },
  {
    "city": "bogota",
    "zip_code": "38007"
  },
  {
    "city": "friendship",
    "zip_code": "38034"
  },
  {
    "city": "grand junction",
    "zip_code": "38039"
  },
  {
    "city": "hornsby",
    "zip_code": "38044"
  },
  {
    "city": "middleton",
    "zip_code": "38052"
  },
  {
    "city": "alpine",
    "zip_code": "38543"
  },
  {
    "city": "baxter",
    "zip_code": "38544"
  },
  {
    "city": "byrdstown",
    "zip_code": "38549"
  },
  {
    "city": "gainesboro",
    "zip_code": "38562"
  },
  {
    "city": "quebeck",
    "zip_code": "38579"
  },
  {
    "city": "blue mountain",
    "zip_code": "38610"
  },
  {
    "city": "dumas",
    "zip_code": "38625"
  },
  {
    "city": "falkner",
    "zip_code": "38629"
  },
  {
    "city": "hollandale",
    "zip_code": "38748"
  },
  {
    "city": "rosedale",
    "zip_code": "38769"
  },
  {
    "city": "glendora",
    "zip_code": "38928"
  },
  {
    "city": "pittsboro",
    "zip_code": "38951"
  },
  {
    "city": "sumner",
    "zip_code": "38957"
  },
  {
    "city": "camden",
    "zip_code": "39045"
  },
  {
    "city": "kosciusko",
    "zip_code": "39090"
  },
  {
    "city": "redwood",
    "zip_code": "39156"
  },
  {
    "city": "jackson",
    "zip_code": "39209"
  },
  {
    "city": "jackson",
    "zip_code": "39269"
  },
  {
    "city": "de kalb",
    "zip_code": "39328"
  },
  {
    "city": "hattiesburg",
    "zip_code": "39406"
  },
  {
    "city": "ellisville",
    "zip_code": "39437"
  },
  {
    "city": "moselle",
    "zip_code": "39459"
  },
  {
    "city": "new augusta",
    "zip_code": "39462"
  },
  {
    "city": "smithdale",
    "zip_code": "39664"
  },
  {
    "city": "georgetown",
    "zip_code": "39854"
  },
  {
    "city": "glenview",
    "zip_code": "40025"
  },
  {
    "city": "nerinx",
    "zip_code": "40049"
  },
  {
    "city": "springfield",
    "zip_code": "40069"
  },
  {
    "city": "harned",
    "zip_code": "40144"
  },
  {
    "city": "louisville",
    "zip_code": "40299"
  },
  {
    "city": "irvine",
    "zip_code": "40336"
  },
  {
    "city": "siler",
    "zip_code": "40763"
  },
  {
    "city": "calvin",
    "zip_code": "40813"
  },
  {
    "city": "coldiron",
    "zip_code": "40819"
  },
  {
    "city": "bimble",
    "zip_code": "40915"
  },
  {
    "city": "green road",
    "zip_code": "40946"
  },
  {
    "city": "dry ridge",
    "zip_code": "41035"
  },
  {
    "city": "emerson",
    "zip_code": "41135"
  },
  {
    "city": "worthington",
    "zip_code": "41183"
  },
  {
    "city": "rowdy",
    "zip_code": "41367"
  },
  {
    "city": "elkhorn city",
    "zip_code": "41522"
  },
  {
    "city": "hellier",
    "zip_code": "41534"
  },
  {
    "city": "eastern",
    "zip_code": "41622"
  },
  {
    "city": "hi hat",
    "zip_code": "41636"
  },
  {
    "city": "langley",
    "zip_code": "41645"
  },
  {
    "city": "teaberry",
    "zip_code": "41660"
  },
  {
    "city": "delphia",
    "zip_code": "41735"
  },
  {
    "city": "krypton",
    "zip_code": "41754"
  },
  {
    "city": "cromona",
    "zip_code": "41810"
  },
  {
    "city": "neon",
    "zip_code": "41840"
  },
  {
    "city": "west paducah",
    "zip_code": "42086"
  },
  {
    "city": "bowling green",
    "zip_code": "42102"
  },
  {
    "city": "rocky hill",
    "zip_code": "42163"
  },
  {
    "city": "elkton",
    "zip_code": "42220"
  },
  {
    "city": "russellville",
    "zip_code": "42276"
  },
  {
    "city": "owensboro",
    "zip_code": "42301"
  },
  {
    "city": "uniontown",
    "zip_code": "42461"
  },
  {
    "city": "cub run",
    "zip_code": "42729"
  },
  {
    "city": "summersville",
    "zip_code": "42782"
  },
  {
    "city": "upton",
    "zip_code": "42784"
  },
  {
    "city": "fredericktown",
    "zip_code": "43019"
  },
  {
    "city": "columbus",
    "zip_code": "43202"
  },
  {
    "city": "columbus",
    "zip_code": "43240"
  },
  {
    "city": "cardington",
    "zip_code": "43315"
  },
  {
    "city": "bowling green",
    "zip_code": "43403"
  },
  {
    "city": "luckey",
    "zip_code": "43443"
  },
  {
    "city": "oak harbor",
    "zip_code": "43449"
  },
  {
    "city": "put in bay",
    "zip_code": "43456"
  },
  {
    "city": "walbridge",
    "zip_code": "43465"
  },
  {
    "city": "custar",
    "zip_code": "43511"
  },
  {
    "city": "ney",
    "zip_code": "43549"
  },
  {
    "city": "tontogany",
    "zip_code": "43565"
  },
  {
    "city": "toledo",
    "zip_code": "43614"
  },
  {
    "city": "fairview",
    "zip_code": "43736"
  },
  {
    "city": "warsaw",
    "zip_code": "43844"
  },
  {
    "city": "cameron",
    "zip_code": "43914"
  },
  {
    "city": "clarington",
    "zip_code": "43915"
  },
  {
    "city": "glencoe",
    "zip_code": "43928"
  },
  {
    "city": "hopedale",
    "zip_code": "43976"
  },
  {
    "city": "austinburg",
    "zip_code": "44010"
  },
  {
    "city": "huntsburg",
    "zip_code": "44046"
  },
  {
    "city": "novelty",
    "zip_code": "44072"
  },
  {
    "city": "rome",
    "zip_code": "44085"
  },
  {
    "city": "strongsville",
    "zip_code": "44136"
  },
  {
    "city": "atwater",
    "zip_code": "44201"
  },
  {
    "city": "burbank",
    "zip_code": "44214"
  },
  {
    "city": "akron",
    "zip_code": "44306"
  },
  {
    "city": "mesopotamia",
    "zip_code": "44439"
  },
  {
    "city": "warren",
    "zip_code": "44481"
  },
  {
    "city": "marshallville",
    "zip_code": "44645"
  },
  {
    "city": "new philadelphia",
    "zip_code": "44663"
  },
  {
    "city": "waynesburg",
    "zip_code": "44688"
  },
  {
    "city": "attica",
    "zip_code": "44807"
  },
  {
    "city": "crestline",
    "zip_code": "44827"
  },
  {
    "city": "maineville",
    "zip_code": "45039"
  },
  {
    "city": "west elkton",
    "zip_code": "45070"
  },
  {
    "city": "higginsport",
    "zip_code": "45131"
  },
  {
    "city": "newtonsville",
    "zip_code": "45158"
  },
  {
    "city": "terrace park",
    "zip_code": "45174"
  },
  {
    "city": "cincinnati",
    "zip_code": "45216"
  },
  {
    "city": "cincinnati",
    "zip_code": "45244"
  },
  {
    "city": "farmersville",
    "zip_code": "45325"
  },
  {
    "city": "medway",
    "zip_code": "45341"
  },
  {
    "city": "dayton",
    "zip_code": "45402"
  },
  {
    "city": "dayton",
    "zip_code": "45426"
  },
  {
    "city": "gallipolis",
    "zip_code": "45631"
  },
  {
    "city": "jasper",
    "zip_code": "45642"
  },
  {
    "city": "fort recovery",
    "zip_code": "45846"
  },
  {
    "city": "maria stein",
    "zip_code": "45860"
  },
  {
    "city": "saint henry",
    "zip_code": "45883"
  },
  {
    "city": "fortville",
    "zip_code": "46040"
  },
  {
    "city": "mccordsville",
    "zip_code": "46055"
  },
  {
    "city": "homer",
    "zip_code": "46146"
  },
  {
    "city": "indianapolis",
    "zip_code": "46218"
  },
  {
    "city": "indianapolis",
    "zip_code": "46229"
  },
  {
    "city": "indianapolis",
    "zip_code": "46290"
  },
  {
    "city": "gary",
    "zip_code": "46404"
  },
  {
    "city": "lake station",
    "zip_code": "46405"
  },
  {
    "city": "pierceton",
    "zip_code": "46562"
  },
  {
    "city": "shipshewana",
    "zip_code": "46565"
  },
  {
    "city": "churubusco",
    "zip_code": "46723"
  },
  {
    "city": "akron",
    "zip_code": "46910"
  },
  {
    "city": "liberty mills",
    "zip_code": "46946"
  },
  {
    "city": "macy",
    "zip_code": "46951"
  },
  {
    "city": "crandall",
    "zip_code": "47114"
  },
  {
    "city": "nabb",
    "zip_code": "47147"
  },
  {
    "city": "brownstown",
    "zip_code": "47220"
  },
  {
    "city": "crothersville",
    "zip_code": "47229"
  },
  {
    "city": "paris crossing",
    "zip_code": "47270"
  },
  {
    "city": "taylorsville",
    "zip_code": "47280"
  },
  {
    "city": "redkey",
    "zip_code": "47373"
  },
  {
    "city": "union city",
    "zip_code": "47390"
  },
  {
    "city": "cannelton",
    "zip_code": "47520"
  },
  {
    "city": "stendal",
    "zip_code": "47585"
  },
  {
    "city": "knightsville",
    "zip_code": "47857"
  },
  {
    "city": "newport",
    "zip_code": "47966"
  },
  {
    "city": "allenton",
    "zip_code": "48002"
  },
  {
    "city": "berkley",
    "zip_code": "48072"
  },
  {
    "city": "brighton",
    "zip_code": "48114"
  },
  {
    "city": "westland",
    "zip_code": "48185"
  },
  {
    "city": "detroit",
    "zip_code": "48217"
  },
  {
    "city": "detroit",
    "zip_code": "48227"
  },
  {
    "city": "farmington",
    "zip_code": "48334"
  },
  {
    "city": "filion",
    "zip_code": "48432"
  },
  {
    "city": "chesaning",
    "zip_code": "48616"
  },
  {
    "city": "gladwin",
    "zip_code": "48624"
  },
  {
    "city": "higgins lake",
    "zip_code": "48627"
  },
  {
    "city": "munger",
    "zip_code": "48747"
  },
  {
    "city": "henderson",
    "zip_code": "48841"
  },
  {
    "city": "hubbardston",
    "zip_code": "48845"
  },
  {
    "city": "lakeview",
    "zip_code": "48850"
  },
  {
    "city": "pewamo",
    "zip_code": "48873"
  },
  {
    "city": "webberville",
    "zip_code": "48892"
  },
  {
    "city": "lansing",
    "zip_code": "48910"
  },
  {
    "city": "kalamazoo",
    "zip_code": "49001"
  },
  {
    "city": "augusta",
    "zip_code": "49012"
  },
  {
    "city": "jones",
    "zip_code": "49061"
  },
  {
    "city": "mattawan",
    "zip_code": "49071"
  },
  {
    "city": "eau claire",
    "zip_code": "49111"
  },
  {
    "city": "hesperia",
    "zip_code": "49421"
  },
  {
    "city": "muskegon",
    "zip_code": "49444"
  },
  {
    "city": "new era",
    "zip_code": "49446"
  },
  {
    "city": "alba",
    "zip_code": "49611"
  },
  {
    "city": "alden",
    "zip_code": "49612"
  },
  {
    "city": "kewadin",
    "zip_code": "49648"
  },
  {
    "city": "sears",
    "zip_code": "49679"
  },
  {
    "city": "atlanta",
    "zip_code": "49709"
  },
  {
    "city": "brimley",
    "zip_code": "49715"
  },
  {
    "city": "grayling",
    "zip_code": "49738"
  },
  {
    "city": "presque isle",
    "zip_code": "49777"
  },
  {
    "city": "germfask",
    "zip_code": "49836"
  },
  {
    "city": "ramsay",
    "zip_code": "49959"
  },
  {
    "city": "rockland",
    "zip_code": "49960"
  },
  {
    "city": "ackworth",
    "zip_code": "50001"
  },
  {
    "city": "clio",
    "zip_code": "50052"
  },
  {
    "city": "melcher dallas",
    "zip_code": "50163"
  },
  {
    "city": "radcliffe",
    "zip_code": "50230"
  },
  {
    "city": "story city",
    "zip_code": "50248"
  },
  {
    "city": "stuart",
    "zip_code": "50250"
  },
  {
    "city": "winterset",
    "zip_code": "50273"
  },
  {
    "city": "clive",
    "zip_code": "50325"
  },
  {
    "city": "coulter",
    "zip_code": "50431"
  },
  {
    "city": "northwood",
    "zip_code": "50459"
  },
  {
    "city": "eagle grove",
    "zip_code": "50533"
  },
  {
    "city": "gowrie",
    "zip_code": "50543"
  },
  {
    "city": "colwell",
    "zip_code": "50620"
  },
  {
    "city": "garwin",
    "zip_code": "50632"
  },
  {
    "city": "creston",
    "zip_code": "50801"
  },
  {
    "city": "sioux city",
    "zip_code": "51106"
  },
  {
    "city": "alvord",
    "zip_code": "51230"
  },
  {
    "city": "emerson",
    "zip_code": "51533"
  },
  {
    "city": "missouri valley",
    "zip_code": "51555"
  },
  {
    "city": "soldier",
    "zip_code": "51572"
  },
  {
    "city": "riverton",
    "zip_code": "51650"
  },
  {
    "city": "center point",
    "zip_code": "52213"
  },
  {
    "city": "coralville",
    "zip_code": "52241"
  },
  {
    "city": "parnell",
    "zip_code": "52325"
  },
  {
    "city": "south english",
    "zip_code": "52335"
  },
  {
    "city": "tiffin",
    "zip_code": "52340"
  },
  {
    "city": "eddyville",
    "zip_code": "52553"
  },
  {
    "city": "promise city",
    "zip_code": "52583"
  },
  {
    "city": "keokuk",
    "zip_code": "52632"
  },
  {
    "city": "atalissa",
    "zip_code": "52720"
  },
  {
    "city": "conesville",
    "zip_code": "52739"
  },
  {
    "city": "germantown",
    "zip_code": "53022"
  },
  {
    "city": "malone",
    "zip_code": "53049"
  },
  {
    "city": "eagle",
    "zip_code": "53119"
  },
  {
    "city": "new berlin",
    "zip_code": "53151"
  },
  {
    "city": "oak creek",
    "zip_code": "53154"
  },
  {
    "city": "milwaukee",
    "zip_code": "53203"
  },
  {
    "city": "blanchardville",
    "zip_code": "53516"
  },
  {
    "city": "highland",
    "zip_code": "53543"
  },
  {
    "city": "mcfarland",
    "zip_code": "53558"
  },
  {
    "city": "bloomington",
    "zip_code": "53804"
  },
  {
    "city": "glen haven",
    "zip_code": "53810"
  },
  {
    "city": "green valley",
    "zip_code": "54127"
  },
  {
    "city": "krakow",
    "zip_code": "54137"
  },
  {
    "city": "lakewood",
    "zip_code": "54138"
  },
  {
    "city": "pembine",
    "zip_code": "54156"
  },
  {
    "city": "wausaukee",
    "zip_code": "54177"
  },
  {
    "city": "curtiss",
    "zip_code": "54422"
  },
  {
    "city": "deerbrook",
    "zip_code": "54424"
  },
  {
    "city": "elcho",
    "zip_code": "54428"
  },
  {
    "city": "hewitt",
    "zip_code": "54441"
  },
  {
    "city": "rudolph",
    "zip_code": "54475"
  },
  {
    "city": "crandon",
    "zip_code": "54520"
  },
  {
    "city": "mindoro",
    "zip_code": "54644"
  },
  {
    "city": "fall creek",
    "zip_code": "54742"
  },
  {
    "city": "knapp",
    "zip_code": "54749"
  },
  {
    "city": "sand creek",
    "zip_code": "54765"
  },
  {
    "city": "strum",
    "zip_code": "54770"
  },
  {
    "city": "barronett",
    "zip_code": "54813"
  },
  {
    "city": "maple",
    "zip_code": "54854"
  },
  {
    "city": "bayport",
    "zip_code": "55003"
  },
  {
    "city": "hampton",
    "zip_code": "55031"
  },
  {
    "city": "lakeland",
    "zip_code": "55043"
  },
  {
    "city": "north branch",
    "zip_code": "55056"
  },
  {
    "city": "northfield",
    "zip_code": "55057"
  },
  {
    "city": "warsaw",
    "zip_code": "55087"
  },
  {
    "city": "elk river",
    "zip_code": "55330"
  },
  {
    "city": "new germany",
    "zip_code": "55367"
  },
  {
    "city": "wayzata",
    "zip_code": "55391"
  },
  {
    "city": "minneapolis",
    "zip_code": "55417"
  },
  {
    "city": "minneapolis",
    "zip_code": "55443"
  },
  {
    "city": "albert lea",
    "zip_code": "56007"
  },
  {
    "city": "minnesota lake",
    "zip_code": "56068"
  },
  {
    "city": "walnut grove",
    "zip_code": "56180"
  },
  {
    "city": "beardsley",
    "zip_code": "56211"
  },
  {
    "city": "boyd",
    "zip_code": "56218"
  },
  {
    "city": "clara city",
    "zip_code": "56222"
  },
  {
    "city": "dawson",
    "zip_code": "56232"
  },
  {
    "city": "murdock",
    "zip_code": "56271"
  },
  {
    "city": "paynesville",
    "zip_code": "56362"
  },
  {
    "city": "villard",
    "zip_code": "56385"
  },
  {
    "city": "fertile",
    "zip_code": "56540"
  },
  {
    "city": "flom",
    "zip_code": "56541"
  },
  {
    "city": "bena",
    "zip_code": "56626"
  },
  {
    "city": "international falls",
    "zip_code": "56649"
  },
  {
    "city": "spring lake",
    "zip_code": "56680"
  },
  {
    "city": "kennedy",
    "zip_code": "56733"
  },
  {
    "city": "oklee",
    "zip_code": "56742"
  },
  {
    "city": "menno",
    "zip_code": "57045"
  },
  {
    "city": "ramona",
    "zip_code": "57054"
  },
  {
    "city": "sioux falls",
    "zip_code": "57108"
  },
  {
    "city": "arlington",
    "zip_code": "57212"
  },
  {
    "city": "clark",
    "zip_code": "57225"
  },
  {
    "city": "corsica",
    "zip_code": "57328"
  },
  {
    "city": "stephan",
    "zip_code": "57346"
  },
  {
    "city": "martin",
    "zip_code": "57551"
  },
  {
    "city": "parmelee",
    "zip_code": "57566"
  },
  {
    "city": "buffalo gap",
    "zip_code": "57722"
  },
  {
    "city": "edgemont",
    "zip_code": "57735"
  },
  {
    "city": "oral",
    "zip_code": "57766"
  },
  {
    "city": "spearfish",
    "zip_code": "57799"
  },
  {
    "city": "galesburg",
    "zip_code": "58035"
  },
  {
    "city": "hope",
    "zip_code": "58046"
  },
  {
    "city": "grand forks",
    "zip_code": "58202"
  },
  {
    "city": "wales",
    "zip_code": "58281"
  },
  {
    "city": "brocket",
    "zip_code": "58321"
  },
  {
    "city": "edmore",
    "zip_code": "58330"
  },
  {
    "city": "hampden",
    "zip_code": "58338"
  },
  {
    "city": "saint john",
    "zip_code": "58369"
  },
  {
    "city": "sheyenne",
    "zip_code": "58374"
  },
  {
    "city": "wolford",
    "zip_code": "58385"
  },
  {
    "city": "jessie",
    "zip_code": "58452"
  },
  {
    "city": "medina",
    "zip_code": "58467"
  },
  {
    "city": "bismarck",
    "zip_code": "58503"
  },
  {
    "city": "beulah",
    "zip_code": "58523"
  },
  {
    "city": "elgin",
    "zip_code": "58533"
  },
  {
    "city": "rhame",
    "zip_code": "58651"
  },
  {
    "city": "st john",
    "zip_code": "830"
  },
  {
    "city": "blandford",
    "zip_code": "1008"
  },
  {
    "city": "groton",
    "zip_code": "1450"
  },
  {
    "city": "dudley",
    "zip_code": "1571"
  },
  {
    "city": "west brookfield",
    "zip_code": "1585"
  },
  {
    "city": "haverhill",
    "zip_code": "1830"
  },
  {
    "city": "hingham",
    "zip_code": "2043"
  },
  {
    "city": "newton center",
    "zip_code": "2459"
  },
  {
    "city": "wellesley hills",
    "zip_code": "2481"
  },
  {
    "city": "wareham",
    "zip_code": "2571"
  },
  {
    "city": "west hyannisport",
    "zip_code": "2672"
  },
  {
    "city": "fairhaven",
    "zip_code": "2719"
  },
  {
    "city": "fall river",
    "zip_code": "2720"
  },
  {
    "city": "swansea",
    "zip_code": "2777"
  },
  {
    "city": "hopkinton",
    "zip_code": "2833"
  },
  {
    "city": "manville",
    "zip_code": "2838"
  },
  {
    "city": "wyoming",
    "zip_code": "2898"
  },
  {
    "city": "providence",
    "zip_code": "2909"
  },
  {
    "city": "cranston",
    "zip_code": "2910"
  },
  {
    "city": "riverside",
    "zip_code": "2915"
  },
  {
    "city": "derry",
    "zip_code": "3038"
  },
  {
    "city": "dunbarton",
    "zip_code": "3046"
  },
  {
    "city": "hudson",
    "zip_code": "3051"
  },
  {
    "city": "raymond",
    "zip_code": "3077"
  },
  {
    "city": "barnstead",
    "zip_code": "3218"
  },
  {
    "city": "antrim",
    "zip_code": "3440"
  },
  {
    "city": "stratham",
    "zip_code": "3885"
  },
  {
    "city": "ogunquit",
    "zip_code": "3907"
  },
  {
    "city": "shapleigh",
    "zip_code": "4076"
  },
  {
    "city": "hanover",
    "zip_code": "4237"
  },
  {
    "city": "eddington",
    "zip_code": "4428"
  },
  {
    "city": "shirley mills",
    "zip_code": "4485"
  },
  {
    "city": "blue hill",
    "zip_code": "4614"
  },
  {
    "city": "east machias",
    "zip_code": "4630"
  },
  {
    "city": "grand lake stream",
    "zip_code": "4637"
  },
  {
    "city": "seal cove",
    "zip_code": "4674"
  },
  {
    "city": "seal harbor",
    "zip_code": "4675"
  },
  {
    "city": "sorrento",
    "zip_code": "4677"
  },
  {
    "city": "madawaska",
    "zip_code": "4756"
  },
  {
    "city": "oxbow",
    "zip_code": "4764"
  },
  {
    "city": "portage",
    "zip_code": "4768"
  },
  {
    "city": "warren",
    "zip_code": "4864"
  },
  {
    "city": "east newport",
    "zip_code": "4933"
  },
  {
    "city": "madison",
    "zip_code": "4950"
  },
  {
    "city": "white river junction",
    "zip_code": "5001"
  },
  {
    "city": "north hartland",
    "zip_code": "5052"
  },
  {
    "city": "south pomfret",
    "zip_code": "5067"
  },
  {
    "city": "west hartford",
    "zip_code": "5084"
  },
  {
    "city": "bennington",
    "zip_code": "5201"
  },
  {
    "city": "barre",
    "zip_code": "5641"
  },
  {
    "city": "plainfield",
    "zip_code": "5667"
  },
  {
    "city": "brandon",
    "zip_code": "5733"
  },
  {
    "city": "berlin",
    "zip_code": "6037"
  },
  {
    "city": "hartford",
    "zip_code": "6160"
  },
  {
    "city": "cromwell",
    "zip_code": "6416"
  },
  {
    "city": "deep river",
    "zip_code": "6417"
  },
  {
    "city": "salem",
    "zip_code": "6420"
  },
  {
    "city": "bridgeport",
    "zip_code": "6606"
  },
  {
    "city": "torrington",
    "zip_code": "6790"
  },
  {
    "city": "watertown",
    "zip_code": "6795"
  },
  {
    "city": "norwalk",
    "zip_code": "6856"
  },
  {
    "city": "riverside",
    "zip_code": "6878"
  },
  {
    "city": "stamford",
    "zip_code": "6901"
  },
  {
    "city": "west orange",
    "zip_code": "7052"
  },
  {
    "city": "sewaren",
    "zip_code": "7077"
  },
  {
    "city": "newfoundland",
    "zip_code": "7435"
  },
  {
    "city": "glen rock",
    "zip_code": "7452"
  },
  {
    "city": "wayne",
    "zip_code": "7470"
  },
  {
    "city": "leonia",
    "zip_code": "7605"
  },
  {
    "city": "closter",
    "zip_code": "7624"
  },
  {
    "city": "haworth",
    "zip_code": "7641"
  },
  {
    "city": "allenhurst",
    "zip_code": "7711"
  },
  {
    "city": "englishtown",
    "zip_code": "7726"
  },
  {
    "city": "budd lake",
    "zip_code": "7828"
  },
  {
    "city": "hackettstown",
    "zip_code": "7840"
  },
  {
    "city": "mount arlington",
    "zip_code": "7856"
  },
  {
    "city": "whippany",
    "zip_code": "7981"
  },
  {
    "city": "clarksboro",
    "zip_code": "8020"
  },
  {
    "city": "deepwater",
    "zip_code": "8023"
  },
  {
    "city": "vincentown",
    "zip_code": "8088"
  },
  {
    "city": "belle mead",
    "zip_code": "8502"
  },
  {
    "city": "hightstown",
    "zip_code": "8520"
  },
  {
    "city": "titusville",
    "zip_code": "8560"
  },
  {
    "city": "stewartsville",
    "zip_code": "8886"
  },
  {
    "city": "new york",
    "zip_code": "10025"
  },
  {
    "city": "bronx",
    "zip_code": "10452"
  },
  {
    "city": "crompond",
    "zip_code": "10517"
  },
  {
    "city": "elmsford",
    "zip_code": "10523"
  },
  {
    "city": "eastchester",
    "zip_code": "10709"
  },
  {
    "city": "fort montgomery",
    "zip_code": "10922"
  },
  {
    "city": "woodside",
    "zip_code": "11377"
  },
  {
    "city": "saint albans",
    "zip_code": "11412"
  },
  {
    "city": "jamaica",
    "zip_code": "11424"
  },
  {
    "city": "baldwin",
    "zip_code": "11510"
  },
  {
    "city": "hewlett",
    "zip_code": "11557"
  },
  {
    "city": "babylon",
    "zip_code": "11702"
  },
  {
    "city": "bayville",
    "zip_code": "11709"
  },
  {
    "city": "bellmore",
    "zip_code": "11710"
  },
  {
    "city": "islip",
    "zip_code": "11751"
  },
  {
    "city": "petersburg",
    "zip_code": "12138"
  },
  {
    "city": "stuyvesant falls",
    "zip_code": "12174"
  },
  {
    "city": "schenectady",
    "zip_code": "12303"
  },
  {
    "city": "schenectady",
    "zip_code": "12305"
  },
  {
    "city": "acra",
    "zip_code": "12405"
  },
  {
    "city": "tannersville",
    "zip_code": "12485"
  },
  {
    "city": "tillson",
    "zip_code": "12486"
  },
  {
    "city": "ancram",
    "zip_code": "12502"
  },
  {
    "city": "gardiner",
    "zip_code": "12525"
  },
  {
    "city": "lagrangeville",
    "zip_code": "12540"
  },
  {
    "city": "poughquag",
    "zip_code": "12570"
  },
  {
    "city": "kiamesha lake",
    "zip_code": "12751"
  },
  {
    "city": "mountain dale",
    "zip_code": "12763"
  },
  {
    "city": "schroon lake",
    "zip_code": "12870"
  },
  {
    "city": "lewis",
    "zip_code": "12950"
  },
  {
    "city": "north bangor",
    "zip_code": "12966"
  },
  {
    "city": "bernhards bay",
    "zip_code": "13028"
  },
  {
    "city": "erieville",
    "zip_code": "13061"
  },
  {
    "city": "syracuse",
    "zip_code": "13210"
  },
  {
    "city": "brantingham",
    "zip_code": "13312"
  },
  {
    "city": "oriskany",
    "zip_code": "13424"
  },
  {
    "city": "deferiet",
    "zip_code": "13628"
  },
  {
    "city": "rodman",
    "zip_code": "13682"
  },
  {
    "city": "south colton",
    "zip_code": "13687"
  },
  {
    "city": "richford",
    "zip_code": "13835"
  },
  {
    "city": "cowlesville",
    "zip_code": "14037"
  },
  {
    "city": "darien center",
    "zip_code": "14040"
  },
  {
    "city": "delevan",
    "zip_code": "14042"
  },
  {
    "city": "east concord",
    "zip_code": "14055"
  },
  {
    "city": "newfane",
    "zip_code": "14108"
  },
  {
    "city": "ransomville",
    "zip_code": "14131"
  },
  {
    "city": "keuka park",
    "zip_code": "14478"
  },
  {
    "city": "pavilion",
    "zip_code": "14525"
  },
  {
    "city": "perkinsville",
    "zip_code": "14529"
  },
  {
    "city": "silver lake",
    "zip_code": "14549"
  },
  {
    "city": "stanley",
    "zip_code": "14561"
  },
  {
    "city": "rochester",
    "zip_code": "14610"
  },
  {
    "city": "rochester",
    "zip_code": "14625"
  },
  {
    "city": "brocton",
    "zip_code": "14716"
  },
  {
    "city": "gerry",
    "zip_code": "14740"
  },
  {
    "city": "houghton",
    "zip_code": "14744"
  },
  {
    "city": "brooktondale",
    "zip_code": "14817"
  },
  {
    "city": "ithaca",
    "zip_code": "14853"
  },
  {
    "city": "bakerstown",
    "zip_code": "15007"
  },
  {
    "city": "joffre",
    "zip_code": "15053"
  },
  {
    "city": "langeloth",
    "zip_code": "15054"
  },
  {
    "city": "coraopolis",
    "zip_code": "15108"
  },
  {
    "city": "presto",
    "zip_code": "15142"
  },
  {
    "city": "pittsburgh",
    "zip_code": "15206"
  },
  {
    "city": "washington",
    "zip_code": "15301"
  },
  {
    "city": "cokeburg",
    "zip_code": "15324"
  },
  {
    "city": "eighty four",
    "zip_code": "15330"
  },
  {
    "city": "southview",
    "zip_code": "15361"
  },
  {
    "city": "strabane",
    "zip_code": "15363"
  },
  {
    "city": "dunbar",
    "zip_code": "15431"
  },
  {
    "city": "la belle",
    "zip_code": "15450"
  },
  {
    "city": "somerset",
    "zip_code": "15510"
  },
  {
    "city": "avonmore",
    "zip_code": "15618"
  },
  {
    "city": "latrobe",
    "zip_code": "15650"
  },
  {
    "city": "home",
    "zip_code": "15747"
  },
  {
    "city": "la jose",
    "zip_code": "15753"
  },
  {
    "city": "stump creek",
    "zip_code": "15863"
  },
  {
    "city": "saint michael",
    "zip_code": "15951"
  },
  {
    "city": "twin rocks",
    "zip_code": "15960"
  },
  {
    "city": "adamsville",
    "zip_code": "16110"
  },
  {
    "city": "jamestown",
    "zip_code": "16134"
  },
  {
    "city": "plumville",
    "zip_code": "16246"
  },
  {
    "city": "templeton",
    "zip_code": "16259"
  },
  {
    "city": "warren",
    "zip_code": "16365"
  },
  {
    "city": "altoona",
    "zip_code": "16601"
  },
  {
    "city": "fallentimber",
    "zip_code": "16639"
  },
  {
    "city": "petersburg",
    "zip_code": "16669"
  },
  {
    "city": "cresson",
    "zip_code": "16699"
  },
  {
    "city": "de young",
    "zip_code": "16728"
  },
  {
    "city": "rew",
    "zip_code": "16744"
  },
  {
    "city": "turtlepoint",
    "zip_code": "16750"
  },
  {
    "city": "munson",
    "zip_code": "16860"
  },
  {
    "city": "gillett",
    "zip_code": "16925"
  },
  {
    "city": "campbelltown",
    "zip_code": "17010"
  },
  {
    "city": "dalmatia",
    "zip_code": "17017"
  },
  {
    "city": "honey grove",
    "zip_code": "17035"
  },
  {
    "city": "millerstown",
    "zip_code": "17062"
  },
  {
    "city": "myerstown",
    "zip_code": "17067"
  },
  {
    "city": "harrisburg",
    "zip_code": "17120"
  },
  {
    "city": "south mountain",
    "zip_code": "17261"
  },
  {
    "city": "state line",
    "zip_code": "17263"
  },
  {
    "city": "ronks",
    "zip_code": "17572"
  },
  {
    "city": "lancaster",
    "zip_code": "17602"
  },
  {
    "city": "locust gap",
    "zip_code": "17840"
  },
  {
    "city": "bath",
    "zip_code": "18014"
  },
  {
    "city": "east greenville",
    "zip_code": "18041"
  },
  {
    "city": "allentown",
    "zip_code": "18106"
  },
  {
    "city": "conyngham",
    "zip_code": "18219"
  },
  {
    "city": "kelayres",
    "zip_code": "18231"
  },
  {
    "city": "canadensis",
    "zip_code": "18325"
  },
  {
    "city": "shawnee on delaware",
    "zip_code": "18356"
  },
  {
    "city": "doylestown",
    "zip_code": "18902"
  },
  {
    "city": "milford square",
    "zip_code": "18935"
  },
  {
    "city": "montgomeryville",
    "zip_code": "18936"
  },
  {
    "city": "bensalem",
    "zip_code": "19020"
  },
  {
    "city": "darby",
    "zip_code": "19023"
  },
  {
    "city": "glenolden",
    "zip_code": "19036"
  },
  {
    "city": "media",
    "zip_code": "19063"
  },
  {
    "city": "newtown square",
    "zip_code": "19073"
  },
  {
    "city": "wallingford",
    "zip_code": "19086"
  },
  {
    "city": "philadelphia",
    "zip_code": "19127"
  },
  {
    "city": "devon",
    "zip_code": "19333"
  },
  {
    "city": "kennett square",
    "zip_code": "19348"
  },
  {
    "city": "gwynedd valley",
    "zip_code": "19437"
  },
  {
    "city": "zieglerville",
    "zip_code": "19492"
  },
  {
    "city": "shartlesville",
    "zip_code": "19554"
  },
  {
    "city": "reading",
    "zip_code": "19604"
  },
  {
    "city": "camden wyoming",
    "zip_code": "19934"
  },
  {
    "city": "dagsboro",
    "zip_code": "19939"
  },
  {
    "city": "houston",
    "zip_code": "19954"
  },
  {
    "city": "paeonian springs",
    "zip_code": "20129"
  },
  {
    "city": "round hill",
    "zip_code": "20141"
  },
  {
    "city": "leesburg",
    "zip_code": "20176"
  },
  {
    "city": "broomes island",
    "zip_code": "20615"
  },
  {
    "city": "faulkner",
    "zip_code": "20632"
  },
  {
    "city": "lusby",
    "zip_code": "20657"
  },
  {
    "city": "germantown",
    "zip_code": "20876"
  },
  {
    "city": "silver spring",
    "zip_code": "20904"
  },
  {
    "city": "bel air",
    "zip_code": "21015"
  },
  {
    "city": "fort howard",
    "zip_code": "21052"
  },
  {
    "city": "hydes",
    "zip_code": "21082"
  },
  {
    "city": "linthicum heights",
    "zip_code": "21090"
  },
  {
    "city": "cordova",
    "zip_code": "21625"
  },
  {
    "city": "royal oak",
    "zip_code": "21662"
  },
  {
    "city": "mount airy",
    "zip_code": "21771"
  },
  {
    "city": "taneytown",
    "zip_code": "21787"
  },
  {
    "city": "berlin",
    "zip_code": "21811"
  },
  {
    "city": "willards",
    "zip_code": "21874"
  },
  {
    "city": "north east",
    "zip_code": "21901"
  },
  {
    "city": "arlington",
    "zip_code": "22213"
  },
  {
    "city": "fredericksburg",
    "zip_code": "22407"
  },
  {
    "city": "rappahannock academy",
    "zip_code": "22538"
  },
  {
    "city": "ruther glen",
    "zip_code": "22546"
  },
  {
    "city": "hume",
    "zip_code": "22639"
  },
  {
    "city": "linden",
    "zip_code": "22642"
  },
  {
    "city": "etlan",
    "zip_code": "22719"
  },
  {
    "city": "rapidan",
    "zip_code": "22733"
  },
  {
    "city": "criders",
    "zip_code": "22820"
  },
  {
    "city": "shenandoah",
    "zip_code": "22849"
  },
  {
    "city": "singers glen",
    "zip_code": "22850"
  },
  {
    "city": "stanley",
    "zip_code": "22851"
  },
  {
    "city": "charlottesville",
    "zip_code": "22902"
  },
  {
    "city": "ambrose",
    "zip_code": "58833"
  },
  {
    "city": "arnegard",
    "zip_code": "58835"
  },
  {
    "city": "acton",
    "zip_code": "59002"
  },
  {
    "city": "melstone",
    "zip_code": "59054"
  },
  {
    "city": "culbertson",
    "zip_code": "59218"
  },
  {
    "city": "babb",
    "zip_code": "59411"
  },
  {
    "city": "jefferson city",
    "zip_code": "59638"
  },
  {
    "city": "butte",
    "zip_code": "59750"
  },
  {
    "city": "missoula",
    "zip_code": "59803"
  },
  {
    "city": "superior",
    "zip_code": "59872"
  },
  {
    "city": "big arm",
    "zip_code": "59910"
  },
  {
    "city": "west glacier",
    "zip_code": "59936"
  },
  {
    "city": "palatine",
    "zip_code": "60067"
  },
  {
    "city": "lincolnshire",
    "zip_code": "60069"
  },
  {
    "city": "woodstock",
    "zip_code": "60098"
  },
  {
    "city": "burlington",
    "zip_code": "60109"
  },
  {
    "city": "elmhurst",
    "zip_code": "60126"
  },
  {
    "city": "schaumburg",
    "zip_code": "60173"
  },
  {
    "city": "saint charles",
    "zip_code": "60175"
  },
  {
    "city": "gardner",
    "zip_code": "60424"
  },
  {
    "city": "lemont",
    "zip_code": "60439"
  },
  {
    "city": "palos heights",
    "zip_code": "60463"
  },
  {
    "city": "plano",
    "zip_code": "60545"
  },
  {
    "city": "sheldon",
    "zip_code": "60966"
  },
  {
    "city": "orangeville",
    "zip_code": "61060"
  },
  {
    "city": "aledo",
    "zip_code": "61231"
  },
  {
    "city": "deer grove",
    "zip_code": "61243"
  },
  {
    "city": "cherry",
    "zip_code": "61317"
  },
  {
    "city": "eldena",
    "zip_code": "61324"
  },
  {
    "city": "van orin",
    "zip_code": "61374"
  },
  {
    "city": "avon",
    "zip_code": "61415"
  },
  {
    "city": "astoria",
    "zip_code": "61501"
  },
  {
    "city": "carlock",
    "zip_code": "61725"
  },
  {
    "city": "congerville",
    "zip_code": "61729"
  },
  {
    "city": "danvers",
    "zip_code": "61732"
  },
  {
    "city": "sibley",
    "zip_code": "61773"
  },
  {
    "city": "urbana",
    "zip_code": "61801"
  },
  {
    "city": "gifford",
    "zip_code": "61847"
  },
  {
    "city": "dalton city",
    "zip_code": "61925"
  },
  {
    "city": "madison",
    "zip_code": "62060"
  },
  {
    "city": "okawville",
    "zip_code": "62271"
  },
  {
    "city": "smithboro",
    "zip_code": "62284"
  },
  {
    "city": "quincy",
    "zip_code": "62301"
  },
  {
    "city": "camden",
    "zip_code": "62319"
  },
  {
    "city": "mount erie",
    "zip_code": "62446"
  },
  {
    "city": "divernon",
    "zip_code": "62530"
  },
  {
    "city": "latham",
    "zip_code": "62543"
  },
  {
    "city": "riverton",
    "zip_code": "62561"
  },
  {
    "city": "murrayville",
    "zip_code": "62668"
  },
  {
    "city": "springfield",
    "zip_code": "62707"
  },
  {
    "city": "coello",
    "zip_code": "62825"
  },
  {
    "city": "irvington",
    "zip_code": "62848"
  },
  {
    "city": "shobonier",
    "zip_code": "62885"
  },
  {
    "city": "thompsonville",
    "zip_code": "62890"
  },
  {
    "city": "grand tower",
    "zip_code": "62942"
  },
  {
    "city": "harrisburg",
    "zip_code": "62946"
  },
  {
    "city": "villa ridge",
    "zip_code": "62996"
  },
  {
    "city": "saint ann",
    "zip_code": "63074"
  },
  {
    "city": "washington",
    "zip_code": "63090"
  },
  {
    "city": "saint louis",
    "zip_code": "63109"
  },
  {
    "city": "saint louis",
    "zip_code": "63113"
  },
  {
    "city": "saint louis",
    "zip_code": "63117"
  },
  {
    "city": "saint louis",
    "zip_code": "63127"
  },
  {
    "city": "saint louis",
    "zip_code": "63128"
  },
  {
    "city": "louisiana",
    "zip_code": "63353"
  },
  {
    "city": "olney",
    "zip_code": "63370"
  },
  {
    "city": "brashear",
    "zip_code": "63533"
  },
  {
    "city": "coatsville",
    "zip_code": "63535"
  },
  {
    "city": "edina",
    "zip_code": "63537"
  },
  {
    "city": "new cambria",
    "zip_code": "63558"
  },
  {
    "city": "unionville",
    "zip_code": "63565"
  },
  {
    "city": "doe run",
    "zip_code": "63637"
  },
  {
    "city": "dover",
    "zip_code": "64022"
  },
  {
    "city": "grain valley",
    "zip_code": "64029"
  },
  {
    "city": "independence",
    "zip_code": "64054"
  },
  {
    "city": "independence",
    "zip_code": "64056"
  },
  {
    "city": "warrensburg",
    "zip_code": "64093"
  },
  {
    "city": "kansas city",
    "zip_code": "64164"
  },
  {
    "city": "kansas city",
    "zip_code": "64165"
  },
  {
    "city": "allendale",
    "zip_code": "64420"
  },
  {
    "city": "westboro",
    "zip_code": "64498"
  },
  {
    "city": "meadville",
    "zip_code": "64659"
  },
  {
    "city": "purdin",
    "zip_code": "64674"
  },
  {
    "city": "montrose",
    "zip_code": "64770"
  },
  {
    "city": "nevada",
    "zip_code": "64772"
  },
  {
    "city": "bunceton",
    "zip_code": "65237"
  },
  {
    "city": "excello",
    "zip_code": "65247"
  },
  {
    "city": "windsor",
    "zip_code": "65360"
  },
  {
    "city": "brinktown",
    "zip_code": "65443"
  },
  {
    "city": "viburnum",
    "zip_code": "65566"
  },
  {
    "city": "flemington",
    "zip_code": "65650"
  },
  {
    "city": "humansville",
    "zip_code": "65674"
  },
  {
    "city": "marionville",
    "zip_code": "65705"
  },
  {
    "city": "norwood",
    "zip_code": "65717"
  },
  {
    "city": "strafford",
    "zip_code": "65757"
  },
  {
    "city": "walnut grove",
    "zip_code": "65770"
  },
  {
    "city": "washburn",
    "zip_code": "65772"
  },
  {
    "city": "moody",
    "zip_code": "65777"
  },
  {
    "city": "pomona",
    "zip_code": "65789"
  },
  {
    "city": "frankfort",
    "zip_code": "66427"
  },
  {
    "city": "holton",
    "zip_code": "66436"
  },
  {
    "city": "chanute",
    "zip_code": "66720"
  },
  {
    "city": "galena",
    "zip_code": "66739"
  },
  {
    "city": "emporia",
    "zip_code": "66801"
  },
  {
    "city": "formoso",
    "zip_code": "66942"
  },
  {
    "city": "hardtner",
    "zip_code": "67057"
  },
  {
    "city": "hesston",
    "zip_code": "67062"
  },
  {
    "city": "wichita",
    "zip_code": "67209"
  },
  {
    "city": "wichita",
    "zip_code": "67218"
  },
  {
    "city": "tyro",
    "zip_code": "67364"
  },
  {
    "city": "woodbine",
    "zip_code": "67492"
  },
  {
    "city": "otis",
    "zip_code": "67565"
  },
  {
    "city": "turon",
    "zip_code": "67583"
  },
  {
    "city": "lenora",
    "zip_code": "67645"
  },
  {
    "city": "ogallah",
    "zip_code": "67656"
  },
  {
    "city": "colby",
    "zip_code": "67701"
  },
  {
    "city": "gove",
    "zip_code": "67736"
  },
  {
    "city": "monument",
    "zip_code": "67747"
  },
  {
    "city": "oakley",
    "zip_code": "67748"
  },
  {
    "city": "bucklin",
    "zip_code": "67834"
  },
  {
    "city": "pierceville",
    "zip_code": "67868"
  },
  {
    "city": "lyons",
    "zip_code": "68038"
  },
  {
    "city": "la vista",
    "zip_code": "68128"
  },
  {
    "city": "jansen",
    "zip_code": "68377"
  },
  {
    "city": "mccool junction",
    "zip_code": "68401"
  },
  {
    "city": "wilber",
    "zip_code": "68465"
  },
  {
    "city": "lincoln",
    "zip_code": "68502"
  },
  {
    "city": "lincoln",
    "zip_code": "68506"
  },
  {
    "city": "surprise",
    "zip_code": "68667"
  },
  {
    "city": "ewing",
    "zip_code": "68735"
  },
  {
    "city": "meadow grove",
    "zip_code": "68752"
  },
  {
    "city": "pilger",
    "zip_code": "68768"
  },
  {
    "city": "ansley",
    "zip_code": "68814"
  },
  {
    "city": "central city",
    "zip_code": "68826"
  },
  {
    "city": "hendley",
    "zip_code": "68946"
  },
  {
    "city": "juniata",
    "zip_code": "68955"
  },
  {
    "city": "imperial",
    "zip_code": "69033"
  },
  {
    "city": "arnold",
    "zip_code": "69120"
  },
  {
    "city": "arthur",
    "zip_code": "69121"
  },
  {
    "city": "oshkosh",
    "zip_code": "69154"
  },
  {
    "city": "purdum",
    "zip_code": "69157"
  },
  {
    "city": "thedford",
    "zip_code": "69166"
  },
  {
    "city": "mcgrew",
    "zip_code": "69353"
  },
  {
    "city": "new orleans",
    "zip_code": "70129"
  },
  {
    "city": "new orleans",
    "zip_code": "70130"
  },
  {
    "city": "belle rose",
    "zip_code": "70341"
  },
  {
    "city": "golden meadow",
    "zip_code": "70357"
  },
  {
    "city": "gray",
    "zip_code": "70359"
  },
  {
    "city": "loranger",
    "zip_code": "70446"
  },
  {
    "city": "maurepas",
    "zip_code": "70449"
  },
  {
    "city": "mermentau",
    "zip_code": "70556"
  },
  {
    "city": "rayne",
    "zip_code": "70578"
  },
  {
    "city": "fenton",
    "zip_code": "70640"
  },
  {
    "city": "hackberry",
    "zip_code": "70645"
  },
  {
    "city": "livonia",
    "zip_code": "70755"
  },
  {
    "city": "wilson",
    "zip_code": "70789"
  },
  {
    "city": "bethany",
    "zip_code": "71007"
  },
  {
    "city": "sibley",
    "zip_code": "71073"
  },
  {
    "city": "springhill",
    "zip_code": "71075"
  },
  {
    "city": "collinston",
    "zip_code": "71229"
  },
  {
    "city": "fort polk",
    "zip_code": "71459"
  },
  {
    "city": "stephens",
    "zip_code": "71764"
  },
  {
    "city": "strong",
    "zip_code": "71765"
  },
  {
    "city": "foreman",
    "zip_code": "71836"
  },
  {
    "city": "fouke",
    "zip_code": "71837"
  },
  {
    "city": "bonnerdale",
    "zip_code": "71933"
  },
  {
    "city": "caddo gap",
    "zip_code": "71935"
  },
  {
    "city": "adona",
    "zip_code": "72001"
  },
  {
    "city": "altheimer",
    "zip_code": "72004"
  },
  {
    "city": "el paso",
    "zip_code": "72045"
  },
  {
    "city": "higden",
    "zip_code": "72067"
  },
  {
    "city": "romance",
    "zip_code": "72136"
  },
  {
    "city": "wooster",
    "zip_code": "72181"
  },
  {
    "city": "luxora",
    "zip_code": "72358"
  },
  {
    "city": "ravenden springs",
    "zip_code": "72460"
  },
  {
    "city": "dolph",
    "zip_code": "72528"
  },
  {
    "city": "newark",
    "zip_code": "72562"
  },
  {
    "city": "flippin",
    "zip_code": "72634"
  },
  {
    "city": "harriet",
    "zip_code": "72639"
  },
  {
    "city": "marshall",
    "zip_code": "72650"
  },
  {
    "city": "fayetteville",
    "zip_code": "72704"
  },
  {
    "city": "decatur",
    "zip_code": "72722"
  },
  {
    "city": "coal hill",
    "zip_code": "72832"
  },
  {
    "city": "fort smith",
    "zip_code": "72901"
  },
  {
    "city": "cedarville",
    "zip_code": "72932"
  },
  {
    "city": "parks",
    "zip_code": "72950"
  },
  {
    "city": "lexington",
    "zip_code": "73051"
  },
  {
    "city": "nicoma park",
    "zip_code": "73066"
  },
  {
    "city": "springer",
    "zip_code": "73458"
  },
  {
    "city": "lawton",
    "zip_code": "73501"
  },
  {
    "city": "cache",
    "zip_code": "73527"
  },
  {
    "city": "custer city",
    "zip_code": "73639"
  },
  {
    "city": "aline",
    "zip_code": "73716"
  },
  {
    "city": "covington",
    "zip_code": "73730"
  },
  {
    "city": "dacoma",
    "zip_code": "73731"
  },
  {
    "city": "omega",
    "zip_code": "73764"
  },
  {
    "city": "gate",
    "zip_code": "73844"
  },
  {
    "city": "texhoma",
    "zip_code": "73949"
  },
  {
    "city": "ramona",
    "zip_code": "74061"
  },
  {
    "city": "tulsa",
    "zip_code": "74127"
  },
  {
    "city": "colcord",
    "zip_code": "74338"
  },
  {
    "city": "welch",
    "zip_code": "74369"
  },
  {
    "city": "dewar",
    "zip_code": "74431"
  },
  {
    "city": "tahlequah",
    "zip_code": "74464"
  },
  {
    "city": "wainwright",
    "zip_code": "74468"
  },
  {
    "city": "calvin",
    "zip_code": "74531"
  },
  {
    "city": "finley",
    "zip_code": "74543"
  },
  {
    "city": "talihina",
    "zip_code": "74571"
  },
  {
    "city": "shidler",
    "zip_code": "74652"
  },
  {
    "city": "tonkawa",
    "zip_code": "74653"
  },
  {
    "city": "broken bow",
    "zip_code": "74728"
  },
  {
    "city": "macomb",
    "zip_code": "74852"
  },
  {
    "city": "gans",
    "zip_code": "74936"
  },
  {
    "city": "plano",
    "zip_code": "75074"
  },
  {
    "city": "sherman",
    "zip_code": "75092"
  },
  {
    "city": "cedar hill",
    "zip_code": "75104"
  },
  {
    "city": "mesquite",
    "zip_code": "75150"
  },
  {
    "city": "dallas",
    "zip_code": "75201"
  },
  {
    "city": "dallas",
    "zip_code": "75206"
  },
  {
    "city": "dallas",
    "zip_code": "75215"
  },
  {
    "city": "bogata",
    "zip_code": "75417"
  },
  {
    "city": "windom",
    "zip_code": "75492"
  },
  {
    "city": "cookville",
    "zip_code": "75558"
  },
  {
    "city": "douglassville",
    "zip_code": "75560"
  },
  {
    "city": "marietta",
    "zip_code": "75566"
  },
  {
    "city": "nash",
    "zip_code": "75569"
  },
  {
    "city": "avinger",
    "zip_code": "75630"
  },
  {
    "city": "gladewater",
    "zip_code": "75647"
  },
  {
    "city": "hughes springs",
    "zip_code": "75656"
  },
  {
    "city": "tyler",
    "zip_code": "75705"
  },
  {
    "city": "arlington",
    "zip_code": "76015"
  },
  {
    "city": "granbury",
    "zip_code": "76049"
  },
  {
    "city": "keene",
    "zip_code": "76059"
  },
  {
    "city": "mineral wells",
    "zip_code": "76067"
  },
  {
    "city": "weatherford",
    "zip_code": "76085"
  },
  {
    "city": "fort worth",
    "zip_code": "76106"
  },
  {
    "city": "fort worth",
    "zip_code": "76132"
  },
  {
    "city": "fort worth",
    "zip_code": "76133"
  },
  {
    "city": "fort worth",
    "zip_code": "76135"
  },
  {
    "city": "argyle",
    "zip_code": "76226"
  },
  {
    "city": "bluff dale",
    "zip_code": "76433"
  },
  {
    "city": "frost",
    "zip_code": "76641"
  },
  {
    "city": "kopperl",
    "zip_code": "76652"
  },
  {
    "city": "penelope",
    "zip_code": "76676"
  },
  {
    "city": "zephyr",
    "zip_code": "76890"
  },
  {
    "city": "houston",
    "zip_code": "77031"
  },
  {
    "city": "houston",
    "zip_code": "77033"
  },
  {
    "city": "huntsville",
    "zip_code": "77320"
  },
  {
    "city": "thicket",
    "zip_code": "77374"
  },
  {
    "city": "eagle lake",
    "zip_code": "77434"
  },
  {
    "city": "elmaton",
    "zip_code": "77440"
  },
  {
    "city": "hull",
    "zip_code": "77564"
  },
  {
    "city": "vidor",
    "zip_code": "77662"
  },
  {
    "city": "anderson",
    "zip_code": "77830"
  },
  {
    "city": "victoria",
    "zip_code": "77904"
  },
  {
    "city": "la ward",
    "zip_code": "77970"
  },
  {
    "city": "calliham",
    "zip_code": "78007"
  },
  {
    "city": "san antonio",
    "zip_code": "78205"
  },
  {
    "city": "san antonio",
    "zip_code": "78249"
  },
  {
    "city": "agua dulce",
    "zip_code": "78330"
  },
  {
    "city": "refugio",
    "zip_code": "78377"
  },
  {
    "city": "corpus christi",
    "zip_code": "78411"
  },
  {
    "city": "la joya",
    "zip_code": "78560"
  },
  {
    "city": "lasara",
    "zip_code": "78561"
  },
  {
    "city": "los indios",
    "zip_code": "78567"
  },
  {
    "city": "manor",
    "zip_code": "78653"
  },
  {
    "city": "prairie lea",
    "zip_code": "78661"
  },
  {
    "city": "industry",
    "zip_code": "78944"
  },
  {
    "city": "muldoon",
    "zip_code": "78949"
  },
  {
    "city": "canyon",
    "zip_code": "79015"
  },
  {
    "city": "hart",
    "zip_code": "79043"
  },
  {
    "city": "wilson",
    "zip_code": "79381"
  },
  {
    "city": "lawn",
    "zip_code": "79530"
  },
  {
    "city": "novice",
    "zip_code": "79538"
  },
  {
    "city": "balmorhea",
    "zip_code": "79718"
  },
  {
    "city": "kermit",
    "zip_code": "79745"
  },
  {
    "city": "denver",
    "zip_code": "80205"
  },
  {
    "city": "denver",
    "zip_code": "80207"
  },
  {
    "city": "denver",
    "zip_code": "80247"
  },
  {
    "city": "denver",
    "zip_code": "80294"
  },
  {
    "city": "dumont",
    "zip_code": "80436"
  },
  {
    "city": "estes park",
    "zip_code": "80517"
  },
  {
    "city": "fort collins",
    "zip_code": "80526"
  },
  {
    "city": "loveland",
    "zip_code": "80537"
  },
  {
    "city": "colorado springs",
    "zip_code": "80906"
  },
  {
    "city": "colorado springs",
    "zip_code": "80926"
  },
  {
    "city": "vilas",
    "zip_code": "81087"
  },
  {
    "city": "pagosa springs",
    "zip_code": "81147"
  },
  {
    "city": "gunnison",
    "zip_code": "81231"
  },
  {
    "city": "grand junction",
    "zip_code": "81506"
  },
  {
    "city": "clifton",
    "zip_code": "81520"
  },
  {
    "city": "mack",
    "zip_code": "81525"
  },
  {
    "city": "snowmass village",
    "zip_code": "81615"
  },
  {
    "city": "woody creek",
    "zip_code": "81656"
  },
  {
    "city": "lander",
    "zip_code": "82520"
  },
  {
    "city": "casper",
    "zip_code": "82609"
  },
  {
    "city": "shoshoni",
    "zip_code": "82649"
  },
  {
    "city": "ranchester",
    "zip_code": "82839"
  },
  {
    "city": "smoot",
    "zip_code": "83126"
  },
  {
    "city": "aberdeen",
    "zip_code": "83210"
  },
  {
    "city": "arco",
    "zip_code": "83213"
  },
  {
    "city": "challis",
    "zip_code": "83226"
  },
  {
    "city": "shelley",
    "zip_code": "83274"
  },
  {
    "city": "swanlake",
    "zip_code": "83281"
  },
  {
    "city": "bellevue",
    "zip_code": "83313"
  },
  {
    "city": "kimberly",
    "zip_code": "83341"
  },
  {
    "city": "ririe",
    "zip_code": "83443"
  },
  {
    "city": "sugar city",
    "zip_code": "83448"
  },
  {
    "city": "orofino",
    "zip_code": "83544"
  },
  {
    "city": "cambridge",
    "zip_code": "83610"
  },
  {
    "city": "boise",
    "zip_code": "83704"
  },
  {
    "city": "rathdrum",
    "zip_code": "83858"
  },
  {
    "city": "bountiful",
    "zip_code": "84010"
  },
  {
    "city": "lindon",
    "zip_code": "84042"
  },
  {
    "city": "randlett",
    "zip_code": "84063"
  },
  {
    "city": "lewiston",
    "zip_code": "84320"
  },
  {
    "city": "willard",
    "zip_code": "84340"
  },
  {
    "city": "price",
    "zip_code": "84501"
  },
  {
    "city": "huntington",
    "zip_code": "84528"
  },
  {
    "city": "provo",
    "zip_code": "84601"
  },
  {
    "city": "ephraim",
    "zip_code": "84627"
  },
  {
    "city": "boulder",
    "zip_code": "84716"
  },
  {
    "city": "summit",
    "zip_code": "84772"
  },
  {
    "city": "sacaton",
    "zip_code": "85147"
  },
  {
    "city": "winkelman",
    "zip_code": "85192"
  },
  {
    "city": "chandler",
    "zip_code": "85248"
  },
  {
    "city": "scottsdale",
    "zip_code": "85255"
  },
  {
    "city": "gilbert",
    "zip_code": "85296"
  },
  {
    "city": "gilbert",
    "zip_code": "85297"
  },
  {
    "city": "aguila",
    "zip_code": "85320"
  },
  {
    "city": "poston",
    "zip_code": "85371"
  },
  {
    "city": "sun city west",
    "zip_code": "85375"
  },
  {
    "city": "miami",
    "zip_code": "85539"
  },
  {
    "city": "tucson",
    "zip_code": "85739"
  },
  {
    "city": "munds park",
    "zip_code": "86017"
  },
  {
    "city": "holbrook",
    "zip_code": "86025"
  },
  {
    "city": "shonto",
    "zip_code": "86054"
  },
  {
    "city": "albuquerque",
    "zip_code": "87104"
  },
  {
    "city": "albuquerque",
    "zip_code": "87122"
  },
  {
    "city": "ramah",
    "zip_code": "87321"
  },
  {
    "city": "blanco",
    "zip_code": "87412"
  },
  {
    "city": "glorieta",
    "zip_code": "87535"
  },
  {
    "city": "velarde",
    "zip_code": "87582"
  },
  {
    "city": "anton chico",
    "zip_code": "87711"
  },
  {
    "city": "sapello",
    "zip_code": "87745"
  },
  {
    "city": "san antonio",
    "zip_code": "87832"
  },
  {
    "city": "yeso",
    "zip_code": "88136"
  },
  {
    "city": "gladstone",
    "zip_code": "88422"
  },
  {
    "city": "grenville",
    "zip_code": "88424"
  },
  {
    "city": "boulder city",
    "zip_code": "89005"
  },
  {
    "city": "las vegas",
    "zip_code": "89113"
  },
  {
    "city": "las vegas",
    "zip_code": "89139"
  },
  {
    "city": "las vegas",
    "zip_code": "89144"
  },
  {
    "city": "las vegas",
    "zip_code": "89148"
  },
  {
    "city": "las vegas",
    "zip_code": "89179"
  },
  {
    "city": "fernley",
    "zip_code": "89408"
  },
  {
    "city": "paradise valley",
    "zip_code": "89426"
  },
  {
    "city": "reno",
    "zip_code": "89512"
  },
  {
    "city": "los angeles",
    "zip_code": "90039"
  },
  {
    "city": "los angeles",
    "zip_code": "90058"
  },
  {
    "city": "long beach",
    "zip_code": "90806"
  },
  {
    "city": "la canada flintridge",
    "zip_code": "91011"
  },
  {
    "city": "pasadena",
    "zip_code": "91103"
  },
  {
    "city": "thousand oaks",
    "zip_code": "91360"
  },
  {
    "city": "studio city",
    "zip_code": "91604"
  },
  {
    "city": "ramona",
    "zip_code": "92065"
  },
  {
    "city": "santee",
    "zip_code": "92071"
  },
  {
    "city": "heber",
    "zip_code": "92249"
  },
  {
    "city": "fontana",
    "zip_code": "92337"
  },
  {
    "city": "victorville",
    "zip_code": "92395"
  },
  {
    "city": "san bernardino",
    "zip_code": "92411"
  },
  {
    "city": "anza",
    "zip_code": "92539"
  },
  {
    "city": "san jacinto",
    "zip_code": "92583"
  },
  {
    "city": "laguna niguel",
    "zip_code": "92677"
  },
  {
    "city": "trabuco canyon",
    "zip_code": "92679"
  },
  {
    "city": "santa ana",
    "zip_code": "92704"
  },
  {
    "city": "anaheim",
    "zip_code": "92807"
  },
  {
    "city": "garden grove",
    "zip_code": "92843"
  },
  {
    "city": "orange",
    "zip_code": "92865"
  },
  {
    "city": "santa paula",
    "zip_code": "93060"
  },
  {
    "city": "brandeis",
    "zip_code": "93064"
  },
  {
    "city": "santa barbara",
    "zip_code": "93109"
  },
  {
    "city": "lemon cove",
    "zip_code": "93244"
  },
  {
    "city": "mckittrick",
    "zip_code": "93251"
  },
  {
    "city": "buellton",
    "zip_code": "93427"
  },
  {
    "city": "cambria",
    "zip_code": "93428"
  },
  {
    "city": "san ardo",
    "zip_code": "93450"
  },
  {
    "city": "mammoth lakes",
    "zip_code": "93546"
  },
  {
    "city": "palmdale",
    "zip_code": "93551"
  },
  {
    "city": "trona",
    "zip_code": "93592"
  },
  {
    "city": "five points",
    "zip_code": "93624"
  },
  {
    "city": "friant",
    "zip_code": "93626"
  },
  {
    "city": "madera",
    "zip_code": "93636"
  },
  {
    "city": "o'neals",
    "zip_code": "93645"
  },
  {
    "city": "sultana",
    "zip_code": "93666"
  },
  {
    "city": "fresno",
    "zip_code": "93701"
  },
  {
    "city": "marina",
    "zip_code": "93933"
  },
  {
    "city": "daly city",
    "zip_code": "94014"
  },
  {
    "city": "san francisco",
    "zip_code": "94114"
  },
  {
    "city": "fremont",
    "zip_code": "94538"
  },
  {
    "city": "oakland",
    "zip_code": "94609"
  },
  {
    "city": "san jose",
    "zip_code": "95111"
  },
  {
    "city": "san jose",
    "zip_code": "95116"
  },
  {
    "city": "hornitos",
    "zip_code": "95325"
  },
  {
    "city": "jamestown",
    "zip_code": "95327"
  },
  {
    "city": "livingston",
    "zip_code": "95334"
  },
  {
    "city": "manteca",
    "zip_code": "95336"
  },
  {
    "city": "midpines",
    "zip_code": "95345"
  },
  {
    "city": "rio nido",
    "zip_code": "95471"
  },
  {
    "city": "upper lake",
    "zip_code": "95485"
  },
  {
    "city": "myers flat",
    "zip_code": "95554"
  },
  {
    "city": "davis",
    "zip_code": "95618"
  },
  {
    "city": "elmira",
    "zip_code": "95625"
  },
  {
    "city": "pioneer",
    "zip_code": "95666"
  },
  {
    "city": "roseville",
    "zip_code": "95678"
  },
  {
    "city": "downieville",
    "zip_code": "95936"
  },
  {
    "city": "chico",
    "zip_code": "95973"
  },
  {
    "city": "chester",
    "zip_code": "96020"
  },
  {
    "city": "lewiston",
    "zip_code": "96052"
  },
  {
    "city": "kealia",
    "zip_code": "96751"
  },
  {
    "city": "lihue",
    "zip_code": "96766"
  },
  {
    "city": "honolulu",
    "zip_code": "96816"
  },
  {
    "city": "jbphh",
    "zip_code": "96860"
  },
  {
    "city": "hagatna",
    "zip_code": "96910"
  },
  {
    "city": "carlton",
    "zip_code": "97111"
  },
  {
    "city": "saint paul",
    "zip_code": "97137"
  },
  {
    "city": "portland",
    "zip_code": "97216"
  },
  {
    "city": "corvallis",
    "zip_code": "97331"
  },
  {
    "city": "otis",
    "zip_code": "97368"
  },
  {
    "city": "otter rock",
    "zip_code": "97369"
  },
  {
    "city": "broadbent",
    "zip_code": "97414"
  },
  {
    "city": "brookings",
    "zip_code": "97415"
  },
  {
    "city": "idleyld park",
    "zip_code": "97447"
  },
  {
    "city": "winston",
    "zip_code": "97496"
  },
  {
    "city": "ashland",
    "zip_code": "97520"
  },
  {
    "city": "bend",
    "zip_code": "97702"
  },
  {
    "city": "gilchrist",
    "zip_code": "97737"
  },
  {
    "city": "arlington",
    "zip_code": "97812"
  },
  {
    "city": "auburn",
    "zip_code": "98001"
  },
  {
    "city": "seattle",
    "zip_code": "98166"
  },
  {
    "city": "burlington",
    "zip_code": "98233"
  },
  {
    "city": "mukilteo",
    "zip_code": "98275"
  },
  {
    "city": "point roberts",
    "zip_code": "98281"
  },
  {
    "city": "camano island",
    "zip_code": "98282"
  },
  {
    "city": "fife",
    "zip_code": "98424"
  },
  {
    "city": "ocean shores",
    "zip_code": "98569"
  },
  {
    "city": "salkum",
    "zip_code": "98582"
  },
  {
    "city": "camas",
    "zip_code": "98607"
  },
  {
    "city": "cougar",
    "zip_code": "98616"
  },
  {
    "city": "oysterville",
    "zip_code": "98641"
  },
  {
    "city": "underwood",
    "zip_code": "98651"
  },
  {
    "city": "selah",
    "zip_code": "98942"
  },
  {
    "city": "greenacres",
    "zip_code": "99016"
  },
  {
    "city": "newman lake",
    "zip_code": "99025"
  },
  {
    "city": "hunters",
    "zip_code": "99137"
  },
  {
    "city": "uniontown",
    "zip_code": "99179"
  },
  {
    "city": "spokane",
    "zip_code": "99218"
  },
  {
    "city": "akiachak",
    "zip_code": "99551"
  },
  {
    "city": "homer",
    "zip_code": "99603"
  },
  {
    "city": "king cove",
    "zip_code": "99612"
  },
  {
    "city": "togiak",
    "zip_code": "99678"
  },
  {
    "city": "anchorage",
    "zip_code": "99695"
  },
  {
    "city": "barrow",
    "zip_code": "99723"
  },
  {
    "city": "kotzebue",
    "zip_code": "99752"
  },
  {
    "city": "barceloneta",
    "zip_code": "617"
  },
  {
    "city": "aguirre",
    "zip_code": "704"
  },
  {
    "city": "ceiba",
    "zip_code": "735"
  },
  {
    "city": "las piedras",
    "zip_code": "771"
  },
  {
    "city": "corozal",
    "zip_code": "783"
  },
  {
    "city": "warren",
    "zip_code": "1083"
  },
  {
    "city": "worthington",
    "zip_code": "1098"
  },
  {
    "city": "longmeadow",
    "zip_code": "1106"
  },
  {
    "city": "springfield",
    "zip_code": "1108"
  },
  {
    "city": "rowe",
    "zip_code": "1367"
  },
  {
    "city": "harvard",
    "zip_code": "1451"
  },
  {
    "city": "littleton",
    "zip_code": "1460"
  },
  {
    "city": "blackstone",
    "zip_code": "1504"
  },
  {
    "city": "north grafton",
    "zip_code": "1536"
  },
  {
    "city": "rutland",
    "zip_code": "1543"
  },
  {
    "city": "west boylston",
    "zip_code": "1583"
  },
  {
    "city": "worcester",
    "zip_code": "1604"
  },
  {
    "city": "hopedale",
    "zip_code": "1747"
  },
  {
    "city": "southborough",
    "zip_code": "1772"
  },
  {
    "city": "lowell",
    "zip_code": "1854"
  },
  {
    "city": "hathorne",
    "zip_code": "1937"
  },
  {
    "city": "lynnfield",
    "zip_code": "1940"
  },
  {
    "city": "franklin",
    "zip_code": "2038"
  },
  {
    "city": "cambridge",
    "zip_code": "2138"
  },
  {
    "city": "south chatham",
    "zip_code": "2659"
  },
  {
    "city": "west chatham",
    "zip_code": "2669"
  },
  {
    "city": "attleboro",
    "zip_code": "2703"
  },
  {
    "city": "cuttyhunk",
    "zip_code": "2713"
  },
  {
    "city": "dighton",
    "zip_code": "2715"
  },
  {
    "city": "westport",
    "zip_code": "2790"
  },
  {
    "city": "greene",
    "zip_code": "2827"
  },
  {
    "city": "prudence island",
    "zip_code": "2872"
  },
  {
    "city": "tiverton",
    "zip_code": "2878"
  },
  {
    "city": "rumford",
    "zip_code": "2916"
  },
  {
    "city": "epping",
    "zip_code": "3042"
  },
  {
    "city": "concord",
    "zip_code": "3303"
  },
  {
    "city": "bennington",
    "zip_code": "3442"
  },
  {
    "city": "jefferson",
    "zip_code": "3583"
  },
  {
    "city": "haverhill",
    "zip_code": "3765"
  },
  {
    "city": "rye beach",
    "zip_code": "3871"
  },
  {
    "city": "sandown",
    "zip_code": "3873"
  },
  {
    "city": "brunswick",
    "zip_code": "4011"
  },
  {
    "city": "east waterboro",
    "zip_code": "4030"
  },
  {
    "city": "naples",
    "zip_code": "4055"
  },
  {
    "city": "durham",
    "zip_code": "4222"
  },
  {
    "city": "livermore",
    "zip_code": "4253"
  },
  {
    "city": "rumford",
    "zip_code": "4276"
  },
  {
    "city": "brownville",
    "zip_code": "4414"
  },
  {
    "city": "burlington",
    "zip_code": "4417"
  },
  {
    "city": "lambert lake",
    "zip_code": "4454"
  },
  {
    "city": "east boothbay",
    "zip_code": "4544"
  },
  {
    "city": "round pond",
    "zip_code": "4564"
  },
  {
    "city": "hulls cove",
    "zip_code": "4644"
  },
  {
    "city": "islesford",
    "zip_code": "4646"
  },
  {
    "city": "mount desert",
    "zip_code": "4660"
  },
  {
    "city": "mapleton",
    "zip_code": "4757"
  },
  {
    "city": "stacyville",
    "zip_code": "4777"
  },
  {
    "city": "westfield",
    "zip_code": "4787"
  },
  {
    "city": "strong",
    "zip_code": "4983"
  },
  {
    "city": "west wardsboro",
    "zip_code": "5360"
  },
  {
    "city": "ferrisburgh",
    "zip_code": "5456"
  },
  {
    "city": "isle la motte",
    "zip_code": "5463"
  },
  {
    "city": "bridport",
    "zip_code": "5734"
  },
  {
    "city": "castleton",
    "zip_code": "5735"
  },
  {
    "city": "cuttingsville",
    "zip_code": "5738"
  },
  {
    "city": "florence",
    "zip_code": "5744"
  },
  {
    "city": "east hartland",
    "zip_code": "6027"
  },
  {
    "city": "pine meadow",
    "zip_code": "6061"
  },
  {
    "city": "north grosvenordale",
    "zip_code": "6255"
  },
  {
    "city": "quinebaug",
    "zip_code": "6262"
  },
  {
    "city": "canterbury",
    "zip_code": "6331"
  },
  {
    "city": "middletown",
    "zip_code": "6457"
  },
  {
    "city": "wallingford",
    "zip_code": "6492"
  },
  {
    "city": "new haven",
    "zip_code": "6515"
  },
  {
    "city": "hamden",
    "zip_code": "6518"
  },
  {
    "city": "bridgeport",
    "zip_code": "6604"
  },
  {
    "city": "gaylordsville",
    "zip_code": "6755"
  },
  {
    "city": "lakeside",
    "zip_code": "6758"
  },
  {
    "city": "litchfield",
    "zip_code": "6759"
  },
  {
    "city": "plymouth",
    "zip_code": "6782"
  },
  {
    "city": "old greenwich",
    "zip_code": "6870"
  },
  {
    "city": "redding",
    "zip_code": "6896"
  },
  {
    "city": "clifton",
    "zip_code": "7014"
  },
  {
    "city": "harrison",
    "zip_code": "7029"
  },
  {
    "city": "haskell",
    "zip_code": "7420"
  },
  {
    "city": "wanaque",
    "zip_code": "7465"
  },
  {
    "city": "farmingdale",
    "zip_code": "7727"
  },
  {
    "city": "montague",
    "zip_code": "7827"
  },
  {
    "city": "pedricktown",
    "zip_code": "8067"
  },
  {
    "city": "williamstown",
    "zip_code": "8094"
  },
  {
    "city": "new gretna",
    "zip_code": "8224"
  },
  {
    "city": "franklinville",
    "zip_code": "8322"
  },
  {
    "city": "pennington",
    "zip_code": "8534"
  },
  {
    "city": "new york",
    "zip_code": "10002"
  },
  {
    "city": "new york",
    "zip_code": "10018"
  },
  {
    "city": "new york",
    "zip_code": "10028"
  },
  {
    "city": "staten island",
    "zip_code": "10303"
  },
  {
    "city": "croton on hudson",
    "zip_code": "10520"
  },
  {
    "city": "mount vernon",
    "zip_code": "10553"
  },
  {
    "city": "pound ridge",
    "zip_code": "10576"
  },
  {
    "city": "slate hill",
    "zip_code": "10973"
  },
  {
    "city": "inwood",
    "zip_code": "11096"
  },
  {
    "city": "brooklyn",
    "zip_code": "11215"
  },
  {
    "city": "brooklyn",
    "zip_code": "11228"
  },
  {
    "city": "rego park",
    "zip_code": "11374"
  },
  {
    "city": "rosedale",
    "zip_code": "11422"
  },
  {
    "city": "jamaica",
    "zip_code": "11436"
  },
  {
    "city": "hempstead",
    "zip_code": "11550"
  },
  {
    "city": "lawrence",
    "zip_code": "11559"
  },
  {
    "city": "lindenhurst",
    "zip_code": "11757"
  },
  {
    "city": "sound beach",
    "zip_code": "11789"
  },
  {
    "city": "athens",
    "zip_code": "12015"
  },
  {
    "city": "berlin",
    "zip_code": "12022"
  },
  {
    "city": "caroga lake",
    "zip_code": "12032"
  },
  {
    "city": "guilderland center",
    "zip_code": "12085"
  },
  {
    "city": "johnsonville",
    "zip_code": "12094"
  },
  {
    "city": "stillwater",
    "zip_code": "12170"
  },
  {
    "city": "cairo",
    "zip_code": "12413"
  },
  {
    "city": "cragsmoor",
    "zip_code": "12420"
  },
  {
    "city": "east jewett",
    "zip_code": "12424"
  },
  {
    "city": "glasco",
    "zip_code": "12432"
  },
  {
    "city": "highland",
    "zip_code": "12528"
  },
  {
    "city": "poughkeepsie",
    "zip_code": "12604"
  },
  {
    "city": "liberty",
    "zip_code": "12754"
  },
  {
    "city": "olmstedville",
    "zip_code": "12857"
  },
  {
    "city": "wevertown",
    "zip_code": "12886"
  },
  {
    "city": "bombay",
    "zip_code": "12914"
  },
  {
    "city": "paul smiths",
    "zip_code": "12970"
  },
  {
    "city": "georgetown",
    "zip_code": "13072"
  },
  {
    "city": "jordan",
    "zip_code": "13080"
  },
  {
    "city": "mclean",
    "zip_code": "13102"
  },
  {
    "city": "marietta",
    "zip_code": "13110"
  },
  {
    "city": "oswego",
    "zip_code": "13126"
  },
  {
    "city": "syracuse",
    "zip_code": "13206"
  },
  {
    "city": "dolgeville",
    "zip_code": "13329"
  },
  {
    "city": "vernon",
    "zip_code": "13476"
  },
  {
    "city": "de peyster",
    "zip_code": "13633"
  },
  {
    "city": "gouverneur",
    "zip_code": "13642"
  },
  {
    "city": "norfolk",
    "zip_code": "13667"
  },
  {
    "city": "philadelphia",
    "zip_code": "13673"
  },
  {
    "city": "pierrepont manor",
    "zip_code": "13674"
  },
  {
    "city": "kirkwood",
    "zip_code": "13795"
  },
  {
    "city": "getzville",
    "zip_code": "14068"
  },
  {
    "city": "java center",
    "zip_code": "14082"
  },
  {
    "city": "lewiston",
    "zip_code": "14092"
  },
  {
    "city": "south dayton",
    "zip_code": "14138"
  },
  {
    "city": "buffalo",
    "zip_code": "14207"
  },
  {
    "city": "niagara falls",
    "zip_code": "14301"
  },
  {
    "city": "groveland",
    "zip_code": "14462"
  },
  {
    "city": "naples",
    "zip_code": "14512"
  },
  {
    "city": "spencerport",
    "zip_code": "14559"
  },
  {
    "city": "rochester",
    "zip_code": "14605"
  },
  {
    "city": "cuba",
    "zip_code": "14727"
  },
  {
    "city": "great valley",
    "zip_code": "14741"
  },
  {
    "city": "kill buck",
    "zip_code": "14748"
  },
  {
    "city": "almond",
    "zip_code": "14804"
  },
  {
    "city": "dundee",
    "zip_code": "14837"
  },
  {
    "city": "aliquippa",
    "zip_code": "15001"
  },
  {
    "city": "beaver",
    "zip_code": "15009"
  },
  {
    "city": "west elizabeth",
    "zip_code": "15088"
  },
  {
    "city": "allison park",
    "zip_code": "15101"
  },
  {
    "city": "mckeesport",
    "zip_code": "15132"
  },
  {
    "city": "pittsburgh",
    "zip_code": "15238"
  },
  {
    "city": "crucible",
    "zip_code": "15325"
  },
  {
    "city": "greensboro",
    "zip_code": "15338"
  },
  {
    "city": "houston",
    "zip_code": "15342"
  },
  {
    "city": "leckrone",
    "zip_code": "15454"
  },
  {
    "city": "republic",
    "zip_code": "15475"
  },
  {
    "city": "clearville",
    "zip_code": "15535"
  },
  {
    "city": "manor",
    "zip_code": "15665"
  },
  {
    "city": "westmoreland city",
    "zip_code": "15692"
  },
  {
    "city": "benezett",
    "zip_code": "15821"
  },
  {
    "city": "rockton",
    "zip_code": "15856"
  },
  {
    "city": "robinson",
    "zip_code": "15949"
  },
  {
    "city": "renfrew",
    "zip_code": "16053"
  },
  {
    "city": "jackson center",
    "zip_code": "16133"
  },
  {
    "city": "mcgrann",
    "zip_code": "16236"
  },
  {
    "city": "fryburg",
    "zip_code": "16326"
  },
  {
    "city": "spartansburg",
    "zip_code": "16434"
  },
  {
    "city": "erie",
    "zip_code": "16503"
  },
  {
    "city": "erie",
    "zip_code": "16563"
  },
  {
    "city": "grassflat",
    "zip_code": "16839"
  },
  {
    "city": "howard",
    "zip_code": "16841"
  },
  {
    "city": "olanta",
    "zip_code": "16863"
  },
  {
    "city": "elkland",
    "zip_code": "16920"
  },
  {
    "city": "lawn",
    "zip_code": "17041"
  },
  {
    "city": "bendersville",
    "zip_code": "17306"
  },
  {
    "city": "bainbridge",
    "zip_code": "17502"
  },
  {
    "city": "beavertown",
    "zip_code": "17813"
  },
  {
    "city": "lost creek",
    "zip_code": "17946"
  },
  {
    "city": "coopersburg",
    "zip_code": "18036"
  },
  {
    "city": "new tripoli",
    "zip_code": "18066"
  },
  {
    "city": "lansford",
    "zip_code": "18232"
  },
  {
    "city": "reeders",
    "zip_code": "18352"
  },
  {
    "city": "thompson",
    "zip_code": "18465"
  },
  {
    "city": "scranton",
    "zip_code": "18508"
  },
  {
    "city": "wyoming",
    "zip_code": "18644"
  },
  {
    "city": "plymouth",
    "zip_code": "18651"
  },
  {
    "city": "tunkhannock",
    "zip_code": "18657"
  },
  {
    "city": "wilkes barre",
    "zip_code": "18702"
  },
  {
    "city": "luzerne",
    "zip_code": "18709"
  },
  {
    "city": "philadelphia",
    "zip_code": "19102"
  },
  {
    "city": "philadelphia",
    "zip_code": "19103"
  },
  {
    "city": "philadelphia",
    "zip_code": "19114"
  },
  {
    "city": "philadelphia",
    "zip_code": "19133"
  },
  {
    "city": "norristown",
    "zip_code": "19403"
  },
  {
    "city": "parker ford",
    "zip_code": "19457"
  },
  {
    "city": "virginville",
    "zip_code": "19564"
  },
  {
    "city": "wilmington",
    "zip_code": "19804"
  },
  {
    "city": "wilmington",
    "zip_code": "19809"
  },
  {
    "city": "manassas",
    "zip_code": "20109"
  },
  {
    "city": "centreville",
    "zip_code": "20120"
  },
  {
    "city": "cheltenham",
    "zip_code": "20623"
  },
  {
    "city": "drayden",
    "zip_code": "20630"
  },
  {
    "city": "valley lee",
    "zip_code": "20692"
  },
  {
    "city": "white plains",
    "zip_code": "20695"
  },
  {
    "city": "laurel",
    "zip_code": "20707"
  },
  {
    "city": "bowie",
    "zip_code": "20716"
  },
  {
    "city": "dunkirk",
    "zip_code": "20754"
  },
  {
    "city": "highland",
    "zip_code": "20777"
  },
  {
    "city": "damascus",
    "zip_code": "20872"
  },
  {
    "city": "silver spring",
    "zip_code": "20901"
  },
  {
    "city": "abingdon",
    "zip_code": "21009"
  },
  {
    "city": "arnold",
    "zip_code": "21012"
  },
  {
    "city": "davidsonville",
    "zip_code": "21035"
  },
  {
    "city": "manchester",
    "zip_code": "21102"
  },
  {
    "city": "perryman",
    "zip_code": "21130"
  },
  {
    "city": "randallstown",
    "zip_code": "21133"
  },
  {
    "city": "halethorpe",
    "zip_code": "21227"
  },
  {
    "city": "nottingham",
    "zip_code": "21236"
  },
  {
    "city": "secretary",
    "zip_code": "21664"
  },
  {
    "city": "frederick",
    "zip_code": "21703"
  },
  {
    "city": "tyaskin",
    "zip_code": "21865"
  },
  {
    "city": "occoquan",
    "zip_code": "22125"
  },
  {
    "city": "alexandria",
    "zip_code": "22303"
  },
  {
    "city": "callao",
    "zip_code": "22435"
  },
  {
    "city": "heathsville",
    "zip_code": "22473"
  },
  {
    "city": "wicomico church",
    "zip_code": "22579"
  },
  {
    "city": "winchester",
    "zip_code": "22602"
  },
  {
    "city": "remington",
    "zip_code": "22734"
  },
  {
    "city": "afton",
    "zip_code": "22920"
  },
  {
    "city": "crozier",
    "zip_code": "23039"
  },
  {
    "city": "mechanicsville",
    "zip_code": "23116"
  },
  {
    "city": "susan",
    "zip_code": "23163"
  },
  {
    "city": "henrico",
    "zip_code": "23231"
  },
  {
    "city": "marionville",
    "zip_code": "23408"
  },
  {
    "city": "mears",
    "zip_code": "23409"
  },
  {
    "city": "suffolk",
    "zip_code": "23438"
  },
  {
    "city": "norfolk",
    "zip_code": "23513"
  },
  {
    "city": "roanoke",
    "zip_code": "24012"
  },
  {
    "city": "axton",
    "zip_code": "24054"
  },
  {
    "city": "blacksburg",
    "zip_code": "24060"
  },
  {
    "city": "eggleston",
    "zip_code": "24086"
  },
  {
    "city": "martinsville",
    "zip_code": "24112"
  }
]