[
  {
    "city": "saint paul",
    "zip_code": "55108"
  },
  {
    "city": "saint paul",
    "zip_code": "55109"
  },
  {
    "city": "champlin",
    "zip_code": "55316"
  },
  {
    "city": "cologne",
    "zip_code": "55322"
  },
  {
    "city": "hamburg",
    "zip_code": "55339"
  },
  {
    "city": "eden prairie",
    "zip_code": "55346"
  },
  {
    "city": "monticello",
    "zip_code": "55362"
  },
  {
    "city": "saint michael",
    "zip_code": "55376"
  },
  {
    "city": "waverly",
    "zip_code": "55390"
  },
  {
    "city": "young america",
    "zip_code": "55397"
  },
  {
    "city": "minneapolis",
    "zip_code": "55406"
  },
  {
    "city": "minneapolis",
    "zip_code": "55427"
  },
  {
    "city": "minneapolis",
    "zip_code": "55450"
  },
  {
    "city": "biwabik",
    "zip_code": "55708"
  },
  {
    "city": "hill city",
    "zip_code": "55748"
  },
  {
    "city": "soudan",
    "zip_code": "55782"
  },
  {
    "city": "tower",
    "zip_code": "55790"
  },
  {
    "city": "zumbrota",
    "zip_code": "55992"
  },
  {
    "city": "mankato",
    "zip_code": "56001"
  },
  {
    "city": "fairmont",
    "zip_code": "56031"
  },
  {
    "city": "freeborn",
    "zip_code": "56032"
  },
  {
    "city": "pemberton",
    "zip_code": "56078"
  },
  {
    "city": "springfield",
    "zip_code": "56087"
  },
  {
    "city": "adrian",
    "zip_code": "56110"
  },
  {
    "city": "brewster",
    "zip_code": "56119"
  },
  {
    "city": "bellingham",
    "zip_code": "56212"
  },
  {
    "city": "morgan",
    "zip_code": "56266"
  },
  {
    "city": "nelson",
    "zip_code": "56355"
  },
  {
    "city": "pierz",
    "zip_code": "56364"
  },
  {
    "city": "saint stephen",
    "zip_code": "56375"
  },
  {
    "city": "crosby",
    "zip_code": "56441"
  },
  {
    "city": "detroit lakes",
    "zip_code": "56501"
  },
  {
    "city": "frazee",
    "zip_code": "56544"
  },
  {
    "city": "gary",
    "zip_code": "56545"
  },
  {
    "city": "moorhead",
    "zip_code": "56560"
  },
  {
    "city": "winger",
    "zip_code": "56592"
  },
  {
    "city": "baudette",
    "zip_code": "56623"
  },
  {
    "city": "grygla",
    "zip_code": "56727"
  },
  {
    "city": "renner",
    "zip_code": "57055"
  },
  {
    "city": "worthing",
    "zip_code": "57077"
  },
  {
    "city": "gary",
    "zip_code": "57237"
  },
  {
    "city": "stockholm",
    "zip_code": "57264"
  },
  {
    "city": "white",
    "zip_code": "57276"
  },
  {
    "city": "harrison",
    "zip_code": "57344"
  },
  {
    "city": "iroquois",
    "zip_code": "57353"
  },
  {
    "city": "eureka",
    "zip_code": "57437"
  },
  {
    "city": "langford",
    "zip_code": "57454"
  },
  {
    "city": "tulare",
    "zip_code": "57476"
  },
  {
    "city": "fort smith",
    "zip_code": "59035"
  },
  {
    "city": "belt",
    "zip_code": "59412"
  },
  {
    "city": "big sandy",
    "zip_code": "59520"
  },
  {
    "city": "whitlash",
    "zip_code": "59545"
  },
  {
    "city": "missoula",
    "zip_code": "59808"
  },
  {
    "city": "glenview",
    "zip_code": "60025"
  },
  {
    "city": "wadsworth",
    "zip_code": "60083"
  },
  {
    "city": "wonder lake",
    "zip_code": "60097"
  },
  {
    "city": "zion",
    "zip_code": "60099"
  },
  {
    "city": "bensenville",
    "zip_code": "60106"
  },
  {
    "city": "schaumburg",
    "zip_code": "60194"
  },
  {
    "city": "evanston",
    "zip_code": "60201"
  },
  {
    "city": "joliet",
    "zip_code": "60433"
  },
  {
    "city": "matteson",
    "zip_code": "60443"
  },
  {
    "city": "burbank",
    "zip_code": "60459"
  },
  {
    "city": "peotone",
    "zip_code": "60468"
  },
  {
    "city": "western springs",
    "zip_code": "60558"
  },
  {
    "city": "chicago",
    "zip_code": "60602"
  },
  {
    "city": "chicago",
    "zip_code": "60608"
  },
  {
    "city": "chicago",
    "zip_code": "60628"
  },
  {
    "city": "chicago",
    "zip_code": "60656"
  },
  {
    "city": "cabery",
    "zip_code": "60919"
  },
  {
    "city": "iroquois",
    "zip_code": "60945"
  },
  {
    "city": "piper city",
    "zip_code": "60959"
  },
  {
    "city": "roberts",
    "zip_code": "60962"
  },
  {
    "city": "baileyville",
    "zip_code": "61007"
  },
  {
    "city": "cherry valley",
    "zip_code": "61016"
  },
  {
    "city": "pecatonica",
    "zip_code": "61063"
  },
  {
    "city": "fiatt",
    "zip_code": "61433"
  },
  {
    "city": "north henderson",
    "zip_code": "61466"
  },
  {
    "city": "groveland",
    "zip_code": "61535"
  },
  {
    "city": "topeka",
    "zip_code": "61567"
  },
  {
    "city": "peoria",
    "zip_code": "61615"
  },
  {
    "city": "bloomington",
    "zip_code": "61705"
  },
  {
    "city": "dewitt",
    "zip_code": "61735"
  },
  {
    "city": "fairmount",
    "zip_code": "61841"
  },
  {
    "city": "homer",
    "zip_code": "61849"
  },
  {
    "city": "rantoul",
    "zip_code": "61866"
  },
  {
    "city": "hammond",
    "zip_code": "61929"
  },
  {
    "city": "humboldt",
    "zip_code": "61931"
  },
  {
    "city": "sullivan",
    "zip_code": "61951"
  },
  {
    "city": "godfrey",
    "zip_code": "62035"
  },
  {
    "city": "east saint louis",
    "zip_code": "62203"
  },
  {
    "city": "valmeyer",
    "zip_code": "62295"
  },
  {
    "city": "barry",
    "zip_code": "62312"
  },
  {
    "city": "niota",
    "zip_code": "62358"
  },
  {
    "city": "paloma",
    "zip_code": "62359"
  },
  {
    "city": "pittsfield",
    "zip_code": "62363"
  },
  {
    "city": "west point",
    "zip_code": "62380"
  },
  {
    "city": "ingraham",
    "zip_code": "62434"
  },
  {
    "city": "newton",
    "zip_code": "62448"
  },
  {
    "city": "west salem",
    "zip_code": "62476"
  },
  {
    "city": "decatur",
    "zip_code": "62523"
  },
  {
    "city": "athens",
    "zip_code": "62613"
  },
  {
    "city": "modesto",
    "zip_code": "62667"
  },
  {
    "city": "virden",
    "zip_code": "62690"
  },
  {
    "city": "bonnie",
    "zip_code": "62816"
  },
  {
    "city": "johnsonville",
    "zip_code": "62850"
  },
  {
    "city": "kell",
    "zip_code": "62853"
  },
  {
    "city": "mount carmel",
    "zip_code": "62863"
  },
  {
    "city": "muddy",
    "zip_code": "62965"
  },
  {
    "city": "gray summit",
    "zip_code": "63039"
  },
  {
    "city": "richwoods",
    "zip_code": "63071"
  },
  {
    "city": "robertsville",
    "zip_code": "63072"
  },
  {
    "city": "stanton",
    "zip_code": "63079"
  },
  {
    "city": "saint louis",
    "zip_code": "63146"
  },
  {
    "city": "portage des sioux",
    "zip_code": "63373"
  },
  {
    "city": "bethel",
    "zip_code": "63434"
  },
  {
    "city": "ewing",
    "zip_code": "63440"
  },
  {
    "city": "williamstown",
    "zip_code": "63473"
  },
  {
    "city": "memphis",
    "zip_code": "63555"
  },
  {
    "city": "cardwell",
    "zip_code": "63829"
  },
  {
    "city": "east prairie",
    "zip_code": "63845"
  },
  {
    "city": "kewanee",
    "zip_code": "63860"
  },
  {
    "city": "grandview",
    "zip_code": "64030"
  },
  {
    "city": "independence",
    "zip_code": "64055"
  },
  {
    "city": "independence",
    "zip_code": "64057"
  },
  {
    "city": "lees summit",
    "zip_code": "64065"
  },
  {
    "city": "napoleon",
    "zip_code": "64074"
  },
  {
    "city": "orrick",
    "zip_code": "64077"
  },
  {
    "city": "kansas city",
    "zip_code": "64109"
  },
  {
    "city": "kansas city",
    "zip_code": "64123"
  },
  {
    "city": "kansas city",
    "zip_code": "64133"
  },
  {
    "city": "kansas city",
    "zip_code": "64139"
  },
  {
    "city": "kansas city",
    "zip_code": "64149"
  },
  {
    "city": "kansas city",
    "zip_code": "64152"
  },
  {
    "city": "barnard",
    "zip_code": "64423"
  },
  {
    "city": "oregon",
    "zip_code": "64473"
  },
  {
    "city": "hale",
    "zip_code": "64643"
  },
  {
    "city": "ludlow",
    "zip_code": "64656"
  },
  {
    "city": "garden city",
    "zip_code": "64747"
  },
  {
    "city": "rockville",
    "zip_code": "64780"
  },
  {
    "city": "argyle",
    "zip_code": "65001"
  },
  {
    "city": "green ridge",
    "zip_code": "65332"
  },
  {
    "city": "newburg",
    "zip_code": "65550"
  },
  {
    "city": "steelville",
    "zip_code": "65565"
  },
  {
    "city": "wesco",
    "zip_code": "65586"
  },
  {
    "city": "long lane",
    "zip_code": "65590"
  },
  {
    "city": "mansfield",
    "zip_code": "65704"
  },
  {
    "city": "ozark",
    "zip_code": "65721"
  },
  {
    "city": "pontiac",
    "zip_code": "65729"
  },
  {
    "city": "thornfield",
    "zip_code": "65762"
  },
  {
    "city": "tunas",
    "zip_code": "65764"
  },
  {
    "city": "mound city",
    "zip_code": "66056"
  },
  {
    "city": "olathe",
    "zip_code": "66061"
  },
  {
    "city": "white cloud",
    "zip_code": "66094"
  },
  {
    "city": "overland park",
    "zip_code": "66204"
  },
  {
    "city": "overland park",
    "zip_code": "66221"
  },
  {
    "city": "goff",
    "zip_code": "66428"
  },
  {
    "city": "wamego",
    "zip_code": "66547"
  },
  {
    "city": "benedict",
    "zip_code": "66714"
  },
  {
    "city": "cottonwood falls",
    "zip_code": "66845"
  },
  {
    "city": "linn",
    "zip_code": "66953"
  },
  {
    "city": "narka",
    "zip_code": "66960"
  },
  {
    "city": "beaumont",
    "zip_code": "67012"
  },
  {
    "city": "cambridge",
    "zip_code": "67023"
  },
  {
    "city": "coats",
    "zip_code": "67028"
  },
  {
    "city": "coldwater",
    "zip_code": "67029"
  },
  {
    "city": "piedmont",
    "zip_code": "67122"
  },
  {
    "city": "potwin",
    "zip_code": "67123"
  },
  {
    "city": "valley center",
    "zip_code": "67147"
  },
  {
    "city": "whitewater",
    "zip_code": "67154"
  },
  {
    "city": "winfield",
    "zip_code": "67156"
  },
  {
    "city": "wichita",
    "zip_code": "67205"
  },
  {
    "city": "wichita",
    "zip_code": "67228"
  },
  {
    "city": "sedan",
    "zip_code": "67361"
  },
  {
    "city": "miltonvale",
    "zip_code": "67466"
  },
  {
    "city": "morganville",
    "zip_code": "67468"
  },
  {
    "city": "st john",
    "zip_code": "67576"
  },
  {
    "city": "luray",
    "zip_code": "67649"
  },
  {
    "city": "pfeifer",
    "zip_code": "67660"
  },
  {
    "city": "hoxie",
    "zip_code": "67740"
  },
  {
    "city": "herman",
    "zip_code": "68029"
  },
  {
    "city": "omaha",
    "zip_code": "68130"
  },
  {
    "city": "omaha",
    "zip_code": "68131"
  },
  {
    "city": "omaha",
    "zip_code": "68152"
  },
  {
    "city": "omaha",
    "zip_code": "68178"
  },
  {
    "city": "auburn",
    "zip_code": "68305"
  },
  {
    "city": "beaver crossing",
    "zip_code": "68313"
  },
  {
    "city": "manley",
    "zip_code": "68403"
  },
  {
    "city": "milford",
    "zip_code": "68405"
  },
  {
    "city": "nemaha",
    "zip_code": "68414"
  },
  {
    "city": "palmyra",
    "zip_code": "68418"
  },
  {
    "city": "plymouth",
    "zip_code": "68424"
  },
  {
    "city": "weeping water",
    "zip_code": "68463"
  },
  {
    "city": "genoa",
    "zip_code": "68640"
  },
  {
    "city": "page",
    "zip_code": "68766"
  },
  {
    "city": "wakefield",
    "zip_code": "68784"
  },
  {
    "city": "rockville",
    "zip_code": "68871"
  },
  {
    "city": "sargent",
    "zip_code": "68874"
  },
  {
    "city": "stamford",
    "zip_code": "68977"
  },
  {
    "city": "big springs",
    "zip_code": "69122"
  },
  {
    "city": "lodgepole",
    "zip_code": "69149"
  },
  {
    "city": "alliance",
    "zip_code": "69301"
  },
  {
    "city": "mitchell",
    "zip_code": "69357"
  },
  {
    "city": "new orleans",
    "zip_code": "70131"
  },
  {
    "city": "larose",
    "zip_code": "70373"
  },
  {
    "city": "talisheek",
    "zip_code": "70464"
  },
  {
    "city": "rosepine",
    "zip_code": "70659"
  },
  {
    "city": "baker",
    "zip_code": "70714"
  },
  {
    "city": "holden",
    "zip_code": "70744"
  },
  {
    "city": "norwood",
    "zip_code": "70761"
  },
  {
    "city": "monterey",
    "zip_code": "71354"
  },
  {
    "city": "moreauville",
    "zip_code": "71355"
  },
  {
    "city": "trout",
    "zip_code": "71371"
  },
  {
    "city": "campti",
    "zip_code": "71411"
  },
  {
    "city": "forest hill",
    "zip_code": "71430"
  },
  {
    "city": "bluff city",
    "zip_code": "71722"
  },
  {
    "city": "augusta",
    "zip_code": "72006"
  },
  {
    "city": "cotton plant",
    "zip_code": "72036"
  },
  {
    "city": "guy",
    "zip_code": "72061"
  },
  {
    "city": "jerusalem",
    "zip_code": "72080"
  },
  {
    "city": "fairfield bay",
    "zip_code": "72088"
  },
  {
    "city": "crawfordsville",
    "zip_code": "72327"
  },
  {
    "city": "mellwood",
    "zip_code": "72367"
  },
  {
    "city": "moro",
    "zip_code": "72368"
  },
  {
    "city": "snow lake",
    "zip_code": "72379"
  },
  {
    "city": "biggers",
    "zip_code": "72413"
  },
  {
    "city": "caraway",
    "zip_code": "72419"
  },
  {
    "city": "grubbs",
    "zip_code": "72431"
  },
  {
    "city": "concord",
    "zip_code": "72523"
  },
  {
    "city": "cherokee village",
    "zip_code": "72529"
  },
  {
    "city": "salem",
    "zip_code": "72576"
  },
  {
    "city": "sturkie",
    "zip_code": "72578"
  },
  {
    "city": "sulphur rock",
    "zip_code": "72579"
  },
  {
    "city": "alpena",
    "zip_code": "72611"
  },
  {
    "city": "lead hill",
    "zip_code": "72644"
  },
  {
    "city": "dardanelle",
    "zip_code": "72834"
  },
  {
    "city": "fort smith",
    "zip_code": "72916"
  },
  {
    "city": "ratcliff",
    "zip_code": "72951"
  },
  {
    "city": "choctaw",
    "zip_code": "73020"
  },
  {
    "city": "tuttle",
    "zip_code": "73089"
  },
  {
    "city": "wynnewood",
    "zip_code": "73098"
  },
  {
    "city": "oklahoma city",
    "zip_code": "73141"
  },
  {
    "city": "velma",
    "zip_code": "73491"
  },
  {
    "city": "frederick",
    "zip_code": "73542"
  },
  {
    "city": "medicine park",
    "zip_code": "73557"
  },
  {
    "city": "crawford",
    "zip_code": "73638"
  },
  {
    "city": "hennessey",
    "zip_code": "73742"
  },
  {
    "city": "depew",
    "zip_code": "74028"
  },
  {
    "city": "wann",
    "zip_code": "74083"
  },
  {
    "city": "tulsa",
    "zip_code": "74145"
  },
  {
    "city": "miami",
    "zip_code": "74354"
  },
  {
    "city": "kenefic",
    "zip_code": "74748"
  },
  {
    "city": "konawa",
    "zip_code": "74849"
  },
  {
    "city": "flower mound",
    "zip_code": "75028"
  },
  {
    "city": "irving",
    "zip_code": "75061"
  },
  {
    "city": "kaufman",
    "zip_code": "75142"
  },
  {
    "city": "dallas",
    "zip_code": "75230"
  },
  {
    "city": "dallas",
    "zip_code": "75247"
  },
  {
    "city": "anna",
    "zip_code": "75409"
  },
  {
    "city": "arthur city",
    "zip_code": "75411"
  },
  {
    "city": "ladonia",
    "zip_code": "75449"
  },
  {
    "city": "point",
    "zip_code": "75472"
  },
  {
    "city": "avery",
    "zip_code": "75554"
  },
  {
    "city": "henderson",
    "zip_code": "75654"
  },
  {
    "city": "new london",
    "zip_code": "75682"
  },
  {
    "city": "mineola",
    "zip_code": "75773"
  },
  {
    "city": "palestine",
    "zip_code": "75803"
  },
  {
    "city": "ratcliff",
    "zip_code": "75858"
  },
  {
    "city": "apple springs",
    "zip_code": "75926"
  },
  {
    "city": "doucette",
    "zip_code": "75942"
  },
  {
    "city": "douglass",
    "zip_code": "75943"
  },
  {
    "city": "zavalla",
    "zip_code": "75980"
  },
  {
    "city": "arlington",
    "zip_code": "76014"
  },
  {
    "city": "boyd",
    "zip_code": "76023"
  },
  {
    "city": "crowley",
    "zip_code": "76036"
  },
  {
    "city": "fort worth",
    "zip_code": "76111"
  },
  {
    "city": "fort worth",
    "zip_code": "76116"
  },
  {
    "city": "whitesboro",
    "zip_code": "76273"
  },
  {
    "city": "lipan",
    "zip_code": "76462"
  },
  {
    "city": "mingus",
    "zip_code": "76463"
  },
  {
    "city": "moran",
    "zip_code": "76464"
  },
  {
    "city": "tolar",
    "zip_code": "76476"
  },
  {
    "city": "perrin",
    "zip_code": "76486"
  },
  {
    "city": "bartlett",
    "zip_code": "76511"
  },
  {
    "city": "eddy",
    "zip_code": "76524"
  },
  {
    "city": "gatesville",
    "zip_code": "76528"
  },
  {
    "city": "gatesville",
    "zip_code": "76598"
  },
  {
    "city": "crawford",
    "zip_code": "76638"
  },
  {
    "city": "waco",
    "zip_code": "76706"
  },
  {
    "city": "brownwood",
    "zip_code": "76801"
  },
  {
    "city": "doole",
    "zip_code": "76836"
  },
  {
    "city": "may",
    "zip_code": "76857"
  },
  {
    "city": "san angelo",
    "zip_code": "76905"
  },
  {
    "city": "sterling city",
    "zip_code": "76951"
  },
  {
    "city": "houston",
    "zip_code": "77032"
  },
  {
    "city": "houston",
    "zip_code": "77051"
  },
  {
    "city": "conroe",
    "zip_code": "77306"
  },
  {
    "city": "humble",
    "zip_code": "77346"
  },
  {
    "city": "montgomery",
    "zip_code": "77356"
  },
  {
    "city": "porter",
    "zip_code": "77365"
  },
  {
    "city": "splendora",
    "zip_code": "77372"
  },
  {
    "city": "cypress",
    "zip_code": "77429"
  },
  {
    "city": "east bernard",
    "zip_code": "77435"
  },
  {
    "city": "guy",
    "zip_code": "77444"
  },
  {
    "city": "hockley",
    "zip_code": "77447"
  },
  {
    "city": "fresno",
    "zip_code": "77545"
  },
  {
    "city": "pearland",
    "zip_code": "77584"
  },
  {
    "city": "texas city",
    "zip_code": "77591"
  },
  {
    "city": "kountze",
    "zip_code": "77625"
  },
  {
    "city": "iola",
    "zip_code": "77861"
  },
  {
    "city": "francitas",
    "zip_code": "77961"
  },
  {
    "city": "inez",
    "zip_code": "77968"
  },
  {
    "city": "kendalia",
    "zip_code": "78027"
  },
  {
    "city": "laredo",
    "zip_code": "78040"
  },
  {
    "city": "san antonio",
    "zip_code": "78211"
  },
  {
    "city": "san antonio",
    "zip_code": "78242"
  },
  {
    "city": "brownsville",
    "zip_code": "78521"
  },
  {
    "city": "falcon heights",
    "zip_code": "78545"
  },
  {
    "city": "progreso",
    "zip_code": "78579"
  },
  {
    "city": "santa maria",
    "zip_code": "78592"
  },
  {
    "city": "sullivan city",
    "zip_code": "78595"
  },
  {
    "city": "harper",
    "zip_code": "78631"
  },
  {
    "city": "camp wood",
    "zip_code": "78833"
  },
  {
    "city": "vanderpool",
    "zip_code": "78885"
  },
  {
    "city": "ledbetter",
    "zip_code": "78946"
  },
  {
    "city": "bovina",
    "zip_code": "79009"
  },
  {
    "city": "dumas",
    "zip_code": "79029"
  },
  {
    "city": "happy",
    "zip_code": "79042"
  },
  {
    "city": "amarillo",
    "zip_code": "79103"
  },
  {
    "city": "turkey",
    "zip_code": "79261"
  },
  {
    "city": "amherst",
    "zip_code": "79312"
  },
  {
    "city": "enochs",
    "zip_code": "79324"
  },
  {
    "city": "loop",
    "zip_code": "79342"
  },
  {
    "city": "abilene",
    "zip_code": "79606"
  },
  {
    "city": "toyah",
    "zip_code": "79785"
  },
  {
    "city": "wickett",
    "zip_code": "79788"
  },
  {
    "city": "presidio",
    "zip_code": "79845"
  },
  {
    "city": "el paso",
    "zip_code": "79927"
  },
  {
    "city": "arvada",
    "zip_code": "80002"
  },
  {
    "city": "aurora",
    "zip_code": "80011"
  },
  {
    "city": "castle rock",
    "zip_code": "80104"
  },
  {
    "city": "lone tree",
    "zip_code": "80124"
  },
  {
    "city": "denver",
    "zip_code": "80239"
  },
  {
    "city": "boulder",
    "zip_code": "80303"
  },
  {
    "city": "nederland",
    "zip_code": "80466"
  },
  {
    "city": "toponas",
    "zip_code": "80479"
  },
  {
    "city": "pierce",
    "zip_code": "80650"
  },
  {
    "city": "genoa",
    "zip_code": "80818"
  },
  {
    "city": "colorado springs",
    "zip_code": "80923"
  },
  {
    "city": "colorado springs",
    "zip_code": "80928"
  },
  {
    "city": "swink",
    "zip_code": "81077"
  },
  {
    "city": "manassa",
    "zip_code": "81141"
  },
  {
    "city": "crawford",
    "zip_code": "81415"
  },
  {
    "city": "ophir",
    "zip_code": "81426"
  },
  {
    "city": "palisade",
    "zip_code": "81526"
  },
  {
    "city": "basalt",
    "zip_code": "81621"
  },
  {
    "city": "craig",
    "zip_code": "81625"
  },
  {
    "city": "meeker",
    "zip_code": "81641"
  },
  {
    "city": "mesa",
    "zip_code": "81643"
  },
  {
    "city": "burlington",
    "zip_code": "82411"
  },
  {
    "city": "deaver",
    "zip_code": "82421"
  },
  {
    "city": "natrona",
    "zip_code": "82646"
  },
  {
    "city": "gillette",
    "zip_code": "82716"
  },
  {
    "city": "atomic city",
    "zip_code": "83215"
  },
  {
    "city": "holbrook",
    "zip_code": "83243"
  },
  {
    "city": "craigmont",
    "zip_code": "83523"
  },
  {
    "city": "white bird",
    "zip_code": "83554"
  },
  {
    "city": "bruneau",
    "zip_code": "83604"
  },
  {
    "city": "letha",
    "zip_code": "83636"
  },
  {
    "city": "avery",
    "zip_code": "83802"
  },
  {
    "city": "moscow",
    "zip_code": "83843"
  },
  {
    "city": "nordman",
    "zip_code": "83848"
  },
  {
    "city": "santa",
    "zip_code": "83866"
  },
  {
    "city": "vernon",
    "zip_code": "84080"
  },
  {
    "city": "salt lake city",
    "zip_code": "84108"
  },
  {
    "city": "salt lake city",
    "zip_code": "84118"
  },
  {
    "city": "grouse creek",
    "zip_code": "84313"
  },
  {
    "city": "millville",
    "zip_code": "84326"
  },
  {
    "city": "smithfield",
    "zip_code": "84335"
  },
  {
    "city": "la sal",
    "zip_code": "84530"
  },
  {
    "city": "moab",
    "zip_code": "84532"
  },
  {
    "city": "monument valley",
    "zip_code": "84536"
  },
  {
    "city": "holden",
    "zip_code": "84636"
  },
  {
    "city": "redmond",
    "zip_code": "84652"
  },
  {
    "city": "beryl",
    "zip_code": "84714"
  },
  {
    "city": "cannonville",
    "zip_code": "84718"
  },
  {
    "city": "enterprise",
    "zip_code": "84725"
  },
  {
    "city": "sevier",
    "zip_code": "84766"
  },
  {
    "city": "teasdale",
    "zip_code": "84773"
  },
  {
    "city": "virgin",
    "zip_code": "84779"
  },
  {
    "city": "veyo",
    "zip_code": "84782"
  },
  {
    "city": "phoenix",
    "zip_code": "85012"
  },
  {
    "city": "phoenix",
    "zip_code": "85020"
  },
  {
    "city": "fountain hills",
    "zip_code": "85268"
  },
  {
    "city": "yuma",
    "zip_code": "85367"
  },
  {
    "city": "buckeye",
    "zip_code": "85396"
  },
  {
    "city": "vernon",
    "zip_code": "85940"
  },
  {
    "city": "topock",
    "zip_code": "86436"
  },
  {
    "city": "ganado",
    "zip_code": "86505"
  },
  {
    "city": "albuquerque",
    "zip_code": "87110"
  },
  {
    "city": "continental divide",
    "zip_code": "87312"
  },
  {
    "city": "cebolla",
    "zip_code": "87518"
  },
  {
    "city": "taos ski valley",
    "zip_code": "87525"
  },
  {
    "city": "rociada",
    "zip_code": "87742"
  },
  {
    "city": "roy",
    "zip_code": "87743"
  },
  {
    "city": "ute park",
    "zip_code": "87749"
  },
  {
    "city": "playas",
    "zip_code": "88009"
  },
  {
    "city": "hanover",
    "zip_code": "88041"
  },
  {
    "city": "mimbres",
    "zip_code": "88049"
  },
  {
    "city": "grady",
    "zip_code": "88120"
  },
  {
    "city": "whites city",
    "zip_code": "88268"
  },
  {
    "city": "henderson",
    "zip_code": "89014"
  },
  {
    "city": "henderson",
    "zip_code": "89015"
  },
  {
    "city": "silverpeak",
    "zip_code": "89047"
  },
  {
    "city": "tonopah",
    "zip_code": "89049"
  },
  {
    "city": "ruth",
    "zip_code": "89319"
  },
  {
    "city": "reno",
    "zip_code": "89521"
  },
  {
    "city": "montello",
    "zip_code": "89830"
  },
  {
    "city": "los angeles",
    "zip_code": "90012"
  },
  {
    "city": "los angeles",
    "zip_code": "90013"
  },
  {
    "city": "playa vista",
    "zip_code": "90094"
  },
  {
    "city": "bell gardens",
    "zip_code": "90201"
  },
  {
    "city": "beverly hills",
    "zip_code": "90210"
  },
  {
    "city": "el segundo",
    "zip_code": "90245"
  },
  {
    "city": "cerritos",
    "zip_code": "90703"
  },
  {
    "city": "north hollywood",
    "zip_code": "91602"
  },
  {
    "city": "universal city",
    "zip_code": "91608"
  },
  {
    "city": "carlsbad",
    "zip_code": "92010"
  },
  {
    "city": "carlsbad",
    "zip_code": "92011"
  },
  {
    "city": "palomar mountain",
    "zip_code": "92060"
  },
  {
    "city": "san diego",
    "zip_code": "92110"
  },
  {
    "city": "imperial",
    "zip_code": "92251"
  },
  {
    "city": "north palm springs",
    "zip_code": "92258"
  },
  {
    "city": "palm desert",
    "zip_code": "92260"
  },
  {
    "city": "palm springs",
    "zip_code": "92264"
  },
  {
    "city": "vidal",
    "zip_code": "92280"
  },
  {
    "city": "redlands",
    "zip_code": "92373"
  },
  {
    "city": "riverside",
    "zip_code": "92503"
  },
  {
    "city": "huntington beach",
    "zip_code": "92648"
  },
  {
    "city": "laguna beach",
    "zip_code": "92651"
  },
  {
    "city": "fullerton",
    "zip_code": "92833"
  },
  {
    "city": "garden grove",
    "zip_code": "92841"
  },
  {
    "city": "ventura",
    "zip_code": "93001"
  },
  {
    "city": "avenal",
    "zip_code": "93204"
  },
  {
    "city": "lamont",
    "zip_code": "93241"
  },
  {
    "city": "stratford",
    "zip_code": "93266"
  },
  {
    "city": "casmalia",
    "zip_code": "93429"
  },
  {
    "city": "keeler",
    "zip_code": "93530"
  },
  {
    "city": "sunnyvale",
    "zip_code": "94089"
  },
  {
    "city": "san francisco",
    "zip_code": "94108"
  },
  {
    "city": "bethel island",
    "zip_code": "94511"
  },
  {
    "city": "port costa",
    "zip_code": "94569"
  },
  {
    "city": "san lorenzo",
    "zip_code": "94580"
  },
  {
    "city": "berkeley",
    "zip_code": "94704"
  },
  {
    "city": "berkeley",
    "zip_code": "94705"
  },
  {
    "city": "mill valley",
    "zip_code": "94941"
  },
  {
    "city": "san quentin",
    "zip_code": "94964"
  },
  {
    "city": "felton",
    "zip_code": "95018"
  },
  {
    "city": "milpitas",
    "zip_code": "95035"
  },
  {
    "city": "gustine",
    "zip_code": "95322"
  },
  {
    "city": "merced",
    "zip_code": "95341"
  },
  {
    "city": "monte rio",
    "zip_code": "95462"
  },
  {
    "city": "knights landing",
    "zip_code": "95645"
  },
  {
    "city": "kyburz",
    "zip_code": "95720"
  },
  {
    "city": "sacramento",
    "zip_code": "95826"
  },
  {
    "city": "french gulch",
    "zip_code": "96033"
  },
  {
    "city": "clio",
    "zip_code": "96106"
  },
  {
    "city": "eagleville",
    "zip_code": "96110"
  },
  {
    "city": "topaz",
    "zip_code": "96133"
  },
  {
    "city": "kings beach",
    "zip_code": "96143"
  },
  {
    "city": "kapolei",
    "zip_code": "96707"
  },
  {
    "city": "kahului",
    "zip_code": "96732"
  },
  {
    "city": "pago pago",
    "zip_code": "96799"
  },
  {
    "city": "antelope",
    "zip_code": "97001"
  },
  {
    "city": "dufur",
    "zip_code": "97021"
  },
  {
    "city": "gladstone",
    "zip_code": "97027"
  },
  {
    "city": "neskowin",
    "zip_code": "97149"
  },
  {
    "city": "portland",
    "zip_code": "97219"
  },
  {
    "city": "portland",
    "zip_code": "97225"
  },
  {
    "city": "philomath",
    "zip_code": "97370"
  },
  {
    "city": "sublimity",
    "zip_code": "97385"
  },
  {
    "city": "bandon",
    "zip_code": "97411"
  },
  {
    "city": "coos bay",
    "zip_code": "97420"
  },
  {
    "city": "umpqua",
    "zip_code": "97486"
  },
  {
    "city": "summer lake",
    "zip_code": "97640"
  },
  {
    "city": "culver",
    "zip_code": "97734"
  },
  {
    "city": "la pine",
    "zip_code": "97739"
  },
  {
    "city": "fossil",
    "zip_code": "97830"
  },
  {
    "city": "juntura",
    "zip_code": "97911"
  },
  {
    "city": "edmonds",
    "zip_code": "98020"
  },
  {
    "city": "kent",
    "zip_code": "98031"
  },
  {
    "city": "renton",
    "zip_code": "98058"
  },
  {
    "city": "seattle",
    "zip_code": "98104"
  },
  {
    "city": "arlington",
    "zip_code": "98223"
  },
  {
    "city": "ferndale",
    "zip_code": "98248"
  },
  {
    "city": "lynden",
    "zip_code": "98264"
  },
  {
    "city": "oak harbor",
    "zip_code": "98277"
  },
  {
    "city": "beaver",
    "zip_code": "98305"
  },
  {
    "city": "clallam bay",
    "zip_code": "98326"
  },
  {
    "city": "irwinton",
    "zip_code": "31042"
  },
  {
    "city": "roberta",
    "zip_code": "31078"
  },
  {
    "city": "warner robins",
    "zip_code": "31093"
  },
  {
    "city": "macon",
    "zip_code": "31201"
  },
  {
    "city": "saint simons island",
    "zip_code": "31522"
  },
  {
    "city": "waverly hall",
    "zip_code": "31831"
  },
  {
    "city": "columbus",
    "zip_code": "31904"
  },
  {
    "city": "glen saint mary",
    "zip_code": "32040"
  },
  {
    "city": "mcalpin",
    "zip_code": "32062"
  },
  {
    "city": "ponte vedra beach",
    "zip_code": "32082"
  },
  {
    "city": "starke",
    "zip_code": "32091"
  },
  {
    "city": "wellborn",
    "zip_code": "32094"
  },
  {
    "city": "jacksonville",
    "zip_code": "32219"
  },
  {
    "city": "panama city",
    "zip_code": "32405"
  },
  {
    "city": "pensacola",
    "zip_code": "32506"
  },
  {
    "city": "deltona",
    "zip_code": "32725"
  },
  {
    "city": "casselberry",
    "zip_code": "32730"
  },
  {
    "city": "orlando",
    "zip_code": "32804"
  },
  {
    "city": "orlando",
    "zip_code": "32809"
  },
  {
    "city": "patrick afb",
    "zip_code": "32925"
  },
  {
    "city": "malabar",
    "zip_code": "32950"
  },
  {
    "city": "vero beach",
    "zip_code": "32960"
  },
  {
    "city": "miami",
    "zip_code": "33158"
  },
  {
    "city": "miami",
    "zip_code": "33170"
  },
  {
    "city": "miami",
    "zip_code": "33173"
  },
  {
    "city": "miami",
    "zip_code": "33181"
  },
  {
    "city": "fort lauderdale",
    "zip_code": "33332"
  },
  {
    "city": "tampa",
    "zip_code": "33605"
  },
  {
    "city": "clearwater",
    "zip_code": "33756"
  },
  {
    "city": "lorida",
    "zip_code": "33857"
  },
  {
    "city": "captiva",
    "zip_code": "33924"
  },
  {
    "city": "naples",
    "zip_code": "34109"
  },
  {
    "city": "arcadia",
    "zip_code": "34269"
  },
  {
    "city": "ocala",
    "zip_code": "34474"
  },
  {
    "city": "brooksville",
    "zip_code": "34604"
  },
  {
    "city": "hudson",
    "zip_code": "34667"
  },
  {
    "city": "aripeka",
    "zip_code": "34679"
  },
  {
    "city": "cook springs",
    "zip_code": "35052"
  },
  {
    "city": "crane hill",
    "zip_code": "35053"
  },
  {
    "city": "pell city",
    "zip_code": "35128"
  },
  {
    "city": "sycamore",
    "zip_code": "35149"
  },
  {
    "city": "houston",
    "zip_code": "35572"
  },
  {
    "city": "athens",
    "zip_code": "35611"
  },
  {
    "city": "hillsboro",
    "zip_code": "35643"
  },
  {
    "city": "madison",
    "zip_code": "35758"
  },
  {
    "city": "huntsville",
    "zip_code": "35802"
  },
  {
    "city": "huntsville",
    "zip_code": "35810"
  },
  {
    "city": "huntsville",
    "zip_code": "35816"
  },
  {
    "city": "flat rock",
    "zip_code": "35966"
  },
  {
    "city": "brantley",
    "zip_code": "36009"
  },
  {
    "city": "clio",
    "zip_code": "36017"
  },
  {
    "city": "hope hull",
    "zip_code": "36043"
  },
  {
    "city": "lapine",
    "zip_code": "36046"
  },
  {
    "city": "montgomery",
    "zip_code": "36109"
  },
  {
    "city": "montgomery",
    "zip_code": "36117"
  },
  {
    "city": "fruithurst",
    "zip_code": "36262"
  },
  {
    "city": "ashford",
    "zip_code": "36312"
  },
  {
    "city": "elba",
    "zip_code": "36323"
  },
  {
    "city": "jack",
    "zip_code": "36346"
  },
  {
    "city": "excel",
    "zip_code": "36439"
  },
  {
    "city": "grove hill",
    "zip_code": "36451"
  },
  {
    "city": "grand bay",
    "zip_code": "36541"
  },
  {
    "city": "saint elmo",
    "zip_code": "36568"
  },
  {
    "city": "eight mile",
    "zip_code": "36613"
  },
  {
    "city": "mobile",
    "zip_code": "36615"
  },
  {
    "city": "jachin",
    "zip_code": "36910"
  },
  {
    "city": "bell buckle",
    "zip_code": "37020"
  },
  {
    "city": "eagleville",
    "zip_code": "37060"
  },
  {
    "city": "westmoreland",
    "zip_code": "37186"
  },
  {
    "city": "woodlawn",
    "zip_code": "37191"
  },
  {
    "city": "nashville",
    "zip_code": "37201"
  },
  {
    "city": "delano",
    "zip_code": "37325"
  },
  {
    "city": "dunlap",
    "zip_code": "37327"
  },
  {
    "city": "hixson",
    "zip_code": "37343"
  },
  {
    "city": "mcdonald",
    "zip_code": "37353"
  },
  {
    "city": "whitwell",
    "zip_code": "37397"
  },
  {
    "city": "hampton",
    "zip_code": "37658"
  },
  {
    "city": "luttrell",
    "zip_code": "37779"
  },
  {
    "city": "oneida",
    "zip_code": "37841"
  },
  {
    "city": "tazewell",
    "zip_code": "37879"
  },
  {
    "city": "ten mile",
    "zip_code": "37880"
  },
  {
    "city": "pocahontas",
    "zip_code": "38061"
  },
  {
    "city": "ridgely",
    "zip_code": "38080"
  },
  {
    "city": "memphis",
    "zip_code": "38114"
  },
  {
    "city": "camden",
    "zip_code": "38320"
  },
  {
    "city": "crump",
    "zip_code": "38327"
  },
  {
    "city": "decaturville",
    "zip_code": "38329"
  },
  {
    "city": "pickwick dam",
    "zip_code": "38365"
  },
  {
    "city": "grimsley",
    "zip_code": "38565"
  },
  {
    "city": "drew",
    "zip_code": "38737"
  },
  {
    "city": "duncan",
    "zip_code": "38740"
  },
  {
    "city": "murdo",
    "zip_code": "57559"
  },
  {
    "city": "bison",
    "zip_code": "57620"
  },
  {
    "city": "rapid city",
    "zip_code": "57701"
  },
  {
    "city": "wasta",
    "zip_code": "57791"
  },
  {
    "city": "stirum",
    "zip_code": "58069"
  },
  {
    "city": "cummings",
    "zip_code": "58223"
  },
  {
    "city": "mayville",
    "zip_code": "58257"
  },
  {
    "city": "pekin",
    "zip_code": "58361"
  },
  {
    "city": "jamestown",
    "zip_code": "58401"
  },
  {
    "city": "denhoff",
    "zip_code": "58430"
  },
  {
    "city": "gackle",
    "zip_code": "58442"
  },
  {
    "city": "grace city",
    "zip_code": "58445"
  },
  {
    "city": "spiritwood",
    "zip_code": "58481"
  },
  {
    "city": "bismarck",
    "zip_code": "58504"
  },
  {
    "city": "solen",
    "zip_code": "58570"
  },
  {
    "city": "sterling",
    "zip_code": "58572"
  },
  {
    "city": "reeder",
    "zip_code": "58649"
  },
  {
    "city": "sentinel butte",
    "zip_code": "58654"
  },
  {
    "city": "crosby",
    "zip_code": "58730"
  },
  {
    "city": "albany",
    "zip_code": "97321"
  },
  {
    "city": "lorane",
    "zip_code": "97451"
  },
  {
    "city": "reedsport",
    "zip_code": "97467"
  },
  {
    "city": "springfield",
    "zip_code": "97477"
  },
  {
    "city": "wolf creek",
    "zip_code": "97497"
  },
  {
    "city": "williams",
    "zip_code": "97544"
  },
  {
    "city": "beatty",
    "zip_code": "97621"
  },
  {
    "city": "glyndon",
    "zip_code": "21071"
  },
  {
    "city": "jarrettsville",
    "zip_code": "21084"
  },
  {
    "city": "jewell",
    "zip_code": "31045"
  },
  {
    "city": "toomsboro",
    "zip_code": "31090"
  },
  {
    "city": "warner robins",
    "zip_code": "31098"
  },
  {
    "city": "ellabell",
    "zip_code": "31308"
  },
  {
    "city": "savannah",
    "zip_code": "31410"
  },
  {
    "city": "denton",
    "zip_code": "31532"
  },
  {
    "city": "douglas",
    "zip_code": "31533"
  },
  {
    "city": "jacksonville",
    "zip_code": "31544"
  },
  {
    "city": "jesup",
    "zip_code": "31546"
  },
  {
    "city": "nahunta",
    "zip_code": "31553"
  },
  {
    "city": "surrency",
    "zip_code": "31563"
  },
  {
    "city": "axson",
    "zip_code": "31624"
  },
  {
    "city": "berlin",
    "zip_code": "31722"
  },
  {
    "city": "sycamore",
    "zip_code": "31790"
  },
  {
    "city": "manchester",
    "zip_code": "31816"
  },
  {
    "city": "woodland",
    "zip_code": "31836"
  },
  {
    "city": "jennings",
    "zip_code": "32053"
  },
  {
    "city": "lee",
    "zip_code": "32059"
  },
  {
    "city": "live oak",
    "zip_code": "32064"
  },
  {
    "city": "orange park",
    "zip_code": "32065"
  },
  {
    "city": "seville",
    "zip_code": "32190"
  },
  {
    "city": "tallahassee",
    "zip_code": "32301"
  },
  {
    "city": "crawfordville",
    "zip_code": "32327"
  },
  {
    "city": "panama city",
    "zip_code": "32408"
  },
  {
    "city": "bascom",
    "zip_code": "32423"
  },
  {
    "city": "clarksville",
    "zip_code": "32430"
  },
  {
    "city": "wewahitchka",
    "zip_code": "32449"
  },
  {
    "city": "westville",
    "zip_code": "32464"
  },
  {
    "city": "bagdad",
    "zip_code": "32530"
  },
  {
    "city": "gainesville",
    "zip_code": "32608"
  },
  {
    "city": "earleton",
    "zip_code": "32631"
  },
  {
    "city": "keystone heights",
    "zip_code": "32656"
  },
  {
    "city": "orlando",
    "zip_code": "32812"
  },
  {
    "city": "orlando",
    "zip_code": "32830"
  },
  {
    "city": "cocoa",
    "zip_code": "32922"
  },
  {
    "city": "merritt island",
    "zip_code": "32953"
  },
  {
    "city": "homestead",
    "zip_code": "33034"
  },
  {
    "city": "islamorada",
    "zip_code": "33036"
  },
  {
    "city": "miami",
    "zip_code": "33133"
  },
  {
    "city": "miami",
    "zip_code": "33138"
  },
  {
    "city": "miami",
    "zip_code": "33180"
  },
  {
    "city": "jupiter",
    "zip_code": "33478"
  },
  {
    "city": "boca raton",
    "zip_code": "33496"
  },
  {
    "city": "seffner",
    "zip_code": "33584"
  },
  {
    "city": "tampa",
    "zip_code": "33606"
  },
  {
    "city": "tampa",
    "zip_code": "33607"
  },
  {
    "city": "tampa",
    "zip_code": "33615"
  },
  {
    "city": "bay pines",
    "zip_code": "33744"
  },
  {
    "city": "clearwater",
    "zip_code": "33765"
  },
  {
    "city": "eagle lake",
    "zip_code": "33839"
  },
  {
    "city": "rotonda west",
    "zip_code": "33947"
  },
  {
    "city": "sarasota",
    "zip_code": "34231"
  },
  {
    "city": "cullman",
    "zip_code": "35058"
  },
  {
    "city": "pell city",
    "zip_code": "35125"
  },
  {
    "city": "birmingham",
    "zip_code": "35207"
  },
  {
    "city": "emelle",
    "zip_code": "35459"
  },
  {
    "city": "oakman",
    "zip_code": "35579"
  },
  {
    "city": "hollywood",
    "zip_code": "35752"
  },
  {
    "city": "attalla",
    "zip_code": "35954"
  },
  {
    "city": "equality",
    "zip_code": "36026"
  },
  {
    "city": "grady",
    "zip_code": "36036"
  },
  {
    "city": "titus",
    "zip_code": "36080"
  },
  {
    "city": "tuskegee",
    "zip_code": "36083"
  },
  {
    "city": "montgomery",
    "zip_code": "36110"
  },
  {
    "city": "montgomery",
    "zip_code": "36112"
  },
  {
    "city": "millerville",
    "zip_code": "36267"
  },
  {
    "city": "shorterville",
    "zip_code": "36373"
  },
  {
    "city": "lockhart",
    "zip_code": "36455"
  },
  {
    "city": "chunchula",
    "zip_code": "36521"
  },
  {
    "city": "creola",
    "zip_code": "36525"
  },
  {
    "city": "mcintosh",
    "zip_code": "36553"
  },
  {
    "city": "malcolm",
    "zip_code": "36556"
  },
  {
    "city": "stapleton",
    "zip_code": "36578"
  },
  {
    "city": "orrville",
    "zip_code": "36767"
  },
  {
    "city": "randolph",
    "zip_code": "36792"
  },
  {
    "city": "hurtsboro",
    "zip_code": "36860"
  },
  {
    "city": "seale",
    "zip_code": "36875"
  },
  {
    "city": "cumberland furnace",
    "zip_code": "37051"
  },
  {
    "city": "dickson",
    "zip_code": "37055"
  },
  {
    "city": "gallatin",
    "zip_code": "37066"
  },
  {
    "city": "lebanon",
    "zip_code": "37090"
  },
  {
    "city": "nunnelly",
    "zip_code": "37137"
  },
  {
    "city": "white house",
    "zip_code": "37188"
  },
  {
    "city": "calhoun",
    "zip_code": "37309"
  },
  {
    "city": "cleveland",
    "zip_code": "37323"
  },
  {
    "city": "lookout mountain",
    "zip_code": "37350"
  },
  {
    "city": "chattanooga",
    "zip_code": "37405"
  },
  {
    "city": "erwin",
    "zip_code": "37650"
  },
  {
    "city": "kingsport",
    "zip_code": "37663"
  },
  {
    "city": "shady valley",
    "zip_code": "37688"
  },
  {
    "city": "andersonville",
    "zip_code": "37705"
  },
  {
    "city": "greenback",
    "zip_code": "37742"
  },
  {
    "city": "jacksboro",
    "zip_code": "37757"
  },
  {
    "city": "knoxville",
    "zip_code": "37912"
  },
  {
    "city": "henning",
    "zip_code": "38041"
  },
  {
    "city": "rossville",
    "zip_code": "38066"
  },
  {
    "city": "memphis",
    "zip_code": "38118"
  },
  {
    "city": "big sandy",
    "zip_code": "38221"
  },
  {
    "city": "gleason",
    "zip_code": "38229"
  },
  {
    "city": "huntingdon",
    "zip_code": "38344"
  },
  {
    "city": "ethridge",
    "zip_code": "38456"
  },
  {
    "city": "frankewing",
    "zip_code": "38459"
  },
  {
    "city": "sparta",
    "zip_code": "38583"
  },
  {
    "city": "ripley",
    "zip_code": "38663"
  },
  {
    "city": "walls",
    "zip_code": "38680"
  },
  {
    "city": "boyle",
    "zip_code": "38730"
  },
  {
    "city": "booneville",
    "zip_code": "38829"
  },
  {
    "city": "golden",
    "zip_code": "38847"
  },
  {
    "city": "holcomb",
    "zip_code": "38940"
  },
  {
    "city": "louise",
    "zip_code": "39097"
  },
  {
    "city": "vicksburg",
    "zip_code": "39183"
  },
  {
    "city": "meridian",
    "zip_code": "39301"
  },
  {
    "city": "little rock",
    "zip_code": "39337"
  },
  {
    "city": "noxapater",
    "zip_code": "39346"
  },
  {
    "city": "pachuta",
    "zip_code": "39347"
  },
  {
    "city": "paulding",
    "zip_code": "39348"
  },
  {
    "city": "seminary",
    "zip_code": "39479"
  },
  {
    "city": "kokomo",
    "zip_code": "39643"
  },
  {
    "city": "mccomb",
    "zip_code": "39648"
  },
  {
    "city": "woodland",
    "zip_code": "39776"
  },
  {
    "city": "bainbridge",
    "zip_code": "39817"
  },
  {
    "city": "bronwood",
    "zip_code": "39826"
  },
  {
    "city": "donalsonville",
    "zip_code": "39845"
  },
  {
    "city": "prospect",
    "zip_code": "40059"
  },
  {
    "city": "clermont",
    "zip_code": "40110"
  },
  {
    "city": "lebanon junction",
    "zip_code": "40150"
  },
  {
    "city": "vine grove",
    "zip_code": "40175"
  },
  {
    "city": "louisville",
    "zip_code": "40204"
  },
  {
    "city": "louisville",
    "zip_code": "40210"
  },
  {
    "city": "frenchburg",
    "zip_code": "40322"
  },
  {
    "city": "perry park",
    "zip_code": "40363"
  },
  {
    "city": "winchester",
    "zip_code": "40391"
  },
  {
    "city": "london",
    "zip_code": "40741"
  },
  {
    "city": "crittenden",
    "zip_code": "41030"
  },
  {
    "city": "cynthiana",
    "zip_code": "41031"
  },
  {
    "city": "thelma",
    "zip_code": "41260"
  },
  {
    "city": "pine ridge",
    "zip_code": "41360"
  },
  {
    "city": "pikeville",
    "zip_code": "41501"
  },
  {
    "city": "jeremiah",
    "zip_code": "41826"
  },
  {
    "city": "salem",
    "zip_code": "42078"
  },
  {
    "city": "wickliffe",
    "zip_code": "42087"
  },
  {
    "city": "bowling green",
    "zip_code": "42104"
  },
  {
    "city": "lucas",
    "zip_code": "42156"
  },
  {
    "city": "allensville",
    "zip_code": "42204"
  },
  {
    "city": "auburn",
    "zip_code": "42206"
  },
  {
    "city": "hawesville",
    "zip_code": "42348"
  },
  {
    "city": "powderly",
    "zip_code": "42367"
  },
  {
    "city": "cable",
    "zip_code": "43009"
  },
  {
    "city": "new albany",
    "zip_code": "43054"
  },
  {
    "city": "saint louisville",
    "zip_code": "43071"
  },
  {
    "city": "saint paris",
    "zip_code": "43072"
  },
  {
    "city": "unionville center",
    "zip_code": "43077"
  },
  {
    "city": "bloomingburg",
    "zip_code": "43106"
  },
  {
    "city": "south solon",
    "zip_code": "43153"
  },
  {
    "city": "williamsport",
    "zip_code": "43164"
  },
  {
    "city": "chesterville",
    "zip_code": "43317"
  },
  {
    "city": "wharton",
    "zip_code": "43359"
  },
  {
    "city": "toledo",
    "zip_code": "43606"
  },
  {
    "city": "toledo",
    "zip_code": "43609"
  },
  {
    "city": "toledo",
    "zip_code": "43612"
  },
  {
    "city": "toledo",
    "zip_code": "43613"
  },
  {
    "city": "coshocton",
    "zip_code": "43812"
  },
  {
    "city": "salineville",
    "zip_code": "43945"
  },
  {
    "city": "saint clairsville",
    "zip_code": "43950"
  },
  {
    "city": "harrisville",
    "zip_code": "43974"
  },
  {
    "city": "grand river",
    "zip_code": "44045"
  },
  {
    "city": "jefferson",
    "zip_code": "44047"
  },
  {
    "city": "twinsburg",
    "zip_code": "44087"
  },
  {
    "city": "cleveland",
    "zip_code": "44102"
  },
  {
    "city": "cleveland",
    "zip_code": "44128"
  },
  {
    "city": "maple heights",
    "zip_code": "44137"
  },
  {
    "city": "brecksville",
    "zip_code": "44141"
  },
  {
    "city": "brookpark",
    "zip_code": "44142"
  },
  {
    "city": "windham",
    "zip_code": "44288"
  },
  {
    "city": "salem",
    "zip_code": "44460"
  },
  {
    "city": "youngstown",
    "zip_code": "44502"
  },
  {
    "city": "alliance",
    "zip_code": "44601"
  },
  {
    "city": "paris",
    "zip_code": "44669"
  },
  {
    "city": "greenwich",
    "zip_code": "44837"
  },
  {
    "city": "mount orab",
    "zip_code": "45154"
  },
  {
    "city": "new richmond",
    "zip_code": "45157"
  },
  {
    "city": "russellville",
    "zip_code": "45168"
  },
  {
    "city": "cincinnati",
    "zip_code": "45223"
  },
  {
    "city": "fletcher",
    "zip_code": "45326"
  },
  {
    "city": "tremont city",
    "zip_code": "45372"
  },
  {
    "city": "ray",
    "zip_code": "45672"
  },
  {
    "city": "chauncey",
    "zip_code": "45719"
  },
  {
    "city": "coal run",
    "zip_code": "45721"
  },
  {
    "city": "marietta",
    "zip_code": "45750"
  },
  {
    "city": "racine",
    "zip_code": "45771"
  },
  {
    "city": "grover hill",
    "zip_code": "45849"
  },
  {
    "city": "frankfort",
    "zip_code": "46041"
  },
  {
    "city": "mulberry",
    "zip_code": "46058"
  },
  {
    "city": "bargersville",
    "zip_code": "46106"
  },
  {
    "city": "knightstown",
    "zip_code": "46148"
  },
  {
    "city": "indianapolis",
    "zip_code": "46208"
  },
  {
    "city": "indianapolis",
    "zip_code": "46236"
  },
  {
    "city": "schererville",
    "zip_code": "46375"
  },
  {
    "city": "whiting",
    "zip_code": "46394"
  },
  {
    "city": "markle",
    "zip_code": "46770"
  },
  {
    "city": "roanoke",
    "zip_code": "46783"
  },
  {
    "city": "fort wayne",
    "zip_code": "46809"
  },
  {
    "city": "monterey",
    "zip_code": "46960"
  },
  {
    "city": "new waverly",
    "zip_code": "46961"
  },
  {
    "city": "rochester",
    "zip_code": "46975"
  },
  {
    "city": "winamac",
    "zip_code": "46996"
  },
  {
    "city": "laconia",
    "zip_code": "47135"
  },
  {
    "city": "new castle",
    "zip_code": "47362"
  },
  {
    "city": "salamonia",
    "zip_code": "47381"
  },
  {
    "city": "branchville",
    "zip_code": "47514"
  },
  {
    "city": "monroe city",
    "zip_code": "47557"
  },
  {
    "city": "saint mary of the woods",
    "zip_code": "47876"
  },
  {
    "city": "yeoman",
    "zip_code": "47997"
  },
  {
    "city": "new baltimore",
    "zip_code": "48047"
  },
  {
    "city": "southfield",
    "zip_code": "48076"
  },
  {
    "city": "dearborn",
    "zip_code": "48120"
  },
  {
    "city": "northville",
    "zip_code": "48168"
  },
  {
    "city": "ecorse",
    "zip_code": "48229"
  },
  {
    "city": "bloomfield hills",
    "zip_code": "48304"
  },
  {
    "city": "utica",
    "zip_code": "48317"
  },
  {
    "city": "hartland",
    "zip_code": "48353"
  },
  {
    "city": "novi",
    "zip_code": "48377"
  },
  {
    "city": "davison",
    "zip_code": "48423"
  },
  {
    "city": "linden",
    "zip_code": "48451"
  },
  {
    "city": "minden city",
    "zip_code": "48456"
  },
  {
    "city": "brant",
    "zip_code": "48614"
  },
  {
    "city": "prudenville",
    "zip_code": "48651"
  },
  {
    "city": "university center",
    "zip_code": "48710"
  },
  {
    "city": "caseville",
    "zip_code": "48725"
  },
  {
    "city": "curran",
    "zip_code": "48728"
  },
  {
    "city": "spruce",
    "zip_code": "48762"
  },
  {
    "city": "lake odessa",
    "zip_code": "48849"
  },
  {
    "city": "westphalia",
    "zip_code": "48894"
  },
  {
    "city": "mendon",
    "zip_code": "49072"
  },
  {
    "city": "nashville",
    "zip_code": "49073"
  },
  {
    "city": "allen",
    "zip_code": "49227"
  },
  {
    "city": "petersburg",
    "zip_code": "49270"
  },
  {
    "city": "sand creek",
    "zip_code": "49279"
  },
  {
    "city": "cedar springs",
    "zip_code": "49319"
  },
  {
    "city": "shelbyville",
    "zip_code": "49344"
  },
  {
    "city": "macatawa",
    "zip_code": "49434"
  },
  {
    "city": "evart",
    "zip_code": "49631"
  },
  {
    "city": "de tour village",
    "zip_code": "49725"
  },
  {
    "city": "allouez",
    "zip_code": "49805"
  },
  {
    "city": "wilson",
    "zip_code": "49896"
  },
  {
    "city": "calumet",
    "zip_code": "49913"
  },
  {
    "city": "chassell",
    "zip_code": "49916"
  },
  {
    "city": "columbia",
    "zip_code": "50057"
  },
  {
    "city": "galt",
    "zip_code": "50101"
  },
  {
    "city": "lacona",
    "zip_code": "50139"
  },
  {
    "city": "perry",
    "zip_code": "50220"
  },
  {
    "city": "yale",
    "zip_code": "50277"
  },
  {
    "city": "zearing",
    "zip_code": "50278"
  },
  {
    "city": "des moines",
    "zip_code": "50310"
  },
  {
    "city": "belmond",
    "zip_code": "50421"
  },
  {
    "city": "manly",
    "zip_code": "50456"
  },
  {
    "city": "saint ansgar",
    "zip_code": "50472"
  },
  {
    "city": "titonka",
    "zip_code": "50480"
  },
  {
    "city": "dolliver",
    "zip_code": "50531"
  },
  {
    "city": "goldfield",
    "zip_code": "50542"
  },
  {
    "city": "sioux city",
    "zip_code": "51103"
  },
  {
    "city": "harris",
    "zip_code": "51345"
  },
  {
    "city": "oakland",
    "zip_code": "51560"
  },
  {
    "city": "imogene",
    "zip_code": "51645"
  },
  {
    "city": "dubuque",
    "zip_code": "52002"
  },
  {
    "city": "garnavillo",
    "zip_code": "52049"
  },
  {
    "city": "sherrill",
    "zip_code": "52073"
  },
  {
    "city": "lowden",
    "zip_code": "52255"
  },
  {
    "city": "robins",
    "zip_code": "52328"
  },
  {
    "city": "hillsboro",
    "zip_code": "52630"
  },
  {
    "city": "wayland",
    "zip_code": "52654"
  },
  {
    "city": "iron ridge",
    "zip_code": "53035"
  },
  {
    "city": "west bend",
    "zip_code": "53095"
  },
  {
    "city": "delavan",
    "zip_code": "53115"
  },
  {
    "city": "milwaukee",
    "zip_code": "53204"
  },
  {
    "city": "milwaukee",
    "zip_code": "53208"
  },
  {
    "city": "milwaukee",
    "zip_code": "53218"
  },
  {
    "city": "barneveld",
    "zip_code": "53507"
  },
  {
    "city": "blue river",
    "zip_code": "53518"
  },
  {
    "city": "janesville",
    "zip_code": "53546"
  },
  {
    "city": "wonewoc",
    "zip_code": "53968"
  },
  {
    "city": "roberts",
    "zip_code": "54023"
  },
  {
    "city": "dunbar",
    "zip_code": "54119"
  },
  {
    "city": "ephraim",
    "zip_code": "54211"
  },
  {
    "city": "two rivers",
    "zip_code": "54241"
  },
  {
    "city": "bowler",
    "zip_code": "54416"
  },
  {
    "city": "bryant",
    "zip_code": "54418"
  },
  {
    "city": "tomahawk",
    "zip_code": "54487"
  },
  {
    "city": "dodge",
    "zip_code": "54625"
  },
  {
    "city": "centuria",
    "zip_code": "54824"
  },
  {
    "city": "leopolis",
    "zip_code": "54948"
  },
  {
    "city": "ripon",
    "zip_code": "54971"
  },
  {
    "city": "waukau",
    "zip_code": "54980"
  },
  {
    "city": "saint paul",
    "zip_code": "55103"
  },
  {
    "city": "hector",
    "zip_code": "55342"
  },
  {
    "city": "minneapolis",
    "zip_code": "55426"
  },
  {
    "city": "minneapolis",
    "zip_code": "55429"
  },
  {
    "city": "holyoke",
    "zip_code": "55749"
  },
  {
    "city": "sawyer",
    "zip_code": "55780"
  },
  {
    "city": "winona",
    "zip_code": "55987"
  },
  {
    "city": "delavan",
    "zip_code": "56023"
  },
  {
    "city": "jasper",
    "zip_code": "56144"
  },
  {
    "city": "worthington",
    "zip_code": "56187"
  },
  {
    "city": "greenwald",
    "zip_code": "56335"
  },
  {
    "city": "new munich",
    "zip_code": "56356"
  },
  {
    "city": "parkers prairie",
    "zip_code": "56361"
  },
  {
    "city": "brainerd",
    "zip_code": "56401"
  },
  {
    "city": "palisade",
    "zip_code": "56469"
  },
  {
    "city": "wadena",
    "zip_code": "56482"
  },
  {
    "city": "beltrami",
    "zip_code": "56517"
  },
  {
    "city": "halstad",
    "zip_code": "56548"
  },
  {
    "city": "new york mills",
    "zip_code": "56567"
  },
  {
    "city": "mizpah",
    "zip_code": "56660"
  },
  {
    "city": "puposky",
    "zip_code": "56667"
  },
  {
    "city": "fisher",
    "zip_code": "56723"
  },
  {
    "city": "salem",
    "zip_code": "57058"
  },
  {
    "city": "emery",
    "zip_code": "57332"
  },
  {
    "city": "fort thompson",
    "zip_code": "57339"
  },
  {
    "city": "lane",
    "zip_code": "57358"
  },
  {
    "city": "letcher",
    "zip_code": "57359"
  },
  {
    "city": "wessington",
    "zip_code": "57381"
  },
  {
    "city": "woonsocket",
    "zip_code": "57385"
  },
  {
    "city": "cando",
    "zip_code": "58324"
  },
  {
    "city": "fredonia",
    "zip_code": "58440"
  },
  {
    "city": "kensal",
    "zip_code": "58455"
  },
  {
    "city": "wishek",
    "zip_code": "58495"
  },
  {
    "city": "grassy butte",
    "zip_code": "58634"
  },
  {
    "city": "kramer",
    "zip_code": "58748"
  },
  {
    "city": "voltaire",
    "zip_code": "58792"
  },
  {
    "city": "wildrose",
    "zip_code": "58795"
  },
  {
    "city": "williston",
    "zip_code": "58801"
  },
  {
    "city": "alamo",
    "zip_code": "58830"
  },
  {
    "city": "bighorn",
    "zip_code": "59010"
  },
  {
    "city": "bridger",
    "zip_code": "59014"
  },
  {
    "city": "laurel",
    "zip_code": "59044"
  },
  {
    "city": "opheim",
    "zip_code": "59250"
  },
  {
    "city": "poplar",
    "zip_code": "59255"
  },
  {
    "city": "cohagen",
    "zip_code": "59322"
  },
  {
    "city": "ekalaka",
    "zip_code": "59324"
  },
  {
    "city": "volborg",
    "zip_code": "59351"
  },
  {
    "city": "cut bank",
    "zip_code": "59427"
  },
  {
    "city": "harrison",
    "zip_code": "59735"
  },
  {
    "city": "alberton",
    "zip_code": "59820"
  },
  {
    "city": "de borgia",
    "zip_code": "59830"
  },
  {
    "city": "trego",
    "zip_code": "59934"
  },
  {
    "city": "schiller park",
    "zip_code": "60176"
  },
  {
    "city": "oak park",
    "zip_code": "60302"
  },
  {
    "city": "dwight",
    "zip_code": "60420"
  },
  {
    "city": "hazel crest",
    "zip_code": "60429"
  },
  {
    "city": "joliet",
    "zip_code": "60436"
  },
  {
    "city": "richton park",
    "zip_code": "60471"
  },
  {
    "city": "somonauk",
    "zip_code": "60552"
  },
  {
    "city": "chicago",
    "zip_code": "60604"
  },
  {
    "city": "chicago",
    "zip_code": "60644"
  },
  {
    "city": "chicago",
    "zip_code": "60645"
  },
  {
    "city": "chicago",
    "zip_code": "60653"
  },
  {
    "city": "bradley",
    "zip_code": "60915"
  },
  {
    "city": "east lynn",
    "zip_code": "60932"
  },
  {
    "city": "ludlow",
    "zip_code": "60949"
  },
  {
    "city": "capron",
    "zip_code": "61012"
  },
  {
    "city": "lena",
    "zip_code": "61048"
  },
  {
    "city": "rock city",
    "zip_code": "61070"
  },
  {
    "city": "winnebago",
    "zip_code": "61088"
  },
  {
    "city": "erie",
    "zip_code": "61250"
  },
  {
    "city": "fulton",
    "zip_code": "61252"
  },
  {
    "city": "milan",
    "zip_code": "61264"
  },
  {
    "city": "blackstone",
    "zip_code": "61313"
  },
  {
    "city": "mendota",
    "zip_code": "61342"
  },
  {
    "city": "galesburg",
    "zip_code": "61401"
  },
  {
    "city": "adair",
    "zip_code": "61411"
  },
  {
    "city": "smithshire",
    "zip_code": "61478"
  },
  {
    "city": "dunlap",
    "zip_code": "61525"
  },
  {
    "city": "washburn",
    "zip_code": "61570"
  },
  {
    "city": "peoria heights",
    "zip_code": "61616"
  },
  {
    "city": "bloomington",
    "zip_code": "61704"
  },
  {
    "city": "armington",
    "zip_code": "61721"
  },
  {
    "city": "clinton",
    "zip_code": "61727"
  },
  {
    "city": "colfax",
    "zip_code": "61728"
  },
  {
    "city": "heyworth",
    "zip_code": "61745"
  },
  {
    "city": "hudson",
    "zip_code": "61748"
  },
  {
    "city": "lane",
    "zip_code": "61750"
  },
  {
    "city": "saunemin",
    "zip_code": "61769"
  },
  {
    "city": "urbana",
    "zip_code": "61802"
  },
  {
    "city": "indianola",
    "zip_code": "61850"
  },
  {
    "city": "edwardsville",
    "zip_code": "62025"
  },
  {
    "city": "sawyerville",
    "zip_code": "62085"
  },
  {
    "city": "bartelso",
    "zip_code": "62218"
  },
  {
    "city": "east carondelet",
    "zip_code": "62240"
  },
  {
    "city": "marissa",
    "zip_code": "62257"
  },
  {
    "city": "mascoutah",
    "zip_code": "62258"
  },
  {
    "city": "oakdale",
    "zip_code": "62268"
  },
  {
    "city": "lima",
    "zip_code": "62348"
  },
  {
    "city": "decatur",
    "zip_code": "62526"
  },
  {
    "city": "auburn",
    "zip_code": "62615"
  },
  {
    "city": "bath",
    "zip_code": "62617"
  },
  {
    "city": "springfield",
    "zip_code": "62704"
  },
  {
    "city": "springfield",
    "zip_code": "62712"
  },
  {
    "city": "barnhill",
    "zip_code": "62809"
  },
  {
    "city": "dale",
    "zip_code": "62829"
  },
  {
    "city": "macedonia",
    "zip_code": "62860"
  },
  {
    "city": "orient",
    "zip_code": "62874"
  },
  {
    "city": "sailor springs",
    "zip_code": "62879"
  },
  {
    "city": "cobden",
    "zip_code": "62920"
  },
  {
    "city": "jacob",
    "zip_code": "62950"
  },
  {
    "city": "jonesboro",
    "zip_code": "62952"
  },
  {
    "city": "pittsburg",
    "zip_code": "62974"
  },
  {
    "city": "saint louis",
    "zip_code": "63108"
  },
  {
    "city": "saint louis",
    "zip_code": "63114"
  },
  {
    "city": "bellflower",
    "zip_code": "63333"
  },
  {
    "city": "clarksville",
    "zip_code": "63336"
  },
  {
    "city": "foley",
    "zip_code": "63347"
  },
  {
    "city": "pollock",
    "zip_code": "63560"
  },
  {
    "city": "millersville",
    "zip_code": "63766"
  },
  {
    "city": "uniontown",
    "zip_code": "63783"
  },
  {
    "city": "whitewater",
    "zip_code": "63785"
  },
  {
    "city": "blodgett",
    "zip_code": "63824"
  },
  {
    "city": "bragg city",
    "zip_code": "63827"
  },
  {
    "city": "gibson",
    "zip_code": "63847"
  },
  {
    "city": "blue springs",
    "zip_code": "64014"
  },
  {
    "city": "camden point",
    "zip_code": "64018"
  },
  {
    "city": "kansas city",
    "zip_code": "64106"
  },
  {
    "city": "kansas city",
    "zip_code": "64110"
  },
  {
    "city": "kansas city",
    "zip_code": "64116"
  },
  {
    "city": "kansas city",
    "zip_code": "64117"
  },
  {
    "city": "kansas city",
    "zip_code": "64134"
  },
  {
    "city": "kansas city",
    "zip_code": "64157"
  },
  {
    "city": "kansas city",
    "zip_code": "64158"
  },
  {
    "city": "jameson",
    "zip_code": "64647"
  },
  {
    "city": "powersville",
    "zip_code": "64672"
  },
  {
    "city": "jasper",
    "zip_code": "64755"
  },
  {
    "city": "metz",
    "zip_code": "64765"
  },
  {
    "city": "rich hill",
    "zip_code": "64779"
  },
  {
    "city": "granby",
    "zip_code": "64844"
  },
  {
    "city": "stark city",
    "zip_code": "64866"
  },
  {
    "city": "belle",
    "zip_code": "65013"
  },
  {
    "city": "tebbetts",
    "zip_code": "65080"
  },
  {
    "city": "harrisburg",
    "zip_code": "65256"
  },
  {
    "city": "gilliam",
    "zip_code": "65330"
  },
  {
    "city": "fort leonard wood",
    "zip_code": "65473"
  },
  {
    "city": "licking",
    "zip_code": "65542"
  },
  {
    "city": "winona",
    "zip_code": "65588"
  },
  {
    "city": "polk",
    "zip_code": "65727"
  },
  {
    "city": "purdy",
    "zip_code": "65734"
  },
  {
    "city": "baldwin city",
    "zip_code": "66006"
  },
  {
    "city": "linwood",
    "zip_code": "66052"
  },
  {
    "city": "ottawa",
    "zip_code": "66067"
  },
  {
    "city": "pomona",
    "zip_code": "66076"
  },
  {
    "city": "kansas city",
    "zip_code": "66105"
  },
  {
    "city": "leawood",
    "zip_code": "66206"
  },
  {
    "city": "blue rapids",
    "zip_code": "66411"
  },
  {
    "city": "erie",
    "zip_code": "66733"
  },
  {
    "city": "hartford",
    "zip_code": "66854"
  },
  {
    "city": "clyde",
    "zip_code": "66938"
  },
  {
    "city": "morrowville",
    "zip_code": "66958"
  },
  {
    "city": "douglass",
    "zip_code": "67039"
  },
  {
    "city": "mount hope",
    "zip_code": "67108"
  },
  {
    "city": "murdock",
    "zip_code": "67111"
  },
  {
    "city": "oxford",
    "zip_code": "67119"
  },
  {
    "city": "cherryvale",
    "zip_code": "67335"
  },
  {
    "city": "howard",
    "zip_code": "67349"
  },
  {
    "city": "kanopolis",
    "zip_code": "67454"
  },
  {
    "city": "hutchinson",
    "zip_code": "67502"
  },
  {
    "city": "olmitz",
    "zip_code": "67564"
  },
  {
    "city": "kendall",
    "zip_code": "67857"
  },
  {
    "city": "syracuse",
    "zip_code": "67878"
  },
  {
    "city": "cedar creek",
    "zip_code": "68016"
  },
  {
    "city": "rosalie",
    "zip_code": "68055"
  },
  {
    "city": "thurston",
    "zip_code": "68062"
  },
  {
    "city": "omaha",
    "zip_code": "68110"
  },
  {
    "city": "omaha",
    "zip_code": "68132"
  },
  {
    "city": "omaha",
    "zip_code": "68134"
  },
  {
    "city": "belvidere",
    "zip_code": "68315"
  },
  {
    "city": "douglas",
    "zip_code": "68344"
  },
  {
    "city": "humboldt",
    "zip_code": "68376"
  },
  {
    "city": "salem",
    "zip_code": "68433"
  },
  {
    "city": "stella",
    "zip_code": "68442"
  },
  {
    "city": "lincoln",
    "zip_code": "68507"
  },
  {
    "city": "duncan",
    "zip_code": "68634"
  },
  {
    "city": "allen",
    "zip_code": "68710"
  },
  {
    "city": "emerson",
    "zip_code": "68733"
  },
  {
    "city": "edgar",
    "zip_code": "68935"
  },
  {
    "city": "saronville",
    "zip_code": "68975"
  },
  {
    "city": "mccook",
    "zip_code": "69001"
  },
  {
    "city": "enders",
    "zip_code": "69027"
  },
  {
    "city": "farnam",
    "zip_code": "69029"
  },
  {
    "city": "cody",
    "zip_code": "69211"
  },
  {
    "city": "crawford",
    "zip_code": "69339"
  },
  {
    "city": "melbeta",
    "zip_code": "69355"
  },
  {
    "city": "morrill",
    "zip_code": "69358"
  },
  {
    "city": "lockport",
    "zip_code": "70374"
  },
  {
    "city": "napoleonville",
    "zip_code": "70390"
  },
  {
    "city": "abbeville",
    "zip_code": "70510"
  },
  {
    "city": "arnaudville",
    "zip_code": "70512"
  },
  {
    "city": "egan",
    "zip_code": "70531"
  },
  {
    "city": "jennings",
    "zip_code": "70546"
  },
  {
    "city": "carville",
    "zip_code": "70721"
  },
  {
    "city": "fordoche",
    "zip_code": "70732"
  },
  {
    "city": "saint gabriel",
    "zip_code": "70776"
  },
  {
    "city": "sorrento",
    "zip_code": "70778"
  },
  {
    "city": "haughton",
    "zip_code": "71037"
  },
  {
    "city": "lisbon",
    "zip_code": "71048"
  },
  {
    "city": "epps",
    "zip_code": "71237"
  },
  {
    "city": "jonesville",
    "zip_code": "71343"
  },
  {
    "city": "pollock",
    "zip_code": "71467"
  },
  {
    "city": "banks",
    "zip_code": "71631"
  },
  {
    "city": "kingsland",
    "zip_code": "71652"
  },
  {
    "city": "portland",
    "zip_code": "71663"
  },
  {
    "city": "fordyce",
    "zip_code": "71742"
  },
  {
    "city": "gurdon",
    "zip_code": "71743"
  },
  {
    "city": "smackover",
    "zip_code": "71762"
  },
  {
    "city": "emmet",
    "zip_code": "71835"
  },
  {
    "city": "gillham",
    "zip_code": "71841"
  },
  {
    "city": "conway",
    "zip_code": "72034"
  },
  {
    "city": "hunter",
    "zip_code": "72074"
  },
  {
    "city": "keo",
    "zip_code": "72083"
  },
  {
    "city": "gilmore",
    "zip_code": "72339"
  },
  {
    "city": "lambrook",
    "zip_code": "72353"
  },
  {
    "city": "jonesboro",
    "zip_code": "72404"
  },
  {
    "city": "camp",
    "zip_code": "72520"
  },
  {
    "city": "eureka springs",
    "zip_code": "72631"
  },
  {
    "city": "saint joe",
    "zip_code": "72675"
  },
  {
    "city": "tilly",
    "zip_code": "72679"
  },
  {
    "city": "dover",
    "zip_code": "72837"
  },
  {
    "city": "knoxville",
    "zip_code": "72845"
  },
  {
    "city": "rover",
    "zip_code": "72860"
  },
  {
    "city": "natural dam",
    "zip_code": "72948"
  },
  {
    "city": "edmond",
    "zip_code": "73003"
  },
  {
    "city": "morrison",
    "zip_code": "73061"
  },
  {
    "city": "purcell",
    "zip_code": "73080"
  },
  {
    "city": "verden",
    "zip_code": "73092"
  },
  {
    "city": "oklahoma city",
    "zip_code": "73105"
  },
  {
    "city": "oklahoma city",
    "zip_code": "73109"
  },
  {
    "city": "davidson",
    "zip_code": "73530"
  },
  {
    "city": "alva",
    "zip_code": "73717"
  },
  {
    "city": "hitchcock",
    "zip_code": "73744"
  },
  {
    "city": "fort supply",
    "zip_code": "73841"
  },
  {
    "city": "glencoe",
    "zip_code": "74032"
  },
  {
    "city": "glenpool",
    "zip_code": "74033"
  },
  {
    "city": "nowata",
    "zip_code": "74048"
  },
  {
    "city": "ripley",
    "zip_code": "74062"
  },
  {
    "city": "tulsa",
    "zip_code": "74116"
  },
  {
    "city": "beggs",
    "zip_code": "74421"
  },
  {
    "city": "porum",
    "zip_code": "74455"
  },
  {
    "city": "atoka",
    "zip_code": "74525"
  },
  {
    "city": "wardville",
    "zip_code": "74576"
  },
  {
    "city": "dustin",
    "zip_code": "74839"
  },
  {
    "city": "seminole",
    "zip_code": "74868"
  },
  {
    "city": "stonewall",
    "zip_code": "74871"
  },
  {
    "city": "wellston",
    "zip_code": "74881"
  },
  {
    "city": "celina",
    "zip_code": "75009"
  },
  {
    "city": "plano",
    "zip_code": "75094"
  },
  {
    "city": "waxahachie",
    "zip_code": "75165"
  },
  {
    "city": "wills point",
    "zip_code": "75169"
  },
  {
    "city": "dallas",
    "zip_code": "75205"
  },
  {
    "city": "dallas",
    "zip_code": "75209"
  },
  {
    "city": "dallas",
    "zip_code": "75287"
  },
  {
    "city": "longview",
    "zip_code": "75601"
  },
  {
    "city": "daingerfield",
    "zip_code": "75638"
  },
  {
    "city": "murchison",
    "zip_code": "75778"
  },
  {
    "city": "reklaw",
    "zip_code": "75784"
  },
  {
    "city": "montalba",
    "zip_code": "75853"
  },
  {
    "city": "moscow",
    "zip_code": "75960"
  },
  {
    "city": "timpson",
    "zip_code": "75975"
  },
  {
    "city": "fort worth",
    "zip_code": "76114"
  },
  {
    "city": "denton",
    "zip_code": "76205"
  },
  {
    "city": "rosston",
    "zip_code": "76263"
  },
  {
    "city": "wichita falls",
    "zip_code": "76310"
  },
  {
    "city": "seymour",
    "zip_code": "76380"
  },
  {
    "city": "windthorst",
    "zip_code": "76389"
  },
  {
    "city": "gorman",
    "zip_code": "76454"
  },
  {
    "city": "blooming grove",
    "zip_code": "76626"
  },
  {
    "city": "bynum",
    "zip_code": "76631"
  },
  {
    "city": "art",
    "zip_code": "76820"
  },
  {
    "city": "voca",
    "zip_code": "76887"
  },
  {
    "city": "houston",
    "zip_code": "77023"
  },
  {
    "city": "houston",
    "zip_code": "77063"
  },
  {
    "city": "houston",
    "zip_code": "77066"
  },
  {
    "city": "houston",
    "zip_code": "77088"
  },
  {
    "city": "conroe",
    "zip_code": "77304"
  },
  {
    "city": "cleveland",
    "zip_code": "77327"
  },
  {
    "city": "goodrich",
    "zip_code": "77335"
  },
  {
    "city": "danevang",
    "zip_code": "77432"
  },
  {
    "city": "egypt",
    "zip_code": "77436"
  },
  {
    "city": "hempstead",
    "zip_code": "77445"
  },
  {
    "city": "katy",
    "zip_code": "77449"
  },
  {
    "city": "katy",
    "zip_code": "77494"
  },
  {
    "city": "santa fe",
    "zip_code": "77517"
  },
  {
    "city": "daisetta",
    "zip_code": "77533"
  },
  {
    "city": "hillister",
    "zip_code": "77624"
  },
  {
    "city": "spurger",
    "zip_code": "77660"
  },
  {
    "city": "beaumont",
    "zip_code": "77713"
  },
  {
    "city": "bedias",
    "zip_code": "77831"
  },
  {
    "city": "brenham",
    "zip_code": "77833"
  },
  {
    "city": "washington",
    "zip_code": "77880"
  },
  {
    "city": "helotes",
    "zip_code": "78023"
  },
  {
    "city": "laredo",
    "zip_code": "78041"
  },
  {
    "city": "laredo",
    "zip_code": "78044"
  },
  {
    "city": "laredo",
    "zip_code": "78045"
  },
  {
    "city": "moore",
    "zip_code": "78057"
  },
  {
    "city": "somerset",
    "zip_code": "78069"
  },
  {
    "city": "san antonio",
    "zip_code": "78228"
  },
  {
    "city": "jbsa lackland",
    "zip_code": "78236"
  },
  {
    "city": "san antonio",
    "zip_code": "78259"
  },
  {
    "city": "corpus christi",
    "zip_code": "78406"
  },
  {
    "city": "alamo",
    "zip_code": "78516"
  },
  {
    "city": "la feria",
    "zip_code": "78559"
  },
  {
    "city": "los fresnos",
    "zip_code": "78566"
  },
  {
    "city": "austin",
    "zip_code": "78719"
  },
  {
    "city": "austin",
    "zip_code": "78732"
  },
  {
    "city": "austin",
    "zip_code": "78736"
  },
  {
    "city": "hondo",
    "zip_code": "78861"
  },
  {
    "city": "hale center",
    "zip_code": "79041"
  },
  {
    "city": "amarillo",
    "zip_code": "79118"
  },
  {
    "city": "dodson",
    "zip_code": "79230"
  },
  {
    "city": "flomot",
    "zip_code": "79234"
  },
  {
    "city": "memphis",
    "zip_code": "79245"
  },
  {
    "city": "odell",
    "zip_code": "79247"
  },
  {
    "city": "paducah",
    "zip_code": "79248"
  },
  {
    "city": "welch",
    "zip_code": "79377"
  },
  {
    "city": "roby",
    "zip_code": "79543"
  },
  {
    "city": "crane",
    "zip_code": "79731"
  },
  {
    "city": "el paso",
    "zip_code": "79922"
  },
  {
    "city": "arvada",
    "zip_code": "80005"
  },
  {
    "city": "broomfield",
    "zip_code": "80023"
  },
  {
    "city": "littleton",
    "zip_code": "80127"
  },
  {
    "city": "monument",
    "zip_code": "80132"
  },
  {
    "city": "denver",
    "zip_code": "80220"
  },
  {
    "city": "denver",
    "zip_code": "80233"
  },
  {
    "city": "indian hills",
    "zip_code": "80454"
  },
  {
    "city": "pine",
    "zip_code": "80470"
  },
  {
    "city": "tabernash",
    "zip_code": "80478"
  },
  {
    "city": "silverthorne",
    "zip_code": "80497"
  },
  {
    "city": "drake",
    "zip_code": "80515"
  },
  {
    "city": "erie",
    "zip_code": "80516"
  },
  {
    "city": "fort collins",
    "zip_code": "80525"
  },
  {
    "city": "la salle",
    "zip_code": "80645"
  },
  {
    "city": "wiggins",
    "zip_code": "80654"
  },
  {
    "city": "lindon",
    "zip_code": "80740"
  },
  {
    "city": "karval",
    "zip_code": "80823"
  },
  {
    "city": "stratton",
    "zip_code": "80836"
  },
  {
    "city": "usaf academy",
    "zip_code": "80840"
  },
  {
    "city": "colorado springs",
    "zip_code": "80938"
  },
  {
    "city": "pueblo",
    "zip_code": "81001"
  },
  {
    "city": "walsh",
    "zip_code": "81090"
  },
  {
    "city": "poncha springs",
    "zip_code": "81242"
  },
  {
    "city": "powderhorn",
    "zip_code": "81243"
  },
  {
    "city": "twin lakes",
    "zip_code": "81251"
  },
  {
    "city": "grand junction",
    "zip_code": "81501"
  },
  {
    "city": "bosler",
    "zip_code": "82051"
  },
  {
    "city": "aladdin",
    "zip_code": "82710"
  },
  {
    "city": "gillette",
    "zip_code": "82718"
  },
  {
    "city": "big piney",
    "zip_code": "83113"
  },
  {
    "city": "saint anthony",
    "zip_code": "83445"
  },
  {
    "city": "bayview",
    "zip_code": "83803"
  },
  {
    "city": "blanchard",
    "zip_code": "83804"
  },
  {
    "city": "oldtown",
    "zip_code": "83822"
  },
  {
    "city": "moscow",
    "zip_code": "83844"
  },
  {
    "city": "moyie springs",
    "zip_code": "83845"
  },
  {
    "city": "plummer",
    "zip_code": "83851"
  },
  {
    "city": "jensen",
    "zip_code": "84035"
  },
  {
    "city": "stockton",
    "zip_code": "84071"
  },
  {
    "city": "logan",
    "zip_code": "84321"
  },
  {
    "city": "riverside",
    "zip_code": "84334"
  },
  {
    "city": "helper",
    "zip_code": "84526"
  },
  {
    "city": "sunnyside",
    "zip_code": "84539"
  },
  {
    "city": "hinckley",
    "zip_code": "84635"
  },
  {
    "city": "lynndyl",
    "zip_code": "84640"
  },
  {
    "city": "gunlock",
    "zip_code": "84733"
  },
  {
    "city": "hildale",
    "zip_code": "84784"
  },
  {
    "city": "phoenix",
    "zip_code": "85033"
  },
  {
    "city": "phoenix",
    "zip_code": "85054"
  },
  {
    "city": "maricopa",
    "zip_code": "85138"
  },
  {
    "city": "casa grande",
    "zip_code": "85193"
  },
  {
    "city": "ajo",
    "zip_code": "85321"
  },
  {
    "city": "youngtown",
    "zip_code": "85363"
  },
  {
    "city": "carefree",
    "zip_code": "85377"
  },
  {
    "city": "douglas",
    "zip_code": "85608"
  },
  {
    "city": "mcneal",
    "zip_code": "85617"
  },
  {
    "city": "nogales",
    "zip_code": "85621"
  },
  {
    "city": "mcnary",
    "zip_code": "85930"
  },
  {
    "city": "kayenta",
    "zip_code": "86033"
  },
  {
    "city": "prescott",
    "zip_code": "86301"
  },
  {
    "city": "camp verde",
    "zip_code": "86322"
  },
  {
    "city": "lupton",
    "zip_code": "86508"
  },
  {
    "city": "bosque",
    "zip_code": "87006"
  },
  {
    "city": "counselor",
    "zip_code": "87018"
  },
  {
    "city": "albuquerque",
    "zip_code": "87121"
  },
  {
    "city": "gallup",
    "zip_code": "87305"
  },
  {
    "city": "thoreau",
    "zip_code": "87323"
  },
  {
    "city": "navajo",
    "zip_code": "87328"
  },
  {
    "city": "santa fe",
    "zip_code": "87505"
  },
  {
    "city": "dixon",
    "zip_code": "87527"
  },
  {
    "city": "embudo",
    "zip_code": "87531"
  },
  {
    "city": "lemitar",
    "zip_code": "87823"
  },
  {
    "city": "quemado",
    "zip_code": "87829"
  },
  {
    "city": "faywood",
    "zip_code": "88034"
  },
  {
    "city": "silver city",
    "zip_code": "88061"
  },
  {
    "city": "causey",
    "zip_code": "88113"
  },
  {
    "city": "tucumcari",
    "zip_code": "88401"
  },
  {
    "city": "beatty",
    "zip_code": "89003"
  },
  {
    "city": "indian springs",
    "zip_code": "89018"
  },
  {
    "city": "las vegas",
    "zip_code": "89149"
  },
  {
    "city": "duckwater",
    "zip_code": "89314"
  },
  {
    "city": "gabbs",
    "zip_code": "89409"
  },
  {
    "city": "verdi",
    "zip_code": "89439"
  },
  {
    "city": "mountain city",
    "zip_code": "89831"
  },
  {
    "city": "los angeles",
    "zip_code": "90064"
  },
  {
    "city": "maywood",
    "zip_code": "90270"
  },
  {
    "city": "pasadena",
    "zip_code": "91105"
  },
  {
    "city": "glendale",
    "zip_code": "91203"
  },
  {
    "city": "sherman oaks",
    "zip_code": "91403"
  },
  {
    "city": "burbank",
    "zip_code": "91502"
  },
  {
    "city": "north hollywood",
    "zip_code": "91606"
  },
  {
    "city": "rancho cucamonga",
    "zip_code": "91739"
  },
  {
    "city": "montclair",
    "zip_code": "91763"
  },
  {
    "city": "temple city",
    "zip_code": "91780"
  },
  {
    "city": "chula vista",
    "zip_code": "91911"
  },
  {
    "city": "imperial beach",
    "zip_code": "91932"
  },
  {
    "city": "el cajon",
    "zip_code": "92020"
  },
  {
    "city": "escondido",
    "zip_code": "92027"
  },
  {
    "city": "san diego",
    "zip_code": "92101"
  },
  {
    "city": "niland",
    "zip_code": "92257"
  },
  {
    "city": "apple valley",
    "zip_code": "92307"
  },
  {
    "city": "lake arrowhead",
    "zip_code": "92352"
  },
  {
    "city": "tecopa",
    "zip_code": "92389"
  },
  {
    "city": "riverside",
    "zip_code": "92506"
  },
  {
    "city": "anaheim",
    "zip_code": "92802"
  },
  {
    "city": "ojai",
    "zip_code": "93023"
  },
  {
    "city": "strathmore",
    "zip_code": "93267"
  },
  {
    "city": "grover beach",
    "zip_code": "93433"
  },
  {
    "city": "llano",
    "zip_code": "93544"
  },
  {
    "city": "olancha",
    "zip_code": "93549"
  },
  {
    "city": "fresno",
    "zip_code": "93726"
  },
  {
    "city": "pacific grove",
    "zip_code": "93950"
  },
  {
    "city": "american canyon",
    "zip_code": "94503"
  },
  {
    "city": "antioch",
    "zip_code": "94531"
  },
  {
    "city": "lafayette",
    "zip_code": "94549"
  },
  {
    "city": "oakland",
    "zip_code": "94619"
  },
  {
    "city": "berkeley",
    "zip_code": "94709"
  },
  {
    "city": "berkeley",
    "zip_code": "94710"
  },
  {
    "city": "berkeley",
    "zip_code": "94720"
  },
  {
    "city": "forest knolls",
    "zip_code": "94933"
  },
  {
    "city": "penngrove",
    "zip_code": "94951"
  },
  {
    "city": "morgan hill",
    "zip_code": "95037"
  },
  {
    "city": "santa clara",
    "zip_code": "95050"
  },
  {
    "city": "san jose",
    "zip_code": "95110"
  },
  {
    "city": "san jose",
    "zip_code": "95121"
  },
  {
    "city": "mount hamilton",
    "zip_code": "95140"
  },
  {
    "city": "holt",
    "zip_code": "95234"
  },
  {
    "city": "valley springs",
    "zip_code": "95252"
  },
  {
    "city": "columbia",
    "zip_code": "95310"
  },
  {
    "city": "escalon",
    "zip_code": "95320"
  },
  {
    "city": "patterson",
    "zip_code": "95363"
  },
  {
    "city": "redwood valley",
    "zip_code": "95470"
  },
  {
    "city": "alderpoint",
    "zip_code": "95511"
  },
  {
    "city": "arcata",
    "zip_code": "95521"
  },
  {
    "city": "orleans",
    "zip_code": "95556"
  },
  {
    "city": "samoa",
    "zip_code": "95564"
  },
  {
    "city": "carmichael",
    "zip_code": "95608"
  },
  {
    "city": "clarksburg",
    "zip_code": "95612"
  },
  {
    "city": "elk grove",
    "zip_code": "95624"
  },
  {
    "city": "galt",
    "zip_code": "95632"
  },
  {
    "city": "river pines",
    "zip_code": "95675"
  },
  {
    "city": "sacramento",
    "zip_code": "95811"
  },
  {
    "city": "sacramento",
    "zip_code": "95816"
  },
  {
    "city": "sacramento",
    "zip_code": "95824"
  },
  {
    "city": "nevada city",
    "zip_code": "95959"
  },
  {
    "city": "big bar",
    "zip_code": "96010"
  },
  {
    "city": "gerber",
    "zip_code": "96035"
  },
  {
    "city": "greenview",
    "zip_code": "96037"
  },
  {
    "city": "happy camp",
    "zip_code": "96039"
  },
  {
    "city": "nubieber",
    "zip_code": "96068"
  },
  {
    "city": "anahola",
    "zip_code": "96703"
  },
  {
    "city": "ookala",
    "zip_code": "96774"
  },
  {
    "city": "seaside",
    "zip_code": "97138"
  },
  {
    "city": "portland",
    "zip_code": "97220"
  },
  {
    "city": "aumsville",
    "zip_code": "97325"
  },
  {
    "city": "halsey",
    "zip_code": "97348"
  },
  {
    "city": "shedd",
    "zip_code": "97377"
  },
  {
    "city": "blue river",
    "zip_code": "97413"
  },
  {
    "city": "harrisburg",
    "zip_code": "97446"
  },
  {
    "city": "sixes",
    "zip_code": "97476"
  },
  {
    "city": "walterville",
    "zip_code": "97489"
  },
  {
    "city": "cave junction",
    "zip_code": "97523"
  },
  {
    "city": "sprague river",
    "zip_code": "97639"
  },
  {
    "city": "huntington",
    "zip_code": "97907"
  },
  {
    "city": "vale",
    "zip_code": "97918"
  },
  {
    "city": "preston",
    "zip_code": "98050"
  },
  {
    "city": "sammamish",
    "zip_code": "98075"
  },
  {
    "city": "auburn",
    "zip_code": "98092"
  },
  {
    "city": "seattle",
    "zip_code": "98144"
  },
  {
    "city": "marysville",
    "zip_code": "98270"
  },
  {
    "city": "hansville",
    "zip_code": "98340"
  },
  {
    "city": "long lake",
    "zip_code": "57457"
  },
  {
    "city": "rapid city",
    "zip_code": "57703"
  },
  {
    "city": "piedmont",
    "zip_code": "57769"
  },
  {
    "city": "kathryn",
    "zip_code": "58049"
  },
  {
    "city": "oriska",
    "zip_code": "58063"
  },
  {
    "city": "grand forks afb",
    "zip_code": "58205"
  },
  {
    "city": "grafton",
    "zip_code": "58237"
  },
  {
    "city": "minnewaukan",
    "zip_code": "58351"
  },
  {
    "city": "lehr",
    "zip_code": "58460"
  },
  {
    "city": "silverdale",
    "zip_code": "98383"
  },
  {
    "city": "ryderwood",
    "zip_code": "98581"
  },
  {
    "city": "woodland",
    "zip_code": "98674"
  },
  {
    "city": "mansfield",
    "zip_code": "98830"
  },
  {
    "city": "stratford",
    "zip_code": "98853"
  },
  {
    "city": "cle elum",
    "zip_code": "98922"
  },
  {
    "city": "elk",
    "zip_code": "99009"
  },
  {
    "city": "colton",
    "zip_code": "99113"
  },
  {
    "city": "garfield",
    "zip_code": "99130"
  },
  {
    "city": "pullman",
    "zip_code": "99164"
  },
  {
    "city": "spokane",
    "zip_code": "99202"
  },
  {
    "city": "spokane",
    "zip_code": "99204"
  },
  {
    "city": "kahlotus",
    "zip_code": "99335"
  },
  {
    "city": "kennewick",
    "zip_code": "99336"
  },
  {
    "city": "anatone",
    "zip_code": "99401"
  },
  {
    "city": "kwigillingok",
    "zip_code": "99622"
  },
  {
    "city": "soldotna",
    "zip_code": "99669"
  },
  {
    "city": "huslia",
    "zip_code": "99746"
  },
  {
    "city": "kaktovik",
    "zip_code": "99747"
  },
  {
    "city": "lake minchumina",
    "zip_code": "99757"
  },
  {
    "city": "petersburg",
    "zip_code": "99833"
  },
  {
    "city": "thorne bay",
    "zip_code": "99919"
  },
  {
    "city": "rupert",
    "zip_code": "31081"
  },
  {
    "city": "seville",
    "zip_code": "31084"
  },
  {
    "city": "vienna",
    "zip_code": "31092"
  },
  {
    "city": "midway",
    "zip_code": "31320"
  },
  {
    "city": "pembroke",
    "zip_code": "31321"
  },
  {
    "city": "springfield",
    "zip_code": "31329"
  },
  {
    "city": "savannah",
    "zip_code": "31419"
  },
  {
    "city": "douglas",
    "zip_code": "31535"
  },
  {
    "city": "saint george",
    "zip_code": "31562"
  },
  {
    "city": "boston",
    "zip_code": "31626"
  },
  {
    "city": "du pont",
    "zip_code": "31630"
  },
  {
    "city": "cobb",
    "zip_code": "31735"
  },
  {
    "city": "columbus",
    "zip_code": "31907"
  },
  {
    "city": "saint augustine",
    "zip_code": "32086"
  },
  {
    "city": "daytona beach",
    "zip_code": "32119"
  },
  {
    "city": "jacksonville",
    "zip_code": "32216"
  },
  {
    "city": "panama city",
    "zip_code": "32404"
  },
  {
    "city": "defuniak springs",
    "zip_code": "32433"
  },
  {
    "city": "pensacola",
    "zip_code": "32508"
  },
  {
    "city": "miramar beach",
    "zip_code": "32550"
  },
  {
    "city": "brooker",
    "zip_code": "32622"
  },
  {
    "city": "apopka",
    "zip_code": "32703"
  },
  {
    "city": "osteen",
    "zip_code": "32764"
  },
  {
    "city": "coral springs",
    "zip_code": "33065"
  },
  {
    "city": "fort lauderdale",
    "zip_code": "33315"
  },
  {
    "city": "west palm beach",
    "zip_code": "33415"
  },
  {
    "city": "clearwater",
    "zip_code": "33761"
  },
  {
    "city": "haines city",
    "zip_code": "33844"
  },
  {
    "city": "intercession city",
    "zip_code": "33848"
  },
  {
    "city": "lake wales",
    "zip_code": "33898"
  },
  {
    "city": "fort myers",
    "zip_code": "33907"
  },
  {
    "city": "north fort myers",
    "zip_code": "33917"
  },
  {
    "city": "cape coral",
    "zip_code": "33993"
  },
  {
    "city": "bonita springs",
    "zip_code": "34135"
  },
  {
    "city": "sarasota",
    "zip_code": "34238"
  },
  {
    "city": "sarasota",
    "zip_code": "34241"
  },
  {
    "city": "north port",
    "zip_code": "34289"
  },
  {
    "city": "dunnellon",
    "zip_code": "34433"
  },
  {
    "city": "yankeetown",
    "zip_code": "34498"
  },
  {
    "city": "land o'lakes",
    "zip_code": "34637"
  },
  {
    "city": "fort pierce",
    "zip_code": "34947"
  },
  {
    "city": "fort pierce",
    "zip_code": "34949"
  },
  {
    "city": "fort pierce",
    "zip_code": "34982"
  },
  {
    "city": "bessemer",
    "zip_code": "35022"
  },
  {
    "city": "hartselle",
    "zip_code": "35640"
  },
  {
    "city": "lester",
    "zip_code": "35647"
  },
  {
    "city": "rogersville",
    "zip_code": "35652"
  },
  {
    "city": "somerville",
    "zip_code": "35670"
  },
  {
    "city": "new market",
    "zip_code": "35761"
  },
  {
    "city": "prattville",
    "zip_code": "36067"
  },
  {
    "city": "rutledge",
    "zip_code": "36071"
  },
  {
    "city": "dothan",
    "zip_code": "36305"
  },
  {
    "city": "newton",
    "zip_code": "36352"
  },
  {
    "city": "fort rucker",
    "zip_code": "36362"
  },
  {
    "city": "repton",
    "zip_code": "36475"
  },
  {
    "city": "gainestown",
    "zip_code": "36540"
  },
  {
    "city": "orange beach",
    "zip_code": "36561"
  },
  {
    "city": "point clear",
    "zip_code": "36564"
  },
  {
    "city": "mobile",
    "zip_code": "36604"
  },
  {
    "city": "mobile",
    "zip_code": "36693"
  },
  {
    "city": "mobile",
    "zip_code": "36695"
  },
  {
    "city": "selma",
    "zip_code": "36703"
  },
  {
    "city": "auburn university",
    "zip_code": "36849"
  },
  {
    "city": "cusseta",
    "zip_code": "36852"
  },
  {
    "city": "greenbrier",
    "zip_code": "37073"
  },
  {
    "city": "lascassas",
    "zip_code": "37085"
  },
  {
    "city": "lewisburg",
    "zip_code": "37091"
  },
  {
    "city": "coalmont",
    "zip_code": "37313"
  },
  {
    "city": "chattanooga",
    "zip_code": "37404"
  },
  {
    "city": "chattanooga",
    "zip_code": "37408"
  },
  {
    "city": "rugby",
    "zip_code": "37733"
  },
  {
    "city": "jefferson city",
    "zip_code": "37760"
  },
  {
    "city": "knoxville",
    "zip_code": "37909"
  },
  {
    "city": "memphis",
    "zip_code": "38112"
  },
  {
    "city": "rives",
    "zip_code": "38253"
  },
  {
    "city": "bethel springs",
    "zip_code": "38315"
  },
  {
    "city": "luray",
    "zip_code": "38352"
  },
  {
    "city": "medon",
    "zip_code": "38356"
  },
  {
    "city": "lawrenceburg",
    "zip_code": "38464"
  },
  {
    "city": "summertown",
    "zip_code": "38483"
  },
  {
    "city": "myrtle",
    "zip_code": "38650"
  },
  {
    "city": "walnut",
    "zip_code": "38683"
  },
  {
    "city": "pontotoc",
    "zip_code": "38863"
  },
  {
    "city": "philipp",
    "zip_code": "38950"
  },
  {
    "city": "swan lake",
    "zip_code": "38958"
  },
  {
    "city": "utica",
    "zip_code": "39175"
  },
  {
    "city": "meridian",
    "zip_code": "39309"
  },
  {
    "city": "stonewall",
    "zip_code": "39363"
  },
  {
    "city": "waynesboro",
    "zip_code": "39367"
  },
  {
    "city": "carson",
    "zip_code": "39427"
  },
  {
    "city": "columbia",
    "zip_code": "39429"
  },
  {
    "city": "gulfport",
    "zip_code": "39503"
  },
  {
    "city": "gautier",
    "zip_code": "39553"
  },
  {
    "city": "columbus",
    "zip_code": "39702"
  },
  {
    "city": "arlington",
    "zip_code": "39813"
  },
  {
    "city": "fairfield",
    "zip_code": "40020"
  },
  {
    "city": "louisville",
    "zip_code": "40223"
  },
  {
    "city": "waco",
    "zip_code": "40385"
  },
  {
    "city": "lexington",
    "zip_code": "40515"
  },
  {
    "city": "hoskinston",
    "zip_code": "40844"
  },
  {
    "city": "artemus",
    "zip_code": "40903"
  },
  {
    "city": "frakes",
    "zip_code": "40940"
  },
  {
    "city": "girdler",
    "zip_code": "40943"
  },
  {
    "city": "blaine",
    "zip_code": "41124"
  },
  {
    "city": "mize",
    "zip_code": "41352"
  },
  {
    "city": "south williamson",
    "zip_code": "41503"
  },
  {
    "city": "regina",
    "zip_code": "41559"
  },
  {
    "city": "beaver",
    "zip_code": "41604"
  },
  {
    "city": "gunlock",
    "zip_code": "41632"
  },
  {
    "city": "dwarf",
    "zip_code": "41739"
  },
  {
    "city": "happy",
    "zip_code": "41746"
  },
  {
    "city": "hyden",
    "zip_code": "41749"
  },
  {
    "city": "vest",
    "zip_code": "41772"
  },
  {
    "city": "letcher",
    "zip_code": "41832"
  },
  {
    "city": "lewisburg",
    "zip_code": "42256"
  },
  {
    "city": "ashley",
    "zip_code": "43003"
  },
  {
    "city": "dublin",
    "zip_code": "43016"
  },
  {
    "city": "kilbourne",
    "zip_code": "43032"
  },
  {
    "city": "sunbury",
    "zip_code": "43074"
  },
  {
    "city": "brice",
    "zip_code": "43109"
  },
  {
    "city": "columbus",
    "zip_code": "43203"
  },
  {
    "city": "east liberty",
    "zip_code": "43319"
  },
  {
    "city": "curtice",
    "zip_code": "43412"
  },
  {
    "city": "edgerton",
    "zip_code": "43517"
  },
  {
    "city": "toledo",
    "zip_code": "43617"
  },
  {
    "city": "chesterhill",
    "zip_code": "43728"
  },
  {
    "city": "gratiot",
    "zip_code": "43740"
  },
  {
    "city": "junction city",
    "zip_code": "43748"
  },
  {
    "city": "chardon",
    "zip_code": "44024"
  },
  {
    "city": "dorset",
    "zip_code": "44032"
  },
  {
    "city": "lorain",
    "zip_code": "44053"
  },
  {
    "city": "cleveland",
    "zip_code": "44103"
  },
  {
    "city": "cleveland",
    "zip_code": "44108"
  },
  {
    "city": "hinckley",
    "zip_code": "44233"
  },
  {
    "city": "akron",
    "zip_code": "44301"
  },
  {
    "city": "brookfield",
    "zip_code": "44403"
  },
  {
    "city": "fowler",
    "zip_code": "44418"
  },
  {
    "city": "petersburg",
    "zip_code": "44454"
  },
  {
    "city": "struthers",
    "zip_code": "44471"
  },
  {
    "city": "apple creek",
    "zip_code": "44606"
  },
  {
    "city": "killbuck",
    "zip_code": "44637"
  },
  {
    "city": "uhrichsville",
    "zip_code": "44683"
  },
  {
    "city": "nevada",
    "zip_code": "44849"
  },
  {
    "city": "pleasant plain",
    "zip_code": "45162"
  },
  {
    "city": "sabina",
    "zip_code": "45169"
  },
  {
    "city": "sinking spring",
    "zip_code": "45172"
  },
  {
    "city": "cincinnati",
    "zip_code": "45242"
  },
  {
    "city": "cincinnati",
    "zip_code": "45245"
  },
  {
    "city": "clayton",
    "zip_code": "45315"
  },
  {
    "city": "donnelsville",
    "zip_code": "45319"
  },
  {
    "city": "new madison",
    "zip_code": "45346"
  },
  {
    "city": "pleasant hill",
    "zip_code": "45359"
  },
  {
    "city": "versailles",
    "zip_code": "45380"
  },
  {
    "city": "xenia",
    "zip_code": "45385"
  },
  {
    "city": "springfield",
    "zip_code": "45502"
  },
  {
    "city": "kitts hill",
    "zip_code": "45645"
  },
  {
    "city": "mcdermott",
    "zip_code": "45652"
  },
  {
    "city": "proctorville",
    "zip_code": "45669"
  },
  {
    "city": "rarden",
    "zip_code": "45671"
  },
  {
    "city": "west union",
    "zip_code": "45693"
  },
  {
    "city": "reno",
    "zip_code": "45773"
  },
  {
    "city": "columbus grove",
    "zip_code": "45830"
  },
  {
    "city": "melrose",
    "zip_code": "45861"
  },
  {
    "city": "eminence",
    "zip_code": "46125"
  },
  {
    "city": "indianapolis",
    "zip_code": "46219"
  },
  {
    "city": "hammond",
    "zip_code": "46320"
  },
  {
    "city": "elkhart",
    "zip_code": "46516"
  },
  {
    "city": "hoagland",
    "zip_code": "46745"
  },
  {
    "city": "camden",
    "zip_code": "46917"
  },
  {
    "city": "jonesboro",
    "zip_code": "46938"
  },
  {
    "city": "laurel",
    "zip_code": "47024"
  },
  {
    "city": "oldenburg",
    "zip_code": "47036"
  },
  {
    "city": "osgood",
    "zip_code": "47037"
  },
  {
    "city": "deputy",
    "zip_code": "47230"
  },
  {
    "city": "losantville",
    "zip_code": "47354"
  },
  {
    "city": "selma",
    "zip_code": "47383"
  },
  {
    "city": "elnora",
    "zip_code": "47529"
  },
  {
    "city": "oaktown",
    "zip_code": "47561"
  },
  {
    "city": "vincennes",
    "zip_code": "47591"
  },
  {
    "city": "rockport",
    "zip_code": "47635"
  },
  {
    "city": "wadesville",
    "zip_code": "47638"
  },
  {
    "city": "lafayette",
    "zip_code": "47905"
  },
  {
    "city": "cayuga",
    "zip_code": "47928"
  },
  {
    "city": "otterbein",
    "zip_code": "47970"
  },
  {
    "city": "stockwell",
    "zip_code": "47983"
  },
  {
    "city": "macomb",
    "zip_code": "48042"
  },
  {
    "city": "royal oak",
    "zip_code": "48073"
  },
  {
    "city": "detroit",
    "zip_code": "48213"
  },
  {
    "city": "oak park",
    "zip_code": "48237"
  },
  {
    "city": "walled lake",
    "zip_code": "48390"
  },
  {
    "city": "hadley",
    "zip_code": "48440"
  },
  {
    "city": "flint",
    "zip_code": "48504"
  },
  {
    "city": "burton",
    "zip_code": "48529"
  },
  {
    "city": "flint",
    "zip_code": "48554"
  },
  {
    "city": "twining",
    "zip_code": "48766"
  },
  {
    "city": "elwell",
    "zip_code": "48832"
  },
  {
    "city": "williamston",
    "zip_code": "48895"
  },
  {
    "city": "lansing",
    "zip_code": "48911"
  },
  {
    "city": "berrien springs",
    "zip_code": "49104"
  },
  {
    "city": "addison",
    "zip_code": "49220"
  },
  {
    "city": "brooklyn",
    "zip_code": "49230"
  },
  {
    "city": "cement city",
    "zip_code": "49233"
  },
  {
    "city": "coral",
    "zip_code": "49322"
  },
  {
    "city": "muskegon",
    "zip_code": "49440"
  },
  {
    "city": "frankfort",
    "zip_code": "49635"
  },
  {
    "city": "leland",
    "zip_code": "49654"
  },
  {
    "city": "traverse city",
    "zip_code": "49686"
  },
  {
    "city": "posen",
    "zip_code": "49776"
  },
  {
    "city": "cooks",
    "zip_code": "49817"
  },
  {
    "city": "cornell",
    "zip_code": "49818"
  },
  {
    "city": "gladstone",
    "zip_code": "49837"
  },
  {
    "city": "ishpeming",
    "zip_code": "49849"
  },
  {
    "city": "negaunee",
    "zip_code": "49866"
  },
  {
    "city": "stephenson",
    "zip_code": "49887"
  },
  {
    "city": "sidnaw",
    "zip_code": "49961"
  },
  {
    "city": "toivola",
    "zip_code": "49965"
  },
  {
    "city": "carlisle",
    "zip_code": "50047"
  },
  {
    "city": "guthrie center",
    "zip_code": "50115"
  },
  {
    "city": "knoxville",
    "zip_code": "50138"
  },
  {
    "city": "mingo",
    "zip_code": "50168"
  },
  {
    "city": "saint anthony",
    "zip_code": "50239"
  },
  {
    "city": "west des moines",
    "zip_code": "50266"
  },
  {
    "city": "hampton",
    "zip_code": "50441"
  },
  {
    "city": "hanlontown",
    "zip_code": "50444"
  },
  {
    "city": "harcourt",
    "zip_code": "50544"
  },
  {
    "city": "newell",
    "zip_code": "50568"
  },
  {
    "city": "rutland",
    "zip_code": "50582"
  },
  {
    "city": "greene",
    "zip_code": "50636"
  },
  {
    "city": "lamont",
    "zip_code": "50650"
  },
  {
    "city": "raymond",
    "zip_code": "50667"
  },
  {
    "city": "traer",
    "zip_code": "50675"
  },
  {
    "city": "wellsburg",
    "zip_code": "50680"
  },
  {
    "city": "clearfield",
    "zip_code": "50840"
  },
  {
    "city": "alta",
    "zip_code": "51002"
  },
  {
    "city": "sioux center",
    "zip_code": "51250"
  },
  {
    "city": "auburn",
    "zip_code": "51433"
  },
  {
    "city": "honey creek",
    "zip_code": "51542"
  },
  {
    "city": "thurman",
    "zip_code": "51654"
  },
  {
    "city": "elkader",
    "zip_code": "52043"
  },
  {
    "city": "elgin",
    "zip_code": "52141"
  },
  {
    "city": "anamosa",
    "zip_code": "52205"
  },
  {
    "city": "iowa city",
    "zip_code": "52242"
  },
  {
    "city": "north english",
    "zip_code": "52316"
  },
  {
    "city": "cedar rapids",
    "zip_code": "52402"
  },
  {
    "city": "drakesville",
    "zip_code": "52552"
  },
  {
    "city": "pulaski",
    "zip_code": "52584"
  },
  {
    "city": "denmark",
    "zip_code": "52624"
  },
  {
    "city": "sperry",
    "zip_code": "52650"
  },
  {
    "city": "durant",
    "zip_code": "52747"
  },
  {
    "city": "grandview",
    "zip_code": "52752"
  },
  {
    "city": "lone tree",
    "zip_code": "52755"
  },
  {
    "city": "moscow",
    "zip_code": "52760"
  },
  {
    "city": "tipton",
    "zip_code": "52772"
  },
  {
    "city": "eden",
    "zip_code": "53019"
  },
  {
    "city": "kiel",
    "zip_code": "53042"
  },
  {
    "city": "waldo",
    "zip_code": "53093"
  },
  {
    "city": "greendale",
    "zip_code": "53129"
  },
  {
    "city": "franklin",
    "zip_code": "53132"
  },
  {
    "city": "kenosha",
    "zip_code": "53143"
  },
  {
    "city": "milwaukee",
    "zip_code": "53211"
  },
  {
    "city": "milwaukee",
    "zip_code": "53219"
  },
  {
    "city": "milwaukee",
    "zip_code": "53227"
  },
  {
    "city": "dane",
    "zip_code": "53529"
  },
  {
    "city": "baraboo",
    "zip_code": "53913"
  },
  {
    "city": "river falls",
    "zip_code": "54022"
  },
  {
    "city": "gresham",
    "zip_code": "54128"
  },
  {
    "city": "green bay",
    "zip_code": "54304"
  },
  {
    "city": "abbotsford",
    "zip_code": "54405"
  },
  {
    "city": "arpin",
    "zip_code": "54410"
  },
  {
    "city": "eland",
    "zip_code": "54427"
  },
  {
    "city": "junction city",
    "zip_code": "54443"
  },
  {
    "city": "marathon",
    "zip_code": "54448"
  },
  {
    "city": "pelican lake",
    "zip_code": "54463"
  },
  {
    "city": "mount sterling",
    "zip_code": "54645"
  },
  {
    "city": "soldiers grove",
    "zip_code": "54655"
  },
  {
    "city": "viroqua",
    "zip_code": "54665"
  },
  {
    "city": "warrens",
    "zip_code": "54666"
  },
  {
    "city": "menomonie",
    "zip_code": "54751"
  },
  {
    "city": "plum city",
    "zip_code": "54761"
  },
  {
    "city": "birchwood",
    "zip_code": "54817"
  },
  {
    "city": "mason",
    "zip_code": "54856"
  },
  {
    "city": "weyerhaeuser",
    "zip_code": "54895"
  },
  {
    "city": "fremont",
    "zip_code": "54940"
  },
  {
    "city": "pine river",
    "zip_code": "54965"
  },
  {
    "city": "faribault",
    "zip_code": "55021"
  },
  {
    "city": "owatonna",
    "zip_code": "55060"
  },
  {
    "city": "minneapolis",
    "zip_code": "55430"
  },
  {
    "city": "minneapolis",
    "zip_code": "55432"
  },
  {
    "city": "finland",
    "zip_code": "55603"
  },
  {
    "city": "lutsen",
    "zip_code": "55612"
  },
  {
    "city": "alborn",
    "zip_code": "55702"
  },
  {
    "city": "jacobson",
    "zip_code": "55752"
  },
  {
    "city": "mcgregor",
    "zip_code": "55760"
  },
  {
    "city": "virginia",
    "zip_code": "55792"
  },
  {
    "city": "eitzen",
    "zip_code": "55931"
  },
  {
    "city": "mazeppa",
    "zip_code": "55956"
  },
  {
    "city": "racine",
    "zip_code": "55967"
  },
  {
    "city": "taopi",
    "zip_code": "55977"
  },
  {
    "city": "clarks grove",
    "zip_code": "56016"
  },
  {
    "city": "northrop",
    "zip_code": "56075"
  },
  {
    "city": "saint james",
    "zip_code": "56081"
  },
  {
    "city": "dovray",
    "zip_code": "56125"
  },
  {
    "city": "lamberton",
    "zip_code": "56152"
  },
  {
    "city": "ormsby",
    "zip_code": "56162"
  },
  {
    "city": "pipestone",
    "zip_code": "56164"
  },
  {
    "city": "cottonwood",
    "zip_code": "56229"
  },
  {
    "city": "prinsburg",
    "zip_code": "56281"
  },
  {
    "city": "carlos",
    "zip_code": "56319"
  },
  {
    "city": "kensington",
    "zip_code": "56343"
  },
  {
    "city": "mcgrath",
    "zip_code": "56350"
  },
  {
    "city": "upsala",
    "zip_code": "56384"
  },
  {
    "city": "pequot lakes",
    "zip_code": "56472"
  },
  {
    "city": "ogema",
    "zip_code": "56569"
  },
  {
    "city": "perham",
    "zip_code": "56573"
  },
  {
    "city": "bagley",
    "zip_code": "56621"
  },
  {
    "city": "brooks",
    "zip_code": "56715"
  },
  {
    "city": "baltic",
    "zip_code": "57003"
  },
  {
    "city": "canton",
    "zip_code": "57013"
  },
  {
    "city": "dell rapids",
    "zip_code": "57022"
  },
  {
    "city": "fairview",
    "zip_code": "57027"
  },
  {
    "city": "viborg",
    "zip_code": "57070"
  },
  {
    "city": "sioux falls",
    "zip_code": "57117"
  },
  {
    "city": "britton",
    "zip_code": "57430"
  },
  {
    "city": "lebanon",
    "zip_code": "57455"
  },
  {
    "city": "seneca",
    "zip_code": "57473"
  },
  {
    "city": "belvidere",
    "zip_code": "57521"
  },
  {
    "city": "custer",
    "zip_code": "57730"
  },
  {
    "city": "white owl",
    "zip_code": "57792"
  },
  {
    "city": "perth",
    "zip_code": "58363"
  },
  {
    "city": "york",
    "zip_code": "58386"
  },
  {
    "city": "binford",
    "zip_code": "58416"
  },
  {
    "city": "bowdon",
    "zip_code": "58418"
  },
  {
    "city": "courtenay",
    "zip_code": "58426"
  },
  {
    "city": "dawson",
    "zip_code": "58428"
  },
  {
    "city": "mchenry",
    "zip_code": "58464"
  },
  {
    "city": "rogers",
    "zip_code": "58479"
  },
  {
    "city": "hettinger",
    "zip_code": "58639"
  },
  {
    "city": "butte",
    "zip_code": "58723"
  },
  {
    "city": "oro grande",
    "zip_code": "92368"
  },
  {
    "city": "san bernardino",
    "zip_code": "92404"
  },
  {
    "city": "temecula",
    "zip_code": "92590"
  },
  {
    "city": "irvine",
    "zip_code": "92618"
  },
  {
    "city": "dana point",
    "zip_code": "92629"
  },
  {
    "city": "orange",
    "zip_code": "92868"
  },
  {
    "city": "santa barbara",
    "zip_code": "93111"
  },
  {
    "city": "arvin",
    "zip_code": "93203"
  },
  {
    "city": "bakersfield",
    "zip_code": "93314"
  },
  {
    "city": "oceano",
    "zip_code": "93445"
  },
  {
    "city": "tacoma",
    "zip_code": "98466"
  },
  {
    "city": "cinebar",
    "zip_code": "98533"
  },
  {
    "city": "grayland",
    "zip_code": "98547"
  },
  {
    "city": "quincy",
    "zip_code": "98848"
  },
  {
    "city": "fairchild air force base",
    "zip_code": "99011"
  },
  {
    "city": "kettle falls",
    "zip_code": "99141"
  },
  {
    "city": "spokane",
    "zip_code": "99224"
  },
  {
    "city": "connell",
    "zip_code": "99326"
  },
  {
    "city": "starbuck",
    "zip_code": "99359"
  },
  {
    "city": "indian",
    "zip_code": "99540"
  },
  {
    "city": "chugiak",
    "zip_code": "99567"
  },
  {
    "city": "hope",
    "zip_code": "99605"
  },
  {
    "city": "kwethluk",
    "zip_code": "99621"
  },
  {
    "city": "nikolski",
    "zip_code": "99638"
  },
  {
    "city": "saint michael",
    "zip_code": "99659"
  },
  {
    "city": "shungnak",
    "zip_code": "99773"
  },
  {
    "city": "tenakee springs",
    "zip_code": "99841"
  },
  {
    "city": "los angeles",
    "zip_code": "90032"
  },
  {
    "city": "gardena",
    "zip_code": "90249"
  },
  {
    "city": "huntington park",
    "zip_code": "90255"
  },
  {
    "city": "venice",
    "zip_code": "90291"
  },
  {
    "city": "santa monica",
    "zip_code": "90402"
  },
  {
    "city": "santa monica",
    "zip_code": "90405"
  },
  {
    "city": "buena park",
    "zip_code": "90621"
  },
  {
    "city": "monrovia",
    "zip_code": "91016"
  },
  {
    "city": "northridge",
    "zip_code": "91330"
  },
  {
    "city": "canyon country",
    "zip_code": "91387"
  },
  {
    "city": "van nuys",
    "zip_code": "91411"
  },
  {
    "city": "north hollywood",
    "zip_code": "91605"
  },
  {
    "city": "rosemead",
    "zip_code": "91770"
  },
  {
    "city": "san diego",
    "zip_code": "92115"
  },
  {
    "city": "indio",
    "zip_code": "92203"
  },
  {
    "city": "mecca",
    "zip_code": "92254"
  },
  {
    "city": "cedar glen",
    "zip_code": "92321"
  },
  {
    "city": "murrieta",
    "zip_code": "92562"
  },
  {
    "city": "lindsay",
    "zip_code": "93247"
  },
  {
    "city": "shafter",
    "zip_code": "93263"
  },
  {
    "city": "acton",
    "zip_code": "93510"
  },
  {
    "city": "boron",
    "zip_code": "93516"
  },
  {
    "city": "lancaster",
    "zip_code": "93535"
  },
  {
    "city": "rosamond",
    "zip_code": "93560"
  },
  {
    "city": "valyermo",
    "zip_code": "93563"
  },
  {
    "city": "caruthers",
    "zip_code": "93609"
  },
  {
    "city": "del rey",
    "zip_code": "93616"
  }
]