[
  {
    "city": "oriskany",
    "zip_code": "24130"
  },
  {
    "city": "rocky mount",
    "zip_code": "24151"
  },
  {
    "city": "gate city",
    "zip_code": "24251"
  },
  {
    "city": "fries",
    "zip_code": "24330"
  },
  {
    "city": "saltville",
    "zip_code": "24370"
  },
  {
    "city": "forest",
    "zip_code": "24551"
  },
  {
    "city": "pilgrims knob",
    "zip_code": "24634"
  },
  {
    "city": "pounding mill",
    "zip_code": "24637"
  },
  {
    "city": "athens",
    "zip_code": "24712"
  },
  {
    "city": "bud",
    "zip_code": "24716"
  },
  {
    "city": "isaban",
    "zip_code": "24846"
  },
  {
    "city": "squire",
    "zip_code": "24884"
  },
  {
    "city": "war",
    "zip_code": "24892"
  },
  {
    "city": "danville",
    "zip_code": "25053"
  },
  {
    "city": "duck",
    "zip_code": "25063"
  },
  {
    "city": "eskdale",
    "zip_code": "25075"
  },
  {
    "city": "millwood",
    "zip_code": "25262"
  },
  {
    "city": "chapmanville",
    "zip_code": "25508"
  },
  {
    "city": "fort gay",
    "zip_code": "25514"
  },
  {
    "city": "sod",
    "zip_code": "25564"
  },
  {
    "city": "logan",
    "zip_code": "25601"
  },
  {
    "city": "hilltop",
    "zip_code": "25855"
  },
  {
    "city": "layland",
    "zip_code": "25864"
  },
  {
    "city": "lookout",
    "zip_code": "25868"
  },
  {
    "city": "victor",
    "zip_code": "25938"
  },
  {
    "city": "jumping branch",
    "zip_code": "25969"
  },
  {
    "city": "mineral wells",
    "zip_code": "26150"
  },
  {
    "city": "palestine",
    "zip_code": "26160"
  },
  {
    "city": "hacker valley",
    "zip_code": "26222"
  },
  {
    "city": "huttonsville",
    "zip_code": "26273"
  },
  {
    "city": "webster springs",
    "zip_code": "26288"
  },
  {
    "city": "thomas",
    "zip_code": "26292"
  },
  {
    "city": "whitmer",
    "zip_code": "26296"
  },
  {
    "city": "ellenboro",
    "zip_code": "26346"
  },
  {
    "city": "grant town",
    "zip_code": "26574"
  },
  {
    "city": "keyser",
    "zip_code": "26726"
  },
  {
    "city": "rio",
    "zip_code": "26755"
  },
  {
    "city": "yellow spring",
    "zip_code": "26865"
  },
  {
    "city": "jamestown",
    "zip_code": "27282"
  },
  {
    "city": "clayton",
    "zip_code": "27520"
  },
  {
    "city": "raleigh",
    "zip_code": "27613"
  },
  {
    "city": "belhaven",
    "zip_code": "27810"
  },
  {
    "city": "hollister",
    "zip_code": "27844"
  },
  {
    "city": "whitakers",
    "zip_code": "27891"
  },
  {
    "city": "camden",
    "zip_code": "27921"
  },
  {
    "city": "concord",
    "zip_code": "28025"
  },
  {
    "city": "huntersville",
    "zip_code": "28078"
  },
  {
    "city": "stanley",
    "zip_code": "28164"
  },
  {
    "city": "hamlet",
    "zip_code": "28345"
  },
  {
    "city": "pinebluff",
    "zip_code": "28373"
  },
  {
    "city": "southport",
    "zip_code": "28461"
  },
  {
    "city": "albertson",
    "zip_code": "28508"
  },
  {
    "city": "new bern",
    "zip_code": "28560"
  },
  {
    "city": "granite falls",
    "zip_code": "28630"
  },
  {
    "city": "linville falls",
    "zip_code": "28647"
  },
  {
    "city": "morganton",
    "zip_code": "28655"
  },
  {
    "city": "west jefferson",
    "zip_code": "28694"
  },
  {
    "city": "candler",
    "zip_code": "28715"
  },
  {
    "city": "great falls",
    "zip_code": "29055"
  },
  {
    "city": "greeleyville",
    "zip_code": "29056"
  },
  {
    "city": "sumter",
    "zip_code": "29154"
  },
  {
    "city": "swansea",
    "zip_code": "29160"
  },
  {
    "city": "westville",
    "zip_code": "29175"
  },
  {
    "city": "arcadia",
    "zip_code": "29320"
  },
  {
    "city": "laurens",
    "zip_code": "29360"
  },
  {
    "city": "florence",
    "zip_code": "29505"
  },
  {
    "city": "coward",
    "zip_code": "29530"
  },
  {
    "city": "anderson",
    "zip_code": "29625"
  },
  {
    "city": "lowndesville",
    "zip_code": "29659"
  },
  {
    "city": "west union",
    "zip_code": "29696"
  },
  {
    "city": "ridgeland",
    "zip_code": "29936"
  },
  {
    "city": "snellville",
    "zip_code": "30039"
  },
  {
    "city": "bowdon",
    "zip_code": "30108"
  },
  {
    "city": "emerson",
    "zip_code": "30137"
  },
  {
    "city": "marble hill",
    "zip_code": "30148"
  },
  {
    "city": "hampton",
    "zip_code": "30228"
  },
  {
    "city": "conley",
    "zip_code": "30288"
  },
  {
    "city": "atlanta",
    "zip_code": "30309"
  },
  {
    "city": "atlanta",
    "zip_code": "30344"
  },
  {
    "city": "vidalia",
    "zip_code": "30475"
  },
  {
    "city": "flowery branch",
    "zip_code": "30542"
  },
  {
    "city": "gibson",
    "zip_code": "30810"
  },
  {
    "city": "ballantine",
    "zip_code": "59006"
  },
  {
    "city": "birney",
    "zip_code": "59012"
  },
  {
    "city": "saco",
    "zip_code": "59261"
  },
  {
    "city": "east glacier park",
    "zip_code": "59434"
  },
  {
    "city": "oilmont",
    "zip_code": "59466"
  },
  {
    "city": "box elder",
    "zip_code": "59521"
  },
  {
    "city": "warm springs",
    "zip_code": "59756"
  },
  {
    "city": "missoula",
    "zip_code": "59801"
  },
  {
    "city": "bonner",
    "zip_code": "59823"
  },
  {
    "city": "conner",
    "zip_code": "59827"
  },
  {
    "city": "sula",
    "zip_code": "59871"
  },
  {
    "city": "bigfork",
    "zip_code": "59911"
  },
  {
    "city": "rollins",
    "zip_code": "59931"
  },
  {
    "city": "great lakes",
    "zip_code": "60088"
  },
  {
    "city": "elburn",
    "zip_code": "60119"
  },
  {
    "city": "berkeley",
    "zip_code": "60163"
  },
  {
    "city": "saint charles",
    "zip_code": "60174"
  },
  {
    "city": "evanston",
    "zip_code": "60203"
  },
  {
    "city": "oak park",
    "zip_code": "60301"
  },
  {
    "city": "river forest",
    "zip_code": "60305"
  },
  {
    "city": "odell",
    "zip_code": "60460"
  },
  {
    "city": "olympia fields",
    "zip_code": "60461"
  },
  {
    "city": "summit argo",
    "zip_code": "60501"
  },
  {
    "city": "la grange",
    "zip_code": "60525"
  },
  {
    "city": "naperville",
    "zip_code": "60565"
  },
  {
    "city": "plainfield",
    "zip_code": "60585"
  },
  {
    "city": "chicago",
    "zip_code": "60652"
  },
  {
    "city": "gilman",
    "zip_code": "60938"
  },
  {
    "city": "polo",
    "zip_code": "61064"
  },
  {
    "city": "thomson",
    "zip_code": "61285"
  },
  {
    "city": "la moille",
    "zip_code": "61330"
  },
  {
    "city": "ottawa",
    "zip_code": "61350"
  },
  {
    "city": "seatonville",
    "zip_code": "61359"
  },
  {
    "city": "ophiem",
    "zip_code": "61468"
  },
  {
    "city": "roseville",
    "zip_code": "61473"
  },
  {
    "city": "brimfield",
    "zip_code": "61517"
  },
  {
    "city": "ogden",
    "zip_code": "61859"
  },
  {
    "city": "sidell",
    "zip_code": "61876"
  },
  {
    "city": "lovington",
    "zip_code": "61937"
  },
  {
    "city": "mattoon",
    "zip_code": "61938"
  },
  {
    "city": "carrollton",
    "zip_code": "62016"
  },
  {
    "city": "granite city",
    "zip_code": "62040"
  },
  {
    "city": "litchfield",
    "zip_code": "62056"
  },
  {
    "city": "mozier",
    "zip_code": "62070"
  },
  {
    "city": "fairview heights",
    "zip_code": "62208"
  },
  {
    "city": "pocahontas",
    "zip_code": "62275"
  },
  {
    "city": "walsh",
    "zip_code": "62297"
  },
  {
    "city": "warsaw",
    "zip_code": "62379"
  },
  {
    "city": "hidalgo",
    "zip_code": "62432"
  },
  {
    "city": "teutopolis",
    "zip_code": "62467"
  },
  {
    "city": "west liberty",
    "zip_code": "62475"
  },
  {
    "city": "wheeler",
    "zip_code": "62479"
  },
  {
    "city": "oconee",
    "zip_code": "62553"
  },
  {
    "city": "greenview",
    "zip_code": "62642"
  },
  {
    "city": "winchester",
    "zip_code": "62694"
  },
  {
    "city": "fairfield",
    "zip_code": "62837"
  },
  {
    "city": "belknap",
    "zip_code": "62908"
  },
  {
    "city": "cave in rock",
    "zip_code": "62919"
  },
  {
    "city": "cypress",
    "zip_code": "62923"
  },
  {
    "city": "johnston city",
    "zip_code": "62951"
  },
  {
    "city": "wildwood",
    "zip_code": "63038"
  },
  {
    "city": "saint louis",
    "zip_code": "63135"
  },
  {
    "city": "warrenton",
    "zip_code": "63383"
  },
  {
    "city": "hannibal",
    "zip_code": "63401"
  },
  {
    "city": "clarence",
    "zip_code": "63437"
  },
  {
    "city": "worthington",
    "zip_code": "63567"
  },
  {
    "city": "tiff",
    "zip_code": "63674"
  },
  {
    "city": "benton",
    "zip_code": "63736"
  },
  {
    "city": "chaffee",
    "zip_code": "63740"
  },
  {
    "city": "kelso",
    "zip_code": "63758"
  },
  {
    "city": "old appleton",
    "zip_code": "63770"
  },
  {
    "city": "arbyrd",
    "zip_code": "63821"
  },
  {
    "city": "bernie",
    "zip_code": "63822"
  },
  {
    "city": "hornersville",
    "zip_code": "63855"
  },
  {
    "city": "marston",
    "zip_code": "63866"
  },
  {
    "city": "wellington",
    "zip_code": "64097"
  },
  {
    "city": "kansas city",
    "zip_code": "64124"
  },
  {
    "city": "fillmore",
    "zip_code": "64449"
  },
  {
    "city": "maitland",
    "zip_code": "64466"
  },
  {
    "city": "skidmore",
    "zip_code": "64487"
  },
  {
    "city": "bogard",
    "zip_code": "64622"
  },
  {
    "city": "winston",
    "zip_code": "64689"
  },
  {
    "city": "east lynne",
    "zip_code": "64743"
  },
  {
    "city": "seneca",
    "zip_code": "64865"
  },
  {
    "city": "stella",
    "zip_code": "64867"
  },
  {
    "city": "barnett",
    "zip_code": "65011"
  },
  {
    "city": "westphalia",
    "zip_code": "65085"
  },
  {
    "city": "clark",
    "zip_code": "65243"
  },
  {
    "city": "new franklin",
    "zip_code": "65274"
  },
  {
    "city": "calhoun",
    "zip_code": "65323"
  },
  {
    "city": "duke",
    "zip_code": "65461"
  },
  {
    "city": "eldridge",
    "zip_code": "65463"
  },
  {
    "city": "laquey",
    "zip_code": "65534"
  },
  {
    "city": "alton",
    "zip_code": "65606"
  },
  {
    "city": "elkland",
    "zip_code": "65644"
  },
  {
    "city": "lampe",
    "zip_code": "65681"
  },
  {
    "city": "weaubleau",
    "zip_code": "65774"
  },
  {
    "city": "pottersville",
    "zip_code": "65790"
  },
  {
    "city": "colony",
    "zip_code": "66015"
  },
  {
    "city": "elwood",
    "zip_code": "66024"
  },
  {
    "city": "kansas city",
    "zip_code": "66112"
  },
  {
    "city": "overland park",
    "zip_code": "66210"
  },
  {
    "city": "grantville",
    "zip_code": "66429"
  },
  {
    "city": "manhattan",
    "zip_code": "66502"
  },
  {
    "city": "topeka",
    "zip_code": "66606"
  },
  {
    "city": "altoona",
    "zip_code": "66710"
  },
  {
    "city": "hepler",
    "zip_code": "66746"
  },
  {
    "city": "burr oak",
    "zip_code": "66936"
  },
  {
    "city": "hillsboro",
    "zip_code": "67063"
  },
  {
    "city": "waldron",
    "zip_code": "67150"
  },
  {
    "city": "wichita",
    "zip_code": "67203"
  },
  {
    "city": "wichita",
    "zip_code": "67206"
  },
  {
    "city": "abbyville",
    "zip_code": "67510"
  },
  {
    "city": "beeler",
    "zip_code": "67518"
  },
  {
    "city": "chase",
    "zip_code": "67524"
  },
  {
    "city": "inman",
    "zip_code": "67546"
  },
  {
    "city": "plevna",
    "zip_code": "67568"
  },
  {
    "city": "plainville",
    "zip_code": "67663"
  },
  {
    "city": "leoti",
    "zip_code": "67861"
  },
  {
    "city": "manter",
    "zip_code": "67862"
  },
  {
    "city": "montezuma",
    "zip_code": "67867"
  },
  {
    "city": "satanta",
    "zip_code": "67870"
  },
  {
    "city": "mead",
    "zip_code": "68041"
  },
  {
    "city": "south bend",
    "zip_code": "68058"
  },
  {
    "city": "omaha",
    "zip_code": "68105"
  },
  {
    "city": "burchard",
    "zip_code": "68323"
  },
  {
    "city": "daykin",
    "zip_code": "68338"
  },
  {
    "city": "firth",
    "zip_code": "68358"
  },
  {
    "city": "johnson",
    "zip_code": "68378"
  },
  {
    "city": "tecumseh",
    "zip_code": "68450"
  },
  {
    "city": "lincoln",
    "zip_code": "68508"
  },
  {
    "city": "lincoln",
    "zip_code": "68512"
  },
  {
    "city": "clarks",
    "zip_code": "68628"
  },
  {
    "city": "elgin",
    "zip_code": "68636"
  },
  {
    "city": "spalding",
    "zip_code": "68665"
  },
  {
    "city": "fordyce",
    "zip_code": "68736"
  },
  {
    "city": "jackson",
    "zip_code": "68743"
  },
  {
    "city": "orchard",
    "zip_code": "68764"
  },
  {
    "city": "spencer",
    "zip_code": "68777"
  },
  {
    "city": "wayne",
    "zip_code": "68787"
  },
  {
    "city": "phillips",
    "zip_code": "68865"
  },
  {
    "city": "scotia",
    "zip_code": "68875"
  },
  {
    "city": "guide rock",
    "zip_code": "68942"
  },
  {
    "city": "inavale",
    "zip_code": "68952"
  },
  {
    "city": "ragan",
    "zip_code": "68969"
  },
  {
    "city": "benkelman",
    "zip_code": "69021"
  },
  {
    "city": "wellfleet",
    "zip_code": "69170"
  },
  {
    "city": "johnstown",
    "zip_code": "69214"
  },
  {
    "city": "nenzel",
    "zip_code": "69219"
  },
  {
    "city": "gretna",
    "zip_code": "70056"
  },
  {
    "city": "kenner",
    "zip_code": "70062"
  },
  {
    "city": "reserve",
    "zip_code": "70084"
  },
  {
    "city": "violet",
    "zip_code": "70092"
  },
  {
    "city": "new orleans",
    "zip_code": "70123"
  },
  {
    "city": "dulac",
    "zip_code": "70353"
  },
  {
    "city": "houma",
    "zip_code": "70360"
  },
  {
    "city": "covington",
    "zip_code": "70433"
  },
  {
    "city": "mount hermon",
    "zip_code": "70450"
  },
  {
    "city": "addis",
    "zip_code": "70710"
  },
  {
    "city": "hester",
    "zip_code": "70743"
  },
  {
    "city": "plaquemine",
    "zip_code": "70764"
  },
  {
    "city": "rosedale",
    "zip_code": "70772"
  },
  {
    "city": "baton rouge",
    "zip_code": "70811"
  },
  {
    "city": "baton rouge",
    "zip_code": "70836"
  },
  {
    "city": "shreveport",
    "zip_code": "71107"
  },
  {
    "city": "chatham",
    "zip_code": "71226"
  },
  {
    "city": "lillie",
    "zip_code": "71256"
  },
  {
    "city": "ferriday",
    "zip_code": "71334"
  },
  {
    "city": "gilbert",
    "zip_code": "71336"
  },
  {
    "city": "kelly",
    "zip_code": "71441"
  },
  {
    "city": "lena",
    "zip_code": "71447"
  },
  {
    "city": "pine bluff",
    "zip_code": "71603"
  },
  {
    "city": "watson",
    "zip_code": "71674"
  },
  {
    "city": "carthage",
    "zip_code": "71725"
  },
  {
    "city": "saratoga",
    "zip_code": "71859"
  },
  {
    "city": "stamps",
    "zip_code": "71860"
  },
  {
    "city": "arkadelphia",
    "zip_code": "71923"
  },
  {
    "city": "langley",
    "zip_code": "71952"
  },
  {
    "city": "humnoke",
    "zip_code": "72072"
  },
  {
    "city": "malvern",
    "zip_code": "72104"
  },
  {
    "city": "menifee",
    "zip_code": "72107"
  },
  {
    "city": "heth",
    "zip_code": "72346"
  },
  {
    "city": "turrell",
    "zip_code": "72384"
  },
  {
    "city": "pocahontas",
    "zip_code": "72455"
  },
  {
    "city": "reyno",
    "zip_code": "72462"
  },
  {
    "city": "henderson",
    "zip_code": "72544"
  },
  {
    "city": "harrison",
    "zip_code": "72601"
  },
  {
    "city": "clarkridge",
    "zip_code": "72623"
  },
  {
    "city": "everton",
    "zip_code": "72633"
  },
  {
    "city": "gilbert",
    "zip_code": "72636"
  },
  {
    "city": "oakland",
    "zip_code": "72661"
  },
  {
    "city": "summers",
    "zip_code": "72769"
  },
  {
    "city": "langston",
    "zip_code": "73050"
  },
  {
    "city": "mountain view",
    "zip_code": "73062"
  },
  {
    "city": "pocasset",
    "zip_code": "73079"
  },
  {
    "city": "wayne",
    "zip_code": "73095"
  },
  {
    "city": "oklahoma city",
    "zip_code": "73119"
  },
  {
    "city": "oklahoma city",
    "zip_code": "73134"
  },
  {
    "city": "chattanooga",
    "zip_code": "73528"
  },
  {
    "city": "canton",
    "zip_code": "73724"
  },
  {
    "city": "helena",
    "zip_code": "73741"
  },
  {
    "city": "medford",
    "zip_code": "73759"
  },
  {
    "city": "watonga",
    "zip_code": "73772"
  },
  {
    "city": "adams",
    "zip_code": "73901"
  },
  {
    "city": "keyes",
    "zip_code": "73947"
  },
  {
    "city": "tulsa",
    "zip_code": "74103"
  },
  {
    "city": "tulsa",
    "zip_code": "74106"
  },
  {
    "city": "tulsa",
    "zip_code": "74112"
  },
  {
    "city": "langley",
    "zip_code": "74350"
  },
  {
    "city": "quapaw",
    "zip_code": "74363"
  },
  {
    "city": "checotah",
    "zip_code": "74426"
  },
  {
    "city": "coweta",
    "zip_code": "74429"
  },
  {
    "city": "henryetta",
    "zip_code": "74437"
  },
  {
    "city": "taft",
    "zip_code": "74463"
  },
  {
    "city": "snow",
    "zip_code": "74567"
  },
  {
    "city": "ada",
    "zip_code": "74820"
  },
  {
    "city": "heavener",
    "zip_code": "74937"
  },
  {
    "city": "howe",
    "zip_code": "74940"
  },
  {
    "city": "bells",
    "zip_code": "75414"
  },
  {
    "city": "campbell",
    "zip_code": "75422"
  },
  {
    "city": "dodd city",
    "zip_code": "75438"
  },
  {
    "city": "klondike",
    "zip_code": "75448"
  },
  {
    "city": "petty",
    "zip_code": "75470"
  },
  {
    "city": "redwater",
    "zip_code": "75573"
  },
  {
    "city": "gary",
    "zip_code": "75643"
  },
  {
    "city": "henderson",
    "zip_code": "75652"
  },
  {
    "city": "kilgore",
    "zip_code": "75662"
  },
  {
    "city": "latexo",
    "zip_code": "75849"
  },
  {
    "city": "lovelady",
    "zip_code": "75851"
  },
  {
    "city": "corrigan",
    "zip_code": "75939"
  },
  {
    "city": "cleburne",
    "zip_code": "76031"
  },
  {
    "city": "henrietta",
    "zip_code": "76365"
  },
  {
    "city": "hamilton",
    "zip_code": "76531"
  },
  {
    "city": "nolanville",
    "zip_code": "76559"
  },
  {
    "city": "rockdale",
    "zip_code": "76567"
  },
  {
    "city": "thrall",
    "zip_code": "76578"
  },
  {
    "city": "san saba",
    "zip_code": "76877"
  },
  {
    "city": "ozona",
    "zip_code": "76943"
  },
  {
    "city": "houston",
    "zip_code": "77003"
  },
  {
    "city": "houston",
    "zip_code": "77007"
  },
  {
    "city": "houston",
    "zip_code": "77017"
  },
  {
    "city": "houston",
    "zip_code": "77045"
  },
  {
    "city": "houston",
    "zip_code": "77067"
  },
  {
    "city": "houston",
    "zip_code": "77077"
  },
  {
    "city": "rye",
    "zip_code": "77369"
  },
  {
    "city": "fulshear",
    "zip_code": "77441"
  },
  {
    "city": "hungerford",
    "zip_code": "77448"
  },
  {
    "city": "west columbia",
    "zip_code": "77486"
  },
  {
    "city": "pasadena",
    "zip_code": "77507"
  },
  {
    "city": "point comfort",
    "zip_code": "77978"
  },
  {
    "city": "leming",
    "zip_code": "78050"
  },
  {
    "city": "gillett",
    "zip_code": "78116"
  },
  {
    "city": "nixon",
    "zip_code": "78140"
  },
  {
    "city": "san antonio",
    "zip_code": "78233"
  },
  {
    "city": "san antonio",
    "zip_code": "78266"
  },
  {
    "city": "ben bolt",
    "zip_code": "78342"
  },
  {
    "city": "tynan",
    "zip_code": "78391"
  },
  {
    "city": "corpus christi",
    "zip_code": "78418"
  },
  {
    "city": "brownsville",
    "zip_code": "78526"
  },
  {
    "city": "bluffton",
    "zip_code": "78607"
  },
  {
    "city": "liberty hill",
    "zip_code": "78642"
  },
  {
    "city": "austin",
    "zip_code": "78728"
  },
  {
    "city": "lincoln",
    "zip_code": "78948"
  },
  {
    "city": "adrian",
    "zip_code": "79001"
  },
  {
    "city": "stratford",
    "zip_code": "79084"
  },
  {
    "city": "waka",
    "zip_code": "79093"
  },
  {
    "city": "wildorado",
    "zip_code": "79098"
  },
  {
    "city": "amarillo",
    "zip_code": "79105"
  },
  {
    "city": "guthrie",
    "zip_code": "79236"
  },
  {
    "city": "roaring springs",
    "zip_code": "79256"
  },
  {
    "city": "denver city",
    "zip_code": "79323"
  },
  {
    "city": "fieldton",
    "zip_code": "79326"
  },
  {
    "city": "lorenzo",
    "zip_code": "79343"
  },
  {
    "city": "wellman",
    "zip_code": "79378"
  },
  {
    "city": "nolan",
    "zip_code": "79537"
  },
  {
    "city": "trent",
    "zip_code": "79561"
  },
  {
    "city": "dyess afb",
    "zip_code": "79607"
  },
  {
    "city": "andrews",
    "zip_code": "79714"
  },
  {
    "city": "big spring",
    "zip_code": "79720"
  },
  {
    "city": "odessa",
    "zip_code": "79761"
  },
  {
    "city": "dell city",
    "zip_code": "79837"
  },
  {
    "city": "dupont",
    "zip_code": "80024"
  },
  {
    "city": "lafayette",
    "zip_code": "80026"
  },
  {
    "city": "westminster",
    "zip_code": "80031"
  },
  {
    "city": "aurora",
    "zip_code": "80045"
  },
  {
    "city": "littleton",
    "zip_code": "80122"
  },
  {
    "city": "denver",
    "zip_code": "80211"
  },
  {
    "city": "denver",
    "zip_code": "80231"
  },
  {
    "city": "golden",
    "zip_code": "80419"
  },
  {
    "city": "bailey",
    "zip_code": "80421"
  },
  {
    "city": "livermore",
    "zip_code": "80536"
  },
  {
    "city": "eaton",
    "zip_code": "80615"
  },
  {
    "city": "sterling",
    "zip_code": "80751"
  },
  {
    "city": "wray",
    "zip_code": "80758"
  },
  {
    "city": "boone",
    "zip_code": "81025"
  },
  {
    "city": "crowley",
    "zip_code": "81033"
  },
  {
    "city": "pritchett",
    "zip_code": "81064"
  },
  {
    "city": "monte vista",
    "zip_code": "81144"
  },
  {
    "city": "mancos",
    "zip_code": "81328"
  },
  {
    "city": "buford",
    "zip_code": "82052"
  },
  {
    "city": "meriden",
    "zip_code": "82081"
  },
  {
    "city": "greybull",
    "zip_code": "82426"
  },
  {
    "city": "kinnear",
    "zip_code": "82516"
  },
  {
    "city": "glenrock",
    "zip_code": "82637"
  },
  {
    "city": "grover",
    "zip_code": "83122"
  },
  {
    "city": "thayne",
    "zip_code": "83127"
  },
  {
    "city": "mackay",
    "zip_code": "83251"
  },
  {
    "city": "fish haven",
    "zip_code": "83287"
  },
  {
    "city": "buhl",
    "zip_code": "83316"
  },
  {
    "city": "jerome",
    "zip_code": "83338"
  },
  {
    "city": "paul",
    "zip_code": "83347"
  },
  {
    "city": "macks inn",
    "zip_code": "83433"
  },
  {
    "city": "north fork",
    "zip_code": "83466"
  },
  {
    "city": "juliaetta",
    "zip_code": "83535"
  },
  {
    "city": "council",
    "zip_code": "83612"
  },
  {
    "city": "greenleaf",
    "zip_code": "83626"
  },
  {
    "city": "boise",
    "zip_code": "83716"
  },
  {
    "city": "cocolalla",
    "zip_code": "83813"
  },
  {
    "city": "farmington",
    "zip_code": "84025"
  },
  {
    "city": "ibapah",
    "zip_code": "84034"
  },
  {
    "city": "tridell",
    "zip_code": "84076"
  },
  {
    "city": "whiterocks",
    "zip_code": "84085"
  },
  {
    "city": "sandy",
    "zip_code": "84093"
  },
  {
    "city": "howell",
    "zip_code": "84316"
  },
  {
    "city": "clawson",
    "zip_code": "84516"
  },
  {
    "city": "axtell",
    "zip_code": "84621"
  },
  {
    "city": "fountain green",
    "zip_code": "84632"
  },
  {
    "city": "santaquin",
    "zip_code": "84655"
  },
  {
    "city": "spring city",
    "zip_code": "84662"
  },
  {
    "city": "springville",
    "zip_code": "84663"
  },
  {
    "city": "springdale",
    "zip_code": "84767"
  },
  {
    "city": "tropic",
    "zip_code": "84776"
  },
  {
    "city": "phoenix",
    "zip_code": "85008"
  },
  {
    "city": "phoenix",
    "zip_code": "85051"
  },
  {
    "city": "mesa",
    "zip_code": "85203"
  },
  {
    "city": "gilbert",
    "zip_code": "85233"
  },
  {
    "city": "gilbert",
    "zip_code": "85295"
  },
  {
    "city": "goodyear",
    "zip_code": "85338"
  },
  {
    "city": "lukeville",
    "zip_code": "85341"
  },
  {
    "city": "arivaca",
    "zip_code": "85601"
  },
  {
    "city": "tombstone",
    "zip_code": "85638"
  },
  {
    "city": "tucson",
    "zip_code": "85712"
  },
  {
    "city": "colorado city",
    "zip_code": "86021"
  },
  {
    "city": "sun valley",
    "zip_code": "86029"
  },
  {
    "city": "prescott",
    "zip_code": "86305"
  },
  {
    "city": "mayer",
    "zip_code": "86333"
  },
  {
    "city": "willow beach",
    "zip_code": "86445"
  },
  {
    "city": "pinon",
    "zip_code": "86510"
  },
  {
    "city": "round rock",
    "zip_code": "86547"
  },
  {
    "city": "laguna",
    "zip_code": "87026"
  },
  {
    "city": "pueblo of acoma",
    "zip_code": "87034"
  },
  {
    "city": "moriarty",
    "zip_code": "87035"
  },
  {
    "city": "veguita",
    "zip_code": "87062"
  },
  {
    "city": "cochiti pueblo",
    "zip_code": "87072"
  },
  {
    "city": "church rock",
    "zip_code": "87311"
  },
  {
    "city": "canones",
    "zip_code": "87516"
  },
  {
    "city": "hernandez",
    "zip_code": "87537"
  },
  {
    "city": "san acacia",
    "zip_code": "87831"
  },
  {
    "city": "floyd",
    "zip_code": "88118"
  },
  {
    "city": "loving",
    "zip_code": "88256"
  },
  {
    "city": "monument",
    "zip_code": "88265"
  },
  {
    "city": "des moines",
    "zip_code": "88418"
  },
  {
    "city": "san jon",
    "zip_code": "88434"
  },
  {
    "city": "moapa",
    "zip_code": "89025"
  },
  {
    "city": "pahrump",
    "zip_code": "89048"
  },
  {
    "city": "ely",
    "zip_code": "89301"
  },
  {
    "city": "austin",
    "zip_code": "89310"
  },
  {
    "city": "gardnerville",
    "zip_code": "89410"
  },
  {
    "city": "yerington",
    "zip_code": "89447"
  },
  {
    "city": "reno",
    "zip_code": "89509"
  },
  {
    "city": "carson city",
    "zip_code": "89705"
  },
  {
    "city": "natchez",
    "zip_code": "39120"
  },
  {
    "city": "valley park",
    "zip_code": "39177"
  },
  {
    "city": "laurel",
    "zip_code": "39440"
  },
  {
    "city": "vancleave",
    "zip_code": "39565"
  },
  {
    "city": "brookhaven",
    "zip_code": "39601"
  },
  {
    "city": "shellman",
    "zip_code": "39886"
  },
  {
    "city": "whigham",
    "zip_code": "39897"
  },
  {
    "city": "bethlehem",
    "zip_code": "40007"
  },
  {
    "city": "nazareth",
    "zip_code": "40048"
  },
  {
    "city": "taylorsville",
    "zip_code": "40071"
  },
  {
    "city": "webster",
    "zip_code": "40176"
  },
  {
    "city": "louisville",
    "zip_code": "40228"
  },
  {
    "city": "denniston",
    "zip_code": "40316"
  },
  {
    "city": "lawrenceburg",
    "zip_code": "40342"
  },
  {
    "city": "mount vernon",
    "zip_code": "40456"
  },
  {
    "city": "lexington",
    "zip_code": "40507"
  },
  {
    "city": "gray",
    "zip_code": "40734"
  },
  {
    "city": "rockholds",
    "zip_code": "40759"
  },
  {
    "city": "baxter",
    "zip_code": "40806"
  },
  {
    "city": "coalgood",
    "zip_code": "40818"
  },
  {
    "city": "cranks",
    "zip_code": "40820"
  },
  {
    "city": "covington",
    "zip_code": "41016"
  },
  {
    "city": "silver grove",
    "zip_code": "41085"
  },
  {
    "city": "grayson",
    "zip_code": "41143"
  },
  {
    "city": "east point",
    "zip_code": "41216"
  },
  {
    "city": "whick",
    "zip_code": "41390"
  },
  {
    "city": "jenkins",
    "zip_code": "41537"
  },
  {
    "city": "emmalena",
    "zip_code": "41740"
  },
  {
    "city": "grand rivers",
    "zip_code": "42045"
  },
  {
    "city": "hickory",
    "zip_code": "42051"
  },
  {
    "city": "water valley",
    "zip_code": "42085"
  },
  {
    "city": "rumsey",
    "zip_code": "42371"
  },
  {
    "city": "robards",
    "zip_code": "42452"
  },
  {
    "city": "white plains",
    "zip_code": "42464"
  },
  {
    "city": "yosemite",
    "zip_code": "42566"
  },
  {
    "city": "marshes siding",
    "zip_code": "42631"
  },
  {
    "city": "clarkson",
    "zip_code": "42726"
  },
  {
    "city": "grove city",
    "zip_code": "43123"
  },
  {
    "city": "new holland",
    "zip_code": "43145"
  },
  {
    "city": "de graff",
    "zip_code": "43318"
  },
  {
    "city": "pemberville",
    "zip_code": "43450"
  },
  {
    "city": "wauseon",
    "zip_code": "43567"
  },
  {
    "city": "beallsville",
    "zip_code": "43716"
  },
  {
    "city": "kipling",
    "zip_code": "43750"
  },
  {
    "city": "adamsville",
    "zip_code": "43802"
  },
  {
    "city": "east springfield",
    "zip_code": "43925"
  },
  {
    "city": "smithfield",
    "zip_code": "43948"
  },
  {
    "city": "jewett",
    "zip_code": "43986"
  },
  {
    "city": "avon lake",
    "zip_code": "44012"
  },
  {
    "city": "willoughby",
    "zip_code": "44094"
  },
  {
    "city": "cleveland",
    "zip_code": "44106"
  },
  {
    "city": "akron",
    "zip_code": "44321"
  },
  {
    "city": "leetonia",
    "zip_code": "44431"
  },
  {
    "city": "washingtonville",
    "zip_code": "44490"
  },
  {
    "city": "youngstown",
    "zip_code": "44510"
  },
  {
    "city": "holmesville",
    "zip_code": "44633"
  },
  {
    "city": "navarre",
    "zip_code": "44662"
  },
  {
    "city": "canton",
    "zip_code": "44707"
  },
  {
    "city": "north canton",
    "zip_code": "44720"
  },
  {
    "city": "north fairfield",
    "zip_code": "44855"
  },
  {
    "city": "north robinson",
    "zip_code": "44856"
  },
  {
    "city": "republic",
    "zip_code": "44867"
  },
  {
    "city": "oxford",
    "zip_code": "45056"
  },
  {
    "city": "new vienna",
    "zip_code": "45159"
  },
  {
    "city": "reesville",
    "zip_code": "45166"
  },
  {
    "city": "cincinnati",
    "zip_code": "45225"
  },
  {
    "city": "greenville",
    "zip_code": "45331"
  },
  {
    "city": "phillipsburg",
    "zip_code": "45354"
  },
  {
    "city": "dayton",
    "zip_code": "45416"
  },
  {
    "city": "bainbridge",
    "zip_code": "45612"
  },
  {
    "city": "creola",
    "zip_code": "45622"
  },
  {
    "city": "haverhill",
    "zip_code": "45636"
  },
  {
    "city": "new plymouth",
    "zip_code": "45654"
  },
  {
    "city": "pedro",
    "zip_code": "45659"
  },
  {
    "city": "piketon",
    "zip_code": "45661"
  },
  {
    "city": "west portsmouth",
    "zip_code": "45663"
  },
  {
    "city": "south salem",
    "zip_code": "45681"
  },
  {
    "city": "coolville",
    "zip_code": "45723"
  },
  {
    "city": "portland",
    "zip_code": "45770"
  },
  {
    "city": "leipsic",
    "zip_code": "45856"
  },
  {
    "city": "ottawa",
    "zip_code": "45875"
  },
  {
    "city": "payne",
    "zip_code": "45880"
  },
  {
    "city": "goldsmith",
    "zip_code": "46045"
  },
  {
    "city": "summitville",
    "zip_code": "46070"
  },
  {
    "city": "coatesville",
    "zip_code": "46121"
  },
  {
    "city": "needham",
    "zip_code": "46162"
  },
  {
    "city": "indianapolis",
    "zip_code": "46222"
  },
  {
    "city": "chesterton",
    "zip_code": "46304"
  },
  {
    "city": "warsaw",
    "zip_code": "46582"
  },
  {
    "city": "craigville",
    "zip_code": "46731"
  },
  {
    "city": "poneto",
    "zip_code": "46781"
  },
  {
    "city": "saint joe",
    "zip_code": "46785"
  },
  {
    "city": "south whitley",
    "zip_code": "46787"
  },
  {
    "city": "yoder",
    "zip_code": "46798"
  },
  {
    "city": "kokomo",
    "zip_code": "46902"
  },
  {
    "city": "peru",
    "zip_code": "46970"
  },
  {
    "city": "cedar grove",
    "zip_code": "47016"
  },
  {
    "city": "milan",
    "zip_code": "47031"
  },
  {
    "city": "lexington",
    "zip_code": "47138"
  },
  {
    "city": "marengo",
    "zip_code": "47140"
  },
  {
    "city": "memphis",
    "zip_code": "47143"
  },
  {
    "city": "milltown",
    "zip_code": "47145"
  },
  {
    "city": "freetown",
    "zip_code": "47235"
  },
  {
    "city": "muncie",
    "zip_code": "47303"
  },
  {
    "city": "gaston",
    "zip_code": "47342"
  },
  {
    "city": "freedom",
    "zip_code": "47431"
  },
  {
    "city": "french lick",
    "zip_code": "47432"
  },
  {
    "city": "bristow",
    "zip_code": "47515"
  },
  {
    "city": "owensville",
    "zip_code": "47665"
  },
  {
    "city": "clinton",
    "zip_code": "47842"
  },
  {
    "city": "universal",
    "zip_code": "47884"
  },
  {
    "city": "west lafayette",
    "zip_code": "47907"
  },
  {
    "city": "pine village",
    "zip_code": "47975"
  },
  {
    "city": "emmett",
    "zip_code": "48022"
  },
  {
    "city": "chelsea",
    "zip_code": "48118"
  },
  {
    "city": "ypsilanti",
    "zip_code": "48198"
  },
  {
    "city": "detroit",
    "zip_code": "48238"
  },
  {
    "city": "pontiac",
    "zip_code": "48342"
  },
  {
    "city": "oakland",
    "zip_code": "48363"
  },
  {
    "city": "dryden",
    "zip_code": "48428"
  },
  {
    "city": "gaines",
    "zip_code": "48436"
  },
  {
    "city": "imlay city",
    "zip_code": "48444"
  },
  {
    "city": "flint",
    "zip_code": "48532"
  },
  {
    "city": "linwood",
    "zip_code": "48634"
  },
  {
    "city": "standish",
    "zip_code": "48658"
  },
  {
    "city": "bath",
    "zip_code": "48808"
  },
  {
    "city": "sumner",
    "zip_code": "48889"
  },
  {
    "city": "hastings",
    "zip_code": "49058"
  },
  {
    "city": "sturgis",
    "zip_code": "49091"
  },
  {
    "city": "baroda",
    "zip_code": "49101"
  },
  {
    "city": "camden",
    "zip_code": "49232"
  },
  {
    "city": "grass lake",
    "zip_code": "49240"
  },
  {
    "city": "napoleon",
    "zip_code": "49261"
  },
  {
    "city": "rockford",
    "zip_code": "49341"
  },
  {
    "city": "levering",
    "zip_code": "49755"
  },
  {
    "city": "powers",
    "zip_code": "49874"
  },
  {
    "city": "pelkie",
    "zip_code": "49958"
  },
  {
    "city": "churdan",
    "zip_code": "50050"
  },
  {
    "city": "dana",
    "zip_code": "50064"
  },
  {
    "city": "ellsworth",
    "zip_code": "50075"
  },
  {
    "city": "mccallsburg",
    "zip_code": "50154"
  },
  {
    "city": "macksburg",
    "zip_code": "50155"
  },
  {
    "city": "melbourne",
    "zip_code": "50162"
  },
  {
    "city": "state center",
    "zip_code": "50247"
  },
  {
    "city": "stratford",
    "zip_code": "50249"
  },
  {
    "city": "fonda",
    "zip_code": "50540"
  },
  {
    "city": "nemaha",
    "zip_code": "50567"
  },
  {
    "city": "whittemore",
    "zip_code": "50598"
  },
  {
    "city": "masonville",
    "zip_code": "50654"
  },
  {
    "city": "oelwein",
    "zip_code": "50662"
  },
  {
    "city": "greenfield",
    "zip_code": "50849"
  },
  {
    "city": "mapleton",
    "zip_code": "51034"
  },
  {
    "city": "everly",
    "zip_code": "51338"
  },
  {
    "city": "superior",
    "zip_code": "51363"
  },
  {
    "city": "harlan",
    "zip_code": "51537"
  },
  {
    "city": "spragueville",
    "zip_code": "52074"
  },
  {
    "city": "decorah",
    "zip_code": "52101"
  },
  {
    "city": "clermont",
    "zip_code": "52135"
  },
  {
    "city": "fayette",
    "zip_code": "52142"
  },
  {
    "city": "harpers ferry",
    "zip_code": "52146"
  },
  {
    "city": "wadena",
    "zip_code": "52169"
  },
  {
    "city": "oxford",
    "zip_code": "52322"
  },
  {
    "city": "watkins",
    "zip_code": "52354"
  },
  {
    "city": "birmingham",
    "zip_code": "52535"
  },
  {
    "city": "centerville",
    "zip_code": "52544"
  },
  {
    "city": "packwood",
    "zip_code": "52580"
  },
  {
    "city": "danville",
    "zip_code": "52623"
  },
  {
    "city": "walcott",
    "zip_code": "52773"
  },
  {
    "city": "kohler",
    "zip_code": "53044"
  },
  {
    "city": "sheboygan falls",
    "zip_code": "53085"
  },
  {
    "city": "dousman",
    "zip_code": "53118"
  },
  {
    "city": "elkhorn",
    "zip_code": "53121"
  },
  {
    "city": "elm grove",
    "zip_code": "53122"
  },
  {
    "city": "trevor",
    "zip_code": "53179"
  },
  {
    "city": "lake mills",
    "zip_code": "53551"
  },
  {
    "city": "linden",
    "zip_code": "53553"
  },
  {
    "city": "dickeyville",
    "zip_code": "53808"
  },
  {
    "city": "lancaster",
    "zip_code": "53813"
  },
  {
    "city": "goodman",
    "zip_code": "54125"
  },
  {
    "city": "little suamico",
    "zip_code": "54141"
  },
  {
    "city": "marinette",
    "zip_code": "54143"
  },
  {
    "city": "oneida",
    "zip_code": "54155"
  },
  {
    "city": "porterfield",
    "zip_code": "54159"
  },
  {
    "city": "casco",
    "zip_code": "54205"
  },
  {
    "city": "sister bay",
    "zip_code": "54234"
  },
  {
    "city": "green bay",
    "zip_code": "54307"
  },
  {
    "city": "babcock",
    "zip_code": "54413"
  },
  {
    "city": "pearson",
    "zip_code": "54462"
  },
  {
    "city": "fifield",
    "zip_code": "54524"
  },
  {
    "city": "minocqua",
    "zip_code": "54548"
  },
  {
    "city": "hixton",
    "zip_code": "54635"
  },
  {
    "city": "trempealeau",
    "zip_code": "54661"
  },
  {
    "city": "eau galle",
    "zip_code": "54737"
  },
  {
    "city": "comstock",
    "zip_code": "54826"
  },
  {
    "city": "haugen",
    "zip_code": "54841"
  },
  {
    "city": "iron river",
    "zip_code": "54847"
  },
  {
    "city": "bancroft",
    "zip_code": "54921"
  },
  {
    "city": "scandinavia",
    "zip_code": "54977"
  },
  {
    "city": "weyauwega",
    "zip_code": "54983"
  },
  {
    "city": "brook park",
    "zip_code": "55007"
  },
  {
    "city": "saint paul",
    "zip_code": "55102"
  },
  {
    "city": "saint paul",
    "zip_code": "55105"
  },
  {
    "city": "saint paul",
    "zip_code": "55110"
  },
  {
    "city": "hutchinson",
    "zip_code": "55350"
  },
  {
    "city": "minneapolis",
    "zip_code": "55407"
  },
  {
    "city": "minneapolis",
    "zip_code": "55411"
  },
  {
    "city": "minneapolis",
    "zip_code": "55416"
  },
  {
    "city": "barnum",
    "zip_code": "55707"
  },
  {
    "city": "warba",
    "zip_code": "55793"
  },
  {
    "city": "dover",
    "zip_code": "55929"
  },
  {
    "city": "mabel",
    "zip_code": "55954"
  },
  {
    "city": "rushford",
    "zip_code": "55971"
  },
  {
    "city": "hope",
    "zip_code": "56046"
  },
  {
    "city": "madison lake",
    "zip_code": "56063"
  },
  {
    "city": "bingham lake",
    "zip_code": "56118"
  },
  {
    "city": "garvin",
    "zip_code": "56132"
  },
  {
    "city": "trimont",
    "zip_code": "56176"
  },
  {
    "city": "wood lake",
    "zip_code": "56297"
  },
  {
    "city": "richmond",
    "zip_code": "56368"
  },
  {
    "city": "akeley",
    "zip_code": "56433"
  },
  {
    "city": "merrifield",
    "zip_code": "56465"
  },
  {
    "city": "borup",
    "zip_code": "56519"
  },
  {
    "city": "clitherall",
    "zip_code": "56524"
  },
  {
    "city": "rochert",
    "zip_code": "56578"
  },
  {
    "city": "tintah",
    "zip_code": "56583"
  },
  {
    "city": "alvarado",
    "zip_code": "56710"
  },
  {
    "city": "chancellor",
    "zip_code": "57015"
  },
  {
    "city": "flandreau",
    "zip_code": "57028"
  },
  {
    "city": "tabor",
    "zip_code": "57063"
  },
  {
    "city": "sioux falls",
    "zip_code": "57110"
  },
  {
    "city": "lake preston",
    "zip_code": "57249"
  },
  {
    "city": "ortley",
    "zip_code": "57256"
  },
  {
    "city": "cavour",
    "zip_code": "57324"
  },
  {
    "city": "brentford",
    "zip_code": "57429"
  },
  {
    "city": "faulkton",
    "zip_code": "57438"
  },
  {
    "city": "rosebud",
    "zip_code": "57570"
  },
  {
    "city": "little eagle",
    "zip_code": "57639"
  },
  {
    "city": "ellsworth afb",
    "zip_code": "57706"
  },
  {
    "city": "batesland",
    "zip_code": "57716"
  },
  {
    "city": "wall",
    "zip_code": "57790"
  },
  {
    "city": "absaraka",
    "zip_code": "58002"
  },
  {
    "city": "gwinner",
    "zip_code": "58040"
  },
  {
    "city": "buxton",
    "zip_code": "58218"
  },
  {
    "city": "emerado",
    "zip_code": "58228"
  },
  {
    "city": "hansboro",
    "zip_code": "58339"
  },
  {
    "city": "mcclusky",
    "zip_code": "58463"
  },
  {
    "city": "olympia",
    "zip_code": "98512"
  },
  {
    "city": "amanda park",
    "zip_code": "98526"
  },
  {
    "city": "cosmopolis",
    "zip_code": "98537"
  },
  {
    "city": "mccleary",
    "zip_code": "98557"
  },
  {
    "city": "carson",
    "zip_code": "98610"
  },
  {
    "city": "ocean park",
    "zip_code": "98640"
  },
  {
    "city": "vancouver",
    "zip_code": "98665"
  },
  {
    "city": "riverside",
    "zip_code": "98849"
  },
  {
    "city": "toppenish",
    "zip_code": "98948"
  },
  {
    "city": "ford",
    "zip_code": "99013"
  },
  {
    "city": "mead",
    "zip_code": "99021"
  },
  {
    "city": "rockford",
    "zip_code": "99030"
  },
  {
    "city": "coulee city",
    "zip_code": "99115"
  },
  {
    "city": "hartline",
    "zip_code": "99135"
  },
  {
    "city": "lincoln",
    "zip_code": "99147"
  },
  {
    "city": "spokane",
    "zip_code": "99207"
  },
  {
    "city": "anchorage",
    "zip_code": "99502"
  },
  {
    "city": "anchorage",
    "zip_code": "99504"
  },
  {
    "city": "port heiden",
    "zip_code": "99549"
  },
  {
    "city": "cooper landing",
    "zip_code": "99572"
  },
  {
    "city": "dillingham",
    "zip_code": "99576"
  },
  {
    "city": "ruby",
    "zip_code": "99768"
  },
  {
    "city": "savoonga",
    "zip_code": "99769"
  },
  {
    "city": "white mountain",
    "zip_code": "99784"
  },
  {
    "city": "angoon",
    "zip_code": "99820"
  },
  {
    "city": "culloden",
    "zip_code": "31016"
  },
  {
    "city": "yatesville",
    "zip_code": "31097"
  },
  {
    "city": "macon",
    "zip_code": "31206"
  },
  {
    "city": "sapelo island",
    "zip_code": "31327"
  },
  {
    "city": "savannah",
    "zip_code": "31405"
  },
  {
    "city": "savannah",
    "zip_code": "31409"
  },
  {
    "city": "jesup",
    "zip_code": "31545"
  },
  {
    "city": "ashburn",
    "zip_code": "31714"
  },
  {
    "city": "yulee",
    "zip_code": "32097"
  },
  {
    "city": "daytona beach",
    "zip_code": "32118"
  },
  {
    "city": "port orange",
    "zip_code": "32129"
  },
  {
    "city": "perry",
    "zip_code": "32347"
  },
  {
    "city": "mexico beach",
    "zip_code": "32410"
  },
  {
    "city": "sneads",
    "zip_code": "32460"
  },
  {
    "city": "vernon",
    "zip_code": "32462"
  },
  {
    "city": "jay",
    "zip_code": "32565"
  },
  {
    "city": "orlando",
    "zip_code": "32819"
  },
  {
    "city": "homestead",
    "zip_code": "33032"
  },
  {
    "city": "miami",
    "zip_code": "33130"
  },
  {
    "city": "miami",
    "zip_code": "33147"
  },
  {
    "city": "miami",
    "zip_code": "33168"
  },
  {
    "city": "lake worth",
    "zip_code": "33449"
  },
  {
    "city": "hobe sound",
    "zip_code": "33455"
  },
  {
    "city": "boca raton",
    "zip_code": "33498"
  },
  {
    "city": "plant city",
    "zip_code": "33566"
  },
  {
    "city": "tampa",
    "zip_code": "33603"
  },
  {
    "city": "tampa",
    "zip_code": "33616"
  },
  {
    "city": "saint petersburg",
    "zip_code": "33708"
  },
  {
    "city": "saint petersburg",
    "zip_code": "33710"
  },
  {
    "city": "clearwater",
    "zip_code": "33763"
  },
  {
    "city": "seminole",
    "zip_code": "33772"
  },
  {
    "city": "lakeland",
    "zip_code": "33803"
  },
  {
    "city": "fort myers",
    "zip_code": "33912"
  },
  {
    "city": "fort myers",
    "zip_code": "33919"
  },
  {
    "city": "punta gorda",
    "zip_code": "33950"
  },
  {
    "city": "port charlotte",
    "zip_code": "33952"
  },
  {
    "city": "lehigh acres",
    "zip_code": "33972"
  },
  {
    "city": "naples",
    "zip_code": "34101"
  },
  {
    "city": "naples",
    "zip_code": "34112"
  },
  {
    "city": "immokalee",
    "zip_code": "34142"
  },
  {
    "city": "sarasota",
    "zip_code": "34235"
  },
  {
    "city": "astatula",
    "zip_code": "34705"
  },
  {
    "city": "kissimmee",
    "zip_code": "34741"
  },
  {
    "city": "kissimmee",
    "zip_code": "34743"
  },
  {
    "city": "port saint lucie",
    "zip_code": "34952"
  },
  {
    "city": "bessemer",
    "zip_code": "35020"
  },
  {
    "city": "mccalla",
    "zip_code": "35111"
  },
  {
    "city": "sumiton",
    "zip_code": "35148"
  },
  {
    "city": "birmingham",
    "zip_code": "35211"
  },
  {
    "city": "ethelsville",
    "zip_code": "35461"
  },
  {
    "city": "fosters",
    "zip_code": "35463"
  },
  {
    "city": "detroit",
    "zip_code": "35552"
  },
  {
    "city": "lineville",
    "zip_code": "36266"
  },
  {
    "city": "hartford",
    "zip_code": "36344"
  },
  {
    "city": "coy",
    "zip_code": "36435"
  },
  {
    "city": "summerdale",
    "zip_code": "36580"
  },
  {
    "city": "maplesville",
    "zip_code": "36750"
  },
  {
    "city": "auburn",
    "zip_code": "36830"
  },
  {
    "city": "erin",
    "zip_code": "37061"
  },
  {
    "city": "unionville",
    "zip_code": "37180"
  },
  {
    "city": "nashville",
    "zip_code": "37209"
  },
  {
    "city": "nashville",
    "zip_code": "37213"
  },
  {
    "city": "nashville",
    "zip_code": "37217"
  },
  {
    "city": "huntland",
    "zip_code": "37345"
  },
  {
    "city": "ooltewah",
    "zip_code": "37363"
  },
  {
    "city": "tullahoma",
    "zip_code": "37388"
  },
  {
    "city": "bluff city",
    "zip_code": "37618"
  },
  {
    "city": "milligan college",
    "zip_code": "37682"
  },
  {
    "city": "watauga",
    "zip_code": "37694"
  },
  {
    "city": "alcoa",
    "zip_code": "37701"
  },
  {
    "city": "bybee",
    "zip_code": "37713"
  },
  {
    "city": "knoxville",
    "zip_code": "37922"
  },
  {
    "city": "bells",
    "zip_code": "38006"
  },
  {
    "city": "memphis",
    "zip_code": "38108"
  },
  {
    "city": "atwood",
    "zip_code": "38220"
  },
  {
    "city": "mclemoresville",
    "zip_code": "38235"
  },
  {
    "city": "south fulton",
    "zip_code": "38257"
  },
  {
    "city": "union city",
    "zip_code": "38261"
  },
  {
    "city": "milledgeville",
    "zip_code": "38359"
  },
  {
    "city": "selmer",
    "zip_code": "38375"
  },
  {
    "city": "stantonville",
    "zip_code": "38379"
  },
  {
    "city": "clifton",
    "zip_code": "38425"
  },
  {
    "city": "taylor",
    "zip_code": "38673"
  },
  {
    "city": "panther burn",
    "zip_code": "38765"
  },
  {
    "city": "belmont",
    "zip_code": "38827"
  },
  {
    "city": "burnsville",
    "zip_code": "38833"
  },
  {
    "city": "glen",
    "zip_code": "38846"
  },
  {
    "city": "cruger",
    "zip_code": "38924"
  },
  {
    "city": "greenwood",
    "zip_code": "38930"
  },
  {
    "city": "mccool",
    "zip_code": "39108"
  },
  {
    "city": "los angeles",
    "zip_code": "90003"
  },
  {
    "city": "torrance",
    "zip_code": "90505"
  },
  {
    "city": "montrose",
    "zip_code": "91020"
  },
  {
    "city": "tujunga",
    "zip_code": "91042"
  },
  {
    "city": "glendale",
    "zip_code": "91201"
  },
  {
    "city": "san gabriel",
    "zip_code": "91775"
  },
  {
    "city": "potrero",
    "zip_code": "91963"
  },
  {
    "city": "san diego",
    "zip_code": "92124"
  },
  {
    "city": "la quinta",
    "zip_code": "92253"
  },
  {
    "city": "morongo valley",
    "zip_code": "92256"
  },
  {
    "city": "rancho mirage",
    "zip_code": "92270"
  },
  {
    "city": "barstow",
    "zip_code": "92311"
  },
  {
    "city": "forest falls",
    "zip_code": "92339"
  },
  {
    "city": "san bernardino",
    "zip_code": "92401"
  },
  {
    "city": "lake elsinore",
    "zip_code": "92530"
  },
  {
    "city": "costa mesa",
    "zip_code": "92627"
  },
  {
    "city": "silverado",
    "zip_code": "92676"
  },
  {
    "city": "santa ana",
    "zip_code": "92703"
  },
  {
    "city": "maricopa",
    "zip_code": "93252"
  },
  {
    "city": "bakersfield",
    "zip_code": "93307"
  },
  {
    "city": "johannesburg",
    "zip_code": "93528"
  },
  {
    "city": "bass lake",
    "zip_code": "93604"
  },
  {
    "city": "biola",
    "zip_code": "93606"
  },
  {
    "city": "mendota",
    "zip_code": "93640"
  },
  {
    "city": "brisbane",
    "zip_code": "94005"
  },
  {
    "city": "san francisco",
    "zip_code": "94102"
  },
  {
    "city": "san francisco",
    "zip_code": "94103"
  },
  {
    "city": "palo alto",
    "zip_code": "94303"
  },
  {
    "city": "deer park",
    "zip_code": "94576"
  },
  {
    "city": "san rafael",
    "zip_code": "94901"
  },
  {
    "city": "belvedere tiburon",
    "zip_code": "94920"
  },
  {
    "city": "nicasio",
    "zip_code": "94946"
  },
  {
    "city": "acampo",
    "zip_code": "95220"
  },
  {
    "city": "cressey",
    "zip_code": "95312"
  },
  {
    "city": "modesto",
    "zip_code": "95358"
  },
  {
    "city": "cazadero",
    "zip_code": "95421"
  },
  {
    "city": "ukiah",
    "zip_code": "95482"
  },
  {
    "city": "penryn",
    "zip_code": "95663"
  },
  {
    "city": "rancho cordova",
    "zip_code": "95670"
  },
  {
    "city": "rumsey",
    "zip_code": "95679"
  },
  {
    "city": "chico",
    "zip_code": "95928"
  },
  {
    "city": "williams",
    "zip_code": "95987"
  },
  {
    "city": "dunsmuir",
    "zip_code": "96025"
  },
  {
    "city": "montgomery creek",
    "zip_code": "96065"
  },
  {
    "city": "red bluff",
    "zip_code": "96080"
  },
  {
    "city": "lake city",
    "zip_code": "96115"
  },
  {
    "city": "portola",
    "zip_code": "96122"
  },
  {
    "city": "standish",
    "zip_code": "96128"
  },
  {
    "city": "honaunau",
    "zip_code": "96726"
  },
  {
    "city": "kamuela",
    "zip_code": "96743"
  },
  {
    "city": "makawao",
    "zip_code": "96768"
  },
  {
    "city": "maunaloa",
    "zip_code": "96770"
  },
  {
    "city": "paauilo",
    "zip_code": "96776"
  },
  {
    "city": "volcano",
    "zip_code": "96785"
  },
  {
    "city": "boring",
    "zip_code": "97009"
  },
  {
    "city": "clackamas",
    "zip_code": "97015"
  },
  {
    "city": "gales creek",
    "zip_code": "97117"
  },
  {
    "city": "manzanita",
    "zip_code": "97130"
  },
  {
    "city": "azalea",
    "zip_code": "97410"
  },
  {
    "city": "creswell",
    "zip_code": "97426"
  },
  {
    "city": "wilbur",
    "zip_code": "97494"
  },
  {
    "city": "gold hill",
    "zip_code": "97525"
  },
  {
    "city": "paulina",
    "zip_code": "97751"
  },
  {
    "city": "richland",
    "zip_code": "97870"
  },
  {
    "city": "carnation",
    "zip_code": "98014"
  },
  {
    "city": "mountlake terrace",
    "zip_code": "98043"
  },
  {
    "city": "snoqualmie",
    "zip_code": "98065"
  },
  {
    "city": "seattle",
    "zip_code": "98108"
  },
  {
    "city": "seattle",
    "zip_code": "98168"
  },
  {
    "city": "depoe bay",
    "zip_code": "97341"
  },
  {
    "city": "rickreall",
    "zip_code": "97371"
  },
  {
    "city": "saint benedict",
    "zip_code": "97373"
  },
  {
    "city": "eugene",
    "zip_code": "97402"
  },
  {
    "city": "brogan",
    "zip_code": "97903"
  },
  {
    "city": "bothell",
    "zip_code": "98011"
  },
  {
    "city": "bothell",
    "zip_code": "98021"
  },
  {
    "city": "bow",
    "zip_code": "98232"
  },
  {
    "city": "rockport",
    "zip_code": "98283"
  },
  {
    "city": "waldron",
    "zip_code": "98297"
  },
  {
    "city": "mineral",
    "zip_code": "98355"
  },
  {
    "city": "port orchard",
    "zip_code": "98366"
  },
  {
    "city": "san juan",
    "zip_code": "907"
  },
  {
    "city": "san juan",
    "zip_code": "921"
  },
  {
    "city": "chesterfield",
    "zip_code": "1012"
  },
  {
    "city": "feeding hills",
    "zip_code": "1030"
  },
  {
    "city": "three rivers",
    "zip_code": "1080"
  },
  {
    "city": "ashfield",
    "zip_code": "1330"
  },
  {
    "city": "charlton",
    "zip_code": "1507"
  },
  {
    "city": "webster",
    "zip_code": "1570"
  },
  {
    "city": "maynard",
    "zip_code": "1754"
  },
  {
    "city": "dracut",
    "zip_code": "1826"
  },
  {
    "city": "danvers",
    "zip_code": "1923"
  },
  {
    "city": "wenham",
    "zip_code": "1984"
  },
  {
    "city": "bellingham",
    "zip_code": "2019"
  },
  {
    "city": "norwell",
    "zip_code": "2061"
  },
  {
    "city": "norwood",
    "zip_code": "2062"
  },
  {
    "city": "cambridge",
    "zip_code": "2139"
  },
  {
    "city": "duxbury",
    "zip_code": "2332"
  },
  {
    "city": "lexington",
    "zip_code": "2420"
  },
  {
    "city": "chilmark",
    "zip_code": "2535"
  },
  {
    "city": "east sandwich",
    "zip_code": "2537"
  },
  {
    "city": "north truro",
    "zip_code": "2652"
  },
  {
    "city": "south dennis",
    "zip_code": "2660"
  },
  {
    "city": "fall river",
    "zip_code": "2724"
  },
  {
    "city": "marion",
    "zip_code": "2738"
  },
  {
    "city": "mattapoisett",
    "zip_code": "2739"
  },
  {
    "city": "norton",
    "zip_code": "2766"
  },
  {
    "city": "hope valley",
    "zip_code": "2832"
  },
  {
    "city": "lincoln",
    "zip_code": "3251"
  },
  {
    "city": "spofford",
    "zip_code": "3462"
  },
  {
    "city": "west chesterfield",
    "zip_code": "3466"
  },
  {
    "city": "orford",
    "zip_code": "3777"
  },
  {
    "city": "new castle",
    "zip_code": "3854"
  },
  {
    "city": "ossipee",
    "zip_code": "3864"
  },
  {
    "city": "sanbornville",
    "zip_code": "3872"
  },
  {
    "city": "york",
    "zip_code": "3909"
  },
  {
    "city": "hiram",
    "zip_code": "4041"
  },
  {
    "city": "limington",
    "zip_code": "4049"
  },
  {
    "city": "bowdoin",
    "zip_code": "4287"
  },
  {
    "city": "manchester",
    "zip_code": "4351"
  },
  {
    "city": "abbot",
    "zip_code": "4406"
  },
  {
    "city": "etna",
    "zip_code": "4434"
  },
  {
    "city": "millinocket",
    "zip_code": "4462"
  },
  {
    "city": "springfield",
    "zip_code": "4487"
  },
  {
    "city": "new harbor",
    "zip_code": "4554"
  },
  {
    "city": "addison",
    "zip_code": "4606"
  },
  {
    "city": "meddybemps",
    "zip_code": "4657"
  },
  {
    "city": "steuben",
    "zip_code": "4680"
  },
  {
    "city": "eagle lake",
    "zip_code": "4739"
  },
  {
    "city": "camden",
    "zip_code": "4843"
  },
  {
    "city": "clinton",
    "zip_code": "4927"
  },
  {
    "city": "new vineyard",
    "zip_code": "4956"
  },
  {
    "city": "palmyra",
    "zip_code": "4965"
  },
  {
    "city": "stockton springs",
    "zip_code": "4981"
  },
  {
    "city": "east ryegate",
    "zip_code": "5042"
  },
  {
    "city": "brattleboro",
    "zip_code": "5301"
  },
  {
    "city": "bristol",
    "zip_code": "5443"
  },
  {
    "city": "new haven",
    "zip_code": "5472"
  },
  {
    "city": "northfield falls",
    "zip_code": "5664"
  },
  {
    "city": "lyndonville",
    "zip_code": "5851"
  },
  {
    "city": "rocky hill",
    "zip_code": "6067"
  },
  {
    "city": "newington",
    "zip_code": "6111"
  },
  {
    "city": "wauregan",
    "zip_code": "6387"
  },
  {
    "city": "durham",
    "zip_code": "6422"
  },
  {
    "city": "monroe",
    "zip_code": "6468"
  },
  {
    "city": "thomaston",
    "zip_code": "6787"
  },
  {
    "city": "norwalk",
    "zip_code": "6855"
  },
  {
    "city": "cliffside park",
    "zip_code": "7010"
  },
  {
    "city": "montclair",
    "zip_code": "7042"
  },
  {
    "city": "moonachie",
    "zip_code": "7074"
  },
  {
    "city": "springfield",
    "zip_code": "7081"
  },
  {
    "city": "paterson",
    "zip_code": "7503"
  },
  {
    "city": "alpine",
    "zip_code": "7620"
  },
  {
    "city": "little silver",
    "zip_code": "7739"
  },
  {
    "city": "mine hill",
    "zip_code": "7803"
  },
  {
    "city": "cedar knolls",
    "zip_code": "7927"
  },
  {
    "city": "morristown",
    "zip_code": "7960"
  },
  {
    "city": "cherry hill",
    "zip_code": "8002"
  },
  {
    "city": "south seaville",
    "zip_code": "8246"
  },
  {
    "city": "hopewell",
    "zip_code": "8525"
  },
  {
    "city": "wrightstown",
    "zip_code": "8562"
  },
  {
    "city": "trenton",
    "zip_code": "8611"
  },
  {
    "city": "allenwood",
    "zip_code": "8720"
  },
  {
    "city": "pine beach",
    "zip_code": "8741"
  },
  {
    "city": "piscataway",
    "zip_code": "8854"
  },
  {
    "city": "raritan",
    "zip_code": "8869"
  },
  {
    "city": "new york",
    "zip_code": "10280"
  },
  {
    "city": "staten island",
    "zip_code": "10306"
  },
  {
    "city": "garrison",
    "zip_code": "10524"
  },
  {
    "city": "mahopac",
    "zip_code": "10541"
  },
  {
    "city": "putnam valley",
    "zip_code": "10579"
  },
  {
    "city": "yonkers",
    "zip_code": "10710"
  },
  {
    "city": "middletown",
    "zip_code": "10940"
  },
  {
    "city": "mountainville",
    "zip_code": "10953"
  },
  {
    "city": "washingtonville",
    "zip_code": "10992"
  },
  {
    "city": "franklin square",
    "zip_code": "11010"
  },
  {
    "city": "brooklyn",
    "zip_code": "11213"
  },
  {
    "city": "brooklyn",
    "zip_code": "11234"
  },
  {
    "city": "brooklyn",
    "zip_code": "11235"
  },
  {
    "city": "south richmond hill",
    "zip_code": "11419"
  },
  {
    "city": "breezy point",
    "zip_code": "11697"
  },
  {
    "city": "bayport",
    "zip_code": "11705"
  },
  {
    "city": "bellport",
    "zip_code": "11713"
  },
  {
    "city": "cold spring harbor",
    "zip_code": "11724"
  },
  {
    "city": "east norwich",
    "zip_code": "11732"
  },
  {
    "city": "holtsville",
    "zip_code": "11742"
  },
  {
    "city": "syosset",
    "zip_code": "11791"
  },
  {
    "city": "bridgehampton",
    "zip_code": "11932"
  },
  {
    "city": "clarksville",
    "zip_code": "12041"
  },
  {
    "city": "surprise",
    "zip_code": "12176"
  },
  {
    "city": "west lebanon",
    "zip_code": "12195"
  },
  {
    "city": "big indian",
    "zip_code": "12410"
  },
  {
    "city": "lexington",
    "zip_code": "12452"
  },
  {
    "city": "hudson",
    "zip_code": "12534"
  },
  {
    "city": "hortonville",
    "zip_code": "12745"
  },
  {
    "city": "loch sheldrake",
    "zip_code": "12759"
  },
  {
    "city": "narrowsburg",
    "zip_code": "12764"
  },
  {
    "city": "parksville",
    "zip_code": "12768"
  },
  {
    "city": "white lake",
    "zip_code": "12786"
  },
  {
    "city": "paradox",
    "zip_code": "12858"
  },
  {
    "city": "severance",
    "zip_code": "12872"
  },
  {
    "city": "stony creek",
    "zip_code": "12878"
  },
  {
    "city": "moira",
    "zip_code": "12957"
  },
  {
    "city": "king ferry",
    "zip_code": "13081"
  },
  {
    "city": "north pitcher",
    "zip_code": "13124"
  },
  {
    "city": "sterling",
    "zip_code": "13156"
  },
  {
    "city": "truxton",
    "zip_code": "13158"
  },
  {
    "city": "syracuse",
    "zip_code": "13214"
  },
  {
    "city": "camden",
    "zip_code": "13316"
  },
  {
    "city": "garrattsville",
    "zip_code": "13342"
  },
  {
    "city": "madison",
    "zip_code": "13402"
  },
  {
    "city": "rome",
    "zip_code": "13440"
  },
  {
    "city": "thendara",
    "zip_code": "13472"
  },
  {
    "city": "turin",
    "zip_code": "13473"
  },
  {
    "city": "watertown",
    "zip_code": "13603"
  },
  {
    "city": "brier hill",
    "zip_code": "13614"
  },
  {
    "city": "colton",
    "zip_code": "13625"
  },
  {
    "city": "winthrop",
    "zip_code": "13697"
  },
  {
    "city": "morris",
    "zip_code": "13808"
  },
  {
    "city": "arcade",
    "zip_code": "14009"
  },
  {
    "city": "burt",
    "zip_code": "14028"
  },
  {
    "city": "east aurora",
    "zip_code": "14052"
  },
  {
    "city": "elma",
    "zip_code": "14059"
  },
  {
    "city": "buffalo",
    "zip_code": "14206"
  },
  {
    "city": "buffalo",
    "zip_code": "14226"
  },
  {
    "city": "castile",
    "zip_code": "14427"
  },
  {
    "city": "east rochester",
    "zip_code": "14445"
  },
  {
    "city": "geneva",
    "zip_code": "14456"
  },
  {
    "city": "bloomfield",
    "zip_code": "14469"
  },
  {
    "city": "middlesex",
    "zip_code": "14507"
  },
  {
    "city": "rose",
    "zip_code": "14542"
  },
  {
    "city": "bemus point",
    "zip_code": "14712"
  },
  {
    "city": "dewittville",
    "zip_code": "14728"
  },
  {
    "city": "richburg",
    "zip_code": "14774"
  },
  {
    "city": "addison",
    "zip_code": "14801"
  },
  {
    "city": "slaterville springs",
    "zip_code": "14881"
  },
  {
    "city": "bairdford",
    "zip_code": "15006"
  },
  {
    "city": "bridgeville",
    "zip_code": "15017"
  },
  {
    "city": "shippingport",
    "zip_code": "15077"
  },
  {
    "city": "pittsburgh",
    "zip_code": "15217"
  },
  {
    "city": "pittsburgh",
    "zip_code": "15227"
  },
  {
    "city": "jefferson",
    "zip_code": "15344"
  },
  {
    "city": "dunlevy",
    "zip_code": "15432"
  },
  {
    "city": "new geneva",
    "zip_code": "15467"
  },
  {
    "city": "vanderbilt",
    "zip_code": "15486"
  },
  {
    "city": "greensburg",
    "zip_code": "15601"
  },
  {
    "city": "herminie",
    "zip_code": "15637"
  },
  {
    "city": "pleasant unity",
    "zip_code": "15676"
  },
  {
    "city": "bolivar",
    "zip_code": "15923"
  },
  {
    "city": "hooversville",
    "zip_code": "15936"
  },
  {
    "city": "north washington",
    "zip_code": "16048"
  },
  {
    "city": "portersville",
    "zip_code": "16051"
  },
  {
    "city": "sarver",
    "zip_code": "16055"
  },
  {
    "city": "new castle",
    "zip_code": "16102"
  },
  {
    "city": "koppel",
    "zip_code": "16136"
  },
  {
    "city": "stoneboro",
    "zip_code": "16153"
  },
  {
    "city": "rural valley",
    "zip_code": "16249"
  },
  {
    "city": "cranberry",
    "zip_code": "16319"
  },
  {
    "city": "sheffield",
    "zip_code": "16347"
  },
  {
    "city": "centerville",
    "zip_code": "16404"
  },
  {
    "city": "erie",
    "zip_code": "16508"
  },
  {
    "city": "irvona",
    "zip_code": "16656"
  },
  {
    "city": "cyclone",
    "zip_code": "16726"
  },
  {
    "city": "smethport",
    "zip_code": "16749"
  },
  {
    "city": "woodland",
    "zip_code": "16881"
  },
  {
    "city": "galeton",
    "zip_code": "16922"
  },
  {
    "city": "mainesburg",
    "zip_code": "16932"
  },
  {
    "city": "harrisburg",
    "zip_code": "17112"
  },
  {
    "city": "doylesburg",
    "zip_code": "17219"
  },
  {
    "city": "mercersburg",
    "zip_code": "17236"
  },
  {
    "city": "zullinger",
    "zip_code": "17272"
  },
  {
    "city": "kirkwood",
    "zip_code": "17536"
  },
  {
    "city": "strasburg",
    "zip_code": "17579"
  },
  {
    "city": "lairdsville",
    "zip_code": "17742"
  },
  {
    "city": "mcewensville",
    "zip_code": "17749"
  },
  {
    "city": "allenwood",
    "zip_code": "17810"
  },
  {
    "city": "mount carmel",
    "zip_code": "17851"
  },
  {
    "city": "brockton",
    "zip_code": "17925"
  },
  {
    "city": "seltzer",
    "zip_code": "17974"
  },
  {
    "city": "valley view",
    "zip_code": "17983"
  },
  {
    "city": "easton",
    "zip_code": "18040"
  },
  {
    "city": "springtown",
    "zip_code": "18081"
  },
  {
    "city": "east stroudsburg",
    "zip_code": "18301"
  },
  {
    "city": "pocono manor",
    "zip_code": "18349"
  },
  {
    "city": "damascus",
    "zip_code": "18415"
  },
  {
    "city": "forest city",
    "zip_code": "18421"
  },
  {
    "city": "moscow",
    "zip_code": "18444"
  },
  {
    "city": "nicholson",
    "zip_code": "18446"
  },
  {
    "city": "lake harmony",
    "zip_code": "18624"
  },
  {
    "city": "mildred",
    "zip_code": "18632"
  },
  {
    "city": "white haven",
    "zip_code": "18661"
  },
  {
    "city": "montrose",
    "zip_code": "18801"
  },
  {
    "city": "new albany",
    "zip_code": "18833"
  },
  {
    "city": "bala cynwyd",
    "zip_code": "19004"
  },
  {
    "city": "narberth",
    "zip_code": "19072"
  },
  {
    "city": "philadelphia",
    "zip_code": "19111"
  },
  {
    "city": "philadelphia",
    "zip_code": "19135"
  },
  {
    "city": "philadelphia",
    "zip_code": "19141"
  },
  {
    "city": "chadds ford",
    "zip_code": "19317"
  },
  {
    "city": "phoenixville",
    "zip_code": "19460"
  },
  {
    "city": "boyertown",
    "zip_code": "19512"
  },
  {
    "city": "mertztown",
    "zip_code": "19539"
  },
  {
    "city": "clayton",
    "zip_code": "19938"
  },
  {
    "city": "hamilton",
    "zip_code": "20158"
  },
  {
    "city": "herndon",
    "zip_code": "20170"
  },
  {
    "city": "washington",
    "zip_code": "20566"
  },
  {
    "city": "coltons point",
    "zip_code": "20626"
  },
  {
    "city": "huntingtown",
    "zip_code": "20639"
  },
  {
    "city": "leonardtown",
    "zip_code": "20650"
  },
  {
    "city": "tracys landing",
    "zip_code": "20779"
  },
  {
    "city": "ellicott city",
    "zip_code": "21043"
  },
  {
    "city": "columbia",
    "zip_code": "21044"
  },
  {
    "city": "crofton",
    "zip_code": "21114"
  },
  {
    "city": "towson",
    "zip_code": "21204"
  },
  {
    "city": "dundalk",
    "zip_code": "21222"
  },
  {
    "city": "baltimore",
    "zip_code": "21250"
  },
  {
    "city": "annapolis",
    "zip_code": "21405"
  },
  {
    "city": "grantsville",
    "zip_code": "21536"
  },
  {
    "city": "cambridge",
    "zip_code": "21613"
  },
  {
    "city": "crocheron",
    "zip_code": "21627"
  },
  {
    "city": "kennedyville",
    "zip_code": "21645"
  },
  {
    "city": "brunswick",
    "zip_code": "21716"
  },
  {
    "city": "knoxville",
    "zip_code": "21758"
  },
  {
    "city": "libertytown",
    "zip_code": "21762"
  },
  {
    "city": "point of rocks",
    "zip_code": "21777"
  },
  {
    "city": "linkwood",
    "zip_code": "21835"
  },
  {
    "city": "vienna",
    "zip_code": "21869"
  },
  {
    "city": "westover",
    "zip_code": "21871"
  },
  {
    "city": "fairfax",
    "zip_code": "22032"
  },
  {
    "city": "alexandria",
    "zip_code": "22310"
  },
  {
    "city": "milford",
    "zip_code": "22514"
  },
  {
    "city": "bentonville",
    "zip_code": "22610"
  },
  {
    "city": "stephens city",
    "zip_code": "22655"
  },
  {
    "city": "goldvein",
    "zip_code": "22720"
  },
  {
    "city": "jeffersonton",
    "zip_code": "22724"
  },
  {
    "city": "little plymouth",
    "zip_code": "23091"
  },
  {
    "city": "richmond",
    "zip_code": "23222"
  },
  {
    "city": "richmond",
    "zip_code": "23223"
  },
  {
    "city": "pungoteague",
    "zip_code": "23422"
  },
  {
    "city": "suffolk",
    "zip_code": "23435"
  },
  {
    "city": "temperanceville",
    "zip_code": "23442"
  },
  {
    "city": "virginia beach",
    "zip_code": "23457"
  },
  {
    "city": "petersburg",
    "zip_code": "23803"
  },
  {
    "city": "boykins",
    "zip_code": "23827"
  },
  {
    "city": "spring grove",
    "zip_code": "23881"
  },
  {
    "city": "burkeville",
    "zip_code": "23922"
  },
  {
    "city": "boones mill",
    "zip_code": "24065"
  },
  {
    "city": "buchanan",
    "zip_code": "24066"
  },
  {
    "city": "cascade",
    "zip_code": "24069"
  },
  {
    "city": "new castle",
    "zip_code": "24127"
  },
  {
    "city": "goode",
    "zip_code": "24556"
  },
  {
    "city": "howardsville",
    "zip_code": "24562"
  },
  {
    "city": "hurt",
    "zip_code": "24563"
  },
  {
    "city": "virgilina",
    "zip_code": "24598"
  },
  {
    "city": "cedar bluff",
    "zip_code": "24609"
  },
  {
    "city": "welch",
    "zip_code": "24801"
  },
  {
    "city": "anawalt",
    "zip_code": "24808"
  },
  {
    "city": "big sandy",
    "zip_code": "24816"
  },
  {
    "city": "jesse",
    "zip_code": "24849"
  },
  {
    "city": "matheny",
    "zip_code": "24860"
  },
  {
    "city": "dunbar",
    "zip_code": "25064"
  },
  {
    "city": "elkview",
    "zip_code": "25071"
  },
  {
    "city": "lizemores",
    "zip_code": "25125"
  },
  {
    "city": "winfield",
    "zip_code": "25213"
  },
  {
    "city": "arnoldsburg",
    "zip_code": "25234"
  },
  {
    "city": "hartford",
    "zip_code": "25247"
  },
  {
    "city": "looneyville",
    "zip_code": "25259"
  },
  {
    "city": "huntington",
    "zip_code": "25702"
  },
  {
    "city": "huntington",
    "zip_code": "25704"
  },
  {
    "city": "glen daniel",
    "zip_code": "25844"
  },
  {
    "city": "shady spring",
    "zip_code": "25918"
  },
  {
    "city": "sophia",
    "zip_code": "25921"
  },
  {
    "city": "stephenson",
    "zip_code": "25928"
  },
  {
    "city": "hinton",
    "zip_code": "25951"
  },
  {
    "city": "new cumberland",
    "zip_code": "26047"
  },
  {
    "city": "durbin",
    "zip_code": "26264"
  },
  {
    "city": "camden",
    "zip_code": "26338"
  },
  {
    "city": "moatsville",
    "zip_code": "26405"
  },
  {
    "city": "burton",
    "zip_code": "26562"
  },
  {
    "city": "mount storm",
    "zip_code": "26739"
  },
  {
    "city": "circleville",
    "zip_code": "26804"
  },
  {
    "city": "moorefield",
    "zip_code": "26836"
  },
  {
    "city": "tobaccoville",
    "zip_code": "27050"
  },
  {
    "city": "goldston",
    "zip_code": "27252"
  },
  {
    "city": "high point",
    "zip_code": "27265"
  },
  {
    "city": "bahama",
    "zip_code": "27503"
  },
  {
    "city": "rolesville",
    "zip_code": "27571"
  },
  {
    "city": "youngsville",
    "zip_code": "27596"
  },
  {
    "city": "raleigh",
    "zip_code": "27609"
  },
  {
    "city": "durham",
    "zip_code": "27712"
  },
  {
    "city": "aurora",
    "zip_code": "27806"
  },
  {
    "city": "gates",
    "zip_code": "27937"
  },
  {
    "city": "caroleen",
    "zip_code": "28019"
  },
  {
    "city": "landis",
    "zip_code": "28088"
  },
  {
    "city": "mcadenville",
    "zip_code": "28101"
  },
  {
    "city": "mooresville",
    "zip_code": "28115"
  },
  {
    "city": "autryville",
    "zip_code": "28318"
  },
  {
    "city": "clinton",
    "zip_code": "28328"
  },
  {
    "city": "laurel hill",
    "zip_code": "28351"
  },
  {
    "city": "white oak",
    "zip_code": "28399"
  },
  {
    "city": "carolina beach",
    "zip_code": "28428"
  },
  {
    "city": "cerro gordo",
    "zip_code": "28430"
  },
  {
    "city": "willard",
    "zip_code": "28478"
  },
  {
    "city": "seven springs",
    "zip_code": "28578"
  },
  {
    "city": "ferguson",
    "zip_code": "28624"
  },
  {
    "city": "glendale springs",
    "zip_code": "28629"
  },
  {
    "city": "pineola",
    "zip_code": "28662"
  },
  {
    "city": "alexander",
    "zip_code": "28701"
  },
  {
    "city": "east flat rock",
    "zip_code": "28726"
  },
  {
    "city": "pinewood",
    "zip_code": "29125"
  },
  {
    "city": "rembert",
    "zip_code": "29128"
  },
  {
    "city": "silverstreet",
    "zip_code": "29145"
  },
  {
    "city": "spartanburg",
    "zip_code": "29303"
  },
  {
    "city": "charleston",
    "zip_code": "29403"
  },
  {
    "city": "charleston",
    "zip_code": "29424"
  },
  {
    "city": "branchville",
    "zip_code": "29432"
  },
  {
    "city": "goose creek",
    "zip_code": "29445"
  },
  {
    "city": "summerville",
    "zip_code": "29483"
  },
  {
    "city": "cades",
    "zip_code": "29518"
  },
  {
    "city": "abbeville",
    "zip_code": "29620"
  },
  {
    "city": "iva",
    "zip_code": "29655"
  },
  {
    "city": "liberty",
    "zip_code": "29657"
  },
  {
    "city": "simpsonville",
    "zip_code": "29681"
  },
  {
    "city": "jackson",
    "zip_code": "29831"
  },
  {
    "city": "langley",
    "zip_code": "29834"
  },
  {
    "city": "troy",
    "zip_code": "29848"
  },
  {
    "city": "varnville",
    "zip_code": "29944"
  },
  {
    "city": "conyers",
    "zip_code": "30012"
  },
  {
    "city": "conyers",
    "zip_code": "30094"
  },
  {
    "city": "dallas",
    "zip_code": "30132"
  },
  {
    "city": "silver creek",
    "zip_code": "30173"
  },
  {
    "city": "villa rica",
    "zip_code": "30180"
  },
  {
    "city": "waleska",
    "zip_code": "30183"
  },
  {
    "city": "gay",
    "zip_code": "30218"
  },
  {
    "city": "mcdonough",
    "zip_code": "30253"
  },
  {
    "city": "alamo",
    "zip_code": "30411"
  },
  {
    "city": "midville",
    "zip_code": "30441"
  },
  {
    "city": "bowersville",
    "zip_code": "30516"
  },
  {
    "city": "buford",
    "zip_code": "30518"
  },
  {
    "city": "clayton",
    "zip_code": "30525"
  },
  {
    "city": "dawsonville",
    "zip_code": "30534"
  },
  {
    "city": "talmo",
    "zip_code": "30575"
  },
  {
    "city": "athens",
    "zip_code": "30605"
  },
  {
    "city": "bostwick",
    "zip_code": "30623"
  },
  {
    "city": "monroe",
    "zip_code": "30655"
  },
  {
    "city": "winder",
    "zip_code": "30680"
  },
  {
    "city": "menlo",
    "zip_code": "30731"
  },
  {
    "city": "monticello",
    "zip_code": "31064"
  },
  {
    "city": "montrose",
    "zip_code": "31065"
  },
  {
    "city": "scotland",
    "zip_code": "31083"
  },
  {
    "city": "fort stewart",
    "zip_code": "31315"
  },
  {
    "city": "hazlehurst",
    "zip_code": "31539"
  },
  {
    "city": "offerman",
    "zip_code": "31556"
  },
  {
    "city": "valdosta",
    "zip_code": "31605"
  },
  {
    "city": "albany",
    "zip_code": "31705"
  },
  {
    "city": "pine mountain",
    "zip_code": "31822"
  },
  {
    "city": "fleming island",
    "zip_code": "32003"
  },
  {
    "city": "live oak",
    "zip_code": "32060"
  },
  {
    "city": "white springs",
    "zip_code": "32096"
  },
  {
    "city": "fort mccoy",
    "zip_code": "32134"
  },
  {
    "city": "chattahoochee",
    "zip_code": "32324"
  },
  {
    "city": "madison",
    "zip_code": "32340"
  },
  {
    "city": "cypress",
    "zip_code": "32432"
  },
  {
    "city": "fountain",
    "zip_code": "32438"
  },
  {
    "city": "port saint joe",
    "zip_code": "32456"
  },
  {
    "city": "pensacola",
    "zip_code": "32505"
  },
  {
    "city": "baker",
    "zip_code": "32531"
  },
  {
    "city": "crestview",
    "zip_code": "32539"
  },
  {
    "city": "navarre",
    "zip_code": "32566"
  },
  {
    "city": "valparaiso",
    "zip_code": "32580"
  },
  {
    "city": "gainesville",
    "zip_code": "32606"
  },
  {
    "city": "altoona",
    "zip_code": "32702"
  },
  {
    "city": "eustis",
    "zip_code": "32736"
  },
  {
    "city": "oviedo",
    "zip_code": "32765"
  },
  {
    "city": "sanford",
    "zip_code": "32771"
  },
  {
    "city": "orlando",
    "zip_code": "32818"
  },
  {
    "city": "hollywood",
    "zip_code": "33026"
  },
  {
    "city": "miami",
    "zip_code": "33101"
  },
  {
    "city": "miami",
    "zip_code": "33136"
  },
  {
    "city": "miami",
    "zip_code": "33174"
  },
  {
    "city": "miami",
    "zip_code": "33183"
  },
  {
    "city": "palm beach",
    "zip_code": "33480"
  },
  {
    "city": "boca raton",
    "zip_code": "33486"
  },
  {
    "city": "pinellas park",
    "zip_code": "33782"
  },
  {
    "city": "babson park",
    "zip_code": "33827"
  },
  {
    "city": "placida",
    "zip_code": "33946"
  },
  {
    "city": "naples",
    "zip_code": "34102"
  },
  {
    "city": "naples",
    "zip_code": "34105"
  },
  {
    "city": "chokoloskee",
    "zip_code": "34138"
  },
  {
    "city": "inverness",
    "zip_code": "34452"
  },
  {
    "city": "brooksville",
    "zip_code": "34602"
  },
  {
    "city": "oakland",
    "zip_code": "34760"
  },
  {
    "city": "ocoee",
    "zip_code": "34761"
  },
  {
    "city": "hollins",
    "zip_code": "35082"
  },
  {
    "city": "joppa",
    "zip_code": "35087"
  },
  {
    "city": "lincoln",
    "zip_code": "35096"
  },
  {
    "city": "quinton",
    "zip_code": "35130"
  },
  {
    "city": "birmingham",
    "zip_code": "35212"
  },
  {
    "city": "birmingham",
    "zip_code": "35243"
  },
  {
    "city": "epes",
    "zip_code": "35460"
  },
  {
    "city": "northport",
    "zip_code": "35475"
  },
  {
    "city": "jasper",
    "zip_code": "35503"
  },
  {
    "city": "florence",
    "zip_code": "35634"
  },
  {
    "city": "russellville",
    "zip_code": "35654"
  },
  {
    "city": "harvest",
    "zip_code": "35749"
  },
  {
    "city": "huntsville",
    "zip_code": "35801"
  },
  {
    "city": "gallant",
    "zip_code": "35972"
  },
  {
    "city": "guntersville",
    "zip_code": "35976"
  },
  {
    "city": "mentone",
    "zip_code": "35984"
  },
  {
    "city": "brundidge",
    "zip_code": "36010"
  },
  {
    "city": "midway",
    "zip_code": "36053"
  },
  {
    "city": "verbena",
    "zip_code": "36091"
  },
  {
    "city": "montgomery",
    "zip_code": "36111"
  },
  {
    "city": "andalusia",
    "zip_code": "36421"
  },
  {
    "city": "flomaton",
    "zip_code": "36441"
  },
  {
    "city": "mckenzie",
    "zip_code": "36456"
  },
  {
    "city": "peterman",
    "zip_code": "36471"
  },
  {
    "city": "huxford",
    "zip_code": "36543"
  },
  {
    "city": "theodore",
    "zip_code": "36590"
  },
  {
    "city": "thomaston",
    "zip_code": "36783"
  },
  {
    "city": "lawley",
    "zip_code": "36793"
  },
  {
    "city": "cottontown",
    "zip_code": "37048"
  },
  {
    "city": "lobelville",
    "zip_code": "37097"
  },
  {
    "city": "nashville",
    "zip_code": "37208"
  },
  {
    "city": "altamont",
    "zip_code": "37301"
  },
  {
    "city": "beersheba springs",
    "zip_code": "37305"
  },
  {
    "city": "collegedale",
    "zip_code": "37315"
  },
  {
    "city": "whiteside",
    "zip_code": "37396"
  },
  {
    "city": "chattanooga",
    "zip_code": "37402"
  },
  {
    "city": "chattanooga",
    "zip_code": "37419"
  },
  {
    "city": "johnson city",
    "zip_code": "37614"
  },
  {
    "city": "bean station",
    "zip_code": "37708"
  },
  {
    "city": "hartford",
    "zip_code": "37753"
  },
  {
    "city": "oakdale",
    "zip_code": "37829"
  },
  {
    "city": "pioneer",
    "zip_code": "37847"
  },
  {
    "city": "strawberry plains",
    "zip_code": "37871"
  },
  {
    "city": "knoxville",
    "zip_code": "37931"
  },
  {
    "city": "memphis",
    "zip_code": "38106"
  },
  {
    "city": "buchanan",
    "zip_code": "38222"
  },
  {
    "city": "lavinia",
    "zip_code": "38348"
  },
  {
    "city": "scotts hill",
    "zip_code": "38374"
  },
  {
    "city": "celina",
    "zip_code": "38551"
  },
  {
    "city": "livingston",
    "zip_code": "38570"
  },
  {
    "city": "friars point",
    "zip_code": "38631"
  },
  {
    "city": "arcola",
    "zip_code": "38722"
  },
  {
    "city": "beulah",
    "zip_code": "38726"
  },
  {
    "city": "sidon",
    "zip_code": "38954"
  },
  {
    "city": "d lo",
    "zip_code": "39062"
  },
  {
    "city": "newhebron",
    "zip_code": "39140"
  },
  {
    "city": "philadelphia",
    "zip_code": "39350"
  },
  {
    "city": "quitman",
    "zip_code": "39355"
  },
  {
    "city": "bay springs",
    "zip_code": "39422"
  },
  {
    "city": "diamondhead",
    "zip_code": "39525"
  },
  {
    "city": "moss point",
    "zip_code": "39562"
  },
  {
    "city": "bude",
    "zip_code": "39630"
  },
  {
    "city": "sontag",
    "zip_code": "39665"
  },
  {
    "city": "iron city",
    "zip_code": "39859"
  },
  {
    "city": "bardstown",
    "zip_code": "40004"
  },
  {
    "city": "la grange",
    "zip_code": "40031"
  },
  {
    "city": "milton",
    "zip_code": "40045"
  },
  {
    "city": "mount eden",
    "zip_code": "40046"
  },
  {
    "city": "saint francis",
    "zip_code": "40062"
  },
  {
    "city": "hudson",
    "zip_code": "40145"
  },
  {
    "city": "louisville",
    "zip_code": "40241"
  },
  {
    "city": "clearfield",
    "zip_code": "40313"
  },
  {
    "city": "crab orchard",
    "zip_code": "40419"
  },
  {
    "city": "tyner",
    "zip_code": "40486"
  },
  {
    "city": "big laurel",
    "zip_code": "40808"
  },
  {
    "city": "foster",
    "zip_code": "41043"
  },
  {
    "city": "melbourne",
    "zip_code": "41059"
  },
  {
    "city": "catlettsburg",
    "zip_code": "41129"
  },
  {
    "city": "paintsville",
    "zip_code": "41240"
  },
  {
    "city": "staffordsville",
    "zip_code": "41256"
  },
  {
    "city": "auxier",
    "zip_code": "41602"
  },
  {
    "city": "martin",
    "zip_code": "41649"
  },
  {
    "city": "scuddy",
    "zip_code": "41760"
  },
  {
    "city": "mallie",
    "zip_code": "41836"
  },
  {
    "city": "pippa passes",
    "zip_code": "41844"
  },
  {
    "city": "almo",
    "zip_code": "42020"
  },
  {
    "city": "boaz",
    "zip_code": "42027"
  },
  {
    "city": "dycusburg",
    "zip_code": "42037"
  },
  {
    "city": "wingo",
    "zip_code": "42088"
  },
  {
    "city": "rockfield",
    "zip_code": "42274"
  },
  {
    "city": "canmer",
    "zip_code": "42722"
  },
  {
    "city": "magnetic springs",
    "zip_code": "43036"
  },
  {
    "city": "mount vernon",
    "zip_code": "43050"
  },
  {
    "city": "heath",
    "zip_code": "43056"
  },
  {
    "city": "woodstock",
    "zip_code": "43084"
  },
  {
    "city": "columbus",
    "zip_code": "43210"
  },
  {
    "city": "columbus",
    "zip_code": "43217"
  },
  {
    "city": "richwood",
    "zip_code": "43344"
  },
  {
    "city": "new straitsville",
    "zip_code": "43766"
  },
  {
    "city": "dresden",
    "zip_code": "43821"
  },
  {
    "city": "west lafayette",
    "zip_code": "43845"
  },
  {
    "city": "hannibal",
    "zip_code": "43931"
  },
  {
    "city": "irondale",
    "zip_code": "43932"
  },
  {
    "city": "steubenville",
    "zip_code": "43952"
  },
  {
    "city": "scio",
    "zip_code": "43988"
  },
  {
    "city": "burton",
    "zip_code": "44021"
  },
  {
    "city": "kipton",
    "zip_code": "44049"
  },
  {
    "city": "lorain",
    "zip_code": "44052"
  },
  {
    "city": "cleveland",
    "zip_code": "44112"
  },
  {
    "city": "peninsula",
    "zip_code": "44264"
  },
  {
    "city": "rootstown",
    "zip_code": "44272"
  },
  {
    "city": "seville",
    "zip_code": "44273"
  },
  {
    "city": "lowellville",
    "zip_code": "44436"
  },
  {
    "city": "youngstown",
    "zip_code": "44507"
  },
  {
    "city": "brewster",
    "zip_code": "44613"
  },
  {
    "city": "glenmont",
    "zip_code": "44628"
  },
  {
    "city": "limaville",
    "zip_code": "44640"
  },
  {
    "city": "minerva",
    "zip_code": "44657"
  },
  {
    "city": "chatfield",
    "zip_code": "44825"
  },
  {
    "city": "jeromesville",
    "zip_code": "44840"
  },
  {
    "city": "willard",
    "zip_code": "44890"
  },
  {
    "city": "mansfield",
    "zip_code": "44902"
  },
  {
    "city": "greenfield",
    "zip_code": "45123"
  },
  {
    "city": "manchester",
    "zip_code": "45144"
  },
  {
    "city": "cincinnati",
    "zip_code": "45203"
  },
  {
    "city": "potsdam",
    "zip_code": "45361"
  },
  {
    "city": "dayton",
    "zip_code": "45403"
  },
  {
    "city": "dayton",
    "zip_code": "45458"
  },
  {
    "city": "seaman",
    "zip_code": "45679"
  },
  {
    "city": "south point",
    "zip_code": "45680"
  },
  {
    "city": "willow wood",
    "zip_code": "45696"
  },
  {
    "city": "lima",
    "zip_code": "45801"
  },
  {
    "city": "beaverdam",
    "zip_code": "45808"
  },
  {
    "city": "findlay",
    "zip_code": "45840"
  },
  {
    "city": "fort jennings",
    "zip_code": "45844"
  },
  {
    "city": "lafayette",
    "zip_code": "45854"
  },
  {
    "city": "mount cory",
    "zip_code": "45868"
  },
  {
    "city": "saint johns",
    "zip_code": "45884"
  },
  {
    "city": "anderson",
    "zip_code": "46012"
  },
  {
    "city": "frankton",
    "zip_code": "46044"
  },
  {
    "city": "michigantown",
    "zip_code": "46057"
  },
  {
    "city": "beverly shores",
    "zip_code": "46301"
  },
  {
    "city": "hebron",
    "zip_code": "46341"
  },
  {
    "city": "sumava resorts",
    "zip_code": "46379"
  },
  {
    "city": "wheatfield",
    "zip_code": "46392"
  },
  {
    "city": "mishawaka",
    "zip_code": "46545"
  },
  {
    "city": "berne",
    "zip_code": "46711"
  },
  {
    "city": "warren",
    "zip_code": "46792"
  },
  {
    "city": "fort wayne",
    "zip_code": "46802"
  },
  {
    "city": "fort wayne",
    "zip_code": "46808"
  },
  {
    "city": "fort wayne",
    "zip_code": "46815"
  },
  {
    "city": "fort wayne",
    "zip_code": "46835"
  },
  {
    "city": "la fontaine",
    "zip_code": "46940"
  },
  {
    "city": "young america",
    "zip_code": "46998"
  },
  {
    "city": "austin",
    "zip_code": "47102"
  },
  {
    "city": "bethlehem",
    "zip_code": "47104"
  },
  {
    "city": "central",
    "zip_code": "47110"
  },
  {
    "city": "hardinsburg",
    "zip_code": "47125"
  },
  {
    "city": "dublin",
    "zip_code": "47335"
  },
  {
    "city": "liberty",
    "zip_code": "47353"
  },
  {
    "city": "bloomington",
    "zip_code": "47408"
  },
  {
    "city": "quincy",
    "zip_code": "47456"
  },
  {
    "city": "tunnelton",
    "zip_code": "47467"
  },
  {
    "city": "unionville",
    "zip_code": "47468"
  },
  {
    "city": "mellott",
    "zip_code": "47958"
  },
  {
    "city": "hazel park",
    "zip_code": "48030"
  },
  {
    "city": "washington",
    "zip_code": "48094"
  },
  {
    "city": "la salle",
    "zip_code": "48145"
  },
  {
    "city": "pinckney",
    "zip_code": "48169"
  },
  {
    "city": "trenton",
    "zip_code": "48183"
  },
  {
    "city": "detroit",
    "zip_code": "48210"
  },
  {
    "city": "grosse pointe",
    "zip_code": "48230"
  },
  {
    "city": "rochester",
    "zip_code": "48307"
  },
  {
    "city": "utica",
    "zip_code": "48316"
  },
  {
    "city": "west bloomfield",
    "zip_code": "48324"
  },
  {
    "city": "farmington",
    "zip_code": "48331"
  },
  {
    "city": "pontiac",
    "zip_code": "48340"
  },
  {
    "city": "white lake",
    "zip_code": "48383"
  },
  {
    "city": "deckerville",
    "zip_code": "48427"
  },
  {
    "city": "durand",
    "zip_code": "48429"
  },
  {
    "city": "snover",
    "zip_code": "48472"
  },
  {
    "city": "rhodes",
    "zip_code": "48652"
  },
  {
    "city": "caro",
    "zip_code": "48723"
  },
  {
    "city": "lincoln",
    "zip_code": "48742"
  },
  {
    "city": "south branch",
    "zip_code": "48761"
  },
  {
    "city": "east lansing",
    "zip_code": "48825"
  },
  {
    "city": "sheridan",
    "zip_code": "48884"
  },
  {
    "city": "burlington",
    "zip_code": "49029"
  },
  {
    "city": "climax",
    "zip_code": "49034"
  },
  {
    "city": "white pigeon",
    "zip_code": "49099"
  },
  {
    "city": "albion",
    "zip_code": "49224"
  },
  {
    "city": "homer",
    "zip_code": "49245"
  },
  {
    "city": "munith",
    "zip_code": "49259"
  },
  {
    "city": "pittsford",
    "zip_code": "49271"
  },
  {
    "city": "grandville",
    "zip_code": "49418"
  },
  {
    "city": "west olive",
    "zip_code": "49460"
  },
  {
    "city": "bear lake",
    "zip_code": "49614"
  },
  {
    "city": "ellsworth",
    "zip_code": "49729"
  },
  {
    "city": "ingalls",
    "zip_code": "49848"
  },
  {
    "city": "loretto",
    "zip_code": "49852"
  },
  {
    "city": "mcmillan",
    "zip_code": "49853"
  },
  {
    "city": "menominee",
    "zip_code": "49858"
  },
  {
    "city": "nahma",
    "zip_code": "49864"
  },
  {
    "city": "sagola",
    "zip_code": "49881"
  },
  {
    "city": "caspian",
    "zip_code": "49915"
  },
  {
    "city": "mass city",
    "zip_code": "49948"
  },
  {
    "city": "adair",
    "zip_code": "50002"
  },
  {
    "city": "bondurant",
    "zip_code": "50035"
  },
  {
    "city": "garden grove",
    "zip_code": "50103"
  },
  {
    "city": "grand junction",
    "zip_code": "50107"
  },
  {
    "city": "kelley",
    "zip_code": "50134"
  },
  {
    "city": "randall",
    "zip_code": "50231"
  },
  {
    "city": "van wert",
    "zip_code": "50262"
  },
  {
    "city": "rolfe",
    "zip_code": "50581"
  },
  {
    "city": "jesup",
    "zip_code": "50648"
  },
  {
    "city": "lenox",
    "zip_code": "50851"
  },
  {
    "city": "tingley",
    "zip_code": "50863"
  },
  {
    "city": "galva",
    "zip_code": "51020"
  },
  {
    "city": "kingsley",
    "zip_code": "51028"
  },
  {
    "city": "orange city",
    "zip_code": "51041"
  },
  {
    "city": "hospers",
    "zip_code": "51238"
  },
  {
    "city": "little rock",
    "zip_code": "51243"
  },
  {
    "city": "dedham",
    "zip_code": "51440"
  },
  {
    "city": "templeton",
    "zip_code": "51463"
  },
  {
    "city": "defiance",
    "zip_code": "51527"
  },
  {
    "city": "silver city",
    "zip_code": "51571"
  },
  {
    "city": "hamburg",
    "zip_code": "51640"
  },
  {
    "city": "randolph",
    "zip_code": "51649"
  },
  {
    "city": "bernard",
    "zip_code": "52032"
  },
  {
    "city": "clarence",
    "zip_code": "52216"
  },
  {
    "city": "conroy",
    "zip_code": "52220"
  },
  {
    "city": "ladora",
    "zip_code": "52251"
  },
  {
    "city": "webster",
    "zip_code": "52355"
  },
  {
    "city": "rose hill",
    "zip_code": "52586"
  },
  {
    "city": "new london",
    "zip_code": "52645"
  },
  {
    "city": "grand mound",
    "zip_code": "52751"
  },
  {
    "city": "mccausland",
    "zip_code": "52758"
  },
  {
    "city": "allenton",
    "zip_code": "53002"
  },
  {
    "city": "hustisford",
    "zip_code": "53034"
  },
  {
    "city": "mount calvary",
    "zip_code": "53057"
  },
  {
    "city": "hales corners",
    "zip_code": "53130"
  },
  {
    "city": "sullivan",
    "zip_code": "53178"
  },
  {
    "city": "milwaukee",
    "zip_code": "53295"
  },
  {
    "city": "stitzer",
    "zip_code": "53825"
  },
  {
    "city": "burnett",
    "zip_code": "53922"
  },
  {
    "city": "fox lake",
    "zip_code": "53933"
  },
  {
    "city": "reedsburg",
    "zip_code": "53959"
  },
  {
    "city": "crivitz",
    "zip_code": "54114"
  },
  {
    "city": "pound",
    "zip_code": "54161"
  },
  {
    "city": "fish creek",
    "zip_code": "54212"
  },
  {
    "city": "forestville",
    "zip_code": "54213"
  },
  {
    "city": "maribel",
    "zip_code": "54227"
  },
  {
    "city": "aniwa",
    "zip_code": "54408"
  },
  {
    "city": "ogema",
    "zip_code": "54459"
  },
  {
    "city": "willard",
    "zip_code": "54493"
  },
  {
    "city": "gile",
    "zip_code": "54525"
  },
  {
    "city": "hawkins",
    "zip_code": "54530"
  },
  {
    "city": "montreal",
    "zip_code": "54550"
  },
  {
    "city": "presque isle",
    "zip_code": "54557"
  },
  {
    "city": "camp douglas",
    "zip_code": "54618"
  },
  {
    "city": "viola",
    "zip_code": "54664"
  },
  {
    "city": "arkansaw",
    "zip_code": "54721"
  },
  {
    "city": "chetek",
    "zip_code": "54728"
  },
  {
    "city": "eleva",
    "zip_code": "54738"
  },
  {
    "city": "merrillan",
    "zip_code": "54754"
  },
  {
    "city": "danbury",
    "zip_code": "54830"
  },
  {
    "city": "frederic",
    "zip_code": "54837"
  },
  {
    "city": "superior",
    "zip_code": "54880"
  },
  {
    "city": "lake city",
    "zip_code": "55041"
  },
  {
    "city": "inver grove heights",
    "zip_code": "55076"
  },
  {
    "city": "stanchfield",
    "zip_code": "55080"
  },
  {
    "city": "saint paul",
    "zip_code": "55116"
  },
  {
    "city": "saint paul",
    "zip_code": "55118"
  },
  {
    "city": "saint paul",
    "zip_code": "55121"
  },
  {
    "city": "darwin",
    "zip_code": "55324"
  },
  {
    "city": "eden prairie",
    "zip_code": "55347"
  },
  {
    "city": "swatara",
    "zip_code": "55785"
  },
  {
    "city": "duluth",
    "zip_code": "55808"
  },
  {
    "city": "rochester",
    "zip_code": "55902"
  },
  {
    "city": "altura",
    "zip_code": "55910"
  },
  {
    "city": "lanesboro",
    "zip_code": "55949"
  },
  {
    "city": "reads landing",
    "zip_code": "55968"
  },
  {
    "city": "saint charles",
    "zip_code": "55972"
  },
  {
    "city": "glenville",
    "zip_code": "56036"
  },
  {
    "city": "lewisville",
    "zip_code": "56060"
  },
  {
    "city": "vernon center",
    "zip_code": "56090"
  },
  {
    "city": "balaton",
    "zip_code": "56115"
  },
  {
    "city": "new london",
    "zip_code": "56273"
  },
  {
    "city": "watson",
    "zip_code": "56295"
  },
  {
    "city": "climax",
    "zip_code": "56523"
  },
  {
    "city": "osage",
    "zip_code": "56570"
  },
  {
    "city": "richville",
    "zip_code": "56576"
  },
  {
    "city": "cass lake",
    "zip_code": "56633"
  },
  {
    "city": "plummer",
    "zip_code": "56748"
  },
  {
    "city": "sinai",
    "zip_code": "57061"
  },
  {
    "city": "sioux falls",
    "zip_code": "57105"
  },
  {
    "city": "sisseton",
    "zip_code": "57262"
  },
  {
    "city": "bowdle",
    "zip_code": "57428"
  },
  {
    "city": "hayes",
    "zip_code": "57537"
  },
  {
    "city": "glencross",
    "zip_code": "57630"
  },
  {
    "city": "pollock",
    "zip_code": "57648"
  },
  {
    "city": "buffalo",
    "zip_code": "58011"
  },
  {
    "city": "christine",
    "zip_code": "58015"
  },
  {
    "city": "fairdale",
    "zip_code": "58229"
  },
  {
    "city": "osnabrock",
    "zip_code": "58269"
  },
  {
    "city": "rugby",
    "zip_code": "58368"
  },
  {
    "city": "chaseley",
    "zip_code": "58423"
  },
  {
    "city": "ellendale",
    "zip_code": "58436"
  },
  {
    "city": "sykeston",
    "zip_code": "58486"
  },
  {
    "city": "bismarck",
    "zip_code": "58501"
  },
  {
    "city": "killdeer",
    "zip_code": "58640"
  },
  {
    "city": "south heart",
    "zip_code": "58655"
  },
  {
    "city": "columbus",
    "zip_code": "58727"
  },
  {
    "city": "ray",
    "zip_code": "58849"
  },
  {
    "city": "two dot",
    "zip_code": "59085"
  },
  {
    "city": "brockton",
    "zip_code": "59213"
  },
  {
    "city": "larslan",
    "zip_code": "59244"
  },
  {
    "city": "nashua",
    "zip_code": "59248"
  },
  {
    "city": "reserve",
    "zip_code": "59258"
  },
  {
    "city": "plevna",
    "zip_code": "59344"
  },
  {
    "city": "turner",
    "zip_code": "59542"
  },
  {
    "city": "polaris",
    "zip_code": "59746"
  },
  {
    "city": "frenchtown",
    "zip_code": "59834"
  },
  {
    "city": "dayton",
    "zip_code": "59914"
  },
  {
    "city": "hungry horse",
    "zip_code": "59919"
  },
  {
    "city": "richmond",
    "zip_code": "60071"
  },
  {
    "city": "kingston",
    "zip_code": "60145"
  },
  {
    "city": "lombard",
    "zip_code": "60148"
  },
  {
    "city": "maple park",
    "zip_code": "60151"
  },
  {
    "city": "medinah",
    "zip_code": "60157"
  },
  {
    "city": "berwyn",
    "zip_code": "60402"
  },
  {
    "city": "bridgeview",
    "zip_code": "60455"
  },
  {
    "city": "orland park",
    "zip_code": "60462"
  },
  {
    "city": "mooseheart",
    "zip_code": "60539"
  },
  {
    "city": "chicago",
    "zip_code": "60616"
  },
  {
    "city": "chicago",
    "zip_code": "60660"
  },
  {
    "city": "watseka",
    "zip_code": "60970"
  },
  {
    "city": "mount carroll",
    "zip_code": "61053"
  },
  {
    "city": "savanna",
    "zip_code": "61074"
  },
  {
    "city": "hennepin",
    "zip_code": "61327"
  },
  {
    "city": "troy grove",
    "zip_code": "61372"
  },
  {
    "city": "varna",
    "zip_code": "61375"
  },
  {
    "city": "galva",
    "zip_code": "61434"
  },
  {
    "city": "lacon",
    "zip_code": "61540"
  },
  {
    "city": "manito",
    "zip_code": "61546"
  },
  {
    "city": "deer creek",
    "zip_code": "61733"
  },
  {
    "city": "armstrong",
    "zip_code": "61812"
  },
  {
    "city": "saint joseph",
    "zip_code": "61873"
  },
  {
    "city": "fieldon",
    "zip_code": "62031"
  },
  {
    "city": "east saint louis",
    "zip_code": "62201"
  },
  {
    "city": "renault",
    "zip_code": "62279"
  },
  {
    "city": "bowen",
    "zip_code": "62316"
  },
  {
    "city": "plainville",
    "zip_code": "62365"
  },
  {
    "city": "brownstown",
    "zip_code": "62418"
  },
  {
    "city": "westfield",
    "zip_code": "62474"
  },
  {
    "city": "argenta",
    "zip_code": "62501"
  },
  {
    "city": "chesterfield",
    "zip_code": "62630"
  },
  {
    "city": "hettick",
    "zip_code": "62649"
  },
  {
    "city": "manchester",
    "zip_code": "62663"
  },
  {
    "city": "alma",
    "zip_code": "62807"
  },
  {
    "city": "freeman spur",
    "zip_code": "62841"
  },
  {
    "city": "golden gate",
    "zip_code": "62843"
  },
  {
    "city": "mulkeytown",
    "zip_code": "62865"
  },
  {
    "city": "new haven",
    "zip_code": "62867"
  },
  {
    "city": "buncombe",
    "zip_code": "62912"
  },
  {
    "city": "millcreek",
    "zip_code": "62961"
  },
  {
    "city": "olmsted",
    "zip_code": "62970"
  },
  {
    "city": "labadie",
    "zip_code": "63055"
  },
  {
    "city": "o'fallon",
    "zip_code": "63368"
  },
  {
    "city": "ethel",
    "zip_code": "63539"
  },
  {
    "city": "greentop",
    "zip_code": "63546"
  },
  {
    "city": "middle brook",
    "zip_code": "63656"
  },
  {
    "city": "perryville",
    "zip_code": "63775"
  },
  {
    "city": "bloomfield",
    "zip_code": "63825"
  },
  {
    "city": "canalou",
    "zip_code": "63828"
  },
  {
    "city": "harviell",
    "zip_code": "63945"
  },
  {
    "city": "smithville",
    "zip_code": "64089"
  },
  {
    "city": "kansas city",
    "zip_code": "64129"
  },
  {
    "city": "kansas city",
    "zip_code": "64136"
  },
  {
    "city": "kansas city",
    "zip_code": "64151"
  },
  {
    "city": "cosby",
    "zip_code": "64436"
  },
  {
    "city": "martinsville",
    "zip_code": "64467"
  },
  {
    "city": "hamilton",
    "zip_code": "64644"
  },
  {
    "city": "linneus",
    "zip_code": "64653"
  },
  {
    "city": "gravois mills",
    "zip_code": "65037"
  },
  {
    "city": "morrison",
    "zip_code": "65061"
  },
  {
    "city": "brunswick",
    "zip_code": "65236"
  },
  {
    "city": "bixby",
    "zip_code": "65439"
  },
  {
    "city": "lynchburg",
    "zip_code": "65543"
  },
  {
    "city": "branson",
    "zip_code": "65616"
  },
  {
    "city": "crane",
    "zip_code": "65633"
  },
  {
    "city": "galena",
    "zip_code": "65656"
  },
  {
    "city": "marshfield",
    "zip_code": "65706"
  },
  {
    "city": "zanoni",
    "zip_code": "65784"
  },
  {
    "city": "winchester",
    "zip_code": "66097"
  },
  {
    "city": "mcfarland",
    "zip_code": "66501"
  },
  {
    "city": "ogden",
    "zip_code": "66517"
  },
  {
    "city": "oneida",
    "zip_code": "66522"
  },
  {
    "city": "riley",
    "zip_code": "66531"
  },
  {
    "city": "topeka",
    "zip_code": "66607"
  },
  {
    "city": "thayer",
    "zip_code": "66776"
  },
  {
    "city": "munden",
    "zip_code": "66959"
  },
  {
    "city": "cheney",
    "zip_code": "67025"
  },
  {
    "city": "geuda springs",
    "zip_code": "67051"
  },
  {
    "city": "bartlett",
    "zip_code": "67332"
  },
  {
    "city": "sylvan grove",
    "zip_code": "67481"
  },
  {
    "city": "collyer",
    "zip_code": "67631"
  },
  {
    "city": "schoenchen",
    "zip_code": "67667"
  },
  {
    "city": "victoria",
    "zip_code": "67671"
  },
  {
    "city": "dodge city",
    "zip_code": "67801"
  },
  {
    "city": "ashland",
    "zip_code": "67831"
  },
  {
    "city": "lakin",
    "zip_code": "67860"
  },
  {
    "city": "meade",
    "zip_code": "67864"
  },
  {
    "city": "hooper",
    "zip_code": "68031"
  },
  {
    "city": "walthill",
    "zip_code": "68067"
  },
  {
    "city": "omaha",
    "zip_code": "68144"
  },
  {
    "city": "bradshaw",
    "zip_code": "68319"
  },
  {
    "city": "crab orchard",
    "zip_code": "68332"
  },
  {
    "city": "davey",
    "zip_code": "68336"
  },
  {
    "city": "denton",
    "zip_code": "68339"
  },
  {
    "city": "elmwood",
    "zip_code": "68349"
  },
  {
    "city": "milligan",
    "zip_code": "68406"
  },
  {
    "city": "panama",
    "zip_code": "68419"
  },
  {
    "city": "wymore",
    "zip_code": "68466"
  },
  {
    "city": "monroe",
    "zip_code": "68647"
  },
  {
    "city": "creighton",
    "zip_code": "68729"
  },
  {
    "city": "hoskins",
    "zip_code": "68740"
  },
  {
    "city": "laurel",
    "zip_code": "68745"
  },
  {
    "city": "oneill",
    "zip_code": "68763"
  },
  {
    "city": "burwell",
    "zip_code": "68823"
  },
  {
    "city": "hastings",
    "zip_code": "68901"
  },
  {
    "city": "heartwell",
    "zip_code": "68945"
  },
  {
    "city": "roseland",
    "zip_code": "68973"
  },
  {
    "city": "brule",
    "zip_code": "69127"
  },
  {
    "city": "kimball",
    "zip_code": "69145"
  },
  {
    "city": "valentine",
    "zip_code": "69201"
  },
  {
    "city": "harrisburg",
    "zip_code": "69345"
  },
  {
    "city": "metairie",
    "zip_code": "70001"
  },
  {
    "city": "barataria",
    "zip_code": "70036"
  },
  {
    "city": "boutte",
    "zip_code": "70039"
  },
  {
    "city": "hammond",
    "zip_code": "70402"
  },
  {
    "city": "broussard",
    "zip_code": "70518"
  },
  {
    "city": "lake charles",
    "zip_code": "70601"
  },
  {
    "city": "lake charles",
    "zip_code": "70615"
  },
  {
    "city": "singer",
    "zip_code": "70660"
  },
  {
    "city": "sugartown",
    "zip_code": "70662"
  },
  {
    "city": "clinton",
    "zip_code": "70722"
  },
  {
    "city": "greenwell springs",
    "zip_code": "70739"
  },
  {
    "city": "baton rouge",
    "zip_code": "70802"
  },
  {
    "city": "bossier city",
    "zip_code": "71111"
  },
  {
    "city": "shreveport",
    "zip_code": "71115"
  },
  {
    "city": "sterlington",
    "zip_code": "71280"
  },
  {
    "city": "winnsboro",
    "zip_code": "71295"
  },
  {
    "city": "cloutierville",
    "zip_code": "71416"
  },
  {
    "city": "flatwoods",
    "zip_code": "71427"
  },
  {
    "city": "pickens",
    "zip_code": "71662"
  },
  {
    "city": "delight",
    "zip_code": "71940"
  },
  {
    "city": "casscoe",
    "zip_code": "72026"
  },
  {
    "city": "crocketts bluff",
    "zip_code": "72038"
  },
  {
    "city": "mount vernon",
    "zip_code": "72111"
  },
  {
    "city": "north little rock",
    "zip_code": "72114"
  },
  {
    "city": "little rock",
    "zip_code": "72209"
  },
  {
    "city": "little rock",
    "zip_code": "72210"
  },
  {
    "city": "aubrey",
    "zip_code": "72311"
  },
  {
    "city": "cherry valley",
    "zip_code": "72324"
  },
  {
    "city": "west helena",
    "zip_code": "72390"
  },
  {
    "city": "strawberry",
    "zip_code": "72469"
  },
  {
    "city": "gepp",
    "zip_code": "72538"
  },
  {
    "city": "sidney",
    "zip_code": "72577"
  },
  {
    "city": "compton",
    "zip_code": "72624"
  },
  {
    "city": "green forest",
    "zip_code": "72638"
  },
  {
    "city": "norfork",
    "zip_code": "72658"
  },
  {
    "city": "hiwasse",
    "zip_code": "72739"
  },
  {
    "city": "pea ridge",
    "zip_code": "72751"
  },
  {
    "city": "belleville",
    "zip_code": "72824"
  },
  {
    "city": "new blaine",
    "zip_code": "72851"
  },
  {
    "city": "barling",
    "zip_code": "72923"
  },
  {
    "city": "crescent",
    "zip_code": "73028"
  },
  {
    "city": "fort cobb",
    "zip_code": "73038"
  },
  {
    "city": "noble",
    "zip_code": "73068"
  },
  {
    "city": "oklahoma city",
    "zip_code": "73118"
  },
  {
    "city": "oklahoma city",
    "zip_code": "73132"
  },
  {
    "city": "oklahoma city",
    "zip_code": "73170"
  },
  {
    "city": "lebanon",
    "zip_code": "73440"
  },
  {
    "city": "roosevelt",
    "zip_code": "73564"
  },
  {
    "city": "waynoka",
    "zip_code": "73860"
  },
  {
    "city": "broken arrow",
    "zip_code": "74011"
  },
  {
    "city": "shamrock",
    "zip_code": "74068"
  },
  {
    "city": "kansas",
    "zip_code": "74347"
  },
  {
    "city": "rose",
    "zip_code": "74364"
  },
  {
    "city": "eufaula",
    "zip_code": "74432"
  },
  {
    "city": "morris",
    "zip_code": "74445"
  },
  {
    "city": "wagoner",
    "zip_code": "74467"
  },
  {
    "city": "bennington",
    "zip_code": "74723"
  },
  {
    "city": "hanna",
    "zip_code": "74845"
  },
  {
    "city": "lamar",
    "zip_code": "74850"
  },
  {
    "city": "little elm",
    "zip_code": "75068"
  },
  {
    "city": "barry",
    "zip_code": "75102"
  },
  {
    "city": "fruitvale",
    "zip_code": "75127"
  },
  {
    "city": "mabank",
    "zip_code": "75147"
  },
  {
    "city": "dallas",
    "zip_code": "75223"
  },
  {
    "city": "dallas",
    "zip_code": "75225"
  },
  {
    "city": "commerce",
    "zip_code": "75428"
  },
  {
    "city": "kildare",
    "zip_code": "75562"
  },
  {
    "city": "ore city",
    "zip_code": "75683"
  },
  {
    "city": "tyler",
    "zip_code": "75704"
  },
  {
    "city": "gallatin",
    "zip_code": "75764"
  },
  {
    "city": "kirvin",
    "zip_code": "75848"
  },
  {
    "city": "chireno",
    "zip_code": "75937"
  },
  {
    "city": "bedford",
    "zip_code": "76022"
  },
  {
    "city": "fort worth",
    "zip_code": "76102"
  },
  {
    "city": "fort worth",
    "zip_code": "76129"
  },
  {
    "city": "north richland hills",
    "zip_code": "76182"
  },
  {
    "city": "muenster",
    "zip_code": "76252"
  },
  {
    "city": "pilot point",
    "zip_code": "76258"
  },
  {
    "city": "stephenville",
    "zip_code": "76402"
  },
  {
    "city": "gustine",
    "zip_code": "76455"
  },
  {
    "city": "loving",
    "zip_code": "76460"
  },
  {
    "city": "lorena",
    "zip_code": "76655"
  },
  {
    "city": "early",
    "zip_code": "76802"
  },
  {
    "city": "bangs",
    "zip_code": "76823"
  },
  {
    "city": "valley spring",
    "zip_code": "76885"
  },
  {
    "city": "san angelo",
    "zip_code": "76901"
  },
  {
    "city": "houston",
    "zip_code": "77019"
  },
  {
    "city": "houston",
    "zip_code": "77046"
  },
  {
    "city": "houston",
    "zip_code": "77062"
  },
  {
    "city": "houston",
    "zip_code": "77081"
  }
]