[
  {
    "city": "centralia",
    "zip_code": "65240"
  },
  {
    "city": "edgar springs",
    "zip_code": "65462"
  },
  {
    "city": "cape fair",
    "zip_code": "65624"
  },
  {
    "city": "protem",
    "zip_code": "65733"
  },
  {
    "city": "urbana",
    "zip_code": "65767"
  },
  {
    "city": "effingham",
    "zip_code": "66023"
  },
  {
    "city": "new century",
    "zip_code": "66031"
  },
  {
    "city": "garnett",
    "zip_code": "66032"
  },
  {
    "city": "greeley",
    "zip_code": "66033"
  },
  {
    "city": "leavenworth",
    "zip_code": "66048"
  },
  {
    "city": "osawatomie",
    "zip_code": "66064"
  },
  {
    "city": "troy",
    "zip_code": "66087"
  },
  {
    "city": "kansas city",
    "zip_code": "66101"
  },
  {
    "city": "shawnee",
    "zip_code": "66203"
  },
  {
    "city": "overland park",
    "zip_code": "66214"
  },
  {
    "city": "overland park",
    "zip_code": "66224"
  },
  {
    "city": "axtell",
    "zip_code": "66403"
  },
  {
    "city": "hoyt",
    "zip_code": "66440"
  },
  {
    "city": "wakarusa",
    "zip_code": "66546"
  },
  {
    "city": "columbus",
    "zip_code": "66725"
  },
  {
    "city": "mccune",
    "zip_code": "66753"
  },
  {
    "city": "burdick",
    "zip_code": "66838"
  },
  {
    "city": "cassoday",
    "zip_code": "66842"
  },
  {
    "city": "belleville",
    "zip_code": "66935"
  },
  {
    "city": "washington",
    "zip_code": "66968"
  },
  {
    "city": "cunningham",
    "zip_code": "67035"
  },
  {
    "city": "towanda",
    "zip_code": "67144"
  },
  {
    "city": "wichita",
    "zip_code": "67227"
  },
  {
    "city": "hunter",
    "zip_code": "67452"
  },
  {
    "city": "portis",
    "zip_code": "67474"
  },
  {
    "city": "albert",
    "zip_code": "67511"
  },
  {
    "city": "la crosse",
    "zip_code": "67548"
  },
  {
    "city": "macksville",
    "zip_code": "67557"
  },
  {
    "city": "nekoma",
    "zip_code": "67559"
  },
  {
    "city": "sterling",
    "zip_code": "67579"
  },
  {
    "city": "dorrance",
    "zip_code": "67634"
  },
  {
    "city": "goodland",
    "zip_code": "67735"
  },
  {
    "city": "macy",
    "zip_code": "68039"
  },
  {
    "city": "valparaiso",
    "zip_code": "68065"
  },
  {
    "city": "waterloo",
    "zip_code": "68069"
  },
  {
    "city": "omaha",
    "zip_code": "68104"
  },
  {
    "city": "omaha",
    "zip_code": "68154"
  },
  {
    "city": "adams",
    "zip_code": "68301"
  },
  {
    "city": "davenport",
    "zip_code": "68335"
  },
  {
    "city": "grafton",
    "zip_code": "68365"
  },
  {
    "city": "utica",
    "zip_code": "68456"
  },
  {
    "city": "york",
    "zip_code": "68467"
  },
  {
    "city": "lincoln",
    "zip_code": "68522"
  },
  {
    "city": "dwight",
    "zip_code": "68635"
  },
  {
    "city": "mills",
    "zip_code": "68753"
  },
  {
    "city": "saint paul",
    "zip_code": "68873"
  },
  {
    "city": "wood river",
    "zip_code": "68883"
  },
  {
    "city": "franklin",
    "zip_code": "68939"
  },
  {
    "city": "ruskin",
    "zip_code": "68974"
  },
  {
    "city": "kenner",
    "zip_code": "70065"
  },
  {
    "city": "lutcher",
    "zip_code": "70071"
  },
  {
    "city": "paradis",
    "zip_code": "70080"
  },
  {
    "city": "new orleans",
    "zip_code": "70117"
  },
  {
    "city": "donner",
    "zip_code": "70352"
  },
  {
    "city": "lacombe",
    "zip_code": "70445"
  },
  {
    "city": "natalbany",
    "zip_code": "70451"
  },
  {
    "city": "elton",
    "zip_code": "70532"
  },
  {
    "city": "port barre",
    "zip_code": "70577"
  },
  {
    "city": "roanoke",
    "zip_code": "70581"
  },
  {
    "city": "leblanc",
    "zip_code": "70651"
  },
  {
    "city": "white castle",
    "zip_code": "70788"
  },
  {
    "city": "baton rouge",
    "zip_code": "70819"
  },
  {
    "city": "gloster",
    "zip_code": "71030"
  },
  {
    "city": "haynesville",
    "zip_code": "71038"
  },
  {
    "city": "plain dealing",
    "zip_code": "71064"
  },
  {
    "city": "rodessa",
    "zip_code": "71069"
  },
  {
    "city": "shreveport",
    "zip_code": "71109"
  },
  {
    "city": "baskin",
    "zip_code": "71219"
  },
  {
    "city": "choudrant",
    "zip_code": "71227"
  },
  {
    "city": "dubach",
    "zip_code": "71235"
  },
  {
    "city": "farmerville",
    "zip_code": "71241"
  },
  {
    "city": "oak grove",
    "zip_code": "71263"
  },
  {
    "city": "pioneer",
    "zip_code": "71266"
  },
  {
    "city": "melville",
    "zip_code": "71353"
  },
  {
    "city": "belmont",
    "zip_code": "71406"
  },
  {
    "city": "calvin",
    "zip_code": "71410"
  },
  {
    "city": "sieper",
    "zip_code": "71472"
  },
  {
    "city": "gould",
    "zip_code": "71643"
  },
  {
    "city": "grady",
    "zip_code": "71644"
  },
  {
    "city": "new edinburg",
    "zip_code": "71660"
  },
  {
    "city": "tillar",
    "zip_code": "71670"
  },
  {
    "city": "warren",
    "zip_code": "71671"
  },
  {
    "city": "sparkman",
    "zip_code": "71763"
  },
  {
    "city": "blevins",
    "zip_code": "71825"
  },
  {
    "city": "umpire",
    "zip_code": "71971"
  },
  {
    "city": "almyra",
    "zip_code": "72003"
  },
  {
    "city": "des arc",
    "zip_code": "72040"
  },
  {
    "city": "leola",
    "zip_code": "72084"
  },
  {
    "city": "mccrory",
    "zip_code": "72101"
  },
  {
    "city": "vilonia",
    "zip_code": "72173"
  },
  {
    "city": "little rock",
    "zip_code": "72201"
  },
  {
    "city": "little rock",
    "zip_code": "72227"
  },
  {
    "city": "dyess",
    "zip_code": "72330"
  },
  {
    "city": "wheatley",
    "zip_code": "72392"
  },
  {
    "city": "bay",
    "zip_code": "72411"
  },
  {
    "city": "hoxie",
    "zip_code": "72433"
  },
  {
    "city": "peach orchard",
    "zip_code": "72453"
  },
  {
    "city": "rector",
    "zip_code": "72461"
  },
  {
    "city": "weiner",
    "zip_code": "72479"
  },
  {
    "city": "garfield",
    "zip_code": "72732"
  },
  {
    "city": "saint paul",
    "zip_code": "72760"
  },
  {
    "city": "delaware",
    "zip_code": "72835"
  },
  {
    "city": "booneville",
    "zip_code": "72927"
  },
  {
    "city": "rudy",
    "zip_code": "72952"
  },
  {
    "city": "blanchard",
    "zip_code": "73010"
  },
  {
    "city": "dougherty",
    "zip_code": "73032"
  },
  {
    "city": "marshall",
    "zip_code": "73056"
  },
  {
    "city": "mulhall",
    "zip_code": "73063"
  },
  {
    "city": "piedmont",
    "zip_code": "73078"
  },
  {
    "city": "devol",
    "zip_code": "73531"
  },
  {
    "city": "duke",
    "zip_code": "73532"
  },
  {
    "city": "hollis",
    "zip_code": "73550"
  },
  {
    "city": "sterling",
    "zip_code": "73567"
  },
  {
    "city": "putnam",
    "zip_code": "73659"
  },
  {
    "city": "carrier",
    "zip_code": "73727"
  },
  {
    "city": "drummond",
    "zip_code": "73735"
  },
  {
    "city": "okarche",
    "zip_code": "73762"
  },
  {
    "city": "freedom",
    "zip_code": "73842"
  },
  {
    "city": "afton",
    "zip_code": "74331"
  },
  {
    "city": "fairland",
    "zip_code": "74343"
  },
  {
    "city": "locust grove",
    "zip_code": "74352"
  },
  {
    "city": "muskogee",
    "zip_code": "74401"
  },
  {
    "city": "crowder",
    "zip_code": "74430"
  },
  {
    "city": "cartwright",
    "zip_code": "74731"
  },
  {
    "city": "atwood",
    "zip_code": "74827"
  },
  {
    "city": "bowlegs",
    "zip_code": "74830"
  },
  {
    "city": "fitzhugh",
    "zip_code": "74843"
  },
  {
    "city": "newalla",
    "zip_code": "74857"
  },
  {
    "city": "sparks",
    "zip_code": "74869"
  },
  {
    "city": "pocola",
    "zip_code": "74902"
  },
  {
    "city": "fanshawe",
    "zip_code": "74935"
  },
  {
    "city": "leflore",
    "zip_code": "74942"
  },
  {
    "city": "muldrow",
    "zip_code": "74948"
  },
  {
    "city": "addison",
    "zip_code": "75001"
  },
  {
    "city": "lake dallas",
    "zip_code": "75065"
  },
  {
    "city": "ennis",
    "zip_code": "75119"
  },
  {
    "city": "fate",
    "zip_code": "75132"
  },
  {
    "city": "scurry",
    "zip_code": "75158"
  },
  {
    "city": "dallas",
    "zip_code": "75235"
  },
  {
    "city": "dallas",
    "zip_code": "75241"
  },
  {
    "city": "alba",
    "zip_code": "75410"
  },
  {
    "city": "bagwell",
    "zip_code": "75412"
  },
  {
    "city": "brashear",
    "zip_code": "75420"
  },
  {
    "city": "ector",
    "zip_code": "75439"
  },
  {
    "city": "emory",
    "zip_code": "75440"
  },
  {
    "city": "enloe",
    "zip_code": "75441"
  },
  {
    "city": "yantis",
    "zip_code": "75497"
  },
  {
    "city": "gilmer",
    "zip_code": "75644"
  },
  {
    "city": "waskom",
    "zip_code": "75692"
  },
  {
    "city": "sacul",
    "zip_code": "75788"
  },
  {
    "city": "colmesneil",
    "zip_code": "75938"
  },
  {
    "city": "joaquin",
    "zip_code": "75954"
  },
  {
    "city": "arlington",
    "zip_code": "76012"
  },
  {
    "city": "arlington",
    "zip_code": "76016"
  },
  {
    "city": "maypearl",
    "zip_code": "76064"
  },
  {
    "city": "fort worth",
    "zip_code": "76107"
  },
  {
    "city": "denton",
    "zip_code": "76208"
  },
  {
    "city": "decatur",
    "zip_code": "76234"
  },
  {
    "city": "megargel",
    "zip_code": "76370"
  },
  {
    "city": "carlton",
    "zip_code": "76436"
  },
  {
    "city": "throckmorton",
    "zip_code": "76483"
  },
  {
    "city": "temple",
    "zip_code": "76501"
  },
  {
    "city": "buckholts",
    "zip_code": "76518"
  },
  {
    "city": "evant",
    "zip_code": "76525"
  },
  {
    "city": "iredell",
    "zip_code": "76649"
  },
  {
    "city": "woodway",
    "zip_code": "76712"
  },
  {
    "city": "burkett",
    "zip_code": "76828"
  },
  {
    "city": "hext",
    "zip_code": "76848"
  },
  {
    "city": "priddy",
    "zip_code": "76870"
  },
  {
    "city": "houston",
    "zip_code": "77004"
  },
  {
    "city": "houston",
    "zip_code": "77039"
  },
  {
    "city": "spring",
    "zip_code": "77373"
  },
  {
    "city": "spring",
    "zip_code": "77381"
  },
  {
    "city": "spring",
    "zip_code": "77386"
  },
  {
    "city": "pasadena",
    "zip_code": "77505"
  },
  {
    "city": "pasadena",
    "zip_code": "77506"
  },
  {
    "city": "angleton",
    "zip_code": "77515"
  },
  {
    "city": "highlands",
    "zip_code": "77562"
  },
  {
    "city": "seabrook",
    "zip_code": "77586"
  },
  {
    "city": "hamshire",
    "zip_code": "77622"
  },
  {
    "city": "caldwell",
    "zip_code": "77836"
  },
  {
    "city": "bergheim",
    "zip_code": "78004"
  },
  {
    "city": "pettus",
    "zip_code": "78146"
  },
  {
    "city": "schertz",
    "zip_code": "78154"
  },
  {
    "city": "kingsville",
    "zip_code": "78363"
  },
  {
    "city": "bertram",
    "zip_code": "78605"
  },
  {
    "city": "kingsland",
    "zip_code": "78639"
  },
  {
    "city": "martindale",
    "zip_code": "78655"
  },
  {
    "city": "stonewall",
    "zip_code": "78671"
  },
  {
    "city": "austin",
    "zip_code": "78741"
  },
  {
    "city": "austin",
    "zip_code": "78758"
  },
  {
    "city": "perryton",
    "zip_code": "79070"
  },
  {
    "city": "stinnett",
    "zip_code": "79083"
  },
  {
    "city": "spade",
    "zip_code": "79369"
  },
  {
    "city": "mentone",
    "zip_code": "79754"
  },
  {
    "city": "stanton",
    "zip_code": "79782"
  },
  {
    "city": "canutillo",
    "zip_code": "79835"
  },
  {
    "city": "el paso",
    "zip_code": "79908"
  },
  {
    "city": "elbert",
    "zip_code": "80106"
  },
  {
    "city": "denver",
    "zip_code": "80206"
  },
  {
    "city": "denver",
    "zip_code": "80290"
  },
  {
    "city": "clark",
    "zip_code": "80428"
  },
  {
    "city": "frisco",
    "zip_code": "80443"
  },
  {
    "city": "steamboat springs",
    "zip_code": "80487"
  },
  {
    "city": "steamboat springs",
    "zip_code": "80488"
  },
  {
    "city": "fort collins",
    "zip_code": "80524"
  },
  {
    "city": "severance",
    "zip_code": "80546"
  },
  {
    "city": "amherst",
    "zip_code": "80721"
  },
  {
    "city": "grover",
    "zip_code": "80729"
  },
  {
    "city": "vernon",
    "zip_code": "80755"
  },
  {
    "city": "boncarbo",
    "zip_code": "81024"
  },
  {
    "city": "kim",
    "zip_code": "81049"
  },
  {
    "city": "antonito",
    "zip_code": "81120"
  },
  {
    "city": "chama",
    "zip_code": "81126"
  },
  {
    "city": "bedrock",
    "zip_code": "81411"
  },
  {
    "city": "chugwater",
    "zip_code": "82210"
  },
  {
    "city": "elk mountain",
    "zip_code": "82324"
  },
  {
    "city": "carey",
    "zip_code": "83320"
  },
  {
    "city": "corral",
    "zip_code": "83322"
  },
  {
    "city": "weippe",
    "zip_code": "83553"
  },
  {
    "city": "horseshoe bend",
    "zip_code": "83629"
  },
  {
    "city": "nampa",
    "zip_code": "83651"
  },
  {
    "city": "weiser",
    "zip_code": "83672"
  },
  {
    "city": "saint maries",
    "zip_code": "83861"
  },
  {
    "city": "midvale",
    "zip_code": "84047"
  },
  {
    "city": "west jordan",
    "zip_code": "84088"
  },
  {
    "city": "deweyville",
    "zip_code": "84309"
  },
  {
    "city": "mantua",
    "zip_code": "84324"
  },
  {
    "city": "elmo",
    "zip_code": "84521"
  },
  {
    "city": "levan",
    "zip_code": "84639"
  },
  {
    "city": "payson",
    "zip_code": "84651"
  },
  {
    "city": "alton",
    "zip_code": "84710"
  },
  {
    "city": "mount carmel",
    "zip_code": "84755"
  },
  {
    "city": "phoenix",
    "zip_code": "85009"
  },
  {
    "city": "luke air force base",
    "zip_code": "85309"
  },
  {
    "city": "wikieup",
    "zip_code": "85360"
  },
  {
    "city": "roosevelt",
    "zip_code": "85545"
  },
  {
    "city": "san carlos",
    "zip_code": "85550"
  },
  {
    "city": "pomerene",
    "zip_code": "85627"
  },
  {
    "city": "tucson",
    "zip_code": "85724"
  },
  {
    "city": "pinedale",
    "zip_code": "85934"
  },
  {
    "city": "clarkdale",
    "zip_code": "86324"
  },
  {
    "city": "skull valley",
    "zip_code": "86338"
  },
  {
    "city": "chloride",
    "zip_code": "86431"
  },
  {
    "city": "belen",
    "zip_code": "87002"
  },
  {
    "city": "cuba",
    "zip_code": "87013"
  },
  {
    "city": "carson",
    "zip_code": "87517"
  },
  {
    "city": "chamisal",
    "zip_code": "87521"
  },
  {
    "city": "cordova",
    "zip_code": "87523"
  },
  {
    "city": "llano",
    "zip_code": "87543"
  },
  {
    "city": "penasco",
    "zip_code": "87553"
  },
  {
    "city": "miami",
    "zip_code": "87729"
  },
  {
    "city": "pie town",
    "zip_code": "87827"
  },
  {
    "city": "sunland park",
    "zip_code": "88063"
  },
  {
    "city": "alto",
    "zip_code": "88312"
  },
  {
    "city": "lincoln",
    "zip_code": "88338"
  },
  {
    "city": "sunspot",
    "zip_code": "88349"
  },
  {
    "city": "sedan",
    "zip_code": "88436"
  },
  {
    "city": "mesquite",
    "zip_code": "89027"
  },
  {
    "city": "las vegas",
    "zip_code": "89102"
  },
  {
    "city": "las vegas",
    "zip_code": "89123"
  },
  {
    "city": "las vegas",
    "zip_code": "89124"
  },
  {
    "city": "silver springs",
    "zip_code": "89429"
  },
  {
    "city": "reno",
    "zip_code": "89523"
  },
  {
    "city": "convent station",
    "zip_code": "7961"
  },
  {
    "city": "buena",
    "zip_code": "8310"
  },
  {
    "city": "bordentown",
    "zip_code": "8505"
  },
  {
    "city": "lavallette",
    "zip_code": "8735"
  },
  {
    "city": "franklin park",
    "zip_code": "8823"
  },
  {
    "city": "new york",
    "zip_code": "10020"
  },
  {
    "city": "bronx",
    "zip_code": "10455"
  },
  {
    "city": "bedford hills",
    "zip_code": "10507"
  },
  {
    "city": "briarcliff manor",
    "zip_code": "10510"
  },
  {
    "city": "granite springs",
    "zip_code": "10527"
  },
  {
    "city": "thornwood",
    "zip_code": "10594"
  },
  {
    "city": "west haverstraw",
    "zip_code": "10993"
  },
  {
    "city": "astoria",
    "zip_code": "11102"
  },
  {
    "city": "sunnyside",
    "zip_code": "11104"
  },
  {
    "city": "point lookout",
    "zip_code": "11569"
  },
  {
    "city": "rockville centre",
    "zip_code": "11570"
  },
  {
    "city": "valley stream",
    "zip_code": "11581"
  },
  {
    "city": "mastic beach",
    "zip_code": "11951"
  },
  {
    "city": "charlotteville",
    "zip_code": "12036"
  },
  {
    "city": "fort hunter",
    "zip_code": "12069"
  },
  {
    "city": "hoosick falls",
    "zip_code": "12090"
  },
  {
    "city": "latham",
    "zip_code": "12110"
  },
  {
    "city": "watervliet",
    "zip_code": "12189"
  },
  {
    "city": "west fulton",
    "zip_code": "12194"
  },
  {
    "city": "durham",
    "zip_code": "12422"
  },
  {
    "city": "hunter",
    "zip_code": "12442"
  },
  {
    "city": "mount tremper",
    "zip_code": "12457"
  },
  {
    "city": "prattsville",
    "zip_code": "12468"
  },
  {
    "city": "walden",
    "zip_code": "12586"
  },
  {
    "city": "fallsburg",
    "zip_code": "12733"
  },
  {
    "city": "hague",
    "zip_code": "12836"
  },
  {
    "city": "north creek",
    "zip_code": "12853"
  },
  {
    "city": "north river",
    "zip_code": "12856"
  },
  {
    "city": "victory mills",
    "zip_code": "12884"
  },
  {
    "city": "warrensburg",
    "zip_code": "12885"
  },
  {
    "city": "bloomingdale",
    "zip_code": "12913"
  },
  {
    "city": "ellenburg center",
    "zip_code": "12934"
  },
  {
    "city": "ellenburg depot",
    "zip_code": "12935"
  },
  {
    "city": "port kent",
    "zip_code": "12975"
  },
  {
    "city": "fulton",
    "zip_code": "13069"
  },
  {
    "city": "montezuma",
    "zip_code": "13117"
  },
  {
    "city": "south otselic",
    "zip_code": "13155"
  },
  {
    "city": "holland patent",
    "zip_code": "13354"
  },
  {
    "city": "mohawk",
    "zip_code": "13407"
  },
  {
    "city": "prospect",
    "zip_code": "13435"
  },
  {
    "city": "west eaton",
    "zip_code": "13484"
  },
  {
    "city": "yorkville",
    "zip_code": "13495"
  },
  {
    "city": "castorland",
    "zip_code": "13620"
  },
  {
    "city": "afton",
    "zip_code": "13730"
  },
  {
    "city": "berkshire",
    "zip_code": "13736"
  },
  {
    "city": "trout creek",
    "zip_code": "13847"
  },
  {
    "city": "wells bridge",
    "zip_code": "13859"
  },
  {
    "city": "hamburg",
    "zip_code": "14075"
  },
  {
    "city": "lake view",
    "zip_code": "14085"
  },
  {
    "city": "niagara university",
    "zip_code": "14109"
  },
  {
    "city": "oakfield",
    "zip_code": "14125"
  },
  {
    "city": "buffalo",
    "zip_code": "14210"
  },
  {
    "city": "bellona",
    "zip_code": "14415"
  },
  {
    "city": "romulus",
    "zip_code": "14541"
  },
  {
    "city": "rochester",
    "zip_code": "14609"
  },
  {
    "city": "stockton",
    "zip_code": "14784"
  },
  {
    "city": "bath",
    "zip_code": "14810"
  },
  {
    "city": "corning",
    "zip_code": "14830"
  },
  {
    "city": "donora",
    "zip_code": "15033"
  },
  {
    "city": "east mckeesport",
    "zip_code": "15035"
  },
  {
    "city": "mckeesport",
    "zip_code": "15133"
  },
  {
    "city": "pitcairn",
    "zip_code": "15140"
  },
  {
    "city": "pittsburgh",
    "zip_code": "15212"
  },
  {
    "city": "pittsburgh",
    "zip_code": "15218"
  },
  {
    "city": "pittsburgh",
    "zip_code": "15220"
  },
  {
    "city": "pittsburgh",
    "zip_code": "15224"
  },
  {
    "city": "pittsburgh",
    "zip_code": "15233"
  },
  {
    "city": "pittsburgh",
    "zip_code": "15243"
  },
  {
    "city": "bobtown",
    "zip_code": "15315"
  },
  {
    "city": "graysville",
    "zip_code": "15337"
  },
  {
    "city": "sycamore",
    "zip_code": "15364"
  },
  {
    "city": "brownsville",
    "zip_code": "15417"
  },
  {
    "city": "wickhaven",
    "zip_code": "15492"
  },
  {
    "city": "harrison city",
    "zip_code": "15636"
  },
  {
    "city": "burnside",
    "zip_code": "15721"
  },
  {
    "city": "commodore",
    "zip_code": "15729"
  },
  {
    "city": "coolspring",
    "zip_code": "15730"
  },
  {
    "city": "mahaffey",
    "zip_code": "15757"
  },
  {
    "city": "rochester mills",
    "zip_code": "15771"
  },
  {
    "city": "elton",
    "zip_code": "15934"
  },
  {
    "city": "seanor",
    "zip_code": "15953"
  },
  {
    "city": "grove city",
    "zip_code": "16127"
  },
  {
    "city": "sandy lake",
    "zip_code": "16145"
  },
  {
    "city": "fairmount city",
    "zip_code": "16224"
  },
  {
    "city": "rimersburg",
    "zip_code": "16248"
  },
  {
    "city": "seminole",
    "zip_code": "16253"
  },
  {
    "city": "clarendon",
    "zip_code": "16313"
  },
  {
    "city": "cochranton",
    "zip_code": "16314"
  },
  {
    "city": "conneaut lake",
    "zip_code": "16316"
  },
  {
    "city": "albion",
    "zip_code": "16401"
  },
  {
    "city": "dysart",
    "zip_code": "16636"
  },
  {
    "city": "entriken",
    "zip_code": "16638"
  },
  {
    "city": "glen hope",
    "zip_code": "16645"
  },
  {
    "city": "mount jewett",
    "zip_code": "16740"
  },
  {
    "city": "coburn",
    "zip_code": "16832"
  },
  {
    "city": "kylertown",
    "zip_code": "16847"
  },
  {
    "city": "philipsburg",
    "zip_code": "16866"
  },
  {
    "city": "warriors mark",
    "zip_code": "16877"
  },
  {
    "city": "nelson",
    "zip_code": "16940"
  },
  {
    "city": "boiling springs",
    "zip_code": "17007"
  },
  {
    "city": "camp hill",
    "zip_code": "17011"
  },
  {
    "city": "mount holly springs",
    "zip_code": "17065"
  },
  {
    "city": "new bloomfield",
    "zip_code": "17068"
  },
  {
    "city": "summerdale",
    "zip_code": "17093"
  },
  {
    "city": "amberson",
    "zip_code": "17210"
  },
  {
    "city": "harrisonville",
    "zip_code": "17228"
  },
  {
    "city": "warfordsburg",
    "zip_code": "17267"
  },
  {
    "city": "airville",
    "zip_code": "17302"
  },
  {
    "city": "biglerville",
    "zip_code": "17307"
  },
  {
    "city": "brogue",
    "zip_code": "17309"
  },
  {
    "city": "delta",
    "zip_code": "17314"
  },
  {
    "city": "seven valleys",
    "zip_code": "17360"
  },
  {
    "city": "york springs",
    "zip_code": "17372"
  },
  {
    "city": "washington boro",
    "zip_code": "17582"
  },
  {
    "city": "herndon",
    "zip_code": "17830"
  },
  {
    "city": "mount pleasant mills",
    "zip_code": "17853"
  },
  {
    "city": "paxtonville",
    "zip_code": "17861"
  },
  {
    "city": "rebuck",
    "zip_code": "17867"
  },
  {
    "city": "shenandoah",
    "zip_code": "17976"
  },
  {
    "city": "bowmanstown",
    "zip_code": "18030"
  },
  {
    "city": "allentown",
    "zip_code": "18104"
  },
  {
    "city": "allentown",
    "zip_code": "18195"
  },
  {
    "city": "weston",
    "zip_code": "18256"
  },
  {
    "city": "brodheadsville",
    "zip_code": "18322"
  },
  {
    "city": "rowland",
    "zip_code": "18457"
  },
  {
    "city": "south canaan",
    "zip_code": "18459"
  },
  {
    "city": "starrucca",
    "zip_code": "18462"
  },
  {
    "city": "moosic",
    "zip_code": "18507"
  },
  {
    "city": "bear creek",
    "zip_code": "18602"
  },
  {
    "city": "wilkes barre",
    "zip_code": "18701"
  },
  {
    "city": "friendsville",
    "zip_code": "18818"
  },
  {
    "city": "stevensville",
    "zip_code": "18845"
  },
  {
    "city": "souderton",
    "zip_code": "18964"
  },
  {
    "city": "ardmore",
    "zip_code": "19003"
  },
  {
    "city": "huntingdon valley",
    "zip_code": "19006"
  },
  {
    "city": "jenkintown",
    "zip_code": "19046"
  },
  {
    "city": "feasterville trevose",
    "zip_code": "19053"
  },
  {
    "city": "bethel",
    "zip_code": "19507"
  },
  {
    "city": "hamburg",
    "zip_code": "19526"
  },
  {
    "city": "delmar",
    "zip_code": "19940"
  },
  {
    "city": "georgetown",
    "zip_code": "19947"
  },
  {
    "city": "bluemont",
    "zip_code": "20135"
  },
  {
    "city": "waldorf",
    "zip_code": "20601"
  },
  {
    "city": "clements",
    "zip_code": "20624"
  },
  {
    "city": "dameron",
    "zip_code": "20628"
  },
  {
    "city": "dowell",
    "zip_code": "20629"
  },
  {
    "city": "newburg",
    "zip_code": "20664"
  },
  {
    "city": "saint leonard",
    "zip_code": "20685"
  },
  {
    "city": "brentwood",
    "zip_code": "20722"
  },
  {
    "city": "churchton",
    "zip_code": "20733"
  },
  {
    "city": "clinton",
    "zip_code": "20735"
  },
  {
    "city": "upper marlboro",
    "zip_code": "20772"
  },
  {
    "city": "ashton",
    "zip_code": "20861"
  },
  {
    "city": "oldtown",
    "zip_code": "21555"
  },
  {
    "city": "chestertown",
    "zip_code": "21620"
  },
  {
    "city": "denton",
    "zip_code": "21629"
  },
  {
    "city": "frederick",
    "zip_code": "21705"
  },
  {
    "city": "funkstown",
    "zip_code": "21734"
  },
  {
    "city": "glenelg",
    "zip_code": "21737"
  },
  {
    "city": "glenwood",
    "zip_code": "21738"
  },
  {
    "city": "new market",
    "zip_code": "21774"
  },
  {
    "city": "showell",
    "zip_code": "21862"
  },
  {
    "city": "port deposit",
    "zip_code": "21904"
  },
  {
    "city": "arlington",
    "zip_code": "22201"
  },
  {
    "city": "arlington",
    "zip_code": "22207"
  },
  {
    "city": "winchester",
    "zip_code": "22603"
  },
  {
    "city": "banco",
    "zip_code": "22711"
  },
  {
    "city": "hood",
    "zip_code": "22723"
  },
  {
    "city": "richardsville",
    "zip_code": "22736"
  },
  {
    "city": "lakewood",
    "zip_code": "90715"
  },
  {
    "city": "hawaiian gardens",
    "zip_code": "90716"
  },
  {
    "city": "north hollywood",
    "zip_code": "91601"
  },
  {
    "city": "glendora",
    "zip_code": "91741"
  },
  {
    "city": "descanso",
    "zip_code": "91916"
  },
  {
    "city": "lemon grove",
    "zip_code": "91945"
  },
  {
    "city": "pine valley",
    "zip_code": "91962"
  },
  {
    "city": "camp pendleton",
    "zip_code": "92055"
  },
  {
    "city": "san diego",
    "zip_code": "92103"
  },
  {
    "city": "san diego",
    "zip_code": "92130"
  },
  {
    "city": "coachella",
    "zip_code": "92236"
  },
  {
    "city": "needles",
    "zip_code": "92363"
  },
  {
    "city": "skyforest",
    "zip_code": "92385"
  },
  {
    "city": "capistrano beach",
    "zip_code": "92624"
  },
  {
    "city": "laguna hills",
    "zip_code": "92653"
  },
  {
    "city": "newport coast",
    "zip_code": "92657"
  },
  {
    "city": "anaheim",
    "zip_code": "92805"
  },
  {
    "city": "corona",
    "zip_code": "92883"
  },
  {
    "city": "port hueneme",
    "zip_code": "93041"
  },
  {
    "city": "bodfish",
    "zip_code": "93205"
  },
  {
    "city": "edison",
    "zip_code": "93220"
  },
  {
    "city": "lebec",
    "zip_code": "93243"
  },
  {
    "city": "bakersfield",
    "zip_code": "93301"
  },
  {
    "city": "avila beach",
    "zip_code": "93424"
  },
  {
    "city": "shandon",
    "zip_code": "93461"
  },
  {
    "city": "palmdale",
    "zip_code": "93550"
  },
  {
    "city": "palmdale",
    "zip_code": "93552"
  },
  {
    "city": "fresno",
    "zip_code": "93711"
  },
  {
    "city": "san francisco",
    "zip_code": "94122"
  },
  {
    "city": "vallejo",
    "zip_code": "94591"
  },
  {
    "city": "cotati",
    "zip_code": "94931"
  },
  {
    "city": "sausalito",
    "zip_code": "94965"
  },
  {
    "city": "santa clara",
    "zip_code": "95053"
  },
  {
    "city": "scotts valley",
    "zip_code": "95066"
  },
  {
    "city": "san jose",
    "zip_code": "95132"
  },
  {
    "city": "elk",
    "zip_code": "95432"
  },
  {
    "city": "finley",
    "zip_code": "95435"
  },
  {
    "city": "geyserville",
    "zip_code": "95441"
  },
  {
    "city": "fair oaks",
    "zip_code": "95628"
  },
  {
    "city": "lotus",
    "zip_code": "95651"
  },
  {
    "city": "meadow vista",
    "zip_code": "95722"
  },
  {
    "city": "sacramento",
    "zip_code": "95825"
  },
  {
    "city": "smartsville",
    "zip_code": "95977"
  },
  {
    "city": "corning",
    "zip_code": "96021"
  },
  {
    "city": "cottonwood",
    "zip_code": "96022"
  },
  {
    "city": "flournoy",
    "zip_code": "96029"
  },
  {
    "city": "hat creek",
    "zip_code": "96040"
  },
  {
    "city": "paskenta",
    "zip_code": "96074"
  },
  {
    "city": "tehama",
    "zip_code": "96090"
  },
  {
    "city": "doyle",
    "zip_code": "96109"
  },
  {
    "city": "carnelian bay",
    "zip_code": "96140"
  },
  {
    "city": "naalehu",
    "zip_code": "96772"
  },
  {
    "city": "inarajan",
    "zip_code": "96917"
  },
  {
    "city": "columbia city",
    "zip_code": "97018"
  },
  {
    "city": "mosier",
    "zip_code": "97040"
  },
  {
    "city": "rhododendron",
    "zip_code": "97049"
  },
  {
    "city": "woodburn",
    "zip_code": "97071"
  },
  {
    "city": "dundee",
    "zip_code": "97115"
  },
  {
    "city": "jefferson",
    "zip_code": "97352"
  },
  {
    "city": "waldport",
    "zip_code": "97394"
  },
  {
    "city": "eugene",
    "zip_code": "97405"
  },
  {
    "city": "tiller",
    "zip_code": "97484"
  },
  {
    "city": "grants pass",
    "zip_code": "97526"
  },
  {
    "city": "klamath falls",
    "zip_code": "97603"
  },
  {
    "city": "boardman",
    "zip_code": "97818"
  },
  {
    "city": "milton freewater",
    "zip_code": "97862"
  },
  {
    "city": "mount vernon",
    "zip_code": "97865"
  },
  {
    "city": "spray",
    "zip_code": "97874"
  },
  {
    "city": "bellevue",
    "zip_code": "98008"
  },
  {
    "city": "redmond",
    "zip_code": "98053"
  },
  {
    "city": "seattle",
    "zip_code": "98109"
  },
  {
    "city": "seattle",
    "zip_code": "98178"
  },
  {
    "city": "skykomish",
    "zip_code": "98288"
  },
  {
    "city": "fargo",
    "zip_code": "58105"
  },
  {
    "city": "rolette",
    "zip_code": "58366"
  },
  {
    "city": "edgeley",
    "zip_code": "58433"
  },
  {
    "city": "glenfield",
    "zip_code": "58443"
  },
  {
    "city": "baldwin",
    "zip_code": "58521"
  },
  {
    "city": "halliday",
    "zip_code": "58636"
  },
  {
    "city": "lefor",
    "zip_code": "58641"
  },
  {
    "city": "quilcene",
    "zip_code": "98376"
  },
  {
    "city": "hoquiam",
    "zip_code": "98550"
  },
  {
    "city": "satsop",
    "zip_code": "98583"
  },
  {
    "city": "seaview",
    "zip_code": "98644"
  },
  {
    "city": "vancouver",
    "zip_code": "98684"
  },
  {
    "city": "leavenworth",
    "zip_code": "98826"
  },
  {
    "city": "mazama",
    "zip_code": "98833"
  },
  {
    "city": "orondo",
    "zip_code": "98843"
  },
  {
    "city": "thorp",
    "zip_code": "98946"
  },
  {
    "city": "vantage",
    "zip_code": "98950"
  },
  {
    "city": "reardan",
    "zip_code": "99029"
  },
  {
    "city": "almira",
    "zip_code": "99103"
  },
  {
    "city": "colfax",
    "zip_code": "99111"
  },
  {
    "city": "electric city",
    "zip_code": "99123"
  },
  {
    "city": "fruitland",
    "zip_code": "99129"
  },
  {
    "city": "roosevelt",
    "zip_code": "99356"
  },
  {
    "city": "anchorage",
    "zip_code": "99518"
  },
  {
    "city": "cold bay",
    "zip_code": "99571"
  },
  {
    "city": "eek",
    "zip_code": "99578"
  },
  {
    "city": "mountain village",
    "zip_code": "99632"
  },
  {
    "city": "pilot station",
    "zip_code": "99650"
  },
  {
    "city": "arctic village",
    "zip_code": "99722"
  },
  {
    "city": "bettles field",
    "zip_code": "99726"
  },
  {
    "city": "anderson",
    "zip_code": "99744"
  },
  {
    "city": "koyukuk",
    "zip_code": "99754"
  },
  {
    "city": "fairbanks",
    "zip_code": "99790"
  },
  {
    "city": "hoonah",
    "zip_code": "99829"
  },
  {
    "city": "coffman cove",
    "zip_code": "99918"
  },
  {
    "city": "chauncey",
    "zip_code": "31011"
  },
  {
    "city": "east dublin",
    "zip_code": "31027"
  },
  {
    "city": "forsyth",
    "zip_code": "31029"
  },
  {
    "city": "ideal",
    "zip_code": "31041"
  },
  {
    "city": "wrightsville",
    "zip_code": "31096"
  },
  {
    "city": "blackshear",
    "zip_code": "31516"
  },
  {
    "city": "homerville",
    "zip_code": "31634"
  },
  {
    "city": "hartsfield",
    "zip_code": "31756"
  },
  {
    "city": "norman park",
    "zip_code": "31771"
  },
  {
    "city": "oakfield",
    "zip_code": "31772"
  },
  {
    "city": "tifton",
    "zip_code": "31794"
  },
  {
    "city": "richland",
    "zip_code": "31825"
  },
  {
    "city": "branford",
    "zip_code": "32008"
  },
  {
    "city": "port orange",
    "zip_code": "32128"
  },
  {
    "city": "edgewater",
    "zip_code": "32141"
  },
  {
    "city": "jacksonville",
    "zip_code": "32210"
  },
  {
    "city": "jacksonville",
    "zip_code": "32217"
  },
  {
    "city": "jacksonville",
    "zip_code": "32222"
  },
  {
    "city": "tallahassee",
    "zip_code": "32303"
  },
  {
    "city": "steinhatchee",
    "zip_code": "32359"
  },
  {
    "city": "panama city beach",
    "zip_code": "32407"
  },
  {
    "city": "lynn haven",
    "zip_code": "32444"
  },
  {
    "city": "milton",
    "zip_code": "32583"
  },
  {
    "city": "longwood",
    "zip_code": "32750"
  },
  {
    "city": "palm bay",
    "zip_code": "32909"
  },
  {
    "city": "summerland key",
    "zip_code": "33042"
  },
  {
    "city": "miami",
    "zip_code": "33172"
  },
  {
    "city": "miami",
    "zip_code": "33186"
  },
  {
    "city": "fort lauderdale",
    "zip_code": "33309"
  },
  {
    "city": "fort lauderdale",
    "zip_code": "33324"
  },
  {
    "city": "west palm beach",
    "zip_code": "33409"
  },
  {
    "city": "lake worth",
    "zip_code": "33467"
  },
  {
    "city": "dade city",
    "zip_code": "33523"
  },
  {
    "city": "riverview",
    "zip_code": "33569"
  },
  {
    "city": "tampa",
    "zip_code": "33619"
  },
  {
    "city": "saint petersburg",
    "zip_code": "33712"
  },
  {
    "city": "saint petersburg",
    "zip_code": "33714"
  },
  {
    "city": "sebring",
    "zip_code": "33870"
  },
  {
    "city": "pineland",
    "zip_code": "33945"
  },
  {
    "city": "port charlotte",
    "zip_code": "33953"
  },
  {
    "city": "naples",
    "zip_code": "34103"
  },
  {
    "city": "naples",
    "zip_code": "34116"
  },
  {
    "city": "bradenton",
    "zip_code": "34211"
  },
  {
    "city": "sarasota",
    "zip_code": "34234"
  },
  {
    "city": "sarasota",
    "zip_code": "34237"
  },
  {
    "city": "ocala",
    "zip_code": "34481"
  },
  {
    "city": "brooksville",
    "zip_code": "34614"
  },
  {
    "city": "new port richey",
    "zip_code": "34655"
  },
  {
    "city": "saint cloud",
    "zip_code": "34771"
  },
  {
    "city": "okeechobee",
    "zip_code": "34972"
  },
  {
    "city": "stuart",
    "zip_code": "34996"
  },
  {
    "city": "bremen",
    "zip_code": "35033"
  },
  {
    "city": "graysville",
    "zip_code": "35073"
  },
  {
    "city": "sylacauga",
    "zip_code": "35150"
  },
  {
    "city": "duncanville",
    "zip_code": "35456"
  },
  {
    "city": "reform",
    "zip_code": "35481"
  },
  {
    "city": "jasper",
    "zip_code": "35504"
  },
  {
    "city": "townley",
    "zip_code": "35587"
  },
  {
    "city": "vina",
    "zip_code": "35593"
  },
  {
    "city": "winfield",
    "zip_code": "35594"
  },
  {
    "city": "leighton",
    "zip_code": "35646"
  },
  {
    "city": "ardmore",
    "zip_code": "35739"
  },
  {
    "city": "huntsville",
    "zip_code": "35806"
  },
  {
    "city": "albertville",
    "zip_code": "35951"
  },
  {
    "city": "ashland",
    "zip_code": "36251"
  },
  {
    "city": "munford",
    "zip_code": "36268"
  },
  {
    "city": "roanoke",
    "zip_code": "36274"
  },
  {
    "city": "daleville",
    "zip_code": "36322"
  },
  {
    "city": "pinckard",
    "zip_code": "36371"
  },
  {
    "city": "bay minette",
    "zip_code": "36507"
  },
  {
    "city": "millry",
    "zip_code": "36558"
  },
  {
    "city": "mobile",
    "zip_code": "36688"
  },
  {
    "city": "catherine",
    "zip_code": "36728"
  },
  {
    "city": "marion junction",
    "zip_code": "36759"
  },
  {
    "city": "safford",
    "zip_code": "36773"
  },
  {
    "city": "silas",
    "zip_code": "36919"
  },
  {
    "city": "cedar hill",
    "zip_code": "37032"
  },
  {
    "city": "college grove",
    "zip_code": "37046"
  },
  {
    "city": "spring hill",
    "zip_code": "37174"
  },
  {
    "city": "waverly",
    "zip_code": "37185"
  },
  {
    "city": "woodbury",
    "zip_code": "37190"
  },
  {
    "city": "nashville",
    "zip_code": "37210"
  },
  {
    "city": "nashville",
    "zip_code": "37216"
  },
  {
    "city": "nashville",
    "zip_code": "37243"
  },
  {
    "city": "sherwood",
    "zip_code": "37376"
  },
  {
    "city": "soddy daisy",
    "zip_code": "37379"
  },
  {
    "city": "kingsport",
    "zip_code": "37660"
  },
  {
    "city": "caryville",
    "zip_code": "37714"
  },
  {
    "city": "jellico",
    "zip_code": "37762"
  },
  {
    "city": "maryville",
    "zip_code": "37803"
  },
  {
    "city": "mooresburg",
    "zip_code": "37811"
  },
  {
    "city": "niota",
    "zip_code": "37826"
  },
  {
    "city": "norris",
    "zip_code": "37828"
  },
  {
    "city": "wynnburg",
    "zip_code": "38077"
  },
  {
    "city": "memphis",
    "zip_code": "38132"
  },
  {
    "city": "memphis",
    "zip_code": "38141"
  },
  {
    "city": "memphis",
    "zip_code": "38152"
  },
  {
    "city": "hornbeak",
    "zip_code": "38232"
  },
  {
    "city": "martin",
    "zip_code": "38237"
  },
  {
    "city": "troy",
    "zip_code": "38260"
  },
  {
    "city": "jackson",
    "zip_code": "38305"
  },
  {
    "city": "guys",
    "zip_code": "38339"
  },
  {
    "city": "henderson",
    "zip_code": "38340"
  },
  {
    "city": "sardis",
    "zip_code": "38371"
  },
  {
    "city": "silver point",
    "zip_code": "38582"
  },
  {
    "city": "farrell",
    "zip_code": "38630"
  },
  {
    "city": "horn lake",
    "zip_code": "38637"
  },
  {
    "city": "marks",
    "zip_code": "38646"
  },
  {
    "city": "olive branch",
    "zip_code": "38654"
  },
  {
    "city": "belden",
    "zip_code": "38826"
  },
  {
    "city": "bolton",
    "zip_code": "39041"
  },
  {
    "city": "carthage",
    "zip_code": "39051"
  },
  {
    "city": "harrisville",
    "zip_code": "39082"
  },
  {
    "city": "sallis",
    "zip_code": "39160"
  },
  {
    "city": "bailey",
    "zip_code": "39320"
  },
  {
    "city": "sumrall",
    "zip_code": "39482"
  },
  {
    "city": "pass christian",
    "zip_code": "39571"
  },
  {
    "city": "pearlington",
    "zip_code": "39572"
  },
  {
    "city": "union church",
    "zip_code": "39668"
  },
  {
    "city": "stephensport",
    "zip_code": "40170"
  },
  {
    "city": "west point",
    "zip_code": "40177"
  },
  {
    "city": "louisville",
    "zip_code": "40203"
  },
  {
    "city": "louisville",
    "zip_code": "40212"
  },
  {
    "city": "louisville",
    "zip_code": "40272"
  },
  {
    "city": "owingsville",
    "zip_code": "40360"
  },
  {
    "city": "ravenna",
    "zip_code": "40472"
  },
  {
    "city": "richmond",
    "zip_code": "40475"
  },
  {
    "city": "lexington",
    "zip_code": "40509"
  },
  {
    "city": "putney",
    "zip_code": "40865"
  },
  {
    "city": "alexandria",
    "zip_code": "41001"
  },
  {
    "city": "falmouth",
    "zip_code": "41040"
  },
  {
    "city": "grahn",
    "zip_code": "41142"
  },
  {
    "city": "river",
    "zip_code": "41254"
  },
  {
    "city": "ulysses",
    "zip_code": "41264"
  },
  {
    "city": "beattyville",
    "zip_code": "41311"
  },
  {
    "city": "hardy",
    "zip_code": "41531"
  },
  {
    "city": "mccarr",
    "zip_code": "41544"
  },
  {
    "city": "drift",
    "zip_code": "41619"
  },
  {
    "city": "bulan",
    "zip_code": "41722"
  },
  {
    "city": "viper",
    "zip_code": "41774"
  },
  {
    "city": "gordon",
    "zip_code": "41819"
  },
  {
    "city": "kite",
    "zip_code": "41828"
  },
  {
    "city": "whitesburg",
    "zip_code": "41858"
  },
  {
    "city": "dema",
    "zip_code": "41859"
  },
  {
    "city": "ledbetter",
    "zip_code": "42058"
  },
  {
    "city": "smithland",
    "zip_code": "42081"
  },
  {
    "city": "pembroke",
    "zip_code": "42266"
  },
  {
    "city": "rosine",
    "zip_code": "42370"
  },
  {
    "city": "whitesville",
    "zip_code": "42378"
  },
  {
    "city": "jamestown",
    "zip_code": "42629"
  },
  {
    "city": "revelo",
    "zip_code": "42638"
  },
  {
    "city": "catawba",
    "zip_code": "43010"
  },
  {
    "city": "carroll",
    "zip_code": "43112"
  },
  {
    "city": "columbus",
    "zip_code": "43213"
  },
  {
    "city": "graytown",
    "zip_code": "43432"
  },
  {
    "city": "rossford",
    "zip_code": "43460"
  },
  {
    "city": "wayne",
    "zip_code": "43466"
  },
  {
    "city": "liberty center",
    "zip_code": "43532"
  },
  {
    "city": "walhonding",
    "zip_code": "43843"
  },
  {
    "city": "tiltonsville",
    "zip_code": "43963"
  },
  {
    "city": "wolf run",
    "zip_code": "43970"
  },
  {
    "city": "painesville",
    "zip_code": "44077"
  },
  {
    "city": "pierpont",
    "zip_code": "44082"
  },
  {
    "city": "akron",
    "zip_code": "44314"
  },
  {
    "city": "canfield",
    "zip_code": "44406"
  },
  {
    "city": "warren",
    "zip_code": "44484"
  },
  {
    "city": "strasburg",
    "zip_code": "44680"
  },
  {
    "city": "canton",
    "zip_code": "44706"
  },
  {
    "city": "sandusky",
    "zip_code": "44870"
  },
  {
    "city": "springboro",
    "zip_code": "45066"
  },
  {
    "city": "cincinnati",
    "zip_code": "45232"
  },
  {
    "city": "hollansburg",
    "zip_code": "45332"
  },
  {
    "city": "jackson center",
    "zip_code": "45334"
  },
  {
    "city": "piqua",
    "zip_code": "45356"
  },
  {
    "city": "dayton",
    "zip_code": "45409"
  },
  {
    "city": "dayton",
    "zip_code": "45414"
  },
  {
    "city": "dayton",
    "zip_code": "45428"
  },
  {
    "city": "dayton",
    "zip_code": "45432"
  },
  {
    "city": "watertown",
    "zip_code": "45787"
  },
  {
    "city": "cloverdale",
    "zip_code": "45827"
  },
  {
    "city": "uniopolis",
    "zip_code": "45888"
  },
  {
    "city": "venedocia",
    "zip_code": "45894"
  },
  {
    "city": "whitestown",
    "zip_code": "46075"
  },
  {
    "city": "arlington",
    "zip_code": "46104"
  },
  {
    "city": "brooklyn",
    "zip_code": "46111"
  },
  {
    "city": "carthage",
    "zip_code": "46115"
  },
  {
    "city": "indianapolis",
    "zip_code": "46217"
  },
  {
    "city": "demotte",
    "zip_code": "46310"
  },
  {
    "city": "goshen",
    "zip_code": "46528"
  },
  {
    "city": "granger",
    "zip_code": "46530"
  },
  {
    "city": "walkerton",
    "zip_code": "46574"
  },
  {
    "city": "south bend",
    "zip_code": "46614"
  },
  {
    "city": "hamilton",
    "zip_code": "46742"
  },
  {
    "city": "spencerville",
    "zip_code": "46788"
  },
  {
    "city": "fort wayne",
    "zip_code": "46807"
  },
  {
    "city": "ora",
    "zip_code": "46968"
  },
  {
    "city": "corydon",
    "zip_code": "47112"
  },
  {
    "city": "henryville",
    "zip_code": "47126"
  },
  {
    "city": "north vernon",
    "zip_code": "47265"
  },
  {
    "city": "centerville",
    "zip_code": "47330"
  },
  {
    "city": "patricksburg",
    "zip_code": "47455"
  },
  {
    "city": "west baden springs",
    "zip_code": "47469"
  },
  {
    "city": "worthington",
    "zip_code": "47471"
  },
  {
    "city": "celestine",
    "zip_code": "47521"
  },
  {
    "city": "lincoln city",
    "zip_code": "47552"
  },
  {
    "city": "richland",
    "zip_code": "47634"
  },
  {
    "city": "patoka",
    "zip_code": "47666"
  },
  {
    "city": "brazil",
    "zip_code": "47834"
  },
  {
    "city": "west lafayette",
    "zip_code": "47906"
  },
  {
    "city": "alamo",
    "zip_code": "47916"
  },
  {
    "city": "chalmers",
    "zip_code": "47929"
  },
  {
    "city": "remington",
    "zip_code": "47977"
  },
  {
    "city": "fair haven",
    "zip_code": "48023"
  },
  {
    "city": "harsens island",
    "zip_code": "48028"
  },
  {
    "city": "southfield",
    "zip_code": "48034"
  },
  {
    "city": "macomb",
    "zip_code": "48044"
  },
  {
    "city": "royal oak",
    "zip_code": "48067"
  },
  {
    "city": "ann arbor",
    "zip_code": "48109"
  },
  {
    "city": "saline",
    "zip_code": "48176"
  },
  {
    "city": "hamtramck",
    "zip_code": "48212"
  },
  {
    "city": "rochester",
    "zip_code": "48306"
  },
  {
    "city": "sterling heights",
    "zip_code": "48313"
  },
  {
    "city": "oxford",
    "zip_code": "48371"
  },
  {
    "city": "lennon",
    "zip_code": "48449"
  },
  {
    "city": "port austin",
    "zip_code": "48467"
  },
  {
    "city": "port sanilac",
    "zip_code": "48469"
  },
  {
    "city": "sandusky",
    "zip_code": "48471"
  },
  {
    "city": "saginaw",
    "zip_code": "48601"
  },
  {
    "city": "pinconning",
    "zip_code": "48650"
  },
  {
    "city": "rose city",
    "zip_code": "48654"
  },
  {
    "city": "bay city",
    "zip_code": "48706"
  },
  {
    "city": "frankenmuth",
    "zip_code": "48734"
  },
  {
    "city": "howell",
    "zip_code": "48855"
  },
  {
    "city": "palo",
    "zip_code": "48870"
  },
  {
    "city": "coloma",
    "zip_code": "49038"
  },
  {
    "city": "richland",
    "zip_code": "49083"
  },
  {
    "city": "concord",
    "zip_code": "49237"
  },
  {
    "city": "hanover",
    "zip_code": "49241"
  },
  {
    "city": "jasper",
    "zip_code": "49248"
  },
  {
    "city": "osseo",
    "zip_code": "49266"
  },
  {
    "city": "moline",
    "zip_code": "49335"
  },
  {
    "city": "mears",
    "zip_code": "49436"
  },
  {
    "city": "cedar",
    "zip_code": "49621"
  },
  {
    "city": "eastlake",
    "zip_code": "49626"
  },
  {
    "city": "south boardman",
    "zip_code": "49680"
  },
  {
    "city": "arnold",
    "zip_code": "49819"
  },
  {
    "city": "engadine",
    "zip_code": "49827"
  },
  {
    "city": "gwinn",
    "zip_code": "49841"
  },
  {
    "city": "republic",
    "zip_code": "49879"
  },
  {
    "city": "shingleton",
    "zip_code": "49884"
  },
  {
    "city": "ahmeek",
    "zip_code": "49901"
  },
  {
    "city": "dodgeville",
    "zip_code": "49921"
  },
  {
    "city": "ironwood",
    "zip_code": "49938"
  },
  {
    "city": "kearsarge",
    "zip_code": "49942"
  },
  {
    "city": "watton",
    "zip_code": "49970"
  },
  {
    "city": "anita",
    "zip_code": "50020"
  },
  {
    "city": "bouton",
    "zip_code": "50039"
  },
  {
    "city": "collins",
    "zip_code": "50055"
  },
  {
    "city": "davis city",
    "zip_code": "50065"
  },
  {
    "city": "haverhill",
    "zip_code": "50120"
  },
  {
    "city": "laurel",
    "zip_code": "50141"
  },
  {
    "city": "ogden",
    "zip_code": "50212"
  },
  {
    "city": "panora",
    "zip_code": "50216"
  },
  {
    "city": "patterson",
    "zip_code": "50218"
  },
  {
    "city": "pilot mound",
    "zip_code": "50223"
  },
  {
    "city": "des moines",
    "zip_code": "50315"
  },
  {
    "city": "britt",
    "zip_code": "50423"
  },
  {
    "city": "rockford",
    "zip_code": "50468"
  },
  {
    "city": "rudd",
    "zip_code": "50471"
  },
  {
    "city": "bradgate",
    "zip_code": "50520"
  },
  {
    "city": "fenton",
    "zip_code": "50539"
  },
  {
    "city": "hardy",
    "zip_code": "50545"
  },
  {
    "city": "mallard",
    "zip_code": "50562"
  },
  {
    "city": "ringsted",
    "zip_code": "50578"
  },
  {
    "city": "vincent",
    "zip_code": "50594"
  },
  {
    "city": "alta vista",
    "zip_code": "50603"
  },
  {
    "city": "arlington",
    "zip_code": "50606"
  },
  {
    "city": "hudson",
    "zip_code": "50643"
  },
  {
    "city": "waverly",
    "zip_code": "50677"
  },
  {
    "city": "blockton",
    "zip_code": "50836"
  },
  {
    "city": "bridgewater",
    "zip_code": "50837"
  },
  {
    "city": "peterson",
    "zip_code": "51047"
  },
  {
    "city": "washta",
    "zip_code": "51061"
  },
  {
    "city": "minden",
    "zip_code": "51553"
  },
  {
    "city": "percival",
    "zip_code": "51648"
  },
  {
    "city": "sidney",
    "zip_code": "51652"
  },
  {
    "city": "peosta",
    "zip_code": "52068"
  },
  {
    "city": "blairstown",
    "zip_code": "52209"
  },
  {
    "city": "millersburg",
    "zip_code": "52308"
  },
  {
    "city": "shellsburg",
    "zip_code": "52332"
  },
  {
    "city": "bloomfield",
    "zip_code": "52537"
  },
  {
    "city": "fairfield",
    "zip_code": "52556"
  },
  {
    "city": "wapello",
    "zip_code": "52653"
  },
  {
    "city": "nichols",
    "zip_code": "52766"
  },
  {
    "city": "stockton",
    "zip_code": "52769"
  },
  {
    "city": "hartland",
    "zip_code": "53029"
  },
  {
    "city": "kewaskum",
    "zip_code": "53040"
  },
  {
    "city": "milwaukee",
    "zip_code": "53221"
  },
  {
    "city": "gotham",
    "zip_code": "53540"
  },
  {
    "city": "prairie du chien",
    "zip_code": "53821"
  },
  {
    "city": "endeavor",
    "zip_code": "53930"
  },
  {
    "city": "fairwater",
    "zip_code": "53931"
  },
  {
    "city": "clear lake",
    "zip_code": "54005"
  },
  {
    "city": "cushing",
    "zip_code": "54006"
  },
  {
    "city": "mountain",
    "zip_code": "54149"
  },
  {
    "city": "saint nazianz",
    "zip_code": "54232"
  },
  {
    "city": "antigo",
    "zip_code": "54409"
  },
  {
    "city": "custer",
    "zip_code": "54423"
  },
  {
    "city": "elton",
    "zip_code": "54430"
  },
  {
    "city": "medford",
    "zip_code": "54451"
  },
  {
    "city": "stetsonville",
    "zip_code": "54480"
  },
  {
    "city": "wisconsin rapids",
    "zip_code": "54495"
  },
  {
    "city": "withee",
    "zip_code": "54498"
  },
  {
    "city": "catawba",
    "zip_code": "54515"
  },
  {
    "city": "onalaska",
    "zip_code": "54650"
  },
  {
    "city": "siren",
    "zip_code": "54872"
  },
  {
    "city": "oshkosh",
    "zip_code": "54902"
  },
  {
    "city": "butte des morts",
    "zip_code": "54927"
  },
  {
    "city": "fond du lac",
    "zip_code": "54937"
  },
  {
    "city": "king",
    "zip_code": "54946"
  },
  {
    "city": "larsen",
    "zip_code": "54947"
  },
  {
    "city": "stacy",
    "zip_code": "55079"
  },
  {
    "city": "saint paul",
    "zip_code": "55125"
  },
  {
    "city": "big lake",
    "zip_code": "55309"
  },
  {
    "city": "montrose",
    "zip_code": "55363"
  },
  {
    "city": "minneapolis",
    "zip_code": "55420"
  },
  {
    "city": "cohasset",
    "zip_code": "55721"
  },
  {
    "city": "rochester",
    "zip_code": "55904"
  },
  {
    "city": "canton",
    "zip_code": "55922"
  },
  {
    "city": "la crescent",
    "zip_code": "55947"
  },
  {
    "city": "le roy",
    "zip_code": "55951"
  },
  {
    "city": "pine island",
    "zip_code": "55963"
  },
  {
    "city": "elmore",
    "zip_code": "56027"
  },
  {
    "city": "sleepy eye",
    "zip_code": "56085"
  },
  {
    "city": "westbrook",
    "zip_code": "56183"
  },
  {
    "city": "belview",
    "zip_code": "56214"
  },
  {
    "city": "canby",
    "zip_code": "56220"
  },
  {
    "city": "clontarf",
    "zip_code": "56226"
  },
  {
    "city": "correll",
    "zip_code": "56227"
  },
  {
    "city": "brandon",
    "zip_code": "56315"
  },
  {
    "city": "grey eagle",
    "zip_code": "56336"
  },
  {
    "city": "isle",
    "zip_code": "56342"
  },
  {
    "city": "pine river",
    "zip_code": "56474"
  },
  {
    "city": "fosston",
    "zip_code": "56542"
  },
  {
    "city": "mcintosh",
    "zip_code": "56556"
  },
  {
    "city": "mahnomen",
    "zip_code": "56557"
  },
  {
    "city": "wendell",
    "zip_code": "56590"
  },
  {
    "city": "clearbrook",
    "zip_code": "56634"
  },
  {
    "city": "talmoon",
    "zip_code": "56637"
  },
  {
    "city": "federal dam",
    "zip_code": "56641"
  },
  {
    "city": "outing",
    "zip_code": "56662"
  },
  {
    "city": "ponemah",
    "zip_code": "56666"
  },
  {
    "city": "wirt",
    "zip_code": "56688"
  },
  {
    "city": "beresford",
    "zip_code": "57004"
  },
  {
    "city": "brookings",
    "zip_code": "57006"
  },
  {
    "city": "crooks",
    "zip_code": "57020"
  },
  {
    "city": "elk point",
    "zip_code": "57025"
  },
  {
    "city": "garretson",
    "zip_code": "57030"
  },
  {
    "city": "veblen",
    "zip_code": "57270"
  },
  {
    "city": "marty",
    "zip_code": "57361"
  },
  {
    "city": "wolsey",
    "zip_code": "57384"
  },
  {
    "city": "conde",
    "zip_code": "57434"
  },
  {
    "city": "harrold",
    "zip_code": "57536"
  },
  {
    "city": "philip",
    "zip_code": "57567"
  },
  {
    "city": "wood",
    "zip_code": "57585"
  },
  {
    "city": "fort meade",
    "zip_code": "57741"
  },
  {
    "city": "clifford",
    "zip_code": "58016"
  },
  {
    "city": "colfax",
    "zip_code": "58018"
  },
  {
    "city": "hunter",
    "zip_code": "58048"
  },
  {
    "city": "edinburg",
    "zip_code": "58227"
  },
  {
    "city": "lankin",
    "zip_code": "58250"
  },
  {
    "city": "belcourt",
    "zip_code": "58316"
  },
  {
    "city": "calvin",
    "zip_code": "58323"
  },
  {
    "city": "cumberland",
    "zip_code": "21502"
  },
  {
    "city": "crapo",
    "zip_code": "21626"
  },
  {
    "city": "madison",
    "zip_code": "21648"
  },
  {
    "city": "sabillasville",
    "zip_code": "21780"
  },
  {
    "city": "union bridge",
    "zip_code": "21791"
  },
  {
    "city": "stockton",
    "zip_code": "21864"
  },
  {
    "city": "falls church",
    "zip_code": "22046"
  },
  {
    "city": "triangle",
    "zip_code": "22172"
  },
  {
    "city": "vienna",
    "zip_code": "22185"
  },
  {
    "city": "fort myer",
    "zip_code": "22211"
  },
  {
    "city": "dunnsville",
    "zip_code": "22454"
  },
  {
    "city": "white post",
    "zip_code": "22663"
  },
  {
    "city": "bealeton",
    "zip_code": "22712"
  },
  {
    "city": "oakpark",
    "zip_code": "22730"
  },
  {
    "city": "sperryville",
    "zip_code": "22740"
  },
  {
    "city": "edinburg",
    "zip_code": "22824"
  },
  {
    "city": "elkton",
    "zip_code": "22827"
  },
  {
    "city": "byromville",
    "zip_code": "31007"
  },
  {
    "city": "centerville",
    "zip_code": "31028"
  },
  {
    "city": "pineview",
    "zip_code": "31071"
  },
  {
    "city": "macon",
    "zip_code": "31207"
  },
  {
    "city": "alma",
    "zip_code": "31510"
  },
  {
    "city": "broxton",
    "zip_code": "31519"
  },
  {
    "city": "waverly",
    "zip_code": "31565"
  },
  {
    "city": "adel",
    "zip_code": "31620"
  },
  {
    "city": "quitman",
    "zip_code": "31643"
  },
  {
    "city": "statenville",
    "zip_code": "31648"
  },
  {
    "city": "americus",
    "zip_code": "31719"
  },
  {
    "city": "rebecca",
    "zip_code": "31783"
  },
  {
    "city": "hampton",
    "zip_code": "32044"
  },
  {
    "city": "daytona beach",
    "zip_code": "32124"
  },
  {
    "city": "port orange",
    "zip_code": "32127"
  },
  {
    "city": "jacksonville",
    "zip_code": "32206"
  },
  {
    "city": "marianna",
    "zip_code": "32448"
  },
  {
    "city": "gulf breeze",
    "zip_code": "32561"
  },
  {
    "city": "niceville",
    "zip_code": "32578"
  },
  {
    "city": "winter park",
    "zip_code": "32789"
  },
  {
    "city": "palm bay",
    "zip_code": "32905"
  },
  {
    "city": "palm bay",
    "zip_code": "32907"
  },
  {
    "city": "hollywood",
    "zip_code": "33019"
  },
  {
    "city": "miami",
    "zip_code": "33169"
  },
  {
    "city": "fort lauderdale",
    "zip_code": "33301"
  },
  {
    "city": "fort lauderdale",
    "zip_code": "33311"
  },
  {
    "city": "lake worth",
    "zip_code": "33462"
  },
  {
    "city": "boynton beach",
    "zip_code": "33472"
  },
  {
    "city": "zephyrhills",
    "zip_code": "33542"
  },
  {
    "city": "tampa",
    "zip_code": "33609"
  },
  {
    "city": "tampa",
    "zip_code": "33625"
  },
  {
    "city": "belleair beach",
    "zip_code": "33786"
  },
  {
    "city": "frostproof",
    "zip_code": "33843"
  },
  {
    "city": "lake hamilton",
    "zip_code": "33851"
  },
  {
    "city": "lake wales",
    "zip_code": "33853"
  },
  {
    "city": "winter haven",
    "zip_code": "33881"
  },
  {
    "city": "fort myers",
    "zip_code": "33901"
  },
  {
    "city": "boca grande",
    "zip_code": "33921"
  },
  {
    "city": "fort myers",
    "zip_code": "33965"
  },
  {
    "city": "naples",
    "zip_code": "34113"
  },
  {
    "city": "bradenton",
    "zip_code": "34202"
  },
  {
    "city": "venice",
    "zip_code": "34292"
  },
  {
    "city": "nobleton",
    "zip_code": "34661"
  },
  {
    "city": "port richey",
    "zip_code": "34668"
  },
  {
    "city": "howey in the hills",
    "zip_code": "34737"
  },
  {
    "city": "kissimmee",
    "zip_code": "34744"
  },
  {
    "city": "yalaha",
    "zip_code": "34797"
  },
  {
    "city": "port saint lucie",
    "zip_code": "34986"
  },
  {
    "city": "alabaster",
    "zip_code": "35007"
  },
  {
    "city": "pleasant grove",
    "zip_code": "35127"
  },
  {
    "city": "birmingham",
    "zip_code": "35210"
  },
  {
    "city": "tuscaloosa",
    "zip_code": "35404"
  },
  {
    "city": "red bay",
    "zip_code": "35582"
  },
  {
    "city": "bridgeport",
    "zip_code": "35740"
  },
  {
    "city": "estillfork",
    "zip_code": "35745"
  },
  {
    "city": "princeton",
    "zip_code": "35766"
  },
  {
    "city": "scottsboro",
    "zip_code": "35769"
  },
  {
    "city": "fort payne",
    "zip_code": "35967"
  },
  {
    "city": "louisville",
    "zip_code": "36048"
  },
  {
    "city": "shorter",
    "zip_code": "36075"
  },
  {
    "city": "chancellor",
    "zip_code": "36316"
  },
  {
    "city": "clopton",
    "zip_code": "36317"
  },
  {
    "city": "theodore",
    "zip_code": "36582"
  },
  {
    "city": "alberta",
    "zip_code": "36720"
  },
  {
    "city": "hatchechubbee",
    "zip_code": "36858"
  },
  {
    "city": "beechgrove",
    "zip_code": "37018"
  },
  {
    "city": "clarksville",
    "zip_code": "37042"
  },
  {
    "city": "hartsville",
    "zip_code": "37074"
  },
  {
    "city": "pleasant shade",
    "zip_code": "37145"
  },
  {
    "city": "slayden",
    "zip_code": "37165"
  },
  {
    "city": "nashville",
    "zip_code": "37220"
  },
  {
    "city": "nashville",
    "zip_code": "37221"
  },
  {
    "city": "benton",
    "zip_code": "37307"
  },
  {
    "city": "manchester",
    "zip_code": "37355"
  },
  {
    "city": "mulberry",
    "zip_code": "37359"
  },
  {
    "city": "blountville",
    "zip_code": "37617"
  },
  {
    "city": "trade",
    "zip_code": "37691"
  },
  {
    "city": "pruden",
    "zip_code": "37851"
  },
  {
    "city": "russellville",
    "zip_code": "37860"
  },
  {
    "city": "pigeon forge",
    "zip_code": "37863"
  },
  {
    "city": "seymour",
    "zip_code": "37865"
  },
  {
    "city": "sunbright",
    "zip_code": "37872"
  },
  {
    "city": "knoxville",
    "zip_code": "37915"
  },
  {
    "city": "bolivar",
    "zip_code": "38008"
  },
  {
    "city": "brighton",
    "zip_code": "38011"
  },
  {
    "city": "halls",
    "zip_code": "38040"
  },
  {
    "city": "memphis",
    "zip_code": "38127"
  },
  {
    "city": "oakfield",
    "zip_code": "38362"
  },
  {
    "city": "olivehill",
    "zip_code": "38475"
  },
  {
    "city": "wilder",
    "zip_code": "38589"
  },
  {
    "city": "university",
    "zip_code": "38677"
  },
  {
    "city": "glen allan",
    "zip_code": "38744"
  },
  {
    "city": "scott",
    "zip_code": "38772"
  },
  {
    "city": "gattman",
    "zip_code": "38844"
  },
  {
    "city": "grenada",
    "zip_code": "38901"
  },
  {
    "city": "big creek",
    "zip_code": "38914"
  },
  {
    "city": "tippo",
    "zip_code": "38962"
  },
  {
    "city": "benton",
    "zip_code": "39039"
  },
  {
    "city": "braxton",
    "zip_code": "39044"
  },
  {
    "city": "cary",
    "zip_code": "39054"
  },
  {
    "city": "byram",
    "zip_code": "39272"
  },
  {
    "city": "lauderdale",
    "zip_code": "39335"
  },
  {
    "city": "macon",
    "zip_code": "39341"
  },
  {
    "city": "shuqualak",
    "zip_code": "39361"
  },
  {
    "city": "liberty",
    "zip_code": "39645"
  },
  {
    "city": "roxie",
    "zip_code": "39661"
  },
  {
    "city": "kilmichael",
    "zip_code": "39747"
  },
  {
    "city": "campbellsburg",
    "zip_code": "40011"
  },
  {
    "city": "pleasureville",
    "zip_code": "40057"
  },
  {
    "city": "brandenburg",
    "zip_code": "40108"
  },
  {
    "city": "louisville",
    "zip_code": "40242"
  },
  {
    "city": "berea",
    "zip_code": "40403"
  },
  {
    "city": "keavy",
    "zip_code": "40737"
  },
  {
    "city": "dayhoit",
    "zip_code": "40824"
  },
  {
    "city": "grays knob",
    "zip_code": "40829"
  },
  {
    "city": "barbourville",
    "zip_code": "40906"
  },
  {
    "city": "stoney fork",
    "zip_code": "40988"
  },
  {
    "city": "flemingsburg",
    "zip_code": "41041"
  },
  {
    "city": "union",
    "zip_code": "41091"
  },
  {
    "city": "williamstown",
    "zip_code": "41097"
  },
  {
    "city": "argillite",
    "zip_code": "41121"
  },
  {
    "city": "denton",
    "zip_code": "41132"
  },
  {
    "city": "flatwoods",
    "zip_code": "41139"
  },
  {
    "city": "mcandrews",
    "zip_code": "41543"
  },
  {
    "city": "david",
    "zip_code": "41616"
  },
  {
    "city": "sizerock",
    "zip_code": "41762"
  },
  {
    "city": "wooton",
    "zip_code": "41776"
  },
  {
    "city": "hampton",
    "zip_code": "42047"
  },
  {
    "city": "beaumont",
    "zip_code": "42124"
  },
  {
    "city": "la fayette",
    "zip_code": "42254"
  },
  {
    "city": "rochester",
    "zip_code": "42273"
  },
  {
    "city": "island",
    "zip_code": "42350"
  },
  {
    "city": "spottsville",
    "zip_code": "42458"
  },
  {
    "city": "eastview",
    "zip_code": "42732"
  },
  {
    "city": "greensburg",
    "zip_code": "42743"
  },
  {
    "city": "irwin",
    "zip_code": "43029"
  },
  {
    "city": "tarlton",
    "zip_code": "43156"
  },
  {
    "city": "columbus",
    "zip_code": "43212"
  },
  {
    "city": "belle center",
    "zip_code": "43310"
  },
  {
    "city": "clay center",
    "zip_code": "43408"
  },
  {
    "city": "elmore",
    "zip_code": "43416"
  },
  {
    "city": "helena",
    "zip_code": "43435"
  },
  {
    "city": "stony ridge",
    "zip_code": "43463"
  },
  {
    "city": "sylvania",
    "zip_code": "43560"
  },
  {
    "city": "pleasant city",
    "zip_code": "43772"
  },
  {
    "city": "warnock",
    "zip_code": "43967"
  },
  {
    "city": "andover",
    "zip_code": "44003"
  },
  {
    "city": "middlefield",
    "zip_code": "44062"
  },
  {
    "city": "cleveland",
    "zip_code": "44105"
  },
  {
    "city": "euclid",
    "zip_code": "44117"
  },
  {
    "city": "independence",
    "zip_code": "44131"
  },
  {
    "city": "olmsted falls",
    "zip_code": "44138"
  },
  {
    "city": "streetsboro",
    "zip_code": "44241"
  },
  {
    "city": "leavittsburg",
    "zip_code": "44430"
  },
  {
    "city": "beloit",
    "zip_code": "44609"
  },
  {
    "city": "dennison",
    "zip_code": "44621"
  },
  {
    "city": "nashville",
    "zip_code": "44661"
  },
  {
    "city": "north lawrence",
    "zip_code": "44666"
  },
  {
    "city": "sandyville",
    "zip_code": "44671"
  },
  {
    "city": "somerdale",
    "zip_code": "44678"
  },
  {
    "city": "galion",
    "zip_code": "44833"
  },
  {
    "city": "trenton",
    "zip_code": "45067"
  },
  {
    "city": "bethel",
    "zip_code": "45106"
  },
  {
    "city": "chilo",
    "zip_code": "45112"
  },
  {
    "city": "fayetteville",
    "zip_code": "45118"
  },
  {
    "city": "felicity",
    "zip_code": "45120"
  },
  {
    "city": "highland",
    "zip_code": "45132"
  },
  {
    "city": "loveland",
    "zip_code": "45140"
  },
  {
    "city": "palestine",
    "zip_code": "45352"
  },
  {
    "city": "pemberton",
    "zip_code": "45353"
  },
  {
    "city": "wilberforce",
    "zip_code": "45384"
  },
  {
    "city": "the plains",
    "zip_code": "45780"
  },
  {
    "city": "trimble",
    "zip_code": "45782"
  },
  {
    "city": "dunkirk",
    "zip_code": "45836"
  },
  {
    "city": "harrod",
    "zip_code": "45850"
  },
  {
    "city": "north baltimore",
    "zip_code": "45872"
  },
  {
    "city": "danville",
    "zip_code": "46122"
  },
  {
    "city": "franklin",
    "zip_code": "46131"
  },
  {
    "city": "mooresville",
    "zip_code": "46158"
  },
  {
    "city": "morristown",
    "zip_code": "46161"
  },
  {
    "city": "indianapolis",
    "zip_code": "46231"
  },
  {
    "city": "nappanee",
    "zip_code": "46550"
  },
  {
    "city": "upland",
    "zip_code": "46989"
  },
  {
    "city": "sunman",
    "zip_code": "47041"
  },
  {
    "city": "versailles",
    "zip_code": "47042"
  },
  {
    "city": "hanover",
    "zip_code": "47243"
  },
  {
    "city": "bryant",
    "zip_code": "47326"
  },
  {
    "city": "lynn",
    "zip_code": "47355"
  },
  {
    "city": "bedford",
    "zip_code": "47421"
  },
  {
    "city": "coal city",
    "zip_code": "47427"
  },
  {
    "city": "jasonville",
    "zip_code": "47438"
  },
  {
    "city": "smithville",
    "zip_code": "47458"
  },
  {
    "city": "huntingburg",
    "zip_code": "47542"
  },
  {
    "city": "montgomery",
    "zip_code": "47558"
  },
  {
    "city": "velpen",
    "zip_code": "47590"
  },
  {
    "city": "hazleton",
    "zip_code": "47640"
  },
  {
    "city": "mount clemens",
    "zip_code": "48043"
  },
  {
    "city": "maybee",
    "zip_code": "48159"
  },
  {
    "city": "whitmore lake",
    "zip_code": "48189"
  },
  {
    "city": "detroit",
    "zip_code": "48205"
  },
  {
    "city": "detroit",
    "zip_code": "48235"
  },
  {
    "city": "clarkston",
    "zip_code": "48346"
  },
  {
    "city": "otisville",
    "zip_code": "48463"
  },
  {
    "city": "farwell",
    "zip_code": "48622"
  },
  {
    "city": "tawas city",
    "zip_code": "48763"
  },
  {
    "city": "corunna",
    "zip_code": "48817"
  },
  {
    "city": "edmore",
    "zip_code": "48829"
  },
  {
    "city": "fenwick",
    "zip_code": "48834"
  },
  {
    "city": "okemos",
    "zip_code": "48864"
  },
  {
    "city": "portland",
    "zip_code": "48875"
  },
  {
    "city": "athens",
    "zip_code": "49011"
  },
  {
    "city": "ceresco",
    "zip_code": "49033"
  },
  {
    "city": "olivet",
    "zip_code": "49076"
  },
  {
    "city": "quincy",
    "zip_code": "49082"
  },
  {
    "city": "edwardsburg",
    "zip_code": "49112"
  },
  {
    "city": "three oaks",
    "zip_code": "49128"
  },
  {
    "city": "free soil",
    "zip_code": "49411"
  },
  {
    "city": "grand haven",
    "zip_code": "49417"
  },
  {
    "city": "arcadia",
    "zip_code": "49613"
  },
  {
    "city": "fife lake",
    "zip_code": "49633"
  },
  {
    "city": "omena",
    "zip_code": "49674"
  },
  {
    "city": "boyne city",
    "zip_code": "49712"
  },
  {
    "city": "millersburg",
    "zip_code": "49759"
  },
  {
    "city": "chatham",
    "zip_code": "49816"
  },
  {
    "city": "little lake",
    "zip_code": "49833"
  },
  {
    "city": "perronville",
    "zip_code": "49873"
  },
  {
    "city": "marenisco",
    "zip_code": "49947"
  },
  {
    "city": "corydon",
    "zip_code": "50060"
  },
  {
    "city": "de soto",
    "zip_code": "50069"
  },
  {
    "city": "grimes",
    "zip_code": "50111"
  },
  {
    "city": "jefferson",
    "zip_code": "50129"
  },
  {
    "city": "linden",
    "zip_code": "50146"
  },
  {
    "city": "millerton",
    "zip_code": "50165"
  },
  {
    "city": "woodward",
    "zip_code": "50276"
  },
  {
    "city": "grafton",
    "zip_code": "50440"
  },
  {
    "city": "joice",
    "zip_code": "50446"
  },
  {
    "city": "thompson",
    "zip_code": "50478"
  },
  {
    "city": "armstrong",
    "zip_code": "50514"
  },
  {
    "city": "curlew",
    "zip_code": "50527"
  },
  {
    "city": "lincoln",
    "zip_code": "50652"
  },
  {
    "city": "orient",
    "zip_code": "50858"
  },
  {
    "city": "pierson",
    "zip_code": "51048"
  },
  {
    "city": "ute",
    "zip_code": "51060"
  },
  {
    "city": "lake view",
    "zip_code": "51450"
  },
  {
    "city": "crescent",
    "zip_code": "51526"
  },
  {
    "city": "tabor",
    "zip_code": "51653"
  },
  {
    "city": "brandon",
    "zip_code": "52210"
  },
  {
    "city": "delhi",
    "zip_code": "52223"
  },
  {
    "city": "hartwick",
    "zip_code": "52232"
  },
  {
    "city": "marengo",
    "zip_code": "52301"
  },
  {
    "city": "stanwood",
    "zip_code": "52337"
  },
  {
    "city": "van horne",
    "zip_code": "52346"
  },
  {
    "city": "cedar rapids",
    "zip_code": "52411"
  },
  {
    "city": "floris",
    "zip_code": "52560"
  },
  {
    "city": "hedrick",
    "zip_code": "52563"
  },
  {
    "city": "seymour",
    "zip_code": "52590"
  },
  {
    "city": "argyle",
    "zip_code": "52619"
  },
  {
    "city": "winfield",
    "zip_code": "52659"
  },
  {
    "city": "donahue",
    "zip_code": "52746"
  },
  {
    "city": "muscatine",
    "zip_code": "52761"
  },
  {
    "city": "west liberty",
    "zip_code": "52776"
  },
  {
    "city": "elkhart lake",
    "zip_code": "53020"
  },
  {
    "city": "new holstein",
    "zip_code": "53061"
  },
  {
    "city": "milwaukee",
    "zip_code": "53224"
  },
  {
    "city": "racine",
    "zip_code": "53406"
  },
  {
    "city": "brodhead",
    "zip_code": "53520"
  },
  {
    "city": "deerfield",
    "zip_code": "53531"
  },
  {
    "city": "edgerton",
    "zip_code": "53534"
  },
  {
    "city": "juda",
    "zip_code": "53550"
  },
  {
    "city": "spring green",
    "zip_code": "53588"
  },
  {
    "city": "madison",
    "zip_code": "53706"
  },
  {
    "city": "arlington",
    "zip_code": "53911"
  },
  {
    "city": "markesan",
    "zip_code": "53946"
  },
  {
    "city": "houlton",
    "zip_code": "54082"
  },
  {
    "city": "de pere",
    "zip_code": "54115"
  },
  {
    "city": "lena",
    "zip_code": "54139"
  },
  {
    "city": "brussels",
    "zip_code": "54204"
  },
  {
    "city": "reedsville",
    "zip_code": "54230"
  },
  {
    "city": "mosinee",
    "zip_code": "54455"
  },
  {
    "city": "neillsville",
    "zip_code": "54456"
  },
  {
    "city": "nelsonville",
    "zip_code": "54458"
  },
  {
    "city": "park falls",
    "zip_code": "54552"
  },
  {
    "city": "tripoli",
    "zip_code": "54564"
  },
  {
    "city": "rockland",
    "zip_code": "54653"
  },
  {
    "city": "cornell",
    "zip_code": "54732"
  },
  {
    "city": "thorp",
    "zip_code": "54771"
  },
  {
    "city": "grand view",
    "zip_code": "54839"
  },
  {
    "city": "taylors falls",
    "zip_code": "55084"
  },
  {
    "city": "clear lake",
    "zip_code": "55319"
  },
  {
    "city": "eden valley",
    "zip_code": "55329"
  },
  {
    "city": "excelsior",
    "zip_code": "55331"
  },
  {
    "city": "gaylord",
    "zip_code": "55334"
  },
  {
    "city": "long lake",
    "zip_code": "55356"
  },
  {
    "city": "shakopee",
    "zip_code": "55379"
  },
  {
    "city": "minneapolis",
    "zip_code": "55418"
  },
  {
    "city": "minneapolis",
    "zip_code": "55433"
  },
  {
    "city": "minneapolis",
    "zip_code": "55441"
  },
  {
    "city": "minneapolis",
    "zip_code": "55442"
  },
  {
    "city": "bruno",
    "zip_code": "55712"
  },
  {
    "city": "kettle river",
    "zip_code": "55757"
  },
  {
    "city": "sturgeon lake",
    "zip_code": "55783"
  },
  {
    "city": "duluth",
    "zip_code": "55812"
  },
  {
    "city": "blooming prairie",
    "zip_code": "55917"
  },
  {
    "city": "brownsville",
    "zip_code": "55919"
  },
  {
    "city": "lansing",
    "zip_code": "55950"
  },
  {
    "city": "utica",
    "zip_code": "55979"
  },
  {
    "city": "emmons",
    "zip_code": "56029"
  },
  {
    "city": "lafayette",
    "zip_code": "56054"
  },
  {
    "city": "beaver creek",
    "zip_code": "56116"
  },
  {
    "city": "fulda",
    "zip_code": "56131"
  },
  {
    "city": "rushmore",
    "zip_code": "56168"
  },
  {
    "city": "marietta",
    "zip_code": "56257"
  },
  {
    "city": "olivia",
    "zip_code": "56277"
  },
  {
    "city": "saint cloud",
    "zip_code": "56303"
  },
  {
    "city": "ogilvie",
    "zip_code": "56358"
  },
  {
    "city": "osakis",
    "zip_code": "56360"
  },
  {
    "city": "garrison",
    "zip_code": "56450"
  },
  {
    "city": "hackensack",
    "zip_code": "56452"
  },
  {
    "city": "motley",
    "zip_code": "56466"
  },
  {
    "city": "erhard",
    "zip_code": "56534"
  },
  {
    "city": "erskine",
    "zip_code": "56535"
  },
  {
    "city": "glyndon",
    "zip_code": "56547"
  },
  {
    "city": "perley",
    "zip_code": "56574"
  },
  {
    "city": "loman",
    "zip_code": "56654"
  },
  {
    "city": "lancaster",
    "zip_code": "56735"
  },
  {
    "city": "brandon",
    "zip_code": "57005"
  },
  {
    "city": "lyons",
    "zip_code": "57041"
  },
  {
    "city": "garden city",
    "zip_code": "57236"
  },
  {
    "city": "peever",
    "zip_code": "57257"
  },
  {
    "city": "dante",
    "zip_code": "57329"
  },
  {
    "city": "delmont",
    "zip_code": "57330"
  },
  {
    "city": "andover",
    "zip_code": "57422"
  },
  {
    "city": "mellette",
    "zip_code": "57461"
  },
  {
    "city": "keldron",
    "zip_code": "57634"
  },
  {
    "city": "buffalo",
    "zip_code": "57720"
  },
  {
    "city": "fairburn",
    "zip_code": "57738"
  },
  {
    "city": "oelrichs",
    "zip_code": "57763"
  },
  {
    "city": "luverne",
    "zip_code": "58056"
  },
  {
    "city": "caledonia",
    "zip_code": "58219"
  },
  {
    "city": "michigan",
    "zip_code": "58259"
  },
  {
    "city": "portland",
    "zip_code": "58274"
  },
  {
    "city": "cleveland",
    "zip_code": "58424"
  },
  {
    "city": "verona",
    "zip_code": "58490"
  },
  {
    "city": "cannon ball",
    "zip_code": "58528"
  },
  {
    "city": "hebron",
    "zip_code": "58638"
  },
  {
    "city": "taylor",
    "zip_code": "58656"
  },
  {
    "city": "minot afb",
    "zip_code": "58704"
  },
  {
    "city": "bowbells",
    "zip_code": "58721"
  },
  {
    "city": "velva",
    "zip_code": "58790"
  },
  {
    "city": "clyde park",
    "zip_code": "59018"
  },
  {
    "city": "rapelje",
    "zip_code": "59067"
  },
  {
    "city": "saint xavier",
    "zip_code": "59075"
  },
  {
    "city": "sand springs",
    "zip_code": "59077"
  },
  {
    "city": "medicine lake",
    "zip_code": "59247"
  },
  {
    "city": "plentywood",
    "zip_code": "59254"
  },
  {
    "city": "bynum",
    "zip_code": "59419"
  },
  {
    "city": "forest grove",
    "zip_code": "59441"
  },
  {
    "city": "lothair",
    "zip_code": "59461"
  },
  {
    "city": "zurich",
    "zip_code": "59547"
  },
  {
    "city": "boulder",
    "zip_code": "59632"
  },
  {
    "city": "white sulphur springs",
    "zip_code": "59645"
  },
  {
    "city": "bozeman",
    "zip_code": "59715"
  },
  {
    "city": "big sky",
    "zip_code": "59716"
  },
  {
    "city": "cameron",
    "zip_code": "59720"
  },
  {
    "city": "norris",
    "zip_code": "59745"
  },
  {
    "city": "silver star",
    "zip_code": "59751"
  },
  {
    "city": "lake villa",
    "zip_code": "60046"
  },
  {
    "city": "melrose park",
    "zip_code": "60160"
  },
  {
    "city": "union",
    "zip_code": "60180"
  },
  {
    "city": "braceville",
    "zip_code": "60407"
  },
  {
    "city": "chicago",
    "zip_code": "60623"
  },
  {
    "city": "chicago",
    "zip_code": "60631"
  },
  {
    "city": "chicago",
    "zip_code": "60651"
  },
  {
    "city": "harwood heights",
    "zip_code": "60706"
  },
  {
    "city": "alsip",
    "zip_code": "60803"
  },
  {
    "city": "caledonia",
    "zip_code": "61011"
  },
  {
    "city": "chadwick",
    "zip_code": "61014"
  },
  {
    "city": "durand",
    "zip_code": "61024"
  },
  {
    "city": "lanark",
    "zip_code": "61046"
  },
  {
    "city": "monroe center",
    "zip_code": "61052"
  },
  {
    "city": "pearl city",
    "zip_code": "61062"
  },
  {
    "city": "rockton",
    "zip_code": "61072"
  },
  {
    "city": "winslow",
    "zip_code": "61089"
  },
  {
    "city": "rockford",
    "zip_code": "61108"
  },
  {
    "city": "matherville",
    "zip_code": "61263"
  },
  {
    "city": "tampico",
    "zip_code": "61283"
  },
  {
    "city": "benson",
    "zip_code": "61516"
  },
  {
    "city": "washington",
    "zip_code": "61571"
  },
  {
    "city": "thomasboro",
    "zip_code": "61878"
  },
  {
    "city": "tolono",
    "zip_code": "61880"
  },
  {
    "city": "westville",
    "zip_code": "61883"
  },
  {
    "city": "white heath",
    "zip_code": "61884"
  },
  {
    "city": "hillview",
    "zip_code": "62050"
  },
  {
    "city": "jerseyville",
    "zip_code": "62052"
  },
  {
    "city": "moro",
    "zip_code": "62067"
  },
  {
    "city": "wrights",
    "zip_code": "62098"
  },
  {
    "city": "red bud",
    "zip_code": "62278"
  },
  {
    "city": "basco",
    "zip_code": "62313"
  },
  {
    "city": "fowler",
    "zip_code": "62338"
  },
  {
    "city": "griggsville",
    "zip_code": "62340"
  },
  {
    "city": "new salem",
    "zip_code": "62357"
  },
  {
    "city": "timewell",
    "zip_code": "62375"
  },
  {
    "city": "marshall",
    "zip_code": "62441"
  },
  {
    "city": "mechanicsburg",
    "zip_code": "62545"
  },
  {
    "city": "mount auburn",
    "zip_code": "62547"
  },
  {
    "city": "niantic",
    "zip_code": "62551"
  },
  {
    "city": "concord",
    "zip_code": "62631"
  },
  {
    "city": "easton",
    "zip_code": "62633"
  },
  {
    "city": "middletown",
    "zip_code": "62666"
  },
  {
    "city": "nilwood",
    "zip_code": "62672"
  },
  {
    "city": "du quoin",
    "zip_code": "62832"
  },
  {
    "city": "sandoval",
    "zip_code": "62882"
  },
  {
    "city": "waltonville",
    "zip_code": "62894"
  },
  {
    "city": "barnhart",
    "zip_code": "63012"
  },
  {
    "city": "french village",
    "zip_code": "63036"
  },
  {
    "city": "saint louis",
    "zip_code": "63139"
  },
  {
    "city": "anabel",
    "zip_code": "63431"
  },
  {
    "city": "monticello",
    "zip_code": "63457"
  },
  {
    "city": "revere",
    "zip_code": "63465"
  },
  {
    "city": "hurdland",
    "zip_code": "63547"
  },
  {
    "city": "patton",
    "zip_code": "63662"
  },
  {
    "city": "sainte genevieve",
    "zip_code": "63670"
  },
  {
    "city": "glenallen",
    "zip_code": "63751"
  },
  {
    "city": "oak ridge",
    "zip_code": "63769"
  },
  {
    "city": "gobler",
    "zip_code": "63849"
  },
  {
    "city": "hayti",
    "zip_code": "63851"
  },
  {
    "city": "new madrid",
    "zip_code": "63869"
  },
  {
    "city": "wappapello",
    "zip_code": "63966"
  },
  {
    "city": "corder",
    "zip_code": "64021"
  },
  {
    "city": "independence",
    "zip_code": "64058"
  },
  {
    "city": "kansas city",
    "zip_code": "64131"
  },
  {
    "city": "dearborn",
    "zip_code": "64439"
  },
  {
    "city": "gower",
    "zip_code": "64454"
  },
  {
    "city": "kidder",
    "zip_code": "64649"
  },
  {
    "city": "mercer",
    "zip_code": "64661"
  },
  {
    "city": "carl junction",
    "zip_code": "64834"
  },
  {
    "city": "holts summit",
    "zip_code": "65043"
  },
  {
    "city": "santa fe",
    "zip_code": "65282"
  },
  {
    "city": "ionia",
    "zip_code": "65335"
  },
  {
    "city": "nelson",
    "zip_code": "65347"
  },
  {
    "city": "cook sta",
    "zip_code": "65449"
  },
  {
    "city": "elk creek",
    "zip_code": "65464"
  },
  {
    "city": "raymondville",
    "zip_code": "65555"
  },
  {
    "city": "caulfield",
    "zip_code": "65626"
  },
  {
    "city": "greenfield",
    "zip_code": "65661"
  },
  {
    "city": "willard",
    "zip_code": "65781"
  },
  {
    "city": "peace valley",
    "zip_code": "65788"
  },
  {
    "city": "lane",
    "zip_code": "66042"
  },
  {
    "city": "muscotah",
    "zip_code": "66058"
  },
  {
    "city": "kansas city",
    "zip_code": "66104"
  },
  {
    "city": "kansas city",
    "zip_code": "66106"
  },
  {
    "city": "overland park",
    "zip_code": "66207"
  },
  {
    "city": "horton",
    "zip_code": "66439"
  },
  {
    "city": "melvern",
    "zip_code": "66510"
  },
  {
    "city": "overbrook",
    "zip_code": "66524"
  },
  {
    "city": "topeka",
    "zip_code": "66608"
  },
  {
    "city": "topeka",
    "zip_code": "66609"
  },
  {
    "city": "mulberry",
    "zip_code": "66756"
  },
  {
    "city": "neodesha",
    "zip_code": "66757"
  },
  {
    "city": "uniontown",
    "zip_code": "66779"
  },
  {
    "city": "concordia",
    "zip_code": "66901"
  },
  {
    "city": "scandia",
    "zip_code": "66966"
  },
  {
    "city": "smith center",
    "zip_code": "66967"
  },
  {
    "city": "kingman",
    "zip_code": "67068"
  },
  {
    "city": "mulvane",
    "zip_code": "67110"
  },
  {
    "city": "coffeyville",
    "zip_code": "67337"
  },
  {
    "city": "moline",
    "zip_code": "67353"
  },
  {
    "city": "sycamore",
    "zip_code": "67363"
  },
  {
    "city": "green",
    "zip_code": "67447"
  },
  {
    "city": "kinsley",
    "zip_code": "67547"
  },
  {
    "city": "clayton",
    "zip_code": "67629"
  },
  {
    "city": "hill city",
    "zip_code": "67642"
  },
  {
    "city": "morland",
    "zip_code": "67650"
  },
  {
    "city": "ludell",
    "zip_code": "67744"
  },
  {
    "city": "hanston",
    "zip_code": "67849"
  },
  {
    "city": "ashland",
    "zip_code": "68003"
  },
  {
    "city": "linwood",
    "zip_code": "68036"
  },
  {
    "city": "pender",
    "zip_code": "68047"
  },
  {
    "city": "papillion",
    "zip_code": "68133"
  },
  {
    "city": "beatrice",
    "zip_code": "68310"
  },
  {
    "city": "carleton",
    "zip_code": "68326"
  },
  {
    "city": "friend",
    "zip_code": "68359"
  },
  {
    "city": "lincoln",
    "zip_code": "68517"
  },
  {
    "city": "lincoln",
    "zip_code": "68520"
  },
  {
    "city": "lincoln",
    "zip_code": "68524"
  },
  {
    "city": "platte center",
    "zip_code": "68653"
  },
  {
    "city": "clearwater",
    "zip_code": "68726"
  },
  {
    "city": "stanton",
    "zip_code": "68779"
  },
  {
    "city": "grand island",
    "zip_code": "68801"
  },
  {
    "city": "broken bow",
    "zip_code": "68822"
  },
  {
    "city": "greeley",
    "zip_code": "68842"
  },
  {
    "city": "odessa",
    "zip_code": "68861"
  },
  {
    "city": "funk",
    "zip_code": "68940"
  },
  {
    "city": "holbrook",
    "zip_code": "68948"
  },
  {
    "city": "holstein",
    "zip_code": "68950"
  },
  {
    "city": "inland",
    "zip_code": "68954"
  },
  {
    "city": "lemoyne",
    "zip_code": "69146"
  },
  {
    "city": "sutherland",
    "zip_code": "69165"
  },
  {
    "city": "wallace",
    "zip_code": "69169"
  },
  {
    "city": "merriman",
    "zip_code": "69218"
  },
  {
    "city": "luling",
    "zip_code": "70070"
  },
  {
    "city": "saint rose",
    "zip_code": "70087"
  },
  {
    "city": "new orleans",
    "zip_code": "70113"
  },
  {
    "city": "new orleans",
    "zip_code": "70124"
  },
  {
    "city": "greensburg",
    "zip_code": "70441"
  },
  {
    "city": "lafayette",
    "zip_code": "70507"
  },
  {
    "city": "pine prairie",
    "zip_code": "70576"
  },
  {
    "city": "lacassine",
    "zip_code": "70650"
  },
  {
    "city": "ventress",
    "zip_code": "70783"
  },
  {
    "city": "shreveport",
    "zip_code": "71103"
  },
  {
    "city": "barksdale afb",
    "zip_code": "71110"
  },
  {
    "city": "monroe",
    "zip_code": "71201"
  },
  {
    "city": "monroe",
    "zip_code": "71202"
  },
  {
    "city": "simsboro",
    "zip_code": "71275"
  },
  {
    "city": "harrisonburg",
    "zip_code": "71340"
  },
  {
    "city": "marthaville",
    "zip_code": "71450"
  },
  {
    "city": "noble",
    "zip_code": "71462"
  },
  {
    "city": "rison",
    "zip_code": "71665"
  },
  {
    "city": "el dorado",
    "zip_code": "71730"
  },
  {
    "city": "mount holly",
    "zip_code": "71758"
  },
  {
    "city": "amity",
    "zip_code": "71921"
  },
  {
    "city": "jessieville",
    "zip_code": "71949"
  },
  {
    "city": "pencil bluff",
    "zip_code": "71965"
  },
  {
    "city": "austin",
    "zip_code": "72007"
  },
  {
    "city": "beebe",
    "zip_code": "72012"
  },
  {
    "city": "bradford",
    "zip_code": "72020"
  },
  {
    "city": "maumelle",
    "zip_code": "72113"
  },
  {
    "city": "little rock",
    "zip_code": "72212"
  },
  {
    "city": "little rock",
    "zip_code": "72223"
  },
  {
    "city": "haynes",
    "zip_code": "72341"
  },
  {
    "city": "black oak",
    "zip_code": "72414"
  },
  {
    "city": "mcdougal",
    "zip_code": "72441"
  },
  {
    "city": "tuckerman",
    "zip_code": "72473"
  },
  {
    "city": "magness",
    "zip_code": "72553"
  },
  {
    "city": "saffell",
    "zip_code": "72572"
  },
  {
    "city": "western grove",
    "zip_code": "72685"
  },
  {
    "city": "bella vista",
    "zip_code": "72715"
  },
  {
    "city": "siloam springs",
    "zip_code": "72761"
  },
  {
    "city": "oark",
    "zip_code": "72852"
  },
  {
    "city": "ozone",
    "zip_code": "72854"
  },
  {
    "city": "edmond",
    "zip_code": "73012"
  },
  {
    "city": "gracemont",
    "zip_code": "73042"
  },
  {
    "city": "yukon",
    "zip_code": "73099"
  },
  {
    "city": "oklahoma city",
    "zip_code": "73135"
  },
  {
    "city": "burneyville",
    "zip_code": "73430"
  },
  {
    "city": "ryan",
    "zip_code": "73565"
  },
  {
    "city": "snyder",
    "zip_code": "73566"
  },
  {
    "city": "enid",
    "zip_code": "73703"
  },
  {
    "city": "enid",
    "zip_code": "73705"
  },
  {
    "city": "pond creek",
    "zip_code": "73766"
  },
  {
    "city": "hardesty",
    "zip_code": "73944"
  },
  {
    "city": "inola",
    "zip_code": "74036"
  },
  {
    "city": "quinton",
    "zip_code": "74561"
  },
  {
    "city": "garland",
    "zip_code": "75042"
  },
  {
    "city": "garland",
    "zip_code": "75043"
  },
  {
    "city": "duncanville",
    "zip_code": "75116"
  },
  {
    "city": "paris",
    "zip_code": "75460"
  },
  {
    "city": "talco",
    "zip_code": "75487"
  },
  {
    "city": "telephone",
    "zip_code": "75488"
  },
  {
    "city": "winnsboro",
    "zip_code": "75494"
  },
  {
    "city": "wolfe city",
    "zip_code": "75496"
  },
  {
    "city": "de kalb",
    "zip_code": "75559"
  },
  {
    "city": "new boston",
    "zip_code": "75570"
  },
  {
    "city": "marshall",
    "zip_code": "75670"
  },
  {
    "city": "brownsboro",
    "zip_code": "75756"
  },
  {
    "city": "flint",
    "zip_code": "75762"
  },
  {
    "city": "whitehouse",
    "zip_code": "75791"
  },
  {
    "city": "garrison",
    "zip_code": "75946"
  },
  {
    "city": "kirbyville",
    "zip_code": "75956"
  },
  {
    "city": "southlake",
    "zip_code": "76092"
  },
  {
    "city": "fort worth",
    "zip_code": "76105"
  },
  {
    "city": "sunset",
    "zip_code": "76270"
  },
  {
    "city": "valley view",
    "zip_code": "76272"
  },
  {
    "city": "dublin",
    "zip_code": "76446"
  },
  {
    "city": "strawn",
    "zip_code": "76475"
  },
  {
    "city": "temple",
    "zip_code": "76508"
  },
  {
    "city": "blum",
    "zip_code": "76627"
  },
  {
    "city": "riesel",
    "zip_code": "76682"
  },
  {
    "city": "thornton",
    "zip_code": "76687"
  },
  {
    "city": "millersview",
    "zip_code": "76862"
  },
  {
    "city": "roosevelt",
    "zip_code": "76874"
  },
  {
    "city": "silver",
    "zip_code": "76949"
  },
  {
    "city": "houston",
    "zip_code": "77002"
  },
  {
    "city": "houston",
    "zip_code": "77010"
  },
  {
    "city": "houston",
    "zip_code": "77061"
  },
  {
    "city": "houston",
    "zip_code": "77071"
  },
  {
    "city": "houston",
    "zip_code": "77073"
  },
  {
    "city": "cleveland",
    "zip_code": "77328"
  },
  {
    "city": "humble",
    "zip_code": "77338"
  },
  {
    "city": "garwood",
    "zip_code": "77442"
  },
  {
    "city": "pierce",
    "zip_code": "77467"
  },
  {
    "city": "wadsworth",
    "zip_code": "77483"
  },
  {
    "city": "alvin",
    "zip_code": "77511"
  },
  {
    "city": "baytown",
    "zip_code": "77520"
  },
  {
    "city": "danbury",
    "zip_code": "77534"
  },
  {
    "city": "manvel",
    "zip_code": "77578"
  },
  {
    "city": "orange",
    "zip_code": "77632"
  },
  {
    "city": "bryan",
    "zip_code": "77802"
  },
  {
    "city": "franklin",
    "zip_code": "77856"
  },
  {
    "city": "center point",
    "zip_code": "78010"
  },
  {
    "city": "sutherland springs",
    "zip_code": "78161"
  },
  {
    "city": "san antonio",
    "zip_code": "78216"
  },
  {
    "city": "aransas pass",
    "zip_code": "78336"
  },
  {
    "city": "delmita",
    "zip_code": "78536"
  },
  {
    "city": "weslaco",
    "zip_code": "78596"
  },
  {
    "city": "del valle",
    "zip_code": "78617"
  },
  {
    "city": "fentress",
    "zip_code": "78622"
  },
  {
    "city": "georgetown",
    "zip_code": "78626"
  },
  {
    "city": "hye",
    "zip_code": "78635"
  },
  {
    "city": "horseshoe bay",
    "zip_code": "78657"
  },
  {
    "city": "austin",
    "zip_code": "78723"
  },
  {
    "city": "austin",
    "zip_code": "78729"
  },
  {
    "city": "austin",
    "zip_code": "78730"
  },
  {
    "city": "austin",
    "zip_code": "78734"
  },
  {
    "city": "fayetteville",
    "zip_code": "78940"
  },
  {
    "city": "glidden",
    "zip_code": "78943"
  },
  {
    "city": "oakland",
    "zip_code": "78951"
  },
  {
    "city": "white deer",
    "zip_code": "79097"
  },
  {
    "city": "amarillo",
    "zip_code": "79101"
  },
  {
    "city": "amarillo",
    "zip_code": "79106"
  },
  {
    "city": "amarillo",
    "zip_code": "79111"
  },
  {
    "city": "matador",
    "zip_code": "79244"
  },
  {
    "city": "petersburg",
    "zip_code": "79250"
  },
  {
    "city": "anton",
    "zip_code": "79313"
  },
  {
    "city": "lamesa",
    "zip_code": "79331"
  },
  {
    "city": "littlefield",
    "zip_code": "79339"
  },
  {
    "city": "fluvanna",
    "zip_code": "79517"
  },
  {
    "city": "stamford",
    "zip_code": "79553"
  },
  {
    "city": "abilene",
    "zip_code": "79602"
  },
  {
    "city": "abilene",
    "zip_code": "79605"
  },
  {
    "city": "rankin",
    "zip_code": "79778"
  },
  {
    "city": "sheffield",
    "zip_code": "79781"
  },
  {
    "city": "van horn",
    "zip_code": "79855"
  },
  {
    "city": "el paso",
    "zip_code": "79901"
  },
  {
    "city": "louviers",
    "zip_code": "80131"
  },
  {
    "city": "palmer lake",
    "zip_code": "80133"
  },
  {
    "city": "gilcrest",
    "zip_code": "80623"
  },
  {
    "city": "paoli",
    "zip_code": "80746"
  },
  {
    "city": "stoneham",
    "zip_code": "80754"
  },
  {
    "city": "florissant",
    "zip_code": "80816"
  },
  {
    "city": "guffey",
    "zip_code": "80820"
  },
  {
    "city": "colorado springs",
    "zip_code": "80913"
  },
  {
    "city": "capulin",
    "zip_code": "81124"
  },
  {
    "city": "la jara",
    "zip_code": "81140"
  },
  {
    "city": "penrose",
    "zip_code": "81240"
  },
  {
    "city": "mesa verde national park",
    "zip_code": "81330"
  },
  {
    "city": "red cliff",
    "zip_code": "81649"
  },
  {
    "city": "silt",
    "zip_code": "81652"
  },
  {
    "city": "carpenter",
    "zip_code": "82054"
  },
  {
    "city": "hillsdale",
    "zip_code": "82060"
  },
  {
    "city": "laramie",
    "zip_code": "82072"
  },
  {
    "city": "hartville",
    "zip_code": "82215"
  },
  {
    "city": "lance creek",
    "zip_code": "82222"
  },
  {
    "city": "hyattville",
    "zip_code": "82428"
  },
  {
    "city": "shell",
    "zip_code": "82441"
  },
  {
    "city": "casper",
    "zip_code": "82601"
  },
  {
    "city": "fairview",
    "zip_code": "83119"
  },
  {
    "city": "american falls",
    "zip_code": "83211"
  },
  {
    "city": "georgetown",
    "zip_code": "83239"
  },
  {
    "city": "lava hot springs",
    "zip_code": "83246"
  },
  {
    "city": "weston",
    "zip_code": "83286"
  },
  {
    "city": "twin falls",
    "zip_code": "83301"
  },
  {
    "city": "castleford",
    "zip_code": "83321"
  },
  {
    "city": "eden",
    "zip_code": "83325"
  },
  {
    "city": "sun valley",
    "zip_code": "83354"
  },
  {
    "city": "idaho falls",
    "zip_code": "83406"
  },
  {
    "city": "glenns ferry",
    "zip_code": "83623"
  },
  {
    "city": "boise",
    "zip_code": "83706"
  },
  {
    "city": "clarkia",
    "zip_code": "83812"
  },
  {
    "city": "pinehurst",
    "zip_code": "83850"
  },
  {
    "city": "layton",
    "zip_code": "84040"
  },
  {
    "city": "orem",
    "zip_code": "84058"
  },
  {
    "city": "salt lake city",
    "zip_code": "84103"
  },
  {
    "city": "salt lake city",
    "zip_code": "84111"
  },
  {
    "city": "salt lake city",
    "zip_code": "84116"
  },
  {
    "city": "corinne",
    "zip_code": "84307"
  },
  {
    "city": "eden",
    "zip_code": "84310"
  },
  {
    "city": "ogden",
    "zip_code": "84403"
  },
  {
    "city": "circleville",
    "zip_code": "84723"
  },
  {
    "city": "glenwood",
    "zip_code": "84730"
  },
  {
    "city": "hanksville",
    "zip_code": "84734"
  },
  {
    "city": "parowan",
    "zip_code": "84761"
  },
  {
    "city": "duck creek village",
    "zip_code": "84762"
  },
  {
    "city": "phoenix",
    "zip_code": "85029"
  },
  {
    "city": "san tan valley",
    "zip_code": "85143"
  },
  {
    "city": "scottsdale",
    "zip_code": "85260"
  },
  {
    "city": "naco",
    "zip_code": "85620"
  },
  {
    "city": "pearce",
    "zip_code": "85625"
  },
  {
    "city": "tumacacori",
    "zip_code": "85640"
  },
  {
    "city": "sierra vista",
    "zip_code": "85650"
  },
  {
    "city": "tucson",
    "zip_code": "85707"
  },
  {
    "city": "tucson",
    "zip_code": "85746"
  },
  {
    "city": "tucson",
    "zip_code": "85749"
  },
  {
    "city": "winslow",
    "zip_code": "86047"
  },
  {
    "city": "lake havasu city",
    "zip_code": "86406"
  },
  {
    "city": "kingman",
    "zip_code": "86409"
  },
  {
    "city": "grants",
    "zip_code": "87020"
  },
  {
    "city": "jemez springs",
    "zip_code": "87025"
  },
  {
    "city": "pena blanca",
    "zip_code": "87041"
  },
  {
    "city": "regina",
    "zip_code": "87046"
  },
  {
    "city": "ohkay owingeh",
    "zip_code": "87566"
  },
  {
    "city": "mosquero",
    "zip_code": "87733"
  },
  {
    "city": "garfield",
    "zip_code": "87936"
  },
  {
    "city": "las cruces",
    "zip_code": "88012"
  },
  {
    "city": "gila",
    "zip_code": "88038"
  },
  {
    "city": "mesilla park",
    "zip_code": "88047"
  },
  {
    "city": "portales",
    "zip_code": "88130"
  },
  {
    "city": "rogers",
    "zip_code": "88132"
  },
  {
    "city": "high rolls mountain park",
    "zip_code": "88325"
  },
  {
    "city": "holloman air force base",
    "zip_code": "88330"
  },
  {
    "city": "san patricio",
    "zip_code": "88348"
  },
  {
    "city": "dyer",
    "zip_code": "89010"
  },
  {
    "city": "north las vegas",
    "zip_code": "89081"
  },
  {
    "city": "las vegas",
    "zip_code": "89115"
  },
  {
    "city": "fallon",
    "zip_code": "89406"
  },
  {
    "city": "golconda",
    "zip_code": "89414"
  },
  {
    "city": "sparks",
    "zip_code": "89436"
  },
  {
    "city": "incline village",
    "zip_code": "89451"
  },
  {
    "city": "reno",
    "zip_code": "89503"
  },
  {
    "city": "reno",
    "zip_code": "89508"
  },
  {
    "city": "crescent valley",
    "zip_code": "89821"
  },
  {
    "city": "ruby valley",
    "zip_code": "89833"
  },
  {
    "city": "los angeles",
    "zip_code": "90015"
  },
  {
    "city": "los angeles",
    "zip_code": "90036"
  },
  {
    "city": "los angeles",
    "zip_code": "90044"
  },
  {
    "city": "dodgertown",
    "zip_code": "90090"
  },
  {
    "city": "inglewood",
    "zip_code": "90301"
  },
  {
    "city": "pico rivera",
    "zip_code": "90660"
  },
  {
    "city": "long beach",
    "zip_code": "90803"
  },
  {
    "city": "sun valley",
    "zip_code": "91352"
  },
  {
    "city": "el monte",
    "zip_code": "91732"
  },
  {
    "city": "rowland heights",
    "zip_code": "91748"
  },
  {
    "city": "monterey park",
    "zip_code": "91754"
  },
  {
    "city": "monterey park",
    "zip_code": "91755"
  },
  {
    "city": "mt baldy",
    "zip_code": "91759"
  },
  {
    "city": "del mar",
    "zip_code": "92014"
  },
  {
    "city": "escondido",
    "zip_code": "92026"
  },
  {
    "city": "san diego",
    "zip_code": "92108"
  },
  {
    "city": "san diego",
    "zip_code": "92111"
  },
  {
    "city": "san diego",
    "zip_code": "92126"
  },
  {
    "city": "san diego",
    "zip_code": "92155"
  },
  {
    "city": "landers",
    "zip_code": "92285"
  },
  {
    "city": "baker",
    "zip_code": "92309"
  },
  {
    "city": "twin peaks",
    "zip_code": "92391"
  },
  {
    "city": "yermo",
    "zip_code": "92398"
  },
  {
    "city": "yucaipa",
    "zip_code": "92399"
  },
  {
    "city": "san bernardino",
    "zip_code": "92405"
  },
  {
    "city": "irvine",
    "zip_code": "92614"
  },
  {
    "city": "norco",
    "zip_code": "92860"
  },
  {
    "city": "lemoore",
    "zip_code": "93245"
  },
  {
    "city": "lost hills",
    "zip_code": "93249"
  },
  {
    "city": "pixley",
    "zip_code": "93256"
  },
  {
    "city": "woody",
    "zip_code": "93287"
  },
  {
    "city": "bakersfield",
    "zip_code": "93311"
  },
  {
    "city": "edwards",
    "zip_code": "93524"
  },
  {
    "city": "badger",
    "zip_code": "93603"
  },
  {
    "city": "dunlap",
    "zip_code": "93621"
  },
  {
    "city": "kerman",
    "zip_code": "93630"
  },
  {
    "city": "lockwood",
    "zip_code": "93932"
  },
  {
    "city": "san francisco",
    "zip_code": "94158"
  },
  {
    "city": "san mateo",
    "zip_code": "94401"
  },
  {
    "city": "san mateo",
    "zip_code": "94402"
  },
  {
    "city": "concord",
    "zip_code": "94518"
  },
  {
    "city": "fremont",
    "zip_code": "94555"
  },
  {
    "city": "san leandro",
    "zip_code": "94577"
  },
  {
    "city": "oakland",
    "zip_code": "94605"
  },
  {
    "city": "dillon beach",
    "zip_code": "94929"
  },
  {
    "city": "san jose",
    "zip_code": "95125"
  },
  {
    "city": "san jose",
    "zip_code": "95136"
  },
  {
    "city": "stockton",
    "zip_code": "95209"
  },
  {
    "city": "stockton",
    "zip_code": "95215"
  },
  {
    "city": "glencoe",
    "zip_code": "95232"
  },
  {
    "city": "ballico",
    "zip_code": "95303"
  },
  {
    "city": "manchester",
    "zip_code": "95459"
  },
  {
    "city": "villa grande",
    "zip_code": "95486"
  },
  {
    "city": "hoopa",
    "zip_code": "95546"
  },
  {
    "city": "auburn",
    "zip_code": "95602"
  },
  {
    "city": "ione",
    "zip_code": "95640"
  },
  {
    "city": "north highlands",
    "zip_code": "95660"
  },
  {
    "city": "wilton",
    "zip_code": "95693"
  },
  {
    "city": "echo lake",
    "zip_code": "95721"
  },
  {
    "city": "sacramento",
    "zip_code": "95815"
  },
  {
    "city": "colusa",
    "zip_code": "95932"
  },
  {
    "city": "dorris",
    "zip_code": "96023"
  },
  {
    "city": "oak run",
    "zip_code": "96069"
  },
  {
    "city": "blairsden graeagle",
    "zip_code": "96103"
  },
  {
    "city": "likely",
    "zip_code": "96116"
  },
  {
    "city": "calpine",
    "zip_code": "96124"
  },
  {
    "city": "sierra city",
    "zip_code": "96125"
  },
  {
    "city": "wendel",
    "zip_code": "96136"
  },
  {
    "city": "haleiwa",
    "zip_code": "96712"
  },
  {
    "city": "hanapepe",
    "zip_code": "96716"
  },
  {
    "city": "holualoa",
    "zip_code": "96725"
  },
  {
    "city": "kaneohe",
    "zip_code": "96744"
  },
  {
    "city": "kapaau",
    "zip_code": "96755"
  },
  {
    "city": "kula",
    "zip_code": "96790"
  },
  {
    "city": "brightwood",
    "zip_code": "97011"
  },
  {
    "city": "fairview",
    "zip_code": "97024"
  },
  {
    "city": "warrenton",
    "zip_code": "97146"
  },
  {
    "city": "portland",
    "zip_code": "97214"
  },
  {
    "city": "portland",
    "zip_code": "97239"
  },
  {
    "city": "logsden",
    "zip_code": "97357"
  },
  {
    "city": "mill city",
    "zip_code": "97360"
  },
  {
    "city": "sweet home",
    "zip_code": "97386"
  },
  {
    "city": "tangent",
    "zip_code": "97389"
  },
  {
    "city": "florence",
    "zip_code": "97439"
  },
  {
    "city": "powers",
    "zip_code": "97466"
  },
  {
    "city": "butte falls",
    "zip_code": "97522"
  },
  {
    "city": "prospect",
    "zip_code": "97536"
  },
  {
    "city": "redmond",
    "zip_code": "97756"
  },
  {
    "city": "dayville",
    "zip_code": "97825"
  },
  {
    "city": "haines",
    "zip_code": "97833"
  },
  {
    "city": "imnaha",
    "zip_code": "97842"
  },
  {
    "city": "wallowa",
    "zip_code": "97885"
  },
  {
    "city": "seattle",
    "zip_code": "98134"
  },
  {
    "city": "clearlake",
    "zip_code": "98235"
  },
  {
    "city": "eastsound",
    "zip_code": "98245"
  },
  {
    "city": "snohomish",
    "zip_code": "98290"
  },
  {
    "city": "ashford",
    "zip_code": "98304"
  },
  {
    "city": "elbe",
    "zip_code": "98330"
  },
  {
    "city": "puyallup",
    "zip_code": "98374"
  },
  {
    "city": "tacoma",
    "zip_code": "98421"
  },
  {
    "city": "tacoma",
    "zip_code": "98447"
  },
  {
    "city": "olympia",
    "zip_code": "98506"
  },
  {
    "city": "grapeview",
    "zip_code": "98546"
  },
  {
    "city": "moclips",
    "zip_code": "98562"
  },
  {
    "city": "vader",
    "zip_code": "98593"
  },
  {
    "city": "dallesport",
    "zip_code": "98617"
  },
  {
    "city": "marlin",
    "zip_code": "98832"
  },
  {
    "city": "wilson creek",
    "zip_code": "98860"
  },
  {
    "city": "chewelah",
    "zip_code": "99109"
  },
  {
    "city": "evans",
    "zip_code": "99126"
  },
  {
    "city": "paterson",
    "zip_code": "99345"
  },
  {
    "city": "anchorage",
    "zip_code": "99501"
  },
  {
    "city": "anchorage",
    "zip_code": "99507"
  },
  {
    "city": "anchorage",
    "zip_code": "99510"
  },
  {
    "city": "aleknagik",
    "zip_code": "99555"
  },
  {
    "city": "chefornak",
    "zip_code": "99561"
  },
  {
    "city": "saint george island",
    "zip_code": "99591"
  },
  {
    "city": "manokotak",
    "zip_code": "99628"
  },
  {
    "city": "shageluk",
    "zip_code": "99665"
  },
  {
    "city": "unalakleet",
    "zip_code": "99684"
  },
  {
    "city": "valdez",
    "zip_code": "99686"
  },
  {
    "city": "fairbanks",
    "zip_code": "99701"
  },
  {
    "city": "hughes",
    "zip_code": "99745"
  },
  {
    "city": "kaltag",
    "zip_code": "99748"
  },
  {
    "city": "point lay",
    "zip_code": "99759"
  },
  {
    "city": "craig",
    "zip_code": "99921"
  },
  {
    "city": "metlakatla",
    "zip_code": "99926"
  },
  {
    "city": "moca",
    "zip_code": "676"
  },
  {
    "city": "san sebastian",
    "zip_code": "685"
  },
  {
    "city": "st thomas",
    "zip_code": "801"
  },
  {
    "city": "bayamon",
    "zip_code": "959"
  },
  {
    "city": "catano",
    "zip_code": "962"
  },
  {
    "city": "ware",
    "zip_code": "1082"
  },
  {
    "city": "west springfield",
    "zip_code": "1089"
  },
  {
    "city": "wheelwright",
    "zip_code": "1094"
  },
  {
    "city": "springfield",
    "zip_code": "1103"
  },
  {
    "city": "lee",
    "zip_code": "1238"
  },
  {
    "city": "buckland",
    "zip_code": "1338"
  },
  {
    "city": "millers falls",
    "zip_code": "1349"
  },
  {
    "city": "montague",
    "zip_code": "1351"
  },
  {
    "city": "townsend",
    "zip_code": "1469"
  },
  {
    "city": "berlin",
    "zip_code": "1503"
  },
  {
    "city": "oxford",
    "zip_code": "1540"
  },
  {
    "city": "westborough",
    "zip_code": "1581"
  },
  {
    "city": "sherborn",
    "zip_code": "1770"
  },
  {
    "city": "wayland",
    "zip_code": "1778"
  },
  {
    "city": "groveland",
    "zip_code": "1834"
  },
  {
    "city": "newbury",
    "zip_code": "1951"
  },
  {
    "city": "boston",
    "zip_code": "2113"
  },
  {
    "city": "charlestown",
    "zip_code": "2129"
  },
  {
    "city": "brighton",
    "zip_code": "2135"
  },
  {
    "city": "weymouth",
    "zip_code": "2188"
  },
  {
    "city": "boston",
    "zip_code": "2215"
  },
  {
    "city": "plympton",
    "zip_code": "2367"
  },
  {
    "city": "onset",
    "zip_code": "2558"
  },
  {
    "city": "west tisbury",
    "zip_code": "2575"
  },
  {
    "city": "hyannis",
    "zip_code": "2601"
  },
  {
    "city": "assonet",
    "zip_code": "2702"
  },
  {
    "city": "pawtucket",
    "zip_code": "2861"
  },
  {
    "city": "saunderstown",
    "zip_code": "2874"
  },
  {
    "city": "narragansett",
    "zip_code": "2882"
  },
  {
    "city": "warwick",
    "zip_code": "2888"
  },
  {
    "city": "woonsocket",
    "zip_code": "2895"
  },
  {
    "city": "francestown",
    "zip_code": "3043"
  },
  {
    "city": "greenville",
    "zip_code": "3048"
  },
  {
    "city": "salem",
    "zip_code": "3079"
  },
  {
    "city": "hooksett",
    "zip_code": "3106"
  },
  {
    "city": "grafton",
    "zip_code": "3240"
  },
  {
    "city": "warner",
    "zip_code": "3278"
  },
  {
    "city": "gorham",
    "zip_code": "3581"
  },
  {
    "city": "twin mountain",
    "zip_code": "3595"
  }
]